<?xml version="1.0" encoding="utf-8"?><kml xmlns="http://www.opengis.net/kml/2.2" xmlns:xsi="http://www.w3.org/2001/XMLSchema-instance" xmlns:kmlx="http://www.google.com/kml/ext/2.2" xmlns:atom="http://www.w3.org/2005/Atom" xmlns:gpxx="http://www.garmin.com/xmlschemas/GpxExtensions/v3"><Document><Style id="point"><IconStyle><scale>0.9</scale><Icon><href>http://maps.google.com/mapfiles/kml/shapes/placemark_circle.png</href></Icon></IconStyle></Style><Folder><name>Tracks</name><Folder><name>[101] Munniks Poort</name><Folder><name>Points</name><Style><ListStyle><listItemType>checkHideChildren</listItemType></ListStyle></Style><Placemark><TimeSpan><begin>2020-02-24T05:20:22Z</begin><end>2020-02-24T05:20:22Z</end></TimeSpan><Style><IconStyle><scale>0.9</scale><Icon><href>http://connect.garmin.com/image/main/icons/kml/grn-play.png</href></Icon></IconStyle></Style><Point><altitudeMode>clampToGround</altitudeMode><coordinates>24.537274036556482,-32.285844963043928,730.25999999999999</coordinates></Point></Placemark><Placemark><TimeSpan><begin>2020-02-24T05:20:22Z</begin><end>2020-02-24T05:20:32Z</end></TimeSpan><styleUrl>#point</styleUrl><Point><altitudeMode>clampToGround</altitudeMode><coordinates>24.535335972905159,-32.288336986675858,739.87</coordinates></Point></Placemark><Placemark><TimeSpan><begin>2020-02-24T05:20:32Z</begin><end>2020-02-24T05:20:40Z</end></TimeSpan><styleUrl>#point</styleUrl><Point><altitudeMode>clampToGround</altitudeMode><coordinates>24.5343909971416,-32.290567997843027,753.80999999999995</coordinates></Point></Placemark><Placemark><TimeSpan><begin>2020-02-24T05:20:40Z</begin><end>2020-02-24T05:20:47Z</end></TimeSpan><styleUrl>#point</styleUrl><Point><altitudeMode>clampToGround</altitudeMode><coordinates>24.533104039728642,-32.292350996285677,765.83000000000004</coordinates></Point></Placemark><Placemark><TimeSpan><begin>2020-02-24T05:20:47Z</begin><end>2020-02-24T05:20:54Z</end></TimeSpan><styleUrl>#point</styleUrl><Point><altitudeMode>clampToGround</altitudeMode><coordinates>24.531336966902018,-32.293811039999127,778.32000000000005</coordinates></Point></Placemark><Placemark><TimeSpan><begin>2020-02-24T05:20:54Z</begin><end>2020-02-24T05:21:09Z</end></TimeSpan><styleUrl>#point</styleUrl><Point><altitudeMode>clampToGround</altitudeMode><coordinates>24.527019029483199,-32.296663988381624,786.98000000000002</coordinates></Point></Placemark><Placemark><TimeSpan><begin>2020-02-24T05:21:09Z</begin><end>2020-02-24T05:21:15Z</end></TimeSpan><styleUrl>#point</styleUrl><Point><altitudeMode>clampToGround</altitudeMode><coordinates>24.525108961388469,-32.297547021880746,792.74000000000001</coordinates></Point></Placemark><Placemark><TimeSpan><begin>2020-02-24T05:21:15Z</begin><end>2020-02-24T05:21:21Z</end></TimeSpan><styleUrl>#point</styleUrl><Point><altitudeMode>clampToGround</altitudeMode><coordinates>24.522943999618292,-32.297953963279724,791.77999999999997</coordinates></Point></Placemark><Placemark><TimeSpan><begin>2020-02-24T05:21:21Z</begin><end>2020-02-24T05:21:40Z</end></TimeSpan><styleUrl>#point</styleUrl><Point><altitudeMode>clampToGround</altitudeMode><coordinates>24.516001017764211,-32.298531979322433,788.89999999999998</coordinates></Point></Placemark><Placemark><TimeSpan><begin>2020-02-24T05:21:40Z</begin><end>2020-02-24T05:21:53Z</end></TimeSpan><styleUrl>#point</styleUrl><Point><altitudeMode>clampToGround</altitudeMode><coordinates>24.511254010722041,-32.299198005348444,768.71000000000004</coordinates></Point></Placemark><Placemark><TimeSpan><begin>2020-02-24T05:21:53Z</begin><end>2020-02-24T05:22:02Z</end></TimeSpan><styleUrl>#point</styleUrl><Point><altitudeMode>clampToGround</altitudeMode><coordinates>24.508106019347906,-32.300166031345725,763.41999999999996</coordinates></Point></Placemark><Placemark><TimeSpan><begin>2020-02-24T05:22:02Z</begin><end>2020-02-24T05:22:14Z</end></TimeSpan><styleUrl>#point</styleUrl><Point><altitudeMode>clampToGround</altitudeMode><coordinates>24.504135008901358,-32.301880968734622,761.5</coordinates></Point></Placemark><Placemark><TimeSpan><begin>2020-02-24T05:22:14Z</begin><end>2020-02-24T05:22:40Z</end></TimeSpan><styleUrl>#point</styleUrl><Point><altitudeMode>clampToGround</altitudeMode><coordinates>24.49561002664268,-32.305746031925082,748.03999999999996</coordinates></Point></Placemark><Placemark><TimeSpan><begin>2020-02-24T05:22:40Z</begin><end>2020-02-24T05:23:08Z</end></TimeSpan><styleUrl>#point</styleUrl><Point><altitudeMode>clampToGround</altitudeMode><coordinates>24.486511973664165,-32.310038991272449,727.37</coordinates></Point></Placemark><Placemark><TimeSpan><begin>2020-02-24T05:23:08Z</begin><end>2020-02-24T05:23:32Z</end></TimeSpan><styleUrl>#point</styleUrl><Point><altitudeMode>clampToGround</altitudeMode><coordinates>24.478698028251529,-32.313701966777444,711.02999999999997</coordinates></Point></Placemark></Folder><Placemark><name>[101] Munniks Poort</name><Style><LineStyle><color>ffff4040</color><width>4</width></LineStyle></Style><MultiGeometry><LineString><coordinates>24.537274036556482,-32.285844963043928,730.25999999999999 24.535335972905159,-32.288336986675858,739.87 24.5343909971416,-32.290567997843027,753.80999999999995 24.533104039728642,-32.292350996285677,765.83000000000004 24.531336966902018,-32.293811039999127,778.32000000000005 24.527019029483199,-32.296663988381624,786.98000000000002 24.525108961388469,-32.297547021880746,792.74000000000001 24.522943999618292,-32.297953963279724,791.77999999999997 24.516001017764211,-32.298531979322433,788.89999999999998 24.511254010722041,-32.299198005348444,768.71000000000004 24.508106019347906,-32.300166031345725,763.41999999999996 24.504135008901358,-32.301880968734622,761.5 24.49561002664268,-32.305746031925082,748.03999999999996 24.486511973664165,-32.310038991272449,727.37 24.478698028251529,-32.313701966777444,711.02999999999997 </coordinates></LineString></MultiGeometry></Placemark></Folder></Folder></Document></kml>