<?xml version="1.0" encoding="utf-8"?><kml xmlns="http://www.opengis.net/kml/2.2" xmlns:xsi="http://www.w3.org/2001/XMLSchema-instance" xmlns:kmlx="http://www.google.com/kml/ext/2.2" xmlns:atom="http://www.w3.org/2005/Atom" xmlns:gpxx="http://www.garmin.com/xmlschemas/GpxExtensions/v3"><Document><Style id="point"><IconStyle><scale>0.9</scale><Icon><href>http://maps.google.com/mapfiles/kml/shapes/placemark_circle.png</href></Icon></IconStyle></Style><Folder><name>Tracks</name><Folder><name>[102] Windheuwel Poort</name><Folder><name>Points</name><Style><ListStyle><listItemType>checkHideChildren</listItemType></ListStyle></Style><Placemark><TimeSpan><begin>2020-02-24T06:27:35Z</begin><end>2020-02-24T06:27:35Z</end></TimeSpan><Style><IconStyle><scale>0.9</scale><Icon><href>http://connect.garmin.com/image/main/icons/kml/grn-play.png</href></Icon></IconStyle></Style><Point><altitudeMode>clampToGround</altitudeMode><coordinates>23.507241988554597,-33.060491988435388,715.36000000000001</coordinates></Point></Placemark><Placemark><TimeSpan><begin>2020-02-24T06:27:35Z</begin><end>2020-02-24T06:27:50Z</end></TimeSpan><styleUrl>#point</styleUrl><Point><altitudeMode>clampToGround</altitudeMode><coordinates>23.503008037805557,-33.063005972653627,711.99000000000001</coordinates></Point></Placemark><Placemark><TimeSpan><begin>2020-02-24T06:27:50Z</begin><end>2020-02-24T06:28:10Z</end></TimeSpan><styleUrl>#point</styleUrl><Point><altitudeMode>clampToGround</altitudeMode><coordinates>23.497190997004509,-33.066463004797697,716.32000000000005</coordinates></Point></Placemark><Placemark><TimeSpan><begin>2020-02-24T06:28:10Z</begin><end>2020-02-24T06:28:24Z</end></TimeSpan><styleUrl>#point</styleUrl><Point><altitudeMode>clampToGround</altitudeMode><coordinates>23.493365999311209,-33.068869030103087,719.67999999999995</coordinates></Point></Placemark><Placemark><TimeSpan><begin>2020-02-24T06:28:24Z</begin><end>2020-02-24T06:28:30Z</end></TimeSpan><styleUrl>#point</styleUrl><Point><altitudeMode>clampToGround</altitudeMode><coordinates>23.492470979690552,-33.070131009444594,717.27999999999997</coordinates></Point></Placemark><Placemark><TimeSpan><begin>2020-02-24T06:28:30Z</begin><end>2020-02-24T06:28:33Z</end></TimeSpan><styleUrl>#point</styleUrl><Point><altitudeMode>clampToGround</altitudeMode><coordinates>23.492228994145989,-33.070798041298985,716.32000000000005</coordinates></Point></Placemark><Placemark><TimeSpan><begin>2020-02-24T06:28:33Z</begin><end>2020-02-24T06:28:34Z</end></TimeSpan><styleUrl>#point</styleUrl><Point><altitudeMode>clampToGround</altitudeMode><coordinates>23.492198986932635,-33.071018988266587,715.84000000000003</coordinates></Point></Placemark><Placemark><TimeSpan><begin>2020-02-24T06:28:34Z</begin><end>2020-02-24T06:28:35Z</end></TimeSpan><styleUrl>#point</styleUrl><Point><altitudeMode>clampToGround</altitudeMode><coordinates>23.492211978882551,-33.071241024881601,713.44000000000005</coordinates></Point></Placemark><Placemark><TimeSpan><begin>2020-02-24T06:28:35Z</begin><end>2020-02-24T06:28:36Z</end></TimeSpan><styleUrl>#point</styleUrl><Point><altitudeMode>clampToGround</altitudeMode><coordinates>23.492236034944654,-33.071456020697951,712.47000000000003</coordinates></Point></Placemark><Placemark><TimeSpan><begin>2020-02-24T06:28:36Z</begin><end>2020-02-24T06:28:37Z</end></TimeSpan><styleUrl>#point</styleUrl><Point><altitudeMode>clampToGround</altitudeMode><coordinates>23.492290014401078,-33.071670010685921,710.54999999999995</coordinates></Point></Placemark><Placemark><TimeSpan><begin>2020-02-24T06:28:37Z</begin><end>2020-02-24T06:28:38Z</end></TimeSpan><styleUrl>#point</styleUrl><Point><altitudeMode>clampToGround</altitudeMode><coordinates>23.492347011342645,-33.071876037865877,710.07000000000005</coordinates></Point></Placemark><Placemark><TimeSpan><begin>2020-02-24T06:28:38Z</begin><end>2020-02-24T06:28:39Z</end></TimeSpan><styleUrl>#point</styleUrl><Point><altitudeMode>clampToGround</altitudeMode><coordinates>23.492435021325946,-33.072087010368705,707.66999999999996</coordinates></Point></Placemark><Placemark><TimeSpan><begin>2020-02-24T06:28:39Z</begin><end>2020-02-24T06:28:40Z</end></TimeSpan><styleUrl>#point</styleUrl><Point><altitudeMode>clampToGround</altitudeMode><coordinates>23.492515990510583,-33.07229395955801,706.71000000000004</coordinates></Point></Placemark><Placemark><TimeSpan><begin>2020-02-24T06:28:40Z</begin><end>2020-02-24T06:28:46Z</end></TimeSpan><styleUrl>#point</styleUrl><Point><altitudeMode>clampToGround</altitudeMode><coordinates>23.492826959118247,-33.073496008291841,703.82000000000005</coordinates></Point></Placemark><Placemark><TimeSpan><begin>2020-02-24T06:28:46Z</begin><end>2020-02-24T06:28:47Z</end></TimeSpan><styleUrl>#point</styleUrl><Point><altitudeMode>clampToGround</altitudeMode><coordinates>23.492806004360318,-33.073694994673133,703.34000000000003</coordinates></Point></Placemark><Placemark><TimeSpan><begin>2020-02-24T06:28:47Z</begin><end>2020-02-24T06:28:48Z</end></TimeSpan><styleUrl>#point</styleUrl><Point><altitudeMode>clampToGround</altitudeMode><coordinates>23.492768034338951,-33.073890963569283,703.34000000000003</coordinates></Point></Placemark><Placemark><TimeSpan><begin>2020-02-24T06:28:48Z</begin><end>2020-02-24T06:28:53Z</end></TimeSpan><styleUrl>#point</styleUrl><Point><altitudeMode>clampToGround</altitudeMode><coordinates>23.492687987163663,-33.074862007051706,705.25999999999999</coordinates></Point></Placemark><Placemark><TimeSpan><begin>2020-02-24T06:28:53Z</begin><end>2020-02-24T06:28:54Z</end></TimeSpan><styleUrl>#point</styleUrl><Point><altitudeMode>clampToGround</altitudeMode><coordinates>23.492741966620088,-33.075058981776237,704.77999999999997</coordinates></Point></Placemark><Placemark><TimeSpan><begin>2020-02-24T06:28:54Z</begin><end>2020-02-24T06:29:04Z</end></TimeSpan><styleUrl>#point</styleUrl><Point><altitudeMode>clampToGround</altitudeMode><coordinates>23.493478987365961,-33.077058987691998,698.04999999999995</coordinates></Point></Placemark><Placemark><TimeSpan><begin>2020-02-24T06:29:04Z</begin><end>2020-02-24T06:29:08Z</end></TimeSpan><styleUrl>#point</styleUrl><Point><altitudeMode>clampToGround</altitudeMode><coordinates>23.493576971814036,-33.077838001772761,695.16999999999996</coordinates></Point></Placemark><Placemark><TimeSpan><begin>2020-02-24T06:29:08Z</begin><end>2020-02-24T06:29:09Z</end></TimeSpan><styleUrl>#point</styleUrl><Point><altitudeMode>clampToGround</altitudeMode><coordinates>23.493550987914205,-33.078041011467576,694.69000000000005</coordinates></Point></Placemark><Placemark><TimeSpan><begin>2020-02-24T06:29:09Z</begin><end>2020-02-24T06:29:10Z</end></TimeSpan><styleUrl>#point</styleUrl><Point><altitudeMode>clampToGround</altitudeMode><coordinates>23.493512012064457,-33.078244021162391,693.73000000000002</coordinates></Point></Placemark><Placemark><TimeSpan><begin>2020-02-24T06:29:10Z</begin><end>2020-02-24T06:29:11Z</end></TimeSpan><styleUrl>#point</styleUrl><Point><altitudeMode>clampToGround</altitudeMode><coordinates>23.493451997637749,-33.078440995886922,693.25</coordinates></Point></Placemark><Placemark><TimeSpan><begin>2020-02-24T06:29:11Z</begin><end>2020-02-24T06:29:12Z</end></TimeSpan><styleUrl>#point</styleUrl><Point><altitudeMode>clampToGround</altitudeMode><coordinates>23.493376979604363,-33.078640988096595,692.28999999999996</coordinates></Point></Placemark><Placemark><TimeSpan><begin>2020-02-24T06:29:12Z</begin><end>2020-02-24T06:29:13Z</end></TimeSpan><styleUrl>#point</styleUrl><Point><altitudeMode>clampToGround</altitudeMode><coordinates>23.493285030126572,-33.078835029155016,691.80999999999995</coordinates></Point></Placemark><Placemark><TimeSpan><begin>2020-02-24T06:29:13Z</begin><end>2020-02-24T06:29:14Z</end></TimeSpan><styleUrl>#point</styleUrl><Point><altitudeMode>clampToGround</altitudeMode><coordinates>23.493172964081168,-33.079026974737644,690.84000000000003</coordinates></Point></Placemark><Placemark><TimeSpan><begin>2020-02-24T06:29:14Z</begin><end>2020-02-24T06:29:15Z</end></TimeSpan><styleUrl>#point</styleUrl><Point><altitudeMode>clampToGround</altitudeMode><coordinates>23.493044972419739,-33.079210035502911,690.84000000000003</coordinates></Point></Placemark><Placemark><TimeSpan><begin>2020-02-24T06:29:15Z</begin><end>2020-02-24T06:29:16Z</end></TimeSpan><styleUrl>#point</styleUrl><Point><altitudeMode>clampToGround</altitudeMode><coordinates>23.492898959666491,-33.079386977478862,690.36000000000001</coordinates></Point></Placemark><Placemark><TimeSpan><begin>2020-02-24T06:29:16Z</begin><end>2020-02-24T06:29:17Z</end></TimeSpan><styleUrl>#point</styleUrl><Point><altitudeMode>clampToGround</altitudeMode><coordinates>23.492739032953978,-33.07955302298069,690.36000000000001</coordinates></Point></Placemark><Placemark><TimeSpan><begin>2020-02-24T06:29:17Z</begin><end>2020-02-24T06:29:18Z</end></TimeSpan><styleUrl>#point</styleUrl><Point><altitudeMode>clampToGround</altitudeMode><coordinates>23.492554966360331,-33.079710016027093,690.36000000000001</coordinates></Point></Placemark><Placemark><TimeSpan><begin>2020-02-24T06:29:18Z</begin><end>2020-02-24T06:29:19Z</end></TimeSpan><styleUrl>#point</styleUrl><Point><altitudeMode>clampToGround</altitudeMode><coordinates>23.492350028827786,-33.079856028780341,689.88</coordinates></Point></Placemark><Placemark><TimeSpan><begin>2020-02-24T06:29:19Z</begin><end>2020-02-24T06:29:20Z</end></TimeSpan><styleUrl>#point</styleUrl><Point><altitudeMode>clampToGround</altitudeMode><coordinates>23.492128998041153,-33.079985026270151,689.88</coordinates></Point></Placemark><Placemark><TimeSpan><begin>2020-02-24T06:29:20Z</begin><end>2020-02-24T06:29:21Z</end></TimeSpan><styleUrl>#point</styleUrl><Point><altitudeMode>clampToGround</altitudeMode><coordinates>23.491887012496591,-33.080107988789678,690.36000000000001</coordinates></Point></Placemark><Placemark><TimeSpan><begin>2020-02-24T06:29:21Z</begin><end>2020-02-24T06:29:22Z</end></TimeSpan><styleUrl>#point</styleUrl><Point><altitudeMode>clampToGround</altitudeMode><coordinates>23.491624994203448,-33.08022097684443,690.36000000000001</coordinates></Point></Placemark><Placemark><TimeSpan><begin>2020-02-24T06:29:22Z</begin><end>2020-02-24T06:29:23Z</end></TimeSpan><styleUrl>#point</styleUrl><Point><altitudeMode>clampToGround</altitudeMode><coordinates>23.491355013102293,-33.080318961292505,689.88</coordinates></Point></Placemark><Placemark><TimeSpan><begin>2020-02-24T06:29:23Z</begin><end>2020-02-24T06:29:24Z</end></TimeSpan><styleUrl>#point</styleUrl><Point><altitudeMode>clampToGround</altitudeMode><coordinates>23.49106902256608,-33.080405965447426,689.39999999999998</coordinates></Point></Placemark><Placemark><TimeSpan><begin>2020-02-24T06:29:24Z</begin><end>2020-02-24T06:29:30Z</end></TimeSpan><styleUrl>#point</styleUrl><Point><altitudeMode>clampToGround</altitudeMode><coordinates>23.489042026922107,-33.080974007025361,689.88</coordinates></Point></Placemark></Folder><Placemark><name>[102] Windheuwel Poort</name><Style><LineStyle><color>ffff4040</color><width>4</width></LineStyle></Style><MultiGeometry><LineString><coordinates>23.507241988554597,-33.060491988435388,715.36000000000001 23.503008037805557,-33.063005972653627,711.99000000000001 23.497190997004509,-33.066463004797697,716.32000000000005 23.493365999311209,-33.068869030103087,719.67999999999995 23.492470979690552,-33.070131009444594,717.27999999999997 23.492228994145989,-33.070798041298985,716.32000000000005 23.492198986932635,-33.071018988266587,715.84000000000003 23.492211978882551,-33.071241024881601,713.44000000000005 23.492236034944654,-33.071456020697951,712.47000000000003 23.492290014401078,-33.071670010685921,710.54999999999995 23.492347011342645,-33.071876037865877,710.07000000000005 23.492435021325946,-33.072087010368705,707.66999999999996 23.492515990510583,-33.07229395955801,706.71000000000004 23.492826959118247,-33.073496008291841,703.82000000000005 23.492806004360318,-33.073694994673133,703.34000000000003 23.492768034338951,-33.073890963569283,703.34000000000003 23.492687987163663,-33.074862007051706,705.25999999999999 23.492741966620088,-33.075058981776237,704.77999999999997 23.493478987365961,-33.077058987691998,698.04999999999995 23.493576971814036,-33.077838001772761,695.16999999999996 23.493550987914205,-33.078041011467576,694.69000000000005 23.493512012064457,-33.078244021162391,693.73000000000002 23.493451997637749,-33.078440995886922,693.25 23.493376979604363,-33.078640988096595,692.28999999999996 23.493285030126572,-33.078835029155016,691.80999999999995 23.493172964081168,-33.079026974737644,690.84000000000003 23.493044972419739,-33.079210035502911,690.84000000000003 23.492898959666491,-33.079386977478862,690.36000000000001 23.492739032953978,-33.07955302298069,690.36000000000001 23.492554966360331,-33.079710016027093,690.36000000000001 23.492350028827786,-33.079856028780341,689.88 23.492128998041153,-33.079985026270151,689.88 23.491887012496591,-33.080107988789678,690.36000000000001 23.491624994203448,-33.08022097684443,690.36000000000001 23.491355013102293,-33.080318961292505,689.88 23.49106902256608,-33.080405965447426,689.39999999999998 23.489042026922107,-33.080974007025361,689.88 </coordinates></LineString></MultiGeometry></Placemark></Folder></Folder></Document></kml>