<?xml version="1.0" encoding="utf-8"?><kml xmlns="http://www.opengis.net/kml/2.2" xmlns:xsi="http://www.w3.org/2001/XMLSchema-instance" xmlns:kmlx="http://www.google.com/kml/ext/2.2" xmlns:atom="http://www.w3.org/2005/Atom" xmlns:gpxx="http://www.garmin.com/xmlschemas/GpxExtensions/v3"><Document><Style id="point"><IconStyle><scale>0.9</scale><Icon><href>http://maps.google.com/mapfiles/kml/shapes/placemark_circle.png</href></Icon></IconStyle></Style><Folder><name>Tracks</name><Folder><name>[111] Maalgate River Pass</name><Folder><name>Points</name><Style><ListStyle><listItemType>checkHideChildren</listItemType></ListStyle></Style><Placemark><TimeSpan><begin>2020-02-24T09:46:37Z</begin><end>2020-02-24T09:46:37Z</end></TimeSpan><Style><IconStyle><scale>0.9</scale><Icon><href>http://connect.garmin.com/image/main/icons/kml/grn-play.png</href></Icon></IconStyle></Style><Point><altitudeMode>clampToGround</altitudeMode><coordinates>22.36618802882731,-34.019909016788006,180.87</coordinates></Point></Placemark><Placemark><TimeSpan><begin>2020-02-24T09:46:37Z</begin><end>2020-02-24T09:46:43Z</end></TimeSpan><styleUrl>#point</styleUrl><Point><altitudeMode>clampToGround</altitudeMode><coordinates>22.364223981276155,-34.020436992868781,177.5</coordinates></Point></Placemark><Placemark><TimeSpan><begin>2020-02-24T09:46:43Z</begin><end>2020-02-24T09:46:49Z</end></TimeSpan><styleUrl>#point</styleUrl><Point><altitudeMode>clampToGround</altitudeMode><coordinates>22.362148035317659,-34.020446967333555,174.13999999999999</coordinates></Point></Placemark><Placemark><TimeSpan><begin>2020-02-24T09:46:49Z</begin><end>2020-02-24T09:46:57Z</end></TimeSpan><styleUrl>#point</styleUrl><Point><altitudeMode>clampToGround</altitudeMode><coordinates>22.359268013387918,-34.020074978470802,168.84999999999999</coordinates></Point></Placemark><Placemark><TimeSpan><begin>2020-02-24T09:46:57Z</begin><end>2020-02-24T09:47:03Z</end></TimeSpan><styleUrl>#point</styleUrl><Point><altitudeMode>clampToGround</altitudeMode><coordinates>22.357085030525923,-34.02028301730752,165</coordinates></Point></Placemark><Placemark><TimeSpan><begin>2020-02-24T09:47:03Z</begin><end>2020-02-24T09:47:21Z</end></TimeSpan><styleUrl>#point</styleUrl><Point><altitudeMode>clampToGround</altitudeMode><coordinates>22.350639011710882,-34.021383980289102,137.13</coordinates></Point></Placemark><Placemark><TimeSpan><begin>2020-02-24T09:47:21Z</begin><end>2020-02-24T09:47:27Z</end></TimeSpan><styleUrl>#point</styleUrl><Point><altitudeMode>clampToGround</altitudeMode><coordinates>22.348300963640213,-34.022188978269696,127.03</coordinates></Point></Placemark><Placemark><TimeSpan><begin>2020-02-24T09:47:27Z</begin><end>2020-02-24T09:47:33Z</end></TimeSpan><styleUrl>#point</styleUrl><Point><altitudeMode>clampToGround</altitudeMode><coordinates>22.345999041572213,-34.02277403511107,120.78</coordinates></Point></Placemark><Placemark><TimeSpan><begin>2020-02-24T09:47:33Z</begin><end>2020-02-24T09:47:42Z</end></TimeSpan><styleUrl>#point</styleUrl><Point><altitudeMode>clampToGround</altitudeMode><coordinates>22.342429021373391,-34.023003028705716,125.11</coordinates></Point></Placemark><Placemark><TimeSpan><begin>2020-02-24T09:47:42Z</begin><end>2020-02-24T09:47:58Z</end></TimeSpan><styleUrl>#point</styleUrl><Point><altitudeMode>clampToGround</altitudeMode><coordinates>22.336115017533302,-34.023327995091677,152.99000000000001</coordinates></Point></Placemark><Placemark><TimeSpan><begin>2020-02-24T09:47:58Z</begin><end>2020-02-24T09:48:11Z</end></TimeSpan><styleUrl>#point</styleUrl><Point><altitudeMode>clampToGround</altitudeMode><coordinates>22.331044971942902,-34.023408964276314,174.62</coordinates></Point></Placemark><Placemark><TimeSpan><begin>2020-02-24T09:48:11Z</begin><end>2020-02-24T09:48:18Z</end></TimeSpan><styleUrl>#point</styleUrl><Point><altitudeMode>clampToGround</altitudeMode><coordinates>22.328410036861897,-34.024088988080621,181.34999999999999</coordinates></Point></Placemark><Placemark><TimeSpan><begin>2020-02-24T09:48:18Z</begin><end>2020-02-24T09:48:42Z</end></TimeSpan><styleUrl>#point</styleUrl><Point><altitudeMode>clampToGround</altitudeMode><coordinates>22.319580959156156,-34.02664496563375,184.71000000000001</coordinates></Point></Placemark></Folder><Placemark><name>[111] Maalgate River Pass</name><Style><LineStyle><color>ffff4040</color><width>4</width></LineStyle></Style><MultiGeometry><LineString><coordinates>22.36618802882731,-34.019909016788006,180.87 22.364223981276155,-34.020436992868781,177.5 22.362148035317659,-34.020446967333555,174.13999999999999 22.359268013387918,-34.020074978470802,168.84999999999999 22.357085030525923,-34.02028301730752,165 22.350639011710882,-34.021383980289102,137.13 22.348300963640213,-34.022188978269696,127.03 22.345999041572213,-34.02277403511107,120.78 22.342429021373391,-34.023003028705716,125.11 22.336115017533302,-34.023327995091677,152.99000000000001 22.331044971942902,-34.023408964276314,174.62 22.328410036861897,-34.024088988080621,181.34999999999999 22.319580959156156,-34.02664496563375,184.71000000000001 </coordinates></LineString></MultiGeometry></Placemark></Folder></Folder></Document></kml>