<?xml version="1.0" encoding="utf-8"?><kml xmlns="http://www.opengis.net/kml/2.2" xmlns:xsi="http://www.w3.org/2001/XMLSchema-instance" xmlns:kmlx="http://www.google.com/kml/ext/2.2" xmlns:atom="http://www.w3.org/2005/Atom" xmlns:gpxx="http://www.garmin.com/xmlschemas/GpxExtensions/v3"><Document><Style id="point"><IconStyle><scale>0.9</scale><Icon><href>http://maps.google.com/mapfiles/kml/shapes/placemark_circle.png</href></Icon></IconStyle></Style><Folder><name>Tracks</name><Folder><name>[113] Southern Cross Pass</name><Folder><name>Points</name><Style><ListStyle><listItemType>checkHideChildren</listItemType></ListStyle></Style><Placemark><TimeSpan><begin>2020-02-24T09:54:18Z</begin><end>2020-02-24T09:54:18Z</end></TimeSpan><Style><IconStyle><scale>0.9</scale><Icon><href>http://connect.garmin.com/image/main/icons/kml/grn-play.png</href></Icon></IconStyle></Style><Point><altitudeMode>clampToGround</altitudeMode><coordinates>22.222921019420028,-34.055321970954537,9.27</coordinates></Point></Placemark><Placemark><TimeSpan><begin>2020-02-24T09:54:18Z</begin><end>2020-02-24T09:54:27Z</end></TimeSpan><styleUrl>#point</styleUrl><Point><altitudeMode>clampToGround</altitudeMode><coordinates>22.222896041348577,-34.055344015359879,8.789999999999999</coordinates></Point></Placemark><Placemark><TimeSpan><begin>2020-02-24T09:54:27Z</begin><end>2020-02-24T09:54:32Z</end></TimeSpan><styleUrl>#point</styleUrl><Point><altitudeMode>clampToGround</altitudeMode><coordinates>22.222330011427402,-34.055625982582569,8.789999999999999</coordinates></Point></Placemark><Placemark><TimeSpan><begin>2020-02-24T09:54:32Z</begin><end>2020-02-24T09:54:37Z</end></TimeSpan><styleUrl>#point</styleUrl><Point><altitudeMode>clampToGround</altitudeMode><coordinates>22.22118403762579,-34.056059997528791,14.08</coordinates></Point></Placemark><Placemark><TimeSpan><begin>2020-02-24T09:54:37Z</begin><end>2020-02-24T09:54:43Z</end></TimeSpan><styleUrl>#point</styleUrl><Point><altitudeMode>clampToGround</altitudeMode><coordinates>22.21940397284925,-34.056746978312731,26.09</coordinates></Point></Placemark><Placemark><TimeSpan><begin>2020-02-24T09:54:43Z</begin><end>2020-02-24T09:54:50Z</end></TimeSpan><styleUrl>#point</styleUrl><Point><altitudeMode>clampToGround</altitudeMode><coordinates>22.217221995815635,-34.057692959904671,38.109999999999999</coordinates></Point></Placemark><Placemark><TimeSpan><begin>2020-02-24T09:54:50Z</begin><end>2020-02-24T09:54:57Z</end></TimeSpan><styleUrl>#point</styleUrl><Point><altitudeMode>clampToGround</altitudeMode><coordinates>22.214953014627099,-34.058058997616172,47.240000000000002</coordinates></Point></Placemark><Placemark><TimeSpan><begin>2020-02-24T09:54:57Z</begin><end>2020-02-24T09:55:14Z</end></TimeSpan><styleUrl>#point</styleUrl><Point><altitudeMode>clampToGround</altitudeMode><coordinates>22.209337977692485,-34.058436015620828,58.780000000000001</coordinates></Point></Placemark><Placemark><TimeSpan><begin>2020-02-24T09:55:14Z</begin><end>2020-02-24T09:55:30Z</end></TimeSpan><styleUrl>#point</styleUrl><Point><altitudeMode>clampToGround</altitudeMode><coordinates>22.204085038974881,-34.059196002781391,65.989999999999995</coordinates></Point></Placemark><Placemark><TimeSpan><begin>2020-02-24T09:55:30Z</begin><end>2020-02-24T09:55:50Z</end></TimeSpan><styleUrl>#point</styleUrl><Point><altitudeMode>clampToGround</altitudeMode><coordinates>22.197568025439978,-34.060175009071827,84.730000000000004</coordinates></Point></Placemark><Placemark><TimeSpan><begin>2020-02-24T09:55:50Z</begin><end>2020-02-24T09:56:14Z</end></TimeSpan><styleUrl>#point</styleUrl><Point><altitudeMode>clampToGround</altitudeMode><coordinates>22.18966699205339,-34.06136498786509,86.180000000000007</coordinates></Point></Placemark><Placemark><TimeSpan><begin>2020-02-24T09:56:14Z</begin><end>2020-02-24T09:56:27Z</end></TimeSpan><styleUrl>#point</styleUrl><Point><altitudeMode>clampToGround</altitudeMode><coordinates>22.185447961091995,-34.062203010544181,70.790000000000006</coordinates></Point></Placemark></Folder><Placemark><name>[113] Southern Cross Pass</name><Style><LineStyle><color>ffff4040</color><width>4</width></LineStyle></Style><MultiGeometry><LineString><coordinates>22.222921019420028,-34.055321970954537,9.27 22.222896041348577,-34.055344015359879,8.789999999999999 22.222330011427402,-34.055625982582569,8.789999999999999 22.22118403762579,-34.056059997528791,14.08 22.21940397284925,-34.056746978312731,26.09 22.217221995815635,-34.057692959904671,38.109999999999999 22.214953014627099,-34.058058997616172,47.240000000000002 22.209337977692485,-34.058436015620828,58.780000000000001 22.204085038974881,-34.059196002781391,65.989999999999995 22.197568025439978,-34.060175009071827,84.730000000000004 22.18966699205339,-34.06136498786509,86.180000000000007 22.185447961091995,-34.062203010544181,70.790000000000006 </coordinates></LineString></MultiGeometry></Placemark></Folder></Folder></Document></kml>