<?xml version="1.0" encoding="utf-8"?><kml xmlns="http://www.opengis.net/kml/2.2" xmlns:xsi="http://www.w3.org/2001/XMLSchema-instance" xmlns:kmlx="http://www.google.com/kml/ext/2.2" xmlns:atom="http://www.w3.org/2005/Atom" xmlns:gpxx="http://www.garmin.com/xmlschemas/GpxExtensions/v3"><Document><Style id="point"><IconStyle><scale>0.9</scale><Icon><href>http://maps.google.com/mapfiles/kml/shapes/placemark_circle.png</href></Icon></IconStyle></Style><Folder><name>Tracks</name><Folder><name>[120] Sir Lowry's Pass</name><Folder><name>Points</name><Style><ListStyle><listItemType>checkHideChildren</listItemType></ListStyle></Style><Placemark><TimeSpan><begin>2020-02-25T09:53:54Z</begin><end>2020-02-25T09:53:54Z</end></TimeSpan><Style><IconStyle><scale>0.9</scale><Icon><href>http://connect.garmin.com/image/main/icons/kml/grn-play.png</href></Icon></IconStyle></Style><Point><altitudeMode>clampToGround</altitudeMode><coordinates>18.949330011382699,-34.152024993672967,378.42000000000002</coordinates></Point></Placemark><Placemark><TimeSpan><begin>2020-02-25T09:53:54Z</begin><end>2020-02-25T09:54:05Z</end></TimeSpan><styleUrl>#point</styleUrl><Point><altitudeMode>clampToGround</altitudeMode><coordinates>18.946789959445596,-34.152366975322366,380.33999999999997</coordinates></Point></Placemark><Placemark><TimeSpan><begin>2020-02-25T09:54:05Z</begin><end>2020-02-25T09:54:16Z</end></TimeSpan><styleUrl>#point</styleUrl><Point><altitudeMode>clampToGround</altitudeMode><coordinates>18.944260971620679,-34.152708034962416,376.97000000000003</coordinates></Point></Placemark><Placemark><TimeSpan><begin>2020-02-25T09:54:16Z</begin><end>2020-02-25T09:54:30Z</end></TimeSpan><styleUrl>#point</styleUrl><Point><altitudeMode>clampToGround</altitudeMode><coordinates>18.940883986651897,-34.153101984411478,382.74000000000001</coordinates></Point></Placemark><Placemark><TimeSpan><begin>2020-02-25T09:54:30Z</begin><end>2020-02-25T09:54:35Z</end></TimeSpan><styleUrl>#point</styleUrl><Point><altitudeMode>clampToGround</altitudeMode><coordinates>18.939409023150802,-34.152897968888283,391.87</coordinates></Point></Placemark><Placemark><TimeSpan><begin>2020-02-25T09:54:35Z</begin><end>2020-02-25T09:54:41Z</end></TimeSpan><styleUrl>#point</styleUrl><Point><altitudeMode>clampToGround</altitudeMode><coordinates>18.937939004972577,-34.152229009196162,393.80000000000001</coordinates></Point></Placemark><Placemark><TimeSpan><begin>2020-02-25T09:54:41Z</begin><end>2020-02-25T09:54:50Z</end></TimeSpan><styleUrl>#point</styleUrl><Point><altitudeMode>clampToGround</altitudeMode><coordinates>18.935876972973347,-34.151067025959492,397.63999999999999</coordinates></Point></Placemark><Placemark><TimeSpan><begin>2020-02-25T09:54:50Z</begin><end>2020-02-25T09:54:57Z</end></TimeSpan><styleUrl>#point</styleUrl><Point><altitudeMode>clampToGround</altitudeMode><coordinates>18.934101015329361,-34.150169994682074,404.37</coordinates></Point></Placemark><Placemark><TimeSpan><begin>2020-02-25T09:54:57Z</begin><end>2020-02-25T09:54:58Z</end></TimeSpan><styleUrl>#point</styleUrl><Point><altitudeMode>clampToGround</altitudeMode><coordinates>18.933826005086303,-34.150085002183914,405.81</coordinates></Point></Placemark><Placemark><TimeSpan><begin>2020-02-25T09:54:58Z</begin><end>2020-02-25T09:54:59Z</end></TimeSpan><styleUrl>#point</styleUrl><Point><altitudeMode>clampToGround</altitudeMode><coordinates>18.933552000671625,-34.150030016899109,406.76999999999998</coordinates></Point></Placemark><Placemark><TimeSpan><begin>2020-02-25T09:54:59Z</begin><end>2020-02-25T09:55:00Z</end></TimeSpan><styleUrl>#point</styleUrl><Point><altitudeMode>clampToGround</altitudeMode><coordinates>18.933279002085328,-34.150002021342516,408.69999999999999</coordinates></Point></Placemark><Placemark><TimeSpan><begin>2020-02-25T09:55:00Z</begin><end>2020-02-25T09:55:01Z</end></TimeSpan><styleUrl>#point</styleUrl><Point><altitudeMode>clampToGround</altitudeMode><coordinates>18.933011032640934,-34.150003027170897,411.57999999999998</coordinates></Point></Placemark><Placemark><TimeSpan><begin>2020-02-25T09:55:01Z</begin><end>2020-02-25T09:55:02Z</end></TimeSpan><styleUrl>#point</styleUrl><Point><altitudeMode>clampToGround</altitudeMode><coordinates>18.932739961892366,-34.150029011070728,413.01999999999998</coordinates></Point></Placemark><Placemark><TimeSpan><begin>2020-02-25T09:55:02Z</begin><end>2020-02-25T09:55:03Z</end></TimeSpan><styleUrl>#point</styleUrl><Point><altitudeMode>clampToGround</altitudeMode><coordinates>18.932478027418256,-34.150079973042011,413.98000000000002</coordinates></Point></Placemark><Placemark><TimeSpan><begin>2020-02-25T09:55:03Z</begin><end>2020-02-25T09:55:04Z</end></TimeSpan><styleUrl>#point</styleUrl><Point><altitudeMode>clampToGround</altitudeMode><coordinates>18.932220032438636,-34.150157002732158,414.94999999999999</coordinates></Point></Placemark><Placemark><TimeSpan><begin>2020-02-25T09:55:04Z</begin><end>2020-02-25T09:55:05Z</end></TimeSpan><styleUrl>#point</styleUrl><Point><altitudeMode>clampToGround</altitudeMode><coordinates>18.931975029408932,-34.150261022150517,414.94999999999999</coordinates></Point></Placemark><Placemark><TimeSpan><begin>2020-02-25T09:55:05Z</begin><end>2020-02-25T09:55:06Z</end></TimeSpan><styleUrl>#point</styleUrl><Point><altitudeMode>clampToGround</altitudeMode><coordinates>18.931743018329144,-34.150380967184901,415.91000000000003</coordinates></Point></Placemark><Placemark><TimeSpan><begin>2020-02-25T09:55:06Z</begin><end>2020-02-25T09:55:07Z</end></TimeSpan><styleUrl>#point</styleUrl><Point><altitudeMode>clampToGround</altitudeMode><coordinates>18.931531962007284,-34.150509964674711,417.35000000000002</coordinates></Point></Placemark><Placemark><TimeSpan><begin>2020-02-25T09:55:07Z</begin><end>2020-02-25T09:55:11Z</end></TimeSpan><styleUrl>#point</styleUrl><Point><altitudeMode>clampToGround</altitudeMode><coordinates>18.930716989561915,-34.151003994047642,425.51999999999998</coordinates></Point></Placemark><Placemark><TimeSpan><begin>2020-02-25T09:55:11Z</begin><end>2020-02-25T09:55:12Z</end></TimeSpan><styleUrl>#point</styleUrl><Point><altitudeMode>clampToGround</altitudeMode><coordinates>18.930499982088804,-34.151089992374182,426.95999999999998</coordinates></Point></Placemark><Placemark><TimeSpan><begin>2020-02-25T09:55:12Z</begin><end>2020-02-25T09:55:13Z</end></TimeSpan><styleUrl>#point</styleUrl><Point><altitudeMode>clampToGround</altitudeMode><coordinates>18.930277023464441,-34.151147995144129,428.39999999999998</coordinates></Point></Placemark><Placemark><TimeSpan><begin>2020-02-25T09:55:13Z</begin><end>2020-02-25T09:55:14Z</end></TimeSpan><styleUrl>#point</styleUrl><Point><altitudeMode>clampToGround</altitudeMode><coordinates>18.930055992677808,-34.151173979043961,429.85000000000002</coordinates></Point></Placemark><Placemark><TimeSpan><begin>2020-02-25T09:55:14Z</begin><end>2020-02-25T09:55:15Z</end></TimeSpan><styleUrl>#point</styleUrl><Point><altitudeMode>clampToGround</altitudeMode><coordinates>18.929842002689838,-34.151170961558819,431.29000000000002</coordinates></Point></Placemark><Placemark><TimeSpan><begin>2020-02-25T09:55:15Z</begin><end>2020-02-25T09:55:16Z</end></TimeSpan><styleUrl>#point</styleUrl><Point><altitudeMode>clampToGround</altitudeMode><coordinates>18.929642010480165,-34.151133997365832,433.69</coordinates></Point></Placemark><Placemark><TimeSpan><begin>2020-02-25T09:55:16Z</begin><end>2020-02-25T09:55:17Z</end></TimeSpan><styleUrl>#point</styleUrl><Point><altitudeMode>clampToGround</altitudeMode><coordinates>18.929446041584015,-34.151072977110744,435.61000000000001</coordinates></Point></Placemark><Placemark><TimeSpan><begin>2020-02-25T09:55:17Z</begin><end>2020-02-25T09:55:18Z</end></TimeSpan><styleUrl>#point</styleUrl><Point><altitudeMode>clampToGround</altitudeMode><coordinates>18.929259963333607,-34.150981027632952,438.01999999999998</coordinates></Point></Placemark><Placemark><TimeSpan><begin>2020-02-25T09:55:18Z</begin><end>2020-02-25T09:55:19Z</end></TimeSpan><styleUrl>#point</styleUrl><Point><altitudeMode>clampToGround</altitudeMode><coordinates>18.929088972508907,-34.150857981294394,440.42000000000002</coordinates></Point></Placemark><Placemark><TimeSpan><begin>2020-02-25T09:55:19Z</begin><end>2020-02-25T09:55:20Z</end></TimeSpan><styleUrl>#point</styleUrl><Point><altitudeMode>clampToGround</altitudeMode><coordinates>18.928936002776027,-34.150715991854668,442.81999999999999</coordinates></Point></Placemark><Placemark><TimeSpan><begin>2020-02-25T09:55:20Z</begin><end>2020-02-25T09:55:21Z</end></TimeSpan><styleUrl>#point</styleUrl><Point><altitudeMode>clampToGround</altitudeMode><coordinates>18.928809016942978,-34.150555981323123,444.26999999999998</coordinates></Point></Placemark><Placemark><TimeSpan><begin>2020-02-25T09:55:21Z</begin><end>2020-02-25T09:55:22Z</end></TimeSpan><styleUrl>#point</styleUrl><Point><altitudeMode>clampToGround</altitudeMode><coordinates>18.928698962554336,-34.150379961356521,446.67000000000002</coordinates></Point></Placemark><Placemark><TimeSpan><begin>2020-02-25T09:55:22Z</begin><end>2020-02-25T09:55:23Z</end></TimeSpan><styleUrl>#point</styleUrl><Point><altitudeMode>clampToGround</altitudeMode><coordinates>18.928607013076544,-34.150193966925144,448.11000000000001</coordinates></Point></Placemark><Placemark><TimeSpan><begin>2020-02-25T09:55:23Z</begin><end>2020-02-25T09:55:24Z</end></TimeSpan><styleUrl>#point</styleUrl><Point><altitudeMode>clampToGround</altitudeMode><coordinates>18.928521014750004,-34.149986011907458,449.06999999999999</coordinates></Point></Placemark><Placemark><TimeSpan><begin>2020-02-25T09:55:24Z</begin><end>2020-02-25T09:55:27Z</end></TimeSpan><styleUrl>#point</styleUrl><Point><altitudeMode>clampToGround</altitudeMode><coordinates>18.928329991176724,-34.149342030286789,450.51999999999998</coordinates></Point></Placemark><Placemark><TimeSpan><begin>2020-02-25T09:55:27Z</begin><end>2020-02-25T09:55:28Z</end></TimeSpan><styleUrl>#point</styleUrl><Point><altitudeMode>clampToGround</altitudeMode><coordinates>18.928328985348344,-34.149136003106833,451</coordinates></Point></Placemark><Placemark><TimeSpan><begin>2020-02-25T09:55:28Z</begin><end>2020-02-25T09:55:29Z</end></TimeSpan><styleUrl>#point</styleUrl><Point><altitudeMode>clampToGround</altitudeMode><coordinates>18.92836301587522,-34.148932993412018,450.51999999999998</coordinates></Point></Placemark><Placemark><TimeSpan><begin>2020-02-25T09:55:29Z</begin><end>2020-02-25T09:55:36Z</end></TimeSpan><styleUrl>#point</styleUrl><Point><altitudeMode>clampToGround</altitudeMode><coordinates>18.928824020549655,-34.147295001894236,442.81999999999999</coordinates></Point></Placemark><Placemark><TimeSpan><begin>2020-02-25T09:55:36Z</begin><end>2020-02-25T09:55:42Z</end></TimeSpan><styleUrl>#point</styleUrl><Point><altitudeMode>clampToGround</altitudeMode><coordinates>18.92920296639204,-34.145975019782782,435.61000000000001</coordinates></Point></Placemark><Placemark><TimeSpan><begin>2020-02-25T09:55:42Z</begin><end>2020-02-25T09:55:43Z</end></TimeSpan><styleUrl>#point</styleUrl><Point><altitudeMode>clampToGround</altitudeMode><coordinates>18.929304974153638,-34.145798999816179,435.13</coordinates></Point></Placemark><Placemark><TimeSpan><begin>2020-02-25T09:55:43Z</begin><end>2020-02-25T09:55:51Z</end></TimeSpan><styleUrl>#point</styleUrl><Point><altitudeMode>clampToGround</altitudeMode><coordinates>18.929895982146263,-34.144337028264999,426</coordinates></Point></Placemark><Placemark><TimeSpan><begin>2020-02-25T09:55:51Z</begin><end>2020-02-25T09:55:53Z</end></TimeSpan><styleUrl>#point</styleUrl><Point><altitudeMode>clampToGround</altitudeMode><coordinates>18.929975023493171,-34.143965039402246,422.63999999999999</coordinates></Point></Placemark><Placemark><TimeSpan><begin>2020-02-25T09:55:53Z</begin><end>2020-02-25T09:55:54Z</end></TimeSpan><styleUrl>#point</styleUrl><Point><altitudeMode>clampToGround</altitudeMode><coordinates>18.929979968816042,-34.143777033314109,421.68000000000001</coordinates></Point></Placemark><Placemark><TimeSpan><begin>2020-02-25T09:55:54Z</begin><end>2020-02-25T09:55:55Z</end></TimeSpan><styleUrl>#point</styleUrl><Point><altitudeMode>clampToGround</altitudeMode><coordinates>18.929968988522887,-34.143585003912449,420.70999999999998</coordinates></Point></Placemark><Placemark><TimeSpan><begin>2020-02-25T09:55:55Z</begin><end>2020-02-25T09:55:57Z</end></TimeSpan><styleUrl>#point</styleUrl><Point><altitudeMode>clampToGround</altitudeMode><coordinates>18.929946022108197,-34.143201028928161,417.82999999999998</coordinates></Point></Placemark><Placemark><TimeSpan><begin>2020-02-25T09:55:57Z</begin><end>2020-02-25T09:55:58Z</end></TimeSpan><styleUrl>#point</styleUrl><Point><altitudeMode>clampToGround</altitudeMode><coordinates>18.929963959380984,-34.14300799369812,416.87</coordinates></Point></Placemark><Placemark><TimeSpan><begin>2020-02-25T09:55:58Z</begin><end>2020-02-25T09:55:59Z</end></TimeSpan><styleUrl>#point</styleUrl><Point><altitudeMode>clampToGround</altitudeMode><coordinates>18.930008970201015,-34.14281303063035,415.43000000000001</coordinates></Point></Placemark><Placemark><TimeSpan><begin>2020-02-25T09:55:59Z</begin><end>2020-02-25T09:56:00Z</end></TimeSpan><styleUrl>#point</styleUrl><Point><altitudeMode>clampToGround</altitudeMode><coordinates>18.930101003497839,-34.14262100122869,413.98000000000002</coordinates></Point></Placemark><Placemark><TimeSpan><begin>2020-02-25T09:56:00Z</begin><end>2020-02-25T09:56:01Z</end></TimeSpan><styleUrl>#point</styleUrl><Point><altitudeMode>clampToGround</altitudeMode><coordinates>18.930195970460773,-34.142411034554243,412.54000000000002</coordinates></Point></Placemark><Placemark><TimeSpan><begin>2020-02-25T09:56:01Z</begin><end>2020-02-25T09:56:06Z</end></TimeSpan><styleUrl>#point</styleUrl><Point><altitudeMode>clampToGround</altitudeMode><coordinates>18.930635014548898,-34.141397997736931,401.97000000000003</coordinates></Point></Placemark><Placemark><TimeSpan><begin>2020-02-25T09:56:06Z</begin><end>2020-02-25T09:56:07Z</end></TimeSpan><styleUrl>#point</styleUrl><Point><altitudeMode>clampToGround</altitudeMode><coordinates>18.930681031197309,-34.141175039112568,400.05000000000001</coordinates></Point></Placemark><Placemark><TimeSpan><begin>2020-02-25T09:56:07Z</begin><end>2020-02-25T09:56:15Z</end></TimeSpan><styleUrl>#point</styleUrl><Point><altitudeMode>clampToGround</altitudeMode><coordinates>18.93098495900631,-34.1394620295614,386.11000000000001</coordinates></Point></Placemark><Placemark><TimeSpan><begin>2020-02-25T09:56:15Z</begin><end>2020-02-25T09:56:16Z</end></TimeSpan><styleUrl>#point</styleUrl><Point><altitudeMode>clampToGround</altitudeMode><coordinates>18.931085038930178,-34.139281986281276,384.66000000000003</coordinates></Point></Placemark><Placemark><TimeSpan><begin>2020-02-25T09:56:16Z</begin><end>2020-02-25T09:56:17Z</end></TimeSpan><styleUrl>#point</styleUrl><Point><altitudeMode>clampToGround</altitudeMode><coordinates>18.931205989792943,-34.139112001284957,383.22000000000003</coordinates></Point></Placemark><Placemark><TimeSpan><begin>2020-02-25T09:56:17Z</begin><end>2020-02-25T09:56:18Z</end></TimeSpan><styleUrl>#point</styleUrl><Point><altitudeMode>clampToGround</altitudeMode><coordinates>18.931360971182585,-34.138959031552076,381.77999999999997</coordinates></Point></Placemark><Placemark><TimeSpan><begin>2020-02-25T09:56:18Z</begin><end>2020-02-25T09:56:19Z</end></TimeSpan><styleUrl>#point</styleUrl><Point><altitudeMode>clampToGround</altitudeMode><coordinates>18.931535985320807,-34.138812012970448,380.81999999999999</coordinates></Point></Placemark><Placemark><TimeSpan><begin>2020-02-25T09:56:19Z</begin><end>2020-02-25T09:56:20Z</end></TimeSpan><styleUrl>#point</styleUrl><Point><altitudeMode>clampToGround</altitudeMode><coordinates>18.931710999459028,-34.138671029359102,378.42000000000002</coordinates></Point></Placemark><Placemark><TimeSpan><begin>2020-02-25T09:56:20Z</begin><end>2020-02-25T09:56:32Z</end></TimeSpan><styleUrl>#point</styleUrl><Point><altitudeMode>clampToGround</altitudeMode><coordinates>18.93403697758913,-34.137009987607598,360.63</coordinates></Point></Placemark><Placemark><TimeSpan><begin>2020-02-25T09:56:32Z</begin><end>2020-02-25T09:56:33Z</end></TimeSpan><styleUrl>#point</styleUrl><Point><altitudeMode>clampToGround</altitudeMode><coordinates>18.934247028082609,-34.136916026473045,359.67000000000002</coordinates></Point></Placemark><Placemark><TimeSpan><begin>2020-02-25T09:56:33Z</begin><end>2020-02-25T09:56:34Z</end></TimeSpan><styleUrl>#point</styleUrl><Point><altitudeMode>clampToGround</altitudeMode><coordinates>18.934465041384101,-34.136835979297757,357.75</coordinates></Point></Placemark><Placemark><TimeSpan><begin>2020-02-25T09:56:34Z</begin><end>2020-02-25T09:56:43Z</end></TimeSpan><styleUrl>#point</styleUrl><Point><altitudeMode>clampToGround</altitudeMode><coordinates>18.936491031199694,-34.13615201599896,340.92000000000002</coordinates></Point></Placemark><Placemark><TimeSpan><begin>2020-02-25T09:56:43Z</begin><end>2020-02-25T09:56:44Z</end></TimeSpan><styleUrl>#point</styleUrl><Point><altitudeMode>clampToGround</altitudeMode><coordinates>18.936678031459451,-34.136017989367247,339</coordinates></Point></Placemark><Placemark><TimeSpan><begin>2020-02-25T09:56:44Z</begin><end>2020-02-25T09:56:45Z</end></TimeSpan><styleUrl>#point</styleUrl><Point><altitudeMode>clampToGround</altitudeMode><coordinates>18.936836030334234,-34.135855967178941,336.12</coordinates></Point></Placemark><Placemark><TimeSpan><begin>2020-02-25T09:56:45Z</begin><end>2020-02-25T09:56:46Z</end></TimeSpan><styleUrl>#point</styleUrl><Point><altitudeMode>clampToGround</altitudeMode><coordinates>18.936964021995664,-34.135673996061087,333.70999999999998</coordinates></Point></Placemark><Placemark><TimeSpan><begin>2020-02-25T09:56:46Z</begin><end>2020-02-25T09:56:47Z</end></TimeSpan><styleUrl>#point</styleUrl><Point><altitudeMode>clampToGround</altitudeMode><coordinates>18.937066029757261,-34.135479032993317,332.75</coordinates></Point></Placemark><Placemark><TimeSpan><begin>2020-02-25T09:56:47Z</begin><end>2020-02-25T09:56:48Z</end></TimeSpan><styleUrl>#point</styleUrl><Point><altitudeMode>clampToGround</altitudeMode><coordinates>18.93712998367846,-34.135269988328218,330.82999999999998</coordinates></Point></Placemark><Placemark><TimeSpan><begin>2020-02-25T09:56:48Z</begin><end>2020-02-25T09:56:49Z</end></TimeSpan><styleUrl>#point</styleUrl><Point><altitudeMode>clampToGround</altitudeMode><coordinates>18.937173988670111,-34.135050969198346,328.91000000000003</coordinates></Point></Placemark><Placemark><TimeSpan><begin>2020-02-25T09:56:49Z</begin><end>2020-02-25T09:56:50Z</end></TimeSpan><styleUrl>#point</styleUrl><Point><altitudeMode>clampToGround</altitudeMode><coordinates>18.937207013368607,-34.134825998917222,326.99000000000001</coordinates></Point></Placemark><Placemark><TimeSpan><begin>2020-02-25T09:56:50Z</begin><end>2020-02-25T09:56:59Z</end></TimeSpan><styleUrl>#point</styleUrl><Point><altitudeMode>clampToGround</altitudeMode><coordinates>18.93740801140666,-34.132904028519988,314.00999999999999</coordinates></Point></Placemark><Placemark><TimeSpan><begin>2020-02-25T09:56:59Z</begin><end>2020-02-25T09:57:00Z</end></TimeSpan><styleUrl>#point</styleUrl><Point><altitudeMode>clampToGround</altitudeMode><coordinates>18.937364006415009,-34.132703030481935,312.08999999999997</coordinates></Point></Placemark><Placemark><TimeSpan><begin>2020-02-25T09:57:00Z</begin><end>2020-02-25T09:57:01Z</end></TimeSpan><styleUrl>#point</styleUrl><Point><altitudeMode>clampToGround</altitudeMode><coordinates>18.937281025573611,-34.132507983595133,310.16000000000003</coordinates></Point></Placemark><Placemark><TimeSpan><begin>2020-02-25T09:57:01Z</begin><end>2020-02-25T09:57:02Z</end></TimeSpan><styleUrl>#point</styleUrl><Point><altitudeMode>clampToGround</altitudeMode><coordinates>18.937163008376956,-34.132324000820518,308.72000000000003</coordinates></Point></Placemark><Placemark><TimeSpan><begin>2020-02-25T09:57:02Z</begin><end>2020-02-25T09:57:03Z</end></TimeSpan><styleUrl>#point</styleUrl><Point><altitudeMode>clampToGround</altitudeMode><coordinates>18.937016995623708,-34.132147980853915,307.27999999999997</coordinates></Point></Placemark><Placemark><TimeSpan><begin>2020-02-25T09:57:03Z</begin><end>2020-02-25T09:57:04Z</end></TimeSpan><styleUrl>#point</styleUrl><Point><altitudeMode>clampToGround</altitudeMode><coordinates>18.936851033940911,-34.131979001685977,305.83999999999997</coordinates></Point></Placemark><Placemark><TimeSpan><begin>2020-02-25T09:57:04Z</begin><end>2020-02-25T09:57:05Z</end></TimeSpan><styleUrl>#point</styleUrl><Point><altitudeMode>clampToGround</altitudeMode><coordinates>18.936667973175645,-34.131818991154432,304.38999999999999</coordinates></Point></Placemark><Placemark><TimeSpan><begin>2020-02-25T09:57:05Z</begin><end>2020-02-25T09:57:06Z</end></TimeSpan><styleUrl>#point</styleUrl><Point><altitudeMode>clampToGround</altitudeMode><coordinates>18.936479967087507,-34.131660992279649,302.94999999999999</coordinates></Point></Placemark><Placemark><TimeSpan><begin>2020-02-25T09:57:06Z</begin><end>2020-02-25T09:57:13Z</end></TimeSpan><styleUrl>#point</styleUrl><Point><altitudeMode>clampToGround</altitudeMode><coordinates>18.935382021591067,-34.130421979352832,294.30000000000001</coordinates></Point></Placemark><Placemark><TimeSpan><begin>2020-02-25T09:57:13Z</begin><end>2020-02-25T09:57:25Z</end></TimeSpan><styleUrl>#point</styleUrl><Point><altitudeMode>clampToGround</altitudeMode><coordinates>18.934062961488962,-34.12811603397131,277.48000000000002</coordinates></Point></Placemark><Placemark><TimeSpan><begin>2020-02-25T09:57:25Z</begin><end>2020-02-25T09:57:29Z</end></TimeSpan><styleUrl>#point</styleUrl><Point><altitudeMode>clampToGround</altitudeMode><coordinates>18.933470025658607,-34.127420000731945,269.31</coordinates></Point></Placemark><Placemark><TimeSpan><begin>2020-02-25T09:57:29Z</begin><end>2020-02-25T09:57:30Z</end></TimeSpan><styleUrl>#point</styleUrl><Point><altitudeMode>clampToGround</altitudeMode><coordinates>18.933271961286664,-34.127278011292219,267.86000000000001</coordinates></Point></Placemark><Placemark><TimeSpan><begin>2020-02-25T09:57:30Z</begin><end>2020-02-25T09:57:31Z</end></TimeSpan><styleUrl>#point</styleUrl><Point><altitudeMode>clampToGround</altitudeMode><coordinates>18.93304799683392,-34.127162005752325,266.42000000000002</coordinates></Point></Placemark><Placemark><TimeSpan><begin>2020-02-25T09:57:31Z</begin><end>2020-02-25T09:57:32Z</end></TimeSpan><styleUrl>#point</styleUrl><Point><altitudeMode>clampToGround</altitudeMode><coordinates>18.9328090287745,-34.127072989940643,264.5</coordinates></Point></Placemark><Placemark><TimeSpan><begin>2020-02-25T09:57:32Z</begin><end>2020-02-25T09:57:33Z</end></TimeSpan><styleUrl>#point</styleUrl><Point><altitudeMode>clampToGround</altitudeMode><coordinates>18.932561008259654,-34.127015992999077,262.10000000000002</coordinates></Point></Placemark><Placemark><TimeSpan><begin>2020-02-25T09:57:33Z</begin><end>2020-02-25T09:57:34Z</end></TimeSpan><styleUrl>#point</styleUrl><Point><altitudeMode>clampToGround</altitudeMode><coordinates>18.932312987744808,-34.126984979957342,261.13999999999999</coordinates></Point></Placemark><Placemark><TimeSpan><begin>2020-02-25T09:57:34Z</begin><end>2020-02-25T09:57:35Z</end></TimeSpan><styleUrl>#point</styleUrl><Point><altitudeMode>clampToGround</altitudeMode><coordinates>18.932067984715104,-34.126980034634471,259.69</coordinates></Point></Placemark><Placemark><TimeSpan><begin>2020-02-25T09:57:35Z</begin><end>2020-02-25T09:57:36Z</end></TimeSpan><styleUrl>#point</styleUrl><Point><altitudeMode>clampToGround</altitudeMode><coordinates>18.931828010827303,-34.126999983564019,258.25</coordinates></Point></Placemark><Placemark><TimeSpan><begin>2020-02-25T09:57:36Z</begin><end>2020-02-25T09:57:37Z</end></TimeSpan><styleUrl>#point</styleUrl><Point><altitudeMode>clampToGround</altitudeMode><coordinates>18.931600023061037,-34.127040971070528,257.29000000000002</coordinates></Point></Placemark><Placemark><TimeSpan><begin>2020-02-25T09:57:37Z</begin><end>2020-02-25T09:57:38Z</end></TimeSpan><styleUrl>#point</styleUrl><Point><altitudeMode>clampToGround</altitudeMode><coordinates>18.931382009759545,-34.127109032124281,255.84999999999999</coordinates></Point></Placemark><Placemark><TimeSpan><begin>2020-02-25T09:57:38Z</begin><end>2020-02-25T09:57:39Z</end></TimeSpan><styleUrl>#point</styleUrl><Point><altitudeMode>clampToGround</altitudeMode><coordinates>18.931175982579589,-34.127192012965679,254.41</coordinates></Point></Placemark><Placemark><TimeSpan><begin>2020-02-25T09:57:39Z</begin><end>2020-02-25T09:57:40Z</end></TimeSpan><styleUrl>#point</styleUrl><Point><altitudeMode>clampToGround</altitudeMode><coordinates>18.930984036996961,-34.127297960221767,252.47999999999999</coordinates></Point></Placemark><Placemark><TimeSpan><begin>2020-02-25T09:57:40Z</begin><end>2020-02-25T09:57:41Z</end></TimeSpan><styleUrl>#point</styleUrl><Point><altitudeMode>clampToGround</altitudeMode><coordinates>18.930807011201978,-34.127421006560326,251.52000000000001</coordinates></Point></Placemark><Placemark><TimeSpan><begin>2020-02-25T09:57:41Z</begin><end>2020-02-25T09:57:42Z</end></TimeSpan><styleUrl>#point</styleUrl><Point><altitudeMode>clampToGround</altitudeMode><coordinates>18.930651023983955,-34.127565007656813,249.59999999999999</coordinates></Point></Placemark><Placemark><TimeSpan><begin>2020-02-25T09:57:42Z</begin><end>2020-02-25T09:57:43Z</end></TimeSpan><styleUrl>#point</styleUrl><Point><altitudeMode>clampToGround</altitudeMode><coordinates>18.93051196821034,-34.12772904150188,247.68000000000001</coordinates></Point></Placemark><Placemark><TimeSpan><begin>2020-02-25T09:57:43Z</begin><end>2020-02-25T09:57:44Z</end></TimeSpan><styleUrl>#point</styleUrl><Point><altitudeMode>clampToGround</altitudeMode><coordinates>18.930400991812348,-34.127902965992689,246.22999999999999</coordinates></Point></Placemark><Placemark><TimeSpan><begin>2020-02-25T09:57:44Z</begin><end>2020-02-25T09:57:45Z</end></TimeSpan><styleUrl>#point</styleUrl><Point><altitudeMode>clampToGround</altitudeMode><coordinates>18.93031700514257,-34.128087032586336,245.27000000000001</coordinates></Point></Placemark><Placemark><TimeSpan><begin>2020-02-25T09:57:45Z</begin><end>2020-02-25T09:57:46Z</end></TimeSpan><styleUrl>#point</styleUrl><Point><altitudeMode>clampToGround</altitudeMode><coordinates>18.930263025686145,-34.128277972340584,243.83000000000001</coordinates></Point></Placemark><Placemark><TimeSpan><begin>2020-02-25T09:57:46Z</begin><end>2020-02-25T09:57:47Z</end></TimeSpan><styleUrl>#point</styleUrl><Point><altitudeMode>clampToGround</altitudeMode><coordinates>18.930237963795662,-34.128476036712527,242.38999999999999</coordinates></Point></Placemark><Placemark><TimeSpan><begin>2020-02-25T09:57:47Z</begin><end>2020-02-25T09:57:48Z</end></TimeSpan><styleUrl>#point</styleUrl><Point><altitudeMode>clampToGround</altitudeMode><coordinates>18.930242992937565,-34.128670999780297,240.94999999999999</coordinates></Point></Placemark><Placemark><TimeSpan><begin>2020-02-25T09:57:48Z</begin><end>2020-02-25T09:57:49Z</end></TimeSpan><styleUrl>#point</styleUrl><Point><altitudeMode>clampToGround</altitudeMode><coordinates>18.930289009585977,-34.128865962848067,239.50999999999999</coordinates></Point></Placemark><Placemark><TimeSpan><begin>2020-02-25T09:57:49Z</begin><end>2020-02-25T09:57:50Z</end></TimeSpan><styleUrl>#point</styleUrl><Point><altitudeMode>clampToGround</altitudeMode><coordinates>18.930356986820698,-34.129052963107824,238.06</coordinates></Point></Placemark><Placemark><TimeSpan><begin>2020-02-25T09:57:50Z</begin><end>2020-02-25T09:57:51Z</end></TimeSpan><styleUrl>#point</styleUrl><Point><altitudeMode>clampToGround</altitudeMode><coordinates>18.930443990975618,-34.129237029701471,236.13999999999999</coordinates></Point></Placemark><Placemark><TimeSpan><begin>2020-02-25T09:57:51Z</begin><end>2020-02-25T09:57:52Z</end></TimeSpan><styleUrl>#point</styleUrl><Point><altitudeMode>clampToGround</altitudeMode><coordinates>18.930543987080455,-34.129415983334184,235.18000000000001</coordinates></Point></Placemark><Placemark><TimeSpan><begin>2020-02-25T09:57:52Z</begin><end>2020-02-25T09:58:00Z</end></TimeSpan><styleUrl>#point</styleUrl><Point><altitudeMode>clampToGround</altitudeMode><coordinates>18.931243037804961,-34.130949033424258,225.09</coordinates></Point></Placemark><Placemark><TimeSpan><begin>2020-02-25T09:58:00Z</begin><end>2020-02-25T09:58:04Z</end></TimeSpan><styleUrl>#point</styleUrl><Point><altitudeMode>clampToGround</altitudeMode><coordinates>18.931167013943195,-34.131799964234233,220.28</coordinates></Point></Placemark><Placemark><TimeSpan><begin>2020-02-25T09:58:04Z</begin><end>2020-02-25T09:58:05Z</end></TimeSpan><styleUrl>#point</styleUrl><Point><altitudeMode>clampToGround</altitudeMode><coordinates>18.931094007566571,-34.131997022777796,219.31999999999999</coordinates></Point></Placemark><Placemark><TimeSpan><begin>2020-02-25T09:58:05Z</begin><end>2020-02-25T09:58:06Z</end></TimeSpan><styleUrl>#point</styleUrl><Point><altitudeMode>clampToGround</altitudeMode><coordinates>18.930999040603638,-34.132185028865933,218.36000000000001</coordinates></Point></Placemark><Placemark><TimeSpan><begin>2020-02-25T09:58:06Z</begin><end>2020-02-25T09:58:07Z</end></TimeSpan><styleUrl>#point</styleUrl><Point><altitudeMode>clampToGround</altitudeMode><coordinates>18.930886974558234,-34.132362976670265,217.40000000000001</coordinates></Point></Placemark><Placemark><TimeSpan><begin>2020-02-25T09:58:07Z</begin><end>2020-02-25T09:58:08Z</end></TimeSpan><styleUrl>#point</styleUrl><Point><altitudeMode>clampToGround</altitudeMode><coordinates>18.930757977068424,-34.132530028000474,216.43000000000001</coordinates></Point></Placemark><Placemark><TimeSpan><begin>2020-02-25T09:58:08Z</begin><end>2020-02-25T09:58:09Z</end></TimeSpan><styleUrl>#point</styleUrl><Point><altitudeMode>clampToGround</altitudeMode><coordinates>18.930610958486795,-34.132681991904974,214.99000000000001</coordinates></Point></Placemark><Placemark><TimeSpan><begin>2020-02-25T09:58:09Z</begin><end>2020-02-25T09:58:10Z</end></TimeSpan><styleUrl>#point</styleUrl><Point><altitudeMode>clampToGround</altitudeMode><coordinates>18.930451031774282,-34.132821969687939,214.50999999999999</coordinates></Point></Placemark><Placemark><TimeSpan><begin>2020-02-25T09:58:10Z</begin><end>2020-02-25T09:58:11Z</end></TimeSpan><styleUrl>#point</styleUrl><Point><altitudeMode>clampToGround</altitudeMode><coordinates>18.930280040949583,-34.132949039340019,213.55000000000001</coordinates></Point></Placemark><Placemark><TimeSpan><begin>2020-02-25T09:58:11Z</begin><end>2020-02-25T09:58:12Z</end></TimeSpan><styleUrl>#point</styleUrl><Point><altitudeMode>clampToGround</altitudeMode><coordinates>18.930097986012697,-34.133066972717643,212.59</coordinates></Point></Placemark><Placemark><TimeSpan><begin>2020-02-25T09:58:12Z</begin><end>2020-02-25T09:58:13Z</end></TimeSpan><styleUrl>#point</styleUrl><Point><altitudeMode>clampToGround</altitudeMode><coordinates>18.929904028773308,-34.133174009621143,211.63</coordinates></Point></Placemark><Placemark><TimeSpan><begin>2020-02-25T09:58:13Z</begin><end>2020-02-25T09:58:14Z</end></TimeSpan><styleUrl>#point</styleUrl><Point><altitudeMode>clampToGround</altitudeMode><coordinates>18.929696995764971,-34.133266964927316,210.66999999999999</coordinates></Point></Placemark><Placemark><TimeSpan><begin>2020-02-25T09:58:14Z</begin><end>2020-02-25T09:58:15Z</end></TimeSpan><styleUrl>#point</styleUrl><Point><altitudeMode>clampToGround</altitudeMode><coordinates>18.92947998829186,-34.133350029587746,209.69999999999999</coordinates></Point></Placemark><Placemark><TimeSpan><begin>2020-02-25T09:58:15Z</begin><end>2020-02-25T09:58:16Z</end></TimeSpan><styleUrl>#point</styleUrl><Point><altitudeMode>clampToGround</altitudeMode><coordinates>18.929253006353974,-34.133427981287241,209.22</coordinates></Point></Placemark><Placemark><TimeSpan><begin>2020-02-25T09:58:16Z</begin><end>2020-02-25T09:58:30Z</end></TimeSpan><styleUrl>#point</styleUrl><Point><altitudeMode>clampToGround</altitudeMode><coordinates>18.926011975854635,-34.134382009506226,194.31999999999999</coordinates></Point></Placemark><Placemark><TimeSpan><begin>2020-02-25T09:58:30Z</begin><end>2020-02-25T09:58:41Z</end></TimeSpan><styleUrl>#point</styleUrl><Point><altitudeMode>clampToGround</altitudeMode><coordinates>18.923262041062117,-34.135061027482152,176.53999999999999</coordinates></Point></Placemark><Placemark><TimeSpan><begin>2020-02-25T09:58:41Z</begin><end>2020-02-25T09:58:48Z</end></TimeSpan><styleUrl>#point</styleUrl><Point><altitudeMode>clampToGround</altitudeMode><coordinates>18.92135800793767,-34.134894981980324,165.96000000000001</coordinates></Point></Placemark><Placemark><TimeSpan><begin>2020-02-25T09:58:48Z</begin><end>2020-02-25T09:58:56Z</end></TimeSpan><styleUrl>#point</styleUrl><Point><altitudeMode>clampToGround</altitudeMode><coordinates>18.919505020603538,-34.134248988702893,158.27000000000001</coordinates></Point></Placemark><Placemark><TimeSpan><begin>2020-02-25T09:58:56Z</begin><end>2020-02-25T09:59:05Z</end></TimeSpan><styleUrl>#point</styleUrl><Point><altitudeMode>clampToGround</altitudeMode><coordinates>18.917239978909492,-34.133467962965369,146.74000000000001</coordinates></Point></Placemark><Placemark><TimeSpan><begin>2020-02-25T09:59:05Z</begin><end>2020-02-25T09:59:25Z</end></TimeSpan><styleUrl>#point</styleUrl><Point><altitudeMode>clampToGround</altitudeMode><coordinates>18.91224998049438,-34.131817985326052,123.67</coordinates></Point></Placemark><Placemark><TimeSpan><begin>2020-02-25T09:59:25Z</begin><end>2020-02-25T09:59:37Z</end></TimeSpan><styleUrl>#point</styleUrl><Point><altitudeMode>clampToGround</altitudeMode><coordinates>18.909462997689843,-34.130877032876015,114.53</coordinates></Point></Placemark><Placemark><TimeSpan><begin>2020-02-25T09:59:37Z</begin><end>2020-02-25T09:59:46Z</end></TimeSpan><styleUrl>#point</styleUrl><Point><altitudeMode>clampToGround</altitudeMode><coordinates>18.907857025042176,-34.130354002118111,106.84</coordinates></Point></Placemark><Placemark><TimeSpan><begin>2020-02-25T09:59:46Z</begin><end>2020-02-25T09:59:52Z</end></TimeSpan><styleUrl>#point</styleUrl><Point><altitudeMode>clampToGround</altitudeMode><coordinates>18.907237015664577,-34.130143029615283,100.59999999999999</coordinates></Point></Placemark><Placemark><TimeSpan><begin>2020-02-25T09:59:52Z</begin><end>2020-02-25T09:59:54Z</end></TimeSpan><styleUrl>#point</styleUrl><Point><altitudeMode>clampToGround</altitudeMode><coordinates>18.90709200873971,-34.130090977996588,98.189999999999998</coordinates></Point></Placemark><Placemark><TimeSpan><begin>2020-02-25T09:59:54Z</begin><end>2020-02-25T10:00:03Z</end></TimeSpan><styleUrl>#point</styleUrl><Point><altitudeMode>clampToGround</altitudeMode><coordinates>18.906651036813855,-34.129968015477061,88.579999999999998</coordinates></Point></Placemark><Placemark><TimeSpan><begin>2020-02-25T10:00:03Z</begin><end>2020-02-25T10:00:08Z</end></TimeSpan><styleUrl>#point</styleUrl><Point><altitudeMode>clampToGround</altitudeMode><coordinates>18.90619195997715,-34.129803981631994,86.659999999999997</coordinates></Point></Placemark></Folder><Placemark><name>[120] Sir Lowry's Pass</name><Style><LineStyle><color>ffff4040</color><width>4</width></LineStyle></Style><MultiGeometry><LineString><coordinates>18.949330011382699,-34.152024993672967,378.42000000000002 18.946789959445596,-34.152366975322366,380.33999999999997 18.944260971620679,-34.152708034962416,376.97000000000003 18.940883986651897,-34.153101984411478,382.74000000000001 18.939409023150802,-34.152897968888283,391.87 18.937939004972577,-34.152229009196162,393.80000000000001 18.935876972973347,-34.151067025959492,397.63999999999999 18.934101015329361,-34.150169994682074,404.37 18.933826005086303,-34.150085002183914,405.81 18.933552000671625,-34.150030016899109,406.76999999999998 18.933279002085328,-34.150002021342516,408.69999999999999 18.933011032640934,-34.150003027170897,411.57999999999998 18.932739961892366,-34.150029011070728,413.01999999999998 18.932478027418256,-34.150079973042011,413.98000000000002 18.932220032438636,-34.150157002732158,414.94999999999999 18.931975029408932,-34.150261022150517,414.94999999999999 18.931743018329144,-34.150380967184901,415.91000000000003 18.931531962007284,-34.150509964674711,417.35000000000002 18.930716989561915,-34.151003994047642,425.51999999999998 18.930499982088804,-34.151089992374182,426.95999999999998 18.930277023464441,-34.151147995144129,428.39999999999998 18.930055992677808,-34.151173979043961,429.85000000000002 18.929842002689838,-34.151170961558819,431.29000000000002 18.929642010480165,-34.151133997365832,433.69 18.929446041584015,-34.151072977110744,435.61000000000001 18.929259963333607,-34.150981027632952,438.01999999999998 18.929088972508907,-34.150857981294394,440.42000000000002 18.928936002776027,-34.150715991854668,442.81999999999999 18.928809016942978,-34.150555981323123,444.26999999999998 18.928698962554336,-34.150379961356521,446.67000000000002 18.928607013076544,-34.150193966925144,448.11000000000001 18.928521014750004,-34.149986011907458,449.06999999999999 18.928329991176724,-34.149342030286789,450.51999999999998 18.928328985348344,-34.149136003106833,451 18.92836301587522,-34.148932993412018,450.51999999999998 18.928824020549655,-34.147295001894236,442.81999999999999 18.92920296639204,-34.145975019782782,435.61000000000001 18.929304974153638,-34.145798999816179,435.13 18.929895982146263,-34.144337028264999,426 18.929975023493171,-34.143965039402246,422.63999999999999 18.929979968816042,-34.143777033314109,421.68000000000001 18.929968988522887,-34.143585003912449,420.70999999999998 18.929946022108197,-34.143201028928161,417.82999999999998 18.929963959380984,-34.14300799369812,416.87 18.930008970201015,-34.14281303063035,415.43000000000001 18.930101003497839,-34.14262100122869,413.98000000000002 18.930195970460773,-34.142411034554243,412.54000000000002 18.930635014548898,-34.141397997736931,401.97000000000003 18.930681031197309,-34.141175039112568,400.05000000000001 18.93098495900631,-34.1394620295614,386.11000000000001 18.931085038930178,-34.139281986281276,384.66000000000003 18.931205989792943,-34.139112001284957,383.22000000000003 18.931360971182585,-34.138959031552076,381.77999999999997 18.931535985320807,-34.138812012970448,380.81999999999999 18.931710999459028,-34.138671029359102,378.42000000000002 18.93403697758913,-34.137009987607598,360.63 18.934247028082609,-34.136916026473045,359.67000000000002 18.934465041384101,-34.136835979297757,357.75 18.936491031199694,-34.13615201599896,340.92000000000002 18.936678031459451,-34.136017989367247,339 18.936836030334234,-34.135855967178941,336.12 18.936964021995664,-34.135673996061087,333.70999999999998 18.937066029757261,-34.135479032993317,332.75 18.93712998367846,-34.135269988328218,330.82999999999998 18.937173988670111,-34.135050969198346,328.91000000000003 18.937207013368607,-34.134825998917222,326.99000000000001 18.93740801140666,-34.132904028519988,314.00999999999999 18.937364006415009,-34.132703030481935,312.08999999999997 18.937281025573611,-34.132507983595133,310.16000000000003 18.937163008376956,-34.132324000820518,308.72000000000003 18.937016995623708,-34.132147980853915,307.27999999999997 18.936851033940911,-34.131979001685977,305.83999999999997 18.936667973175645,-34.131818991154432,304.38999999999999 18.936479967087507,-34.131660992279649,302.94999999999999 18.935382021591067,-34.130421979352832,294.30000000000001 18.934062961488962,-34.12811603397131,277.48000000000002 18.933470025658607,-34.127420000731945,269.31 18.933271961286664,-34.127278011292219,267.86000000000001 18.93304799683392,-34.127162005752325,266.42000000000002 18.9328090287745,-34.127072989940643,264.5 18.932561008259654,-34.127015992999077,262.10000000000002 18.932312987744808,-34.126984979957342,261.13999999999999 18.932067984715104,-34.126980034634471,259.69 18.931828010827303,-34.126999983564019,258.25 18.931600023061037,-34.127040971070528,257.29000000000002 18.931382009759545,-34.127109032124281,255.84999999999999 18.931175982579589,-34.127192012965679,254.41 18.930984036996961,-34.127297960221767,252.47999999999999 18.930807011201978,-34.127421006560326,251.52000000000001 18.930651023983955,-34.127565007656813,249.59999999999999 18.93051196821034,-34.12772904150188,247.68000000000001 18.930400991812348,-34.127902965992689,246.22999999999999 18.93031700514257,-34.128087032586336,245.27000000000001 18.930263025686145,-34.128277972340584,243.83000000000001 18.930237963795662,-34.128476036712527,242.38999999999999 18.930242992937565,-34.128670999780297,240.94999999999999 18.930289009585977,-34.128865962848067,239.50999999999999 18.930356986820698,-34.129052963107824,238.06 18.930443990975618,-34.129237029701471,236.13999999999999 18.930543987080455,-34.129415983334184,235.18000000000001 18.931243037804961,-34.130949033424258,225.09 18.931167013943195,-34.131799964234233,220.28 18.931094007566571,-34.131997022777796,219.31999999999999 18.930999040603638,-34.132185028865933,218.36000000000001 18.930886974558234,-34.132362976670265,217.40000000000001 18.930757977068424,-34.132530028000474,216.43000000000001 18.930610958486795,-34.132681991904974,214.99000000000001 18.930451031774282,-34.132821969687939,214.50999999999999 18.930280040949583,-34.132949039340019,213.55000000000001 18.930097986012697,-34.133066972717643,212.59 18.929904028773308,-34.133174009621143,211.63 18.929696995764971,-34.133266964927316,210.66999999999999 18.92947998829186,-34.133350029587746,209.69999999999999 18.929253006353974,-34.133427981287241,209.22 18.926011975854635,-34.134382009506226,194.31999999999999 18.923262041062117,-34.135061027482152,176.53999999999999 18.92135800793767,-34.134894981980324,165.96000000000001 18.919505020603538,-34.134248988702893,158.27000000000001 18.917239978909492,-34.133467962965369,146.74000000000001 18.91224998049438,-34.131817985326052,123.67 18.909462997689843,-34.130877032876015,114.53 18.907857025042176,-34.130354002118111,106.84 18.907237015664577,-34.130143029615283,100.59999999999999 18.90709200873971,-34.130090977996588,98.189999999999998 18.906651036813855,-34.129968015477061,88.579999999999998 18.90619195997715,-34.129803981631994,86.659999999999997 </coordinates></LineString></MultiGeometry></Placemark></Folder></Folder></Document></kml>