<?xml version="1.0" encoding="utf-8"?><kml xmlns="http://www.opengis.net/kml/2.2" xmlns:xsi="http://www.w3.org/2001/XMLSchema-instance" xmlns:kmlx="http://www.google.com/kml/ext/2.2" xmlns:atom="http://www.w3.org/2005/Atom" xmlns:gpxx="http://www.garmin.com/xmlschemas/GpxExtensions/v3"><Document><Style id="point"><IconStyle><scale>0.9</scale><Icon><href>http://maps.google.com/mapfiles/kml/shapes/placemark_circle.png</href></Icon></IconStyle></Style><Folder><name>Tracks</name><Folder><name>[137] Sondagsnek</name><Folder><name>Points</name><Style><ListStyle><listItemType>checkHideChildren</listItemType></ListStyle></Style><Placemark><TimeSpan><begin>2020-03-10T05:30:51Z</begin><end>2020-03-10T05:30:51Z</end></TimeSpan><Style><IconStyle><scale>0.9</scale><Icon><href>http://connect.garmin.com/image/main/icons/kml/grn-play.png</href></Icon></IconStyle></Style><Point><altitudeMode>clampToGround</altitudeMode><coordinates>20.053246021270752,-33.941653976216912,131.84</coordinates></Point></Placemark><Placemark><TimeSpan><begin>2020-03-10T05:30:51Z</begin><end>2020-03-10T05:30:59Z</end></TimeSpan><styleUrl>#point</styleUrl><Point><altitudeMode>clampToGround</altitudeMode><coordinates>20.051006963476539,-33.941455995664001,132.31999999999999</coordinates></Point></Placemark><Placemark><TimeSpan><begin>2020-03-10T05:30:59Z</begin><end>2020-03-10T05:31:07Z</end></TimeSpan><styleUrl>#point</styleUrl><Point><altitudeMode>clampToGround</altitudeMode><coordinates>20.04873001947999,-33.941683983430266,131.36000000000001</coordinates></Point></Placemark><Placemark><TimeSpan><begin>2020-03-10T05:31:07Z</begin><end>2020-03-10T05:31:21Z</end></TimeSpan><styleUrl>#point</styleUrl><Point><altitudeMode>clampToGround</altitudeMode><coordinates>20.044793039560318,-33.942041974514723,143.84999999999999</coordinates></Point></Placemark><Placemark><TimeSpan><begin>2020-03-10T05:31:21Z</begin><end>2020-03-10T05:31:27Z</end></TimeSpan><styleUrl>#point</styleUrl><Point><altitudeMode>clampToGround</altitudeMode><coordinates>20.043325033038855,-33.941745003685355,151.06</coordinates></Point></Placemark><Placemark><TimeSpan><begin>2020-03-10T05:31:27Z</begin><end>2020-03-10T05:31:28Z</end></TimeSpan><styleUrl>#point</styleUrl><Point><altitudeMode>clampToGround</altitudeMode><coordinates>20.043142978101969,-33.941653976216912,152.03</coordinates></Point></Placemark><Placemark><TimeSpan><begin>2020-03-10T05:31:28Z</begin><end>2020-03-10T05:31:29Z</end></TimeSpan><styleUrl>#point</styleUrl><Point><altitudeMode>clampToGround</altitudeMode><coordinates>20.042978022247553,-33.941544005647302,152.03</coordinates></Point></Placemark><Placemark><TimeSpan><begin>2020-03-10T05:31:29Z</begin><end>2020-03-10T05:31:30Z</end></TimeSpan><styleUrl>#point</styleUrl><Point><altitudeMode>clampToGround</altitudeMode><coordinates>20.042827986180782,-33.941412996500731,152.03</coordinates></Point></Placemark><Placemark><TimeSpan><begin>2020-03-10T05:31:30Z</begin><end>2020-03-10T05:31:31Z</end></TimeSpan><styleUrl>#point</styleUrl><Point><altitudeMode>clampToGround</altitudeMode><coordinates>20.042703012004495,-33.94126296043396,151.06</coordinates></Point></Placemark><Placemark><TimeSpan><begin>2020-03-10T05:31:31Z</begin><end>2020-03-10T05:31:32Z</end></TimeSpan><styleUrl>#point</styleUrl><Point><altitudeMode>clampToGround</altitudeMode><coordinates>20.042605027556419,-33.941096998751163,149.13999999999999</coordinates></Point></Placemark><Placemark><TimeSpan><begin>2020-03-10T05:31:32Z</begin><end>2020-03-10T05:31:33Z</end></TimeSpan><styleUrl>#point</styleUrl><Point><altitudeMode>clampToGround</altitudeMode><coordinates>20.042532021179795,-33.940917961299419,147.69999999999999</coordinates></Point></Placemark><Placemark><TimeSpan><begin>2020-03-10T05:31:33Z</begin><end>2020-03-10T05:31:34Z</end></TimeSpan><styleUrl>#point</styleUrl><Point><altitudeMode>clampToGround</altitudeMode><coordinates>20.042481981217861,-33.940731966868043,146.25999999999999</coordinates></Point></Placemark><Placemark><TimeSpan><begin>2020-03-10T05:31:34Z</begin><end>2020-03-10T05:31:35Z</end></TimeSpan><styleUrl>#point</styleUrl><Point><altitudeMode>clampToGround</altitudeMode><coordinates>20.042462032288313,-33.940534992143512,145.30000000000001</coordinates></Point></Placemark><Placemark><TimeSpan><begin>2020-03-10T05:31:35Z</begin><end>2020-03-10T05:31:36Z</end></TimeSpan><styleUrl>#point</styleUrl><Point><altitudeMode>clampToGround</altitudeMode><coordinates>20.042468989267945,-33.940327037125826,143.84999999999999</coordinates></Point></Placemark><Placemark><TimeSpan><begin>2020-03-10T05:31:36Z</begin><end>2020-03-10T05:31:42Z</end></TimeSpan><styleUrl>#point</styleUrl><Point><altitudeMode>clampToGround</altitudeMode><coordinates>20.04254300147295,-33.938789963722229,138.09</coordinates></Point></Placemark><Placemark><TimeSpan><begin>2020-03-10T05:31:42Z</begin><end>2020-03-10T05:31:48Z</end></TimeSpan><styleUrl>#point</styleUrl><Point><altitudeMode>clampToGround</altitudeMode><coordinates>20.042980033904314,-33.937273006886244,140.00999999999999</coordinates></Point></Placemark><Placemark><TimeSpan><begin>2020-03-10T05:31:48Z</begin><end>2020-03-10T05:31:52Z</end></TimeSpan><styleUrl>#point</styleUrl><Point><altitudeMode>clampToGround</altitudeMode><coordinates>20.043288990855217,-33.936315961182117,140.49000000000001</coordinates></Point></Placemark><Placemark><TimeSpan><begin>2020-03-10T05:31:52Z</begin><end>2020-03-10T05:31:53Z</end></TimeSpan><styleUrl>#point</styleUrl><Point><altitudeMode>clampToGround</altitudeMode><coordinates>20.043305000290275,-33.936090990900993,140.00999999999999</coordinates></Point></Placemark><Placemark><TimeSpan><begin>2020-03-10T05:31:53Z</begin><end>2020-03-10T05:31:54Z</end></TimeSpan><styleUrl>#point</styleUrl><Point><altitudeMode>clampToGround</altitudeMode><coordinates>20.043297037482262,-33.935861997306347,139.53</coordinates></Point></Placemark><Placemark><TimeSpan><begin>2020-03-10T05:31:54Z</begin><end>2020-03-10T05:31:55Z</end></TimeSpan><styleUrl>#point</styleUrl><Point><altitudeMode>clampToGround</altitudeMode><coordinates>20.043263006955385,-33.935628980398178,140.49000000000001</coordinates></Point></Placemark><Placemark><TimeSpan><begin>2020-03-10T05:31:55Z</begin><end>2020-03-10T05:31:56Z</end></TimeSpan><styleUrl>#point</styleUrl><Point><altitudeMode>clampToGround</altitudeMode><coordinates>20.043203998357058,-33.935390012338758,139.53</coordinates></Point></Placemark><Placemark><TimeSpan><begin>2020-03-10T05:31:56Z</begin><end>2020-03-10T05:31:57Z</end></TimeSpan><styleUrl>#point</styleUrl><Point><altitudeMode>clampToGround</altitudeMode><coordinates>20.043119005858898,-33.935154983773828,138.09</coordinates></Point></Placemark><Placemark><TimeSpan><begin>2020-03-10T05:31:57Z</begin><end>2020-03-10T05:31:58Z</end></TimeSpan><styleUrl>#point</styleUrl><Point><altitudeMode>clampToGround</altitudeMode><coordinates>20.043003000319004,-33.934925990179181,136.16</coordinates></Point></Placemark><Placemark><TimeSpan><begin>2020-03-10T05:31:58Z</begin><end>2020-03-10T05:31:59Z</end></TimeSpan><styleUrl>#point</styleUrl><Point><altitudeMode>clampToGround</altitudeMode><coordinates>20.042854975908995,-33.934706971049309,135.19999999999999</coordinates></Point></Placemark><Placemark><TimeSpan><begin>2020-03-10T05:31:59Z</begin><end>2020-03-10T05:32:00Z</end></TimeSpan><styleUrl>#point</styleUrl><Point><altitudeMode>clampToGround</altitudeMode><coordinates>20.042682979255915,-33.934499016031623,133.28</coordinates></Point></Placemark><Placemark><TimeSpan><begin>2020-03-10T05:32:00Z</begin><end>2020-03-10T05:32:01Z</end></TimeSpan><styleUrl>#point</styleUrl><Point><altitudeMode>clampToGround</altitudeMode><coordinates>20.042475024238229,-33.934305980801582,132.31999999999999</coordinates></Point></Placemark><Placemark><TimeSpan><begin>2020-03-10T05:32:01Z</begin><end>2020-03-10T05:32:02Z</end></TimeSpan><styleUrl>#point</styleUrl><Point><altitudeMode>clampToGround</altitudeMode><coordinates>20.042247958481312,-33.934130966663361,130.40000000000001</coordinates></Point></Placemark><Placemark><TimeSpan><begin>2020-03-10T05:32:02Z</begin><end>2020-03-10T05:32:03Z</end></TimeSpan><styleUrl>#point</styleUrl><Point><altitudeMode>clampToGround</altitudeMode><coordinates>20.042003961279988,-33.933970034122467,128.47</coordinates></Point></Placemark><Placemark><TimeSpan><begin>2020-03-10T05:32:03Z</begin><end>2020-03-10T05:32:04Z</end></TimeSpan><styleUrl>#point</styleUrl><Point><altitudeMode>clampToGround</altitudeMode><coordinates>20.041733980178833,-33.933822009712458,126.06999999999999</coordinates></Point></Placemark><Placemark><TimeSpan><begin>2020-03-10T05:32:04Z</begin><end>2020-03-10T05:32:13Z</end></TimeSpan><styleUrl>#point</styleUrl><Point><altitudeMode>clampToGround</altitudeMode><coordinates>20.039482014253736,-33.932594982907176,128.94999999999999</coordinates></Point></Placemark><Placemark><TimeSpan><begin>2020-03-10T05:32:13Z</begin><end>2020-03-10T05:32:15Z</end></TimeSpan><styleUrl>#point</styleUrl><Point><altitudeMode>clampToGround</altitudeMode><coordinates>20.03910499624908,-33.932270016521215,129.91999999999999</coordinates></Point></Placemark><Placemark><TimeSpan><begin>2020-03-10T05:32:15Z</begin><end>2020-03-10T05:32:16Z</end></TimeSpan><styleUrl>#point</styleUrl><Point><altitudeMode>clampToGround</altitudeMode><coordinates>20.038943979889154,-33.932089973241091,129.91999999999999</coordinates></Point></Placemark><Placemark><TimeSpan><begin>2020-03-10T05:32:16Z</begin><end>2020-03-10T05:32:17Z</end></TimeSpan><styleUrl>#point</styleUrl><Point><altitudeMode>clampToGround</altitudeMode><coordinates>20.03880400210619,-33.93189299851656,130.40000000000001</coordinates></Point></Placemark><Placemark><TimeSpan><begin>2020-03-10T05:32:17Z</begin><end>2020-03-10T05:32:18Z</end></TimeSpan><styleUrl>#point</styleUrl><Point><altitudeMode>clampToGround</altitudeMode><coordinates>20.03869897685945,-33.931685965508223,130.40000000000001</coordinates></Point></Placemark><Placemark><TimeSpan><begin>2020-03-10T05:32:18Z</begin><end>2020-03-10T05:32:19Z</end></TimeSpan><styleUrl>#point</styleUrl><Point><altitudeMode>clampToGround</altitudeMode><coordinates>20.038625970482826,-33.931478010490537,129.91999999999999</coordinates></Point></Placemark><Placemark><TimeSpan><begin>2020-03-10T05:32:19Z</begin><end>2020-03-10T05:32:20Z</end></TimeSpan><styleUrl>#point</styleUrl><Point><altitudeMode>clampToGround</altitudeMode><coordinates>20.038579031825066,-33.931266032159328,129.91999999999999</coordinates></Point></Placemark><Placemark><TimeSpan><begin>2020-03-10T05:32:20Z</begin><end>2020-03-10T05:32:21Z</end></TimeSpan><styleUrl>#point</styleUrl><Point><altitudeMode>clampToGround</altitudeMode><coordinates>20.038548018783331,-33.931052964180708,130.40000000000001</coordinates></Point></Placemark><Placemark><TimeSpan><begin>2020-03-10T05:32:21Z</begin><end>2020-03-10T05:32:25Z</end></TimeSpan><styleUrl>#point</styleUrl><Point><altitudeMode>clampToGround</altitudeMode><coordinates>20.038431007415056,-33.93026003614068,126.06999999999999</coordinates></Point></Placemark><Placemark><TimeSpan><begin>2020-03-10T05:32:25Z</begin><end>2020-03-10T05:32:26Z</end></TimeSpan><styleUrl>#point</styleUrl><Point><altitudeMode>clampToGround</altitudeMode><coordinates>20.038352971896529,-33.93008703365922,124.63</coordinates></Point></Placemark><Placemark><TimeSpan><begin>2020-03-10T05:32:26Z</begin><end>2020-03-10T05:32:27Z</end></TimeSpan><styleUrl>#point</styleUrl><Point><altitudeMode>clampToGround</altitudeMode><coordinates>20.038233026862144,-33.929933980107307,123.67</coordinates></Point></Placemark><Placemark><TimeSpan><begin>2020-03-10T05:32:27Z</begin><end>2020-03-10T05:32:28Z</end></TimeSpan><styleUrl>#point</styleUrl><Point><altitudeMode>clampToGround</altitudeMode><coordinates>20.038082990795374,-33.929800959303975,124.15000000000001</coordinates></Point></Placemark><Placemark><TimeSpan><begin>2020-03-10T05:32:28Z</begin><end>2020-03-10T05:32:29Z</end></TimeSpan><styleUrl>#point</styleUrl><Point><altitudeMode>clampToGround</altitudeMode><coordinates>20.037904037162662,-33.929699035361409,125.59</coordinates></Point></Placemark><Placemark><TimeSpan><begin>2020-03-10T05:32:29Z</begin><end>2020-03-10T05:32:30Z</end></TimeSpan><styleUrl>#point</styleUrl><Point><altitudeMode>clampToGround</altitudeMode><coordinates>20.037703961133957,-33.929628040641546,126.55</coordinates></Point></Placemark><Placemark><TimeSpan><begin>2020-03-10T05:32:30Z</begin><end>2020-03-10T05:32:31Z</end></TimeSpan><styleUrl>#point</styleUrl><Point><altitudeMode>clampToGround</altitudeMode><coordinates>20.037486031651497,-33.929600967094302,128.47</coordinates></Point></Placemark><Placemark><TimeSpan><begin>2020-03-10T05:32:31Z</begin><end>2020-03-10T05:32:32Z</end></TimeSpan><styleUrl>#point</styleUrl><Point><altitudeMode>clampToGround</altitudeMode><coordinates>20.03725703805685,-33.929598033428192,129.43000000000001</coordinates></Point></Placemark><Placemark><TimeSpan><begin>2020-03-10T05:32:32Z</begin><end>2020-03-10T05:32:33Z</end></TimeSpan><styleUrl>#point</styleUrl><Point><altitudeMode>clampToGround</altitudeMode><coordinates>20.03702100366354,-33.929609013721347,130.88</coordinates></Point></Placemark><Placemark><TimeSpan><begin>2020-03-10T05:32:33Z</begin><end>2020-03-10T05:32:41Z</end></TimeSpan><styleUrl>#point</styleUrl><Point><altitudeMode>clampToGround</altitudeMode><coordinates>20.034800972789526,-33.929752008989453,135.19999999999999</coordinates></Point></Placemark><Placemark><TimeSpan><begin>2020-03-10T05:32:41Z</begin><end>2020-03-10T05:32:47Z</end></TimeSpan><styleUrl>#point</styleUrl><Point><altitudeMode>clampToGround</altitudeMode><coordinates>20.033199023455381,-33.929500970989466,138.09</coordinates></Point></Placemark><Placemark><TimeSpan><begin>2020-03-10T05:32:47Z</begin><end>2020-03-10T05:32:55Z</end></TimeSpan><styleUrl>#point</styleUrl><Point><altitudeMode>clampToGround</altitudeMode><coordinates>20.031268000602722,-33.928620032966137,133.28</coordinates></Point></Placemark><Placemark><TimeSpan><begin>2020-03-10T05:32:55Z</begin><end>2020-03-10T05:32:57Z</end></TimeSpan><styleUrl>#point</styleUrl><Point><altitudeMode>clampToGround</altitudeMode><coordinates>20.030882013961673,-33.928381986916065,133.75999999999999</coordinates></Point></Placemark><Placemark><TimeSpan><begin>2020-03-10T05:32:57Z</begin><end>2020-03-10T05:32:58Z</end></TimeSpan><styleUrl>#point</styleUrl><Point><altitudeMode>clampToGround</altitudeMode><coordinates>20.030724015086889,-33.928242009133101,134.24000000000001</coordinates></Point></Placemark><Placemark><TimeSpan><begin>2020-03-10T05:32:58Z</begin><end>2020-03-10T05:32:59Z</end></TimeSpan><styleUrl>#point</styleUrl><Point><altitudeMode>clampToGround</altitudeMode><coordinates>20.030595017597079,-33.928086021915078,134.72</coordinates></Point></Placemark><Placemark><TimeSpan><begin>2020-03-10T05:32:59Z</begin><end>2020-03-10T05:33:00Z</end></TimeSpan><styleUrl>#point</styleUrl><Point><altitudeMode>clampToGround</altitudeMode><coordinates>20.030498960986733,-33.927918970584869,134.72</coordinates></Point></Placemark><Placemark><TimeSpan><begin>2020-03-10T05:33:00Z</begin><end>2020-03-10T05:33:01Z</end></TimeSpan><styleUrl>#point</styleUrl><Point><altitudeMode>clampToGround</altitudeMode><coordinates>20.030428972095251,-33.927740016952157,135.19999999999999</coordinates></Point></Placemark><Placemark><TimeSpan><begin>2020-03-10T05:33:01Z</begin><end>2020-03-10T05:33:02Z</end></TimeSpan><styleUrl>#point</styleUrl><Point><altitudeMode>clampToGround</altitudeMode><coordinates>20.030392007902265,-33.927548993378878,134.24000000000001</coordinates></Point></Placemark><Placemark><TimeSpan><begin>2020-03-10T05:33:02Z</begin><end>2020-03-10T05:33:03Z</end></TimeSpan><styleUrl>#point</styleUrl><Point><altitudeMode>clampToGround</altitudeMode><coordinates>20.030384967103601,-33.927350006997585,133.75999999999999</coordinates></Point></Placemark><Placemark><TimeSpan><begin>2020-03-10T05:33:03Z</begin><end>2020-03-10T05:33:04Z</end></TimeSpan><styleUrl>#point</styleUrl><Point><altitudeMode>clampToGround</altitudeMode><coordinates>20.030407011508942,-33.927140040323138,133.28</coordinates></Point></Placemark><Placemark><TimeSpan><begin>2020-03-10T05:33:04Z</begin><end>2020-03-10T05:33:05Z</end></TimeSpan><styleUrl>#point</styleUrl><Point><altitudeMode>clampToGround</altitudeMode><coordinates>20.030434001237154,-33.926923032850027,132.80000000000001</coordinates></Point></Placemark><Placemark><TimeSpan><begin>2020-03-10T05:33:05Z</begin><end>2020-03-10T05:33:15Z</end></TimeSpan><styleUrl>#point</styleUrl><Point><altitudeMode>clampToGround</altitudeMode><coordinates>20.030629970133305,-33.924542991444468,130.88</coordinates></Point></Placemark><Placemark><TimeSpan><begin>2020-03-10T05:33:15Z</begin><end>2020-03-10T05:33:16Z</end></TimeSpan><styleUrl>#point</styleUrl><Point><altitudeMode>clampToGround</altitudeMode><coordinates>20.030574984848499,-33.924298994243145,130.40000000000001</coordinates></Point></Placemark><Placemark><TimeSpan><begin>2020-03-10T05:33:16Z</begin><end>2020-03-10T05:33:17Z</end></TimeSpan><styleUrl>#point</styleUrl><Point><altitudeMode>clampToGround</altitudeMode><coordinates>20.03049099817872,-33.924057008698583,129.91999999999999</coordinates></Point></Placemark><Placemark><TimeSpan><begin>2020-03-10T05:33:17Z</begin><end>2020-03-10T05:33:18Z</end></TimeSpan><styleUrl>#point</styleUrl><Point><altitudeMode>clampToGround</altitudeMode><coordinates>20.030380021780729,-33.923822985962033,130.40000000000001</coordinates></Point></Placemark><Placemark><TimeSpan><begin>2020-03-10T05:33:18Z</begin><end>2020-03-10T05:33:19Z</end></TimeSpan><styleUrl>#point</styleUrl><Point><altitudeMode>clampToGround</altitudeMode><coordinates>20.030244989320636,-33.923601033166051,131.84</coordinates></Point></Placemark><Placemark><TimeSpan><begin>2020-03-10T05:33:19Z</begin><end>2020-03-10T05:33:20Z</end></TimeSpan><styleUrl>#point</styleUrl><Point><altitudeMode>clampToGround</altitudeMode><coordinates>20.030085984617472,-33.923389976844192,133.28</coordinates></Point></Placemark><Placemark><TimeSpan><begin>2020-03-10T05:33:20Z</begin><end>2020-03-10T05:33:21Z</end></TimeSpan><styleUrl>#point</styleUrl><Point><altitudeMode>clampToGround</altitudeMode><coordinates>20.02990803681314,-33.92319199629128,133.75999999999999</coordinates></Point></Placemark><Placemark><TimeSpan><begin>2020-03-10T05:33:21Z</begin><end>2020-03-10T05:33:22Z</end></TimeSpan><styleUrl>#point</styleUrl><Point><altitudeMode>clampToGround</altitudeMode><coordinates>20.029712989926338,-33.923001978546381,134.24000000000001</coordinates></Point></Placemark></Folder><Placemark><name>[137] Sondagsnek</name><Style><LineStyle><color>ffff4040</color><width>4</width></LineStyle></Style><MultiGeometry><LineString><coordinates>20.053246021270752,-33.941653976216912,131.84 20.051006963476539,-33.941455995664001,132.31999999999999 20.04873001947999,-33.941683983430266,131.36000000000001 20.044793039560318,-33.942041974514723,143.84999999999999 20.043325033038855,-33.941745003685355,151.06 20.043142978101969,-33.941653976216912,152.03 20.042978022247553,-33.941544005647302,152.03 20.042827986180782,-33.941412996500731,152.03 20.042703012004495,-33.94126296043396,151.06 20.042605027556419,-33.941096998751163,149.13999999999999 20.042532021179795,-33.940917961299419,147.69999999999999 20.042481981217861,-33.940731966868043,146.25999999999999 20.042462032288313,-33.940534992143512,145.30000000000001 20.042468989267945,-33.940327037125826,143.84999999999999 20.04254300147295,-33.938789963722229,138.09 20.042980033904314,-33.937273006886244,140.00999999999999 20.043288990855217,-33.936315961182117,140.49000000000001 20.043305000290275,-33.936090990900993,140.00999999999999 20.043297037482262,-33.935861997306347,139.53 20.043263006955385,-33.935628980398178,140.49000000000001 20.043203998357058,-33.935390012338758,139.53 20.043119005858898,-33.935154983773828,138.09 20.043003000319004,-33.934925990179181,136.16 20.042854975908995,-33.934706971049309,135.19999999999999 20.042682979255915,-33.934499016031623,133.28 20.042475024238229,-33.934305980801582,132.31999999999999 20.042247958481312,-33.934130966663361,130.40000000000001 20.042003961279988,-33.933970034122467,128.47 20.041733980178833,-33.933822009712458,126.06999999999999 20.039482014253736,-33.932594982907176,128.94999999999999 20.03910499624908,-33.932270016521215,129.91999999999999 20.038943979889154,-33.932089973241091,129.91999999999999 20.03880400210619,-33.93189299851656,130.40000000000001 20.03869897685945,-33.931685965508223,130.40000000000001 20.038625970482826,-33.931478010490537,129.91999999999999 20.038579031825066,-33.931266032159328,129.91999999999999 20.038548018783331,-33.931052964180708,130.40000000000001 20.038431007415056,-33.93026003614068,126.06999999999999 20.038352971896529,-33.93008703365922,124.63 20.038233026862144,-33.929933980107307,123.67 20.038082990795374,-33.929800959303975,124.15000000000001 20.037904037162662,-33.929699035361409,125.59 20.037703961133957,-33.929628040641546,126.55 20.037486031651497,-33.929600967094302,128.47 20.03725703805685,-33.929598033428192,129.43000000000001 20.03702100366354,-33.929609013721347,130.88 20.034800972789526,-33.929752008989453,135.19999999999999 20.033199023455381,-33.929500970989466,138.09 20.031268000602722,-33.928620032966137,133.28 20.030882013961673,-33.928381986916065,133.75999999999999 20.030724015086889,-33.928242009133101,134.24000000000001 20.030595017597079,-33.928086021915078,134.72 20.030498960986733,-33.927918970584869,134.72 20.030428972095251,-33.927740016952157,135.19999999999999 20.030392007902265,-33.927548993378878,134.24000000000001 20.030384967103601,-33.927350006997585,133.75999999999999 20.030407011508942,-33.927140040323138,133.28 20.030434001237154,-33.926923032850027,132.80000000000001 20.030629970133305,-33.924542991444468,130.88 20.030574984848499,-33.924298994243145,130.40000000000001 20.03049099817872,-33.924057008698583,129.91999999999999 20.030380021780729,-33.923822985962033,130.40000000000001 20.030244989320636,-33.923601033166051,131.84 20.030085984617472,-33.923389976844192,133.28 20.02990803681314,-33.92319199629128,133.75999999999999 20.029712989926338,-33.923001978546381,134.24000000000001 </coordinates></LineString></MultiGeometry></Placemark></Folder></Folder></Document></kml>