<?xml version="1.0" encoding="utf-8"?><kml xmlns="http://www.opengis.net/kml/2.2" xmlns:xsi="http://www.w3.org/2001/XMLSchema-instance" xmlns:kmlx="http://www.google.com/kml/ext/2.2" xmlns:atom="http://www.w3.org/2005/Atom" xmlns:gpxx="http://www.garmin.com/xmlschemas/GpxExtensions/v3"><Document><Style id="point"><IconStyle><scale>0.9</scale><Icon><href>http://maps.google.com/mapfiles/kml/shapes/placemark_circle.png</href></Icon></IconStyle></Style><Folder><name>Tracks</name><Folder><name>[142] Hottentots Kloof Pass</name><Folder><name>Points</name><Style><ListStyle><listItemType>checkHideChildren</listItemType></ListStyle></Style><Placemark><TimeSpan><begin>2020-03-10T09:13:51Z</begin><end>2020-03-10T09:13:51Z</end></TimeSpan><Style><IconStyle><scale>0.9</scale><Icon><href>http://connect.garmin.com/image/main/icons/kml/grn-play.png</href></Icon></IconStyle></Style><Point><altitudeMode>clampToGround</altitudeMode><coordinates>19.637066004797816,-33.251181039959192,918.67999999999995</coordinates></Point></Placemark><Placemark><TimeSpan><begin>2020-03-10T09:13:51Z</begin><end>2020-03-10T09:14:18Z</end></TimeSpan><styleUrl>#point</styleUrl><Point><altitudeMode>clampToGround</altitudeMode><coordinates>19.628338012844324,-33.256266005337238,957.61000000000001</coordinates></Point></Placemark><Placemark><TimeSpan><begin>2020-03-10T09:14:18Z</begin><end>2020-03-10T09:14:28Z</end></TimeSpan><styleUrl>#point</styleUrl><Point><altitudeMode>clampToGround</altitudeMode><coordinates>19.625093964859843,-33.257995024323463,967.70000000000005</coordinates></Point></Placemark><Placemark><TimeSpan><begin>2020-03-10T09:14:28Z</begin><end>2020-03-10T09:14:37Z</end></TimeSpan><styleUrl>#point</styleUrl><Point><altitudeMode>clampToGround</altitudeMode><coordinates>19.622082011774182,-33.258953997865319,977.79999999999995</coordinates></Point></Placemark><Placemark><TimeSpan><begin>2020-03-10T09:14:37Z</begin><end>2020-03-10T09:14:45Z</end></TimeSpan><styleUrl>#point</styleUrl><Point><altitudeMode>clampToGround</altitudeMode><coordinates>19.619561992585659,-33.260065019130707,987.40999999999997</coordinates></Point></Placemark><Placemark><TimeSpan><begin>2020-03-10T09:14:45Z</begin><end>2020-03-10T09:14:51Z</end></TimeSpan><styleUrl>#point</styleUrl><Point><altitudeMode>clampToGround</altitudeMode><coordinates>19.617610014975071,-33.260387973859906,995.10000000000002</coordinates></Point></Placemark><Placemark><TimeSpan><begin>2020-03-10T09:14:51Z</begin><end>2020-03-10T09:14:58Z</end></TimeSpan><styleUrl>#point</styleUrl><Point><altitudeMode>clampToGround</altitudeMode><coordinates>19.615160990506411,-33.260301975533366,1004.23</coordinates></Point></Placemark><Placemark><TimeSpan><begin>2020-03-10T09:14:58Z</begin><end>2020-03-10T09:15:00Z</end></TimeSpan><styleUrl>#point</styleUrl><Point><altitudeMode>clampToGround</altitudeMode><coordinates>19.614503011107445,-33.260203991085291,1007.12</coordinates></Point></Placemark><Placemark><TimeSpan><begin>2020-03-10T09:15:00Z</begin><end>2020-03-10T09:15:01Z</end></TimeSpan><styleUrl>#point</styleUrl><Point><altitudeMode>clampToGround</altitudeMode><coordinates>19.61419397033751,-33.260120004415512,1008.5599999999999</coordinates></Point></Placemark><Placemark><TimeSpan><begin>2020-03-10T09:15:01Z</begin><end>2020-03-10T09:15:02Z</end></TimeSpan><styleUrl>#point</styleUrl><Point><altitudeMode>clampToGround</altitudeMode><coordinates>19.613896999508142,-33.260016990825534,1009.52</coordinates></Point></Placemark><Placemark><TimeSpan><begin>2020-03-10T09:15:02Z</begin><end>2020-03-10T09:15:03Z</end></TimeSpan><styleUrl>#point</styleUrl><Point><altitudeMode>clampToGround</altitudeMode><coordinates>19.613608997315168,-33.259891010820866,1011.4400000000001</coordinates></Point></Placemark><Placemark><TimeSpan><begin>2020-03-10T09:15:03Z</begin><end>2020-03-10T09:15:04Z</end></TimeSpan><styleUrl>#point</styleUrl><Point><altitudeMode>clampToGround</altitudeMode><coordinates>19.613329963758588,-33.259747009724379,1012.41</coordinates></Point></Placemark><Placemark><TimeSpan><begin>2020-03-10T09:15:04Z</begin><end>2020-03-10T09:15:05Z</end></TimeSpan><styleUrl>#point</styleUrl><Point><altitudeMode>clampToGround</altitudeMode><coordinates>19.613045984879136,-33.259588005021214,1013.37</coordinates></Point></Placemark><Placemark><TimeSpan><begin>2020-03-10T09:15:05Z</begin><end>2020-03-10T09:15:12Z</end></TimeSpan><styleUrl>#point</styleUrl><Point><altitudeMode>clampToGround</altitudeMode><coordinates>19.610814973711967,-33.258546972647309,1022.5</coordinates></Point></Placemark><Placemark><TimeSpan><begin>2020-03-10T09:15:12Z</begin><end>2020-03-10T09:15:18Z</end></TimeSpan><styleUrl>#point</styleUrl><Point><altitudeMode>clampToGround</altitudeMode><coordinates>19.608636014163494,-33.258054032921791,1030.6700000000001</coordinates></Point></Placemark><Placemark><TimeSpan><begin>2020-03-10T09:15:18Z</begin><end>2020-03-10T09:15:24Z</end></TimeSpan><styleUrl>#point</styleUrl><Point><altitudeMode>clampToGround</altitudeMode><coordinates>19.606756959110498,-33.257285999134183,1039.8</coordinates></Point></Placemark><Placemark><TimeSpan><begin>2020-03-10T09:15:24Z</begin><end>2020-03-10T09:15:27Z</end></TimeSpan><styleUrl>#point</styleUrl><Point><altitudeMode>clampToGround</altitudeMode><coordinates>19.605808965861797,-33.256932031363249,1045.0899999999999</coordinates></Point></Placemark><Placemark><TimeSpan><begin>2020-03-10T09:15:27Z</begin><end>2020-03-10T09:15:28Z</end></TimeSpan><styleUrl>#point</styleUrl><Point><altitudeMode>clampToGround</altitudeMode><coordinates>19.605477964505553,-33.256863970309496,1047.01</coordinates></Point></Placemark><Placemark><TimeSpan><begin>2020-03-10T09:15:28Z</begin><end>2020-03-10T09:15:29Z</end></TimeSpan><styleUrl>#point</styleUrl><Point><altitudeMode>clampToGround</altitudeMode><coordinates>19.605135982856154,-33.256814014166594,1049.4200000000001</coordinates></Point></Placemark><Placemark><TimeSpan><begin>2020-03-10T09:15:29Z</begin><end>2020-03-10T09:15:39Z</end></TimeSpan><styleUrl>#point</styleUrl><Point><altitudeMode>clampToGround</altitudeMode><coordinates>19.601466972380877,-33.256498016417027,1068.6400000000001</coordinates></Point></Placemark><Placemark><TimeSpan><begin>2020-03-10T09:15:39Z</begin><end>2020-03-10T09:15:47Z</end></TimeSpan><styleUrl>#point</styleUrl><Point><altitudeMode>clampToGround</altitudeMode><coordinates>19.598689964041114,-33.256230968981981,1084.5</coordinates></Point></Placemark><Placemark><TimeSpan><begin>2020-03-10T09:15:47Z</begin><end>2020-03-10T09:15:48Z</end></TimeSpan><styleUrl>#point</styleUrl><Point><altitudeMode>clampToGround</altitudeMode><coordinates>19.59840296767652,-33.256159974262118,1085.95</coordinates></Point></Placemark><Placemark><TimeSpan><begin>2020-03-10T09:15:48Z</begin><end>2020-03-10T09:15:49Z</end></TimeSpan><styleUrl>#point</styleUrl><Point><altitudeMode>clampToGround</altitudeMode><coordinates>19.59812100045383,-33.256072970107198,1087.8699999999999</coordinates></Point></Placemark><Placemark><TimeSpan><begin>2020-03-10T09:15:49Z</begin><end>2020-03-10T09:15:57Z</end></TimeSpan><styleUrl>#point</styleUrl><Point><altitudeMode>clampToGround</altitudeMode><coordinates>19.595711035653949,-33.255263026803732,1104.6900000000001</coordinates></Point></Placemark><Placemark><TimeSpan><begin>2020-03-10T09:15:57Z</begin><end>2020-03-10T09:16:03Z</end></TimeSpan><styleUrl>#point</styleUrl><Point><altitudeMode>clampToGround</altitudeMode><coordinates>19.594080001115799,-33.254738990217447,1114.3099999999999</coordinates></Point></Placemark><Placemark><TimeSpan><begin>2020-03-10T09:16:03Z</begin><end>2020-03-10T09:16:04Z</end></TimeSpan><styleUrl>#point</styleUrl><Point><altitudeMode>clampToGround</altitudeMode><coordinates>19.593855030834675,-33.254702026024461,1115.75</coordinates></Point></Placemark><Placemark><TimeSpan><begin>2020-03-10T09:16:04Z</begin><end>2020-03-10T09:16:05Z</end></TimeSpan><styleUrl>#point</styleUrl><Point><altitudeMode>clampToGround</altitudeMode><coordinates>19.5936309825629,-33.254702026024461,1116.23</coordinates></Point></Placemark><Placemark><TimeSpan><begin>2020-03-10T09:16:05Z</begin><end>2020-03-10T09:16:06Z</end></TimeSpan><styleUrl>#point</styleUrl><Point><altitudeMode>clampToGround</altitudeMode><coordinates>19.593419004231691,-33.254733039066195,1117.1900000000001</coordinates></Point></Placemark><Placemark><TimeSpan><begin>2020-03-10T09:16:06Z</begin><end>2020-03-10T09:16:07Z</end></TimeSpan><styleUrl>#point</styleUrl><Point><altitudeMode>clampToGround</altitudeMode><coordinates>19.593219012022018,-33.254801016300917,1117.6700000000001</coordinates></Point></Placemark><Placemark><TimeSpan><begin>2020-03-10T09:16:07Z</begin><end>2020-03-10T09:16:08Z</end></TimeSpan><styleUrl>#point</styleUrl><Point><altitudeMode>clampToGround</altitudeMode><coordinates>19.593037040904164,-33.25489598326385,1118.6300000000001</coordinates></Point></Placemark><Placemark><TimeSpan><begin>2020-03-10T09:16:08Z</begin><end>2020-03-10T09:16:09Z</end></TimeSpan><styleUrl>#point</styleUrl><Point><altitudeMode>clampToGround</altitudeMode><coordinates>19.592883987352252,-33.255020035430789,1119.1099999999999</coordinates></Point></Placemark><Placemark><TimeSpan><begin>2020-03-10T09:16:09Z</begin><end>2020-03-10T09:16:10Z</end></TimeSpan><styleUrl>#point</styleUrl><Point><altitudeMode>clampToGround</altitudeMode><coordinates>19.592783991247416,-33.255159007385373,1120.0699999999999</coordinates></Point></Placemark><Placemark><TimeSpan><begin>2020-03-10T09:16:10Z</begin><end>2020-03-10T09:16:11Z</end></TimeSpan><styleUrl>#point</styleUrl><Point><altitudeMode>clampToGround</altitudeMode><coordinates>19.59272900596261,-33.255321029573679,1120.0699999999999</coordinates></Point></Placemark><Placemark><TimeSpan><begin>2020-03-10T09:16:11Z</begin><end>2020-03-10T09:16:12Z</end></TimeSpan><styleUrl>#point</styleUrl><Point><altitudeMode>clampToGround</altitudeMode><coordinates>19.592721965163946,-33.255500989034772,1119.5899999999999</coordinates></Point></Placemark><Placemark><TimeSpan><begin>2020-03-10T09:16:12Z</begin><end>2020-03-10T09:16:13Z</end></TimeSpan><styleUrl>#point</styleUrl><Point><altitudeMode>clampToGround</altitudeMode><coordinates>19.592754989862442,-33.255683965981007,1120.0699999999999</coordinates></Point></Placemark><Placemark><TimeSpan><begin>2020-03-10T09:16:13Z</begin><end>2020-03-10T09:16:14Z</end></TimeSpan><styleUrl>#point</styleUrl><Point><altitudeMode>clampToGround</altitudeMode><coordinates>19.592838976532221,-33.255871972069144,1120.55</coordinates></Point></Placemark><Placemark><TimeSpan><begin>2020-03-10T09:16:14Z</begin><end>2020-03-10T09:16:15Z</end></TimeSpan><styleUrl>#point</styleUrl><Point><altitudeMode>clampToGround</altitudeMode><coordinates>19.592951964586973,-33.25605402700603,1121.52</coordinates></Point></Placemark><Placemark><TimeSpan><begin>2020-03-10T09:16:15Z</begin><end>2020-03-10T09:16:16Z</end></TimeSpan><styleUrl>#point</styleUrl><Point><altitudeMode>clampToGround</altitudeMode><coordinates>19.593082973733544,-33.256241027265787,1122</coordinates></Point></Placemark><Placemark><TimeSpan><begin>2020-03-10T09:16:16Z</begin><end>2020-03-10T09:16:23Z</end></TimeSpan><styleUrl>#point</styleUrl><Point><altitudeMode>clampToGround</altitudeMode><coordinates>19.593982016667724,-33.257646001875401,1131.1300000000001</coordinates></Point></Placemark><Placemark><TimeSpan><begin>2020-03-10T09:16:23Z</begin><end>2020-03-10T09:16:24Z</end></TimeSpan><styleUrl>#point</styleUrl><Point><altitudeMode>clampToGround</altitudeMode><coordinates>19.594029039144516,-33.257827972993255,1132.5699999999999</coordinates></Point></Placemark><Placemark><TimeSpan><begin>2020-03-10T09:16:24Z</begin><end>2020-03-10T09:16:25Z</end></TimeSpan><styleUrl>#point</styleUrl><Point><altitudeMode>clampToGround</altitudeMode><coordinates>19.594030966982245,-33.258003992959857,1134.49</coordinates></Point></Placemark><Placemark><TimeSpan><begin>2020-03-10T09:16:25Z</begin><end>2020-03-10T09:16:26Z</end></TimeSpan><styleUrl>#point</styleUrl><Point><altitudeMode>clampToGround</altitudeMode><coordinates>19.593990985304117,-33.258168026804924,1136.4200000000001</coordinates></Point></Placemark><Placemark><TimeSpan><begin>2020-03-10T09:16:26Z</begin><end>2020-03-10T09:16:27Z</end></TimeSpan><styleUrl>#point</styleUrl><Point><altitudeMode>clampToGround</altitudeMode><coordinates>19.593905992805958,-33.258325019851327,1137.8599999999999</coordinates></Point></Placemark><Placemark><TimeSpan><begin>2020-03-10T09:16:27Z</begin><end>2020-03-10T09:16:28Z</end></TimeSpan><styleUrl>#point</styleUrl><Point><altitudeMode>clampToGround</altitudeMode><coordinates>19.593789987266064,-33.258471032604575,1139.3</coordinates></Point></Placemark><Placemark><TimeSpan><begin>2020-03-10T09:16:28Z</begin><end>2020-03-10T09:16:29Z</end></TimeSpan><styleUrl>#point</styleUrl><Point><altitudeMode>clampToGround</altitudeMode><coordinates>19.593655960634351,-33.258600030094385,1140.74</coordinates></Point></Placemark><Placemark><TimeSpan><begin>2020-03-10T09:16:29Z</begin><end>2020-03-10T09:16:30Z</end></TimeSpan><styleUrl>#point</styleUrl><Point><altitudeMode>clampToGround</altitudeMode><coordinates>19.593497039750218,-33.258711006492376,1142.1800000000001</coordinates></Point></Placemark><Placemark><TimeSpan><begin>2020-03-10T09:16:30Z</begin><end>2020-03-10T09:16:31Z</end></TimeSpan><styleUrl>#point</styleUrl><Point><altitudeMode>clampToGround</altitudeMode><coordinates>19.593311967328191,-33.258793987333775,1143.1400000000001</coordinates></Point></Placemark><Placemark><TimeSpan><begin>2020-03-10T09:16:31Z</begin><end>2020-03-10T09:16:32Z</end></TimeSpan><styleUrl>#point</styleUrl><Point><altitudeMode>clampToGround</altitudeMode><coordinates>19.593105018138885,-33.258852995932102,1144.5899999999999</coordinates></Point></Placemark><Placemark><TimeSpan><begin>2020-03-10T09:16:32Z</begin><end>2020-03-10T09:16:33Z</end></TimeSpan><styleUrl>#point</styleUrl><Point><altitudeMode>clampToGround</altitudeMode><coordinates>19.592893039807677,-33.258875040337443,1146.51</coordinates></Point></Placemark><Placemark><TimeSpan><begin>2020-03-10T09:16:33Z</begin><end>2020-03-10T09:16:34Z</end></TimeSpan><styleUrl>#point</styleUrl><Point><altitudeMode>clampToGround</altitudeMode><coordinates>19.592679971829057,-33.258867999538779,1147.95</coordinates></Point></Placemark><Placemark><TimeSpan><begin>2020-03-10T09:16:34Z</begin><end>2020-03-10T09:16:35Z</end></TimeSpan><styleUrl>#point</styleUrl><Point><altitudeMode>clampToGround</altitudeMode><coordinates>19.592457013204694,-33.258828017860651,1149.8699999999999</coordinates></Point></Placemark><Placemark><TimeSpan><begin>2020-03-10T09:16:35Z</begin><end>2020-03-10T09:16:36Z</end></TimeSpan><styleUrl>#point</styleUrl><Point><altitudeMode>clampToGround</altitudeMode><coordinates>19.592228019610047,-33.258759034797549,1151.3199999999999</coordinates></Point></Placemark><Placemark><TimeSpan><begin>2020-03-10T09:16:36Z</begin><end>2020-03-10T09:16:37Z</end></TimeSpan><styleUrl>#point</styleUrl><Point><altitudeMode>clampToGround</altitudeMode><coordinates>19.591989973559976,-33.258669013157487,1153.24</coordinates></Point></Placemark><Placemark><TimeSpan><begin>2020-03-10T09:16:37Z</begin><end>2020-03-10T09:16:44Z</end></TimeSpan><styleUrl>#point</styleUrl><Point><altitudeMode>clampToGround</altitudeMode><coordinates>19.590007988736033,-33.257917994633317,1166.7</coordinates></Point></Placemark><Placemark><TimeSpan><begin>2020-03-10T09:16:44Z</begin><end>2020-03-10T09:16:46Z</end></TimeSpan><styleUrl>#point</styleUrl><Point><altitudeMode>clampToGround</altitudeMode><coordinates>19.589375993236899,-33.257768964394927,1169.5799999999999</coordinates></Point></Placemark><Placemark><TimeSpan><begin>2020-03-10T09:16:46Z</begin><end>2020-03-10T09:16:47Z</end></TimeSpan><styleUrl>#point</styleUrl><Point><altitudeMode>clampToGround</altitudeMode><coordinates>19.5890530385077,-33.257729988545179,1171.98</coordinates></Point></Placemark><Placemark><TimeSpan><begin>2020-03-10T09:16:47Z</begin><end>2020-03-10T09:16:48Z</end></TimeSpan><styleUrl>#point</styleUrl><Point><altitudeMode>clampToGround</altitudeMode><coordinates>19.588722959160805,-33.257715990766883,1173.9100000000001</coordinates></Point></Placemark><Placemark><TimeSpan><begin>2020-03-10T09:16:48Z</begin><end>2020-03-10T09:16:57Z</end></TimeSpan><styleUrl>#point</styleUrl><Point><altitudeMode>clampToGround</altitudeMode><coordinates>19.585483018308878,-33.257712973281741,1196.5</coordinates></Point></Placemark><Placemark><TimeSpan><begin>2020-03-10T09:16:57Z</begin><end>2020-03-10T09:17:09Z</end></TimeSpan><styleUrl>#point</styleUrl><Point><altitudeMode>clampToGround</altitudeMode><coordinates>19.580962993204594,-33.257696041837335,1214.76</coordinates></Point></Placemark><Placemark><TimeSpan><begin>2020-03-10T09:17:09Z</begin><end>2020-03-10T09:17:20Z</end></TimeSpan><styleUrl>#point</styleUrl><Point><altitudeMode>clampToGround</altitudeMode><coordinates>19.576933979988098,-33.257761001586914,1207.0699999999999</coordinates></Point></Placemark></Folder><Placemark><name>[142] Hottentots Kloof Pass</name><Style><LineStyle><color>ffff4040</color><width>4</width></LineStyle></Style><MultiGeometry><LineString><coordinates>19.637066004797816,-33.251181039959192,918.67999999999995 19.628338012844324,-33.256266005337238,957.61000000000001 19.625093964859843,-33.257995024323463,967.70000000000005 19.622082011774182,-33.258953997865319,977.79999999999995 19.619561992585659,-33.260065019130707,987.40999999999997 19.617610014975071,-33.260387973859906,995.10000000000002 19.615160990506411,-33.260301975533366,1004.23 19.614503011107445,-33.260203991085291,1007.12 19.61419397033751,-33.260120004415512,1008.5599999999999 19.613896999508142,-33.260016990825534,1009.52 19.613608997315168,-33.259891010820866,1011.4400000000001 19.613329963758588,-33.259747009724379,1012.41 19.613045984879136,-33.259588005021214,1013.37 19.610814973711967,-33.258546972647309,1022.5 19.608636014163494,-33.258054032921791,1030.6700000000001 19.606756959110498,-33.257285999134183,1039.8 19.605808965861797,-33.256932031363249,1045.0899999999999 19.605477964505553,-33.256863970309496,1047.01 19.605135982856154,-33.256814014166594,1049.4200000000001 19.601466972380877,-33.256498016417027,1068.6400000000001 19.598689964041114,-33.256230968981981,1084.5 19.59840296767652,-33.256159974262118,1085.95 19.59812100045383,-33.256072970107198,1087.8699999999999 19.595711035653949,-33.255263026803732,1104.6900000000001 19.594080001115799,-33.254738990217447,1114.3099999999999 19.593855030834675,-33.254702026024461,1115.75 19.5936309825629,-33.254702026024461,1116.23 19.593419004231691,-33.254733039066195,1117.1900000000001 19.593219012022018,-33.254801016300917,1117.6700000000001 19.593037040904164,-33.25489598326385,1118.6300000000001 19.592883987352252,-33.255020035430789,1119.1099999999999 19.592783991247416,-33.255159007385373,1120.0699999999999 19.59272900596261,-33.255321029573679,1120.0699999999999 19.592721965163946,-33.255500989034772,1119.5899999999999 19.592754989862442,-33.255683965981007,1120.0699999999999 19.592838976532221,-33.255871972069144,1120.55 19.592951964586973,-33.25605402700603,1121.52 19.593082973733544,-33.256241027265787,1122 19.593982016667724,-33.257646001875401,1131.1300000000001 19.594029039144516,-33.257827972993255,1132.5699999999999 19.594030966982245,-33.258003992959857,1134.49 19.593990985304117,-33.258168026804924,1136.4200000000001 19.593905992805958,-33.258325019851327,1137.8599999999999 19.593789987266064,-33.258471032604575,1139.3 19.593655960634351,-33.258600030094385,1140.74 19.593497039750218,-33.258711006492376,1142.1800000000001 19.593311967328191,-33.258793987333775,1143.1400000000001 19.593105018138885,-33.258852995932102,1144.5899999999999 19.592893039807677,-33.258875040337443,1146.51 19.592679971829057,-33.258867999538779,1147.95 19.592457013204694,-33.258828017860651,1149.8699999999999 19.592228019610047,-33.258759034797549,1151.3199999999999 19.591989973559976,-33.258669013157487,1153.24 19.590007988736033,-33.257917994633317,1166.7 19.589375993236899,-33.257768964394927,1169.5799999999999 19.5890530385077,-33.257729988545179,1171.98 19.588722959160805,-33.257715990766883,1173.9100000000001 19.585483018308878,-33.257712973281741,1196.5 19.580962993204594,-33.257696041837335,1214.76 19.576933979988098,-33.257761001586914,1207.0699999999999 </coordinates></LineString></MultiGeometry></Placemark></Folder></Folder></Document></kml>