<?xml version="1.0" encoding="utf-8"?><kml xmlns="http://www.opengis.net/kml/2.2" xmlns:xsi="http://www.w3.org/2001/XMLSchema-instance" xmlns:kmlx="http://www.google.com/kml/ext/2.2" xmlns:atom="http://www.w3.org/2005/Atom" xmlns:gpxx="http://www.garmin.com/xmlschemas/GpxExtensions/v3"><Document><Style id="point"><IconStyle><scale>0.9</scale><Icon><href>http://maps.google.com/mapfiles/kml/shapes/placemark_circle.png</href></Icon></IconStyle></Style><Folder><name>Tracks</name><Folder><name>[148] Kloof Nek Road</name><Folder><name>Points</name><Style><ListStyle><listItemType>checkHideChildren</listItemType></ListStyle></Style><Placemark><TimeSpan><begin>2020-03-13T08:07:40Z</begin><end>2020-03-13T08:07:40Z</end></TimeSpan><Style><IconStyle><scale>0.9</scale><Icon><href>http://connect.garmin.com/image/main/icons/kml/grn-play.png</href></Icon></IconStyle></Style><Point><altitudeMode>clampToGround</altitudeMode><coordinates>18.407564023509622,-33.930211002007127,61.18</coordinates></Point></Placemark><Placemark><TimeSpan><begin>2020-03-13T08:07:40Z</begin><end>2020-03-13T08:07:55Z</end></TimeSpan><styleUrl>#point</styleUrl><Point><altitudeMode>clampToGround</altitudeMode><coordinates>18.406196013092995,-33.931458983570337,78.969999999999999</coordinates></Point></Placemark><Placemark><TimeSpan><begin>2020-03-13T08:07:55Z</begin><end>2020-03-13T08:08:07Z</end></TimeSpan><styleUrl>#point</styleUrl><Point><altitudeMode>clampToGround</altitudeMode><coordinates>18.404930010437965,-33.932614009827375,95.310000000000002</coordinates></Point></Placemark><Placemark><TimeSpan><begin>2020-03-13T08:08:07Z</begin><end>2020-03-13T08:08:17Z</end></TimeSpan><styleUrl>#point</styleUrl><Point><altitudeMode>clampToGround</altitudeMode><coordinates>18.403929965570569,-33.933523027226329,108.29000000000001</coordinates></Point></Placemark><Placemark><TimeSpan><begin>2020-03-13T08:08:17Z</begin><end>2020-03-13T08:08:25Z</end></TimeSpan><styleUrl>#point</styleUrl><Point><altitudeMode>clampToGround</altitudeMode><coordinates>18.403093032538891,-33.934240015223622,115.5</coordinates></Point></Placemark><Placemark><TimeSpan><begin>2020-03-13T08:08:25Z</begin><end>2020-03-13T08:08:26Z</end></TimeSpan><styleUrl>#point</styleUrl><Point><altitudeMode>clampToGround</altitudeMode><coordinates>18.402947019785643,-33.934298017993569,118.38</coordinates></Point></Placemark><Placemark><TimeSpan><begin>2020-03-13T08:08:26Z</begin><end>2020-03-13T08:08:27Z</end></TimeSpan><styleUrl>#point</styleUrl><Point><altitudeMode>clampToGround</altitudeMode><coordinates>18.402794972062111,-33.934348979964852,120.3</coordinates></Point></Placemark><Placemark><TimeSpan><begin>2020-03-13T08:08:27Z</begin><end>2020-03-13T08:08:29Z</end></TimeSpan><styleUrl>#point</styleUrl><Point><altitudeMode>clampToGround</altitudeMode><coordinates>18.402504036203027,-33.934458028525114,123.19</coordinates></Point></Placemark><Placemark><TimeSpan><begin>2020-03-13T08:08:29Z</begin><end>2020-03-13T08:08:30Z</end></TimeSpan><styleUrl>#point</styleUrl><Point><altitudeMode>clampToGround</altitudeMode><coordinates>18.402375038713217,-33.934543021023273,124.63</coordinates></Point></Placemark><Placemark><TimeSpan><begin>2020-03-13T08:08:30Z</begin><end>2020-03-13T08:08:31Z</end></TimeSpan><styleUrl>#point</styleUrl><Point><altitudeMode>clampToGround</altitudeMode><coordinates>18.402273030951619,-33.934651985764503,127.03</coordinates></Point></Placemark><Placemark><TimeSpan><begin>2020-03-13T08:08:31Z</begin><end>2020-03-13T08:08:32Z</end></TimeSpan><styleUrl>#point</styleUrl><Point><altitudeMode>clampToGround</altitudeMode><coordinates>18.402202958241105,-33.934777965769172,128.47</coordinates></Point></Placemark><Placemark><TimeSpan><begin>2020-03-13T08:08:32Z</begin><end>2020-03-13T08:08:33Z</end></TimeSpan><styleUrl>#point</styleUrl><Point><altitudeMode>clampToGround</altitudeMode><coordinates>18.40214503929019,-33.934904029592872,129.91999999999999</coordinates></Point></Placemark><Placemark><TimeSpan><begin>2020-03-13T08:08:33Z</begin><end>2020-03-13T08:08:34Z</end></TimeSpan><styleUrl>#point</styleUrl><Point><altitudeMode>clampToGround</altitudeMode><coordinates>18.402073038741946,-33.935020035132766,130.88</coordinates></Point></Placemark><Placemark><TimeSpan><begin>2020-03-13T08:08:34Z</begin><end>2020-03-13T08:08:35Z</end></TimeSpan><styleUrl>#point</styleUrl><Point><altitudeMode>clampToGround</altitudeMode><coordinates>18.401984022930264,-33.935121037065983,132.31999999999999</coordinates></Point></Placemark><Placemark><TimeSpan><begin>2020-03-13T08:08:35Z</begin><end>2020-03-13T08:08:36Z</end></TimeSpan><styleUrl>#point</styleUrl><Point><altitudeMode>clampToGround</altitudeMode><coordinates>18.401882015168667,-33.935214998200536,133.75999999999999</coordinates></Point></Placemark><Placemark><TimeSpan><begin>2020-03-13T08:08:36Z</begin><end>2020-03-13T08:08:48Z</end></TimeSpan><styleUrl>#point</styleUrl><Point><altitudeMode>clampToGround</altitudeMode><coordinates>18.400411996990442,-33.936331970617175,148.18000000000001</coordinates></Point></Placemark><Placemark><TimeSpan><begin>2020-03-13T08:08:48Z</begin><end>2020-03-13T08:08:54Z</end></TimeSpan><styleUrl>#point</styleUrl><Point><altitudeMode>clampToGround</altitudeMode><coordinates>18.399588977918029,-33.936915015801787,156.83000000000001</coordinates></Point></Placemark><Placemark><TimeSpan><begin>2020-03-13T08:08:54Z</begin><end>2020-03-13T08:08:56Z</end></TimeSpan><styleUrl>#point</styleUrl><Point><altitudeMode>clampToGround</altitudeMode><coordinates>18.399280020967126,-33.937060022726655,159.24000000000001</coordinates></Point></Placemark><Placemark><TimeSpan><begin>2020-03-13T08:08:56Z</begin><end>2020-03-13T08:08:57Z</end></TimeSpan><styleUrl>#point</styleUrl><Point><altitudeMode>clampToGround</altitudeMode><coordinates>18.399115987122059,-33.937112996354699,161.63999999999999</coordinates></Point></Placemark><Placemark><TimeSpan><begin>2020-03-13T08:08:57Z</begin><end>2020-03-13T08:09:00Z</end></TimeSpan><styleUrl>#point</styleUrl><Point><altitudeMode>clampToGround</altitudeMode><coordinates>18.398657999932766,-33.93728599883616,165</coordinates></Point></Placemark><Placemark><TimeSpan><begin>2020-03-13T08:09:00Z</begin><end>2020-03-13T08:09:01Z</end></TimeSpan><styleUrl>#point</styleUrl><Point><altitudeMode>clampToGround</altitudeMode><coordinates>18.398510981351137,-33.937342995777726,167.41</coordinates></Point></Placemark><Placemark><TimeSpan><begin>2020-03-13T08:09:01Z</begin><end>2020-03-13T08:09:02Z</end></TimeSpan><styleUrl>#point</styleUrl><Point><altitudeMode>clampToGround</altitudeMode><coordinates>18.398388018831611,-33.937432011589408,168.37</coordinates></Point></Placemark><Placemark><TimeSpan><begin>2020-03-13T08:09:02Z</begin><end>2020-03-13T08:09:03Z</end></TimeSpan><styleUrl>#point</styleUrl><Point><altitudeMode>clampToGround</altitudeMode><coordinates>18.398283999413252,-33.9375239610672,170.28999999999999</coordinates></Point></Placemark><Placemark><TimeSpan><begin>2020-03-13T08:09:03Z</begin><end>2020-03-13T08:09:04Z</end></TimeSpan><styleUrl>#point</styleUrl><Point><altitudeMode>clampToGround</altitudeMode><coordinates>18.398209987208247,-33.937626974657178,171.72999999999999</coordinates></Point></Placemark><Placemark><TimeSpan><begin>2020-03-13T08:09:04Z</begin><end>2020-03-13T08:09:05Z</end></TimeSpan><styleUrl>#point</styleUrl><Point><altitudeMode>clampToGround</altitudeMode><coordinates>18.39817201718688,-33.937744991853833,173.66</coordinates></Point></Placemark><Placemark><TimeSpan><begin>2020-03-13T08:09:05Z</begin><end>2020-03-13T08:09:06Z</end></TimeSpan><styleUrl>#point</styleUrl><Point><altitudeMode>clampToGround</altitudeMode><coordinates>18.398163970559835,-33.937867032364011,176.06</coordinates></Point></Placemark><Placemark><TimeSpan><begin>2020-03-13T08:09:06Z</begin><end>2020-03-13T08:09:07Z</end></TimeSpan><styleUrl>#point</styleUrl><Point><altitudeMode>clampToGround</altitudeMode><coordinates>18.398179979994893,-33.937983959913254,177.5</coordinates></Point></Placemark><Placemark><TimeSpan><begin>2020-03-13T08:09:07Z</begin><end>2020-03-13T08:09:08Z</end></TimeSpan><styleUrl>#point</styleUrl><Point><altitudeMode>clampToGround</altitudeMode><coordinates>18.398204036056995,-33.938100971281528,178.46000000000001</coordinates></Point></Placemark><Placemark><TimeSpan><begin>2020-03-13T08:09:08Z</begin><end>2020-03-13T08:09:10Z</end></TimeSpan><styleUrl>#point</styleUrl><Point><altitudeMode>clampToGround</altitudeMode><coordinates>18.398234965279698,-33.938332982361317,180.38</coordinates></Point></Placemark><Placemark><TimeSpan><begin>2020-03-13T08:09:10Z</begin><end>2020-03-13T08:09:11Z</end></TimeSpan><styleUrl>#point</styleUrl><Point><altitudeMode>clampToGround</altitudeMode><coordinates>18.398224990814924,-33.938448987901211,181.83000000000001</coordinates></Point></Placemark><Placemark><TimeSpan><begin>2020-03-13T08:09:11Z</begin><end>2020-03-13T08:09:12Z</end></TimeSpan><styleUrl>#point</styleUrl><Point><altitudeMode>clampToGround</altitudeMode><coordinates>18.398201018571854,-33.938562981784344,183.75</coordinates></Point></Placemark><Placemark><TimeSpan><begin>2020-03-13T08:09:12Z</begin><end>2020-03-13T08:09:13Z</end></TimeSpan><styleUrl>#point</styleUrl><Point><altitudeMode>clampToGround</altitudeMode><coordinates>18.39815097860992,-33.938673958182335,183.75</coordinates></Point></Placemark><Placemark><TimeSpan><begin>2020-03-13T08:09:13Z</begin><end>2020-03-13T08:09:14Z</end></TimeSpan><styleUrl>#point</styleUrl><Point><altitudeMode>clampToGround</altitudeMode><coordinates>18.398084007203579,-33.938776971772313,184.71000000000001</coordinates></Point></Placemark><Placemark><TimeSpan><begin>2020-03-13T08:09:14Z</begin><end>2020-03-13T08:09:15Z</end></TimeSpan><styleUrl>#point</styleUrl><Point><altitudeMode>clampToGround</altitudeMode><coordinates>18.397993985563517,-33.938866993412375,187.11000000000001</coordinates></Point></Placemark><Placemark><TimeSpan><begin>2020-03-13T08:09:15Z</begin><end>2020-03-13T08:09:16Z</end></TimeSpan><styleUrl>#point</styleUrl><Point><altitudeMode>clampToGround</altitudeMode><coordinates>18.397903963923454,-33.938949974253774,188.56</coordinates></Point></Placemark><Placemark><TimeSpan><begin>2020-03-13T08:09:16Z</begin><end>2020-03-13T08:09:17Z</end></TimeSpan><styleUrl>#point</styleUrl><Point><altitudeMode>clampToGround</altitudeMode><coordinates>18.397802961990237,-33.939015017822385,189.52000000000001</coordinates></Point></Placemark><Placemark><TimeSpan><begin>2020-03-13T08:09:17Z</begin><end>2020-03-13T08:09:18Z</end></TimeSpan><styleUrl>#point</styleUrl><Point><altitudeMode>clampToGround</altitudeMode><coordinates>18.397687962278724,-33.939072014763951,190.47999999999999</coordinates></Point></Placemark><Placemark><TimeSpan><begin>2020-03-13T08:09:18Z</begin><end>2020-03-13T08:09:19Z</end></TimeSpan><styleUrl>#point</styleUrl><Point><altitudeMode>clampToGround</altitudeMode><coordinates>18.397567011415958,-33.93911300227046,191.44</coordinates></Point></Placemark><Placemark><TimeSpan><begin>2020-03-13T08:09:19Z</begin><end>2020-03-13T08:09:20Z</end></TimeSpan><styleUrl>#point</styleUrl><Point><altitudeMode>clampToGround</altitudeMode><coordinates>18.397439019754529,-33.939142003655434,192.88</coordinates></Point></Placemark><Placemark><TimeSpan><begin>2020-03-13T08:09:20Z</begin><end>2020-03-13T08:09:21Z</end></TimeSpan><styleUrl>#point</styleUrl><Point><altitudeMode>clampToGround</altitudeMode><coordinates>18.397309016436338,-33.939160024747252,194.31999999999999</coordinates></Point></Placemark><Placemark><TimeSpan><begin>2020-03-13T08:09:21Z</begin><end>2020-03-13T08:09:22Z</end></TimeSpan><styleUrl>#point</styleUrl><Point><altitudeMode>clampToGround</altitudeMode><coordinates>18.39718203060329,-33.939187014475465,195.77000000000001</coordinates></Point></Placemark><Placemark><TimeSpan><begin>2020-03-13T08:09:22Z</begin><end>2020-03-13T08:09:24Z</end></TimeSpan><styleUrl>#point</styleUrl><Point><altitudeMode>clampToGround</altitudeMode><coordinates>18.396937027573586,-33.93921903334558,198.16999999999999</coordinates></Point></Placemark><Placemark><TimeSpan><begin>2020-03-13T08:09:24Z</begin><end>2020-03-13T08:09:25Z</end></TimeSpan><styleUrl>#point</styleUrl><Point><altitudeMode>clampToGround</altitudeMode><coordinates>18.396824039518833,-33.939249962568283,199.61000000000001</coordinates></Point></Placemark><Placemark><TimeSpan><begin>2020-03-13T08:09:25Z</begin><end>2020-03-13T08:09:26Z</end></TimeSpan><styleUrl>#point</styleUrl><Point><altitudeMode>clampToGround</altitudeMode><coordinates>18.396720020100474,-33.939298996701837,200.09</coordinates></Point></Placemark><Placemark><TimeSpan><begin>2020-03-13T08:09:26Z</begin><end>2020-03-13T08:09:27Z</end></TimeSpan><styleUrl>#point</styleUrl><Point><altitudeMode>clampToGround</altitudeMode><coordinates>18.396627986803651,-33.939364040270448,201.05000000000001</coordinates></Point></Placemark><Placemark><TimeSpan><begin>2020-03-13T08:09:27Z</begin><end>2020-03-13T08:09:28Z</end></TimeSpan><styleUrl>#point</styleUrl><Point><altitudeMode>clampToGround</altitudeMode><coordinates>18.396556992083788,-33.939453978091478,202.00999999999999</coordinates></Point></Placemark><Placemark><TimeSpan><begin>2020-03-13T08:09:28Z</begin><end>2020-03-13T08:09:29Z</end></TimeSpan><styleUrl>#point</styleUrl><Point><altitudeMode>clampToGround</altitudeMode><coordinates>18.396498989313841,-33.939551962539554,203.46000000000001</coordinates></Point></Placemark><Placemark><TimeSpan><begin>2020-03-13T08:09:29Z</begin><end>2020-03-13T08:09:30Z</end></TimeSpan><styleUrl>#point</styleUrl><Point><altitudeMode>clampToGround</altitudeMode><coordinates>18.396459007635713,-33.939661011099815,205.38</coordinates></Point></Placemark><Placemark><TimeSpan><begin>2020-03-13T08:09:30Z</begin><end>2020-03-13T08:09:31Z</end></TimeSpan><styleUrl>#point</styleUrl><Point><altitudeMode>clampToGround</altitudeMode><coordinates>18.396455990150571,-33.939790008589625,206.81999999999999</coordinates></Point></Placemark><Placemark><TimeSpan><begin>2020-03-13T08:09:31Z</begin><end>2020-03-13T08:09:32Z</end></TimeSpan><styleUrl>#point</styleUrl><Point><altitudeMode>clampToGround</altitudeMode><coordinates>18.396482979878783,-33.939920011907816,209.22</coordinates></Point></Placemark><Placemark><TimeSpan><begin>2020-03-13T08:09:32Z</begin><end>2020-03-13T08:09:33Z</end></TimeSpan><styleUrl>#point</styleUrl><Point><altitudeMode>clampToGround</altitudeMode><coordinates>18.396516004577279,-33.940056972205639,209.69999999999999</coordinates></Point></Placemark><Placemark><TimeSpan><begin>2020-03-13T08:09:33Z</begin><end>2020-03-13T08:09:34Z</end></TimeSpan><styleUrl>#point</styleUrl><Point><altitudeMode>clampToGround</altitudeMode><coordinates>18.396530002355576,-33.940193010494113,211.15000000000001</coordinates></Point></Placemark><Placemark><TimeSpan><begin>2020-03-13T08:09:34Z</begin><end>2020-03-13T08:09:35Z</end></TimeSpan><styleUrl>#point</styleUrl><Point><altitudeMode>clampToGround</altitudeMode><coordinates>18.396520027890801,-33.940327959135175,213.06999999999999</coordinates></Point></Placemark><Placemark><TimeSpan><begin>2020-03-13T08:09:35Z</begin><end>2020-03-13T08:09:36Z</end></TimeSpan><styleUrl>#point</styleUrl><Point><altitudeMode>clampToGround</altitudeMode><coordinates>18.396466970443726,-33.940463997423649,213.55000000000001</coordinates></Point></Placemark><Placemark><TimeSpan><begin>2020-03-13T08:09:36Z</begin><end>2020-03-13T08:09:37Z</end></TimeSpan><styleUrl>#point</styleUrl><Point><altitudeMode>clampToGround</altitudeMode><coordinates>18.396395975723863,-33.940588971599936,214.50999999999999</coordinates></Point></Placemark><Placemark><TimeSpan><begin>2020-03-13T08:09:37Z</begin><end>2020-03-13T08:09:38Z</end></TimeSpan><styleUrl>#point</styleUrl><Point><altitudeMode>clampToGround</altitudeMode><coordinates>18.39630302041769,-33.940710006281734,215.94999999999999</coordinates></Point></Placemark><Placemark><TimeSpan><begin>2020-03-13T08:09:38Z</begin><end>2020-03-13T08:09:39Z</end></TimeSpan><styleUrl>#point</styleUrl><Point><altitudeMode>clampToGround</altitudeMode><coordinates>18.396201012656093,-33.940820982679725,217.88</coordinates></Point></Placemark><Placemark><TimeSpan><begin>2020-03-13T08:09:39Z</begin><end>2020-03-13T08:09:40Z</end></TimeSpan><styleUrl>#point</styleUrl><Point><altitudeMode>clampToGround</altitudeMode><coordinates>18.396094981580973,-33.940922990441322,219.31999999999999</coordinates></Point></Placemark><Placemark><TimeSpan><begin>2020-03-13T08:09:40Z</begin><end>2020-03-13T08:09:52Z</end></TimeSpan><styleUrl>#point</styleUrl><Point><altitudeMode>clampToGround</altitudeMode><coordinates>18.395039029419422,-33.941956982016563,234.22</coordinates></Point></Placemark><Placemark><TimeSpan><begin>2020-03-13T08:09:52Z</begin><end>2020-03-13T08:09:55Z</end></TimeSpan><styleUrl>#point</styleUrl><Point><altitudeMode>clampToGround</altitudeMode><coordinates>18.394816992804408,-33.942127972841263,235.66</coordinates></Point></Placemark><Placemark><TimeSpan><begin>2020-03-13T08:09:55Z</begin><end>2020-03-13T08:09:56Z</end></TimeSpan><styleUrl>#point</styleUrl><Point><altitudeMode>clampToGround</altitudeMode><coordinates>18.394732000306249,-33.942156974226236,235.66</coordinates></Point></Placemark><Placemark><TimeSpan><begin>2020-03-13T08:09:56Z</begin><end>2020-03-13T08:09:57Z</end></TimeSpan><styleUrl>#point</styleUrl><Point><altitudeMode>clampToGround</altitudeMode><coordinates>18.394638039171696,-33.942169966176152,236.13999999999999</coordinates></Point></Placemark><Placemark><TimeSpan><begin>2020-03-13T08:09:57Z</begin><end>2020-03-13T08:09:58Z</end></TimeSpan><styleUrl>#point</styleUrl><Point><altitudeMode>clampToGround</altitudeMode><coordinates>18.394546005874872,-33.942168960347772,236.62</coordinates></Point></Placemark><Placemark><TimeSpan><begin>2020-03-13T08:09:58Z</begin><end>2020-03-13T08:09:59Z</end></TimeSpan><styleUrl>#point</styleUrl><Point><altitudeMode>clampToGround</altitudeMode><coordinates>18.394468976184726,-33.942157980054617,237.09999999999999</coordinates></Point></Placemark><Placemark><TimeSpan><begin>2020-03-13T08:09:59Z</begin><end>2020-03-13T08:10:00Z</end></TimeSpan><styleUrl>#point</styleUrl><Point><altitudeMode>clampToGround</altitudeMode><coordinates>18.394418014213443,-33.942148005589843,237.58000000000001</coordinates></Point></Placemark><Placemark><TimeSpan><begin>2020-03-13T08:10:00Z</begin><end>2020-03-13T08:10:08Z</end></TimeSpan><styleUrl>#point</styleUrl><Point><altitudeMode>clampToGround</altitudeMode><coordinates>18.394385995343328,-33.94212001003325,238.06</coordinates></Point></Placemark><Placemark><TimeSpan><begin>2020-03-13T08:10:08Z</begin><end>2020-03-13T08:10:15Z</end></TimeSpan><styleUrl>#point</styleUrl><Point><altitudeMode>clampToGround</altitudeMode><coordinates>18.394378032535315,-33.942113975062966,238.53999999999999</coordinates></Point></Placemark></Folder><Placemark><name>[148] Kloof Nek Road</name><Style><LineStyle><color>ffff4040</color><width>4</width></LineStyle></Style><MultiGeometry><LineString><coordinates>18.407564023509622,-33.930211002007127,61.18 18.406196013092995,-33.931458983570337,78.969999999999999 18.404930010437965,-33.932614009827375,95.310000000000002 18.403929965570569,-33.933523027226329,108.29000000000001 18.403093032538891,-33.934240015223622,115.5 18.402947019785643,-33.934298017993569,118.38 18.402794972062111,-33.934348979964852,120.3 18.402504036203027,-33.934458028525114,123.19 18.402375038713217,-33.934543021023273,124.63 18.402273030951619,-33.934651985764503,127.03 18.402202958241105,-33.934777965769172,128.47 18.40214503929019,-33.934904029592872,129.91999999999999 18.402073038741946,-33.935020035132766,130.88 18.401984022930264,-33.935121037065983,132.31999999999999 18.401882015168667,-33.935214998200536,133.75999999999999 18.400411996990442,-33.936331970617175,148.18000000000001 18.399588977918029,-33.936915015801787,156.83000000000001 18.399280020967126,-33.937060022726655,159.24000000000001 18.399115987122059,-33.937112996354699,161.63999999999999 18.398657999932766,-33.93728599883616,165 18.398510981351137,-33.937342995777726,167.41 18.398388018831611,-33.937432011589408,168.37 18.398283999413252,-33.9375239610672,170.28999999999999 18.398209987208247,-33.937626974657178,171.72999999999999 18.39817201718688,-33.937744991853833,173.66 18.398163970559835,-33.937867032364011,176.06 18.398179979994893,-33.937983959913254,177.5 18.398204036056995,-33.938100971281528,178.46000000000001 18.398234965279698,-33.938332982361317,180.38 18.398224990814924,-33.938448987901211,181.83000000000001 18.398201018571854,-33.938562981784344,183.75 18.39815097860992,-33.938673958182335,183.75 18.398084007203579,-33.938776971772313,184.71000000000001 18.397993985563517,-33.938866993412375,187.11000000000001 18.397903963923454,-33.938949974253774,188.56 18.397802961990237,-33.939015017822385,189.52000000000001 18.397687962278724,-33.939072014763951,190.47999999999999 18.397567011415958,-33.93911300227046,191.44 18.397439019754529,-33.939142003655434,192.88 18.397309016436338,-33.939160024747252,194.31999999999999 18.39718203060329,-33.939187014475465,195.77000000000001 18.396937027573586,-33.93921903334558,198.16999999999999 18.396824039518833,-33.939249962568283,199.61000000000001 18.396720020100474,-33.939298996701837,200.09 18.396627986803651,-33.939364040270448,201.05000000000001 18.396556992083788,-33.939453978091478,202.00999999999999 18.396498989313841,-33.939551962539554,203.46000000000001 18.396459007635713,-33.939661011099815,205.38 18.396455990150571,-33.939790008589625,206.81999999999999 18.396482979878783,-33.939920011907816,209.22 18.396516004577279,-33.940056972205639,209.69999999999999 18.396530002355576,-33.940193010494113,211.15000000000001 18.396520027890801,-33.940327959135175,213.06999999999999 18.396466970443726,-33.940463997423649,213.55000000000001 18.396395975723863,-33.940588971599936,214.50999999999999 18.39630302041769,-33.940710006281734,215.94999999999999 18.396201012656093,-33.940820982679725,217.88 18.396094981580973,-33.940922990441322,219.31999999999999 18.395039029419422,-33.941956982016563,234.22 18.394816992804408,-33.942127972841263,235.66 18.394732000306249,-33.942156974226236,235.66 18.394638039171696,-33.942169966176152,236.13999999999999 18.394546005874872,-33.942168960347772,236.62 18.394468976184726,-33.942157980054617,237.09999999999999 18.394418014213443,-33.942148005589843,237.58000000000001 18.394385995343328,-33.94212001003325,238.06 18.394378032535315,-33.942113975062966,238.53999999999999 </coordinates></LineString></MultiGeometry></Placemark></Folder></Folder></Document></kml>