<?xml version="1.0" encoding="utf-8"?><kml xmlns="http://www.opengis.net/kml/2.2" xmlns:xsi="http://www.w3.org/2001/XMLSchema-instance" xmlns:kmlx="http://www.google.com/kml/ext/2.2" xmlns:atom="http://www.w3.org/2005/Atom" xmlns:gpxx="http://www.garmin.com/xmlschemas/GpxExtensions/v3"><Document><Style id="point"><IconStyle><scale>0.9</scale><Icon><href>http://maps.google.com/mapfiles/kml/shapes/placemark_circle.png</href></Icon></IconStyle></Style><Folder><name>Tracks</name><Folder><name>[162] Greys Pass (Down)</name><Folder><name>Points</name><Style><ListStyle><listItemType>checkHideChildren</listItemType></ListStyle></Style><Placemark><TimeSpan><begin>2020-03-16T08:27:52Z</begin><end>2020-03-16T08:27:52Z</end></TimeSpan><Style><IconStyle><scale>0.9</scale><Icon><href>http://connect.garmin.com/image/main/icons/kml/grn-play.png</href></Icon></IconStyle></Style><Point><altitudeMode>clampToGround</altitudeMode><coordinates>18.413807032629848,-33.927987031638622,34.259999999999998</coordinates></Point></Placemark><Placemark><TimeSpan><begin>2020-03-16T08:27:52Z</begin><end>2020-03-16T08:27:53Z</end></TimeSpan><styleUrl>#point</styleUrl><Point><altitudeMode>clampToGround</altitudeMode><coordinates>18.413838967680931,-33.928030030801892,33.299999999999997</coordinates></Point></Placemark><Placemark><TimeSpan><begin>2020-03-16T08:27:53Z</begin><end>2020-03-16T08:27:54Z</end></TimeSpan><styleUrl>#point</styleUrl><Point><altitudeMode>clampToGround</altitudeMode><coordinates>18.413894036784768,-33.928072024136782,32.340000000000003</coordinates></Point></Placemark><Placemark><TimeSpan><begin>2020-03-16T08:27:54Z</begin><end>2020-03-16T08:27:55Z</end></TimeSpan><styleUrl>#point</styleUrl><Point><altitudeMode>clampToGround</altitudeMode><coordinates>18.413971988484263,-33.928103037178516,30.899999999999999</coordinates></Point></Placemark><Placemark><TimeSpan><begin>2020-03-16T08:27:55Z</begin><end>2020-03-16T08:27:56Z</end></TimeSpan><styleUrl>#point</styleUrl><Point><altitudeMode>clampToGround</altitudeMode><coordinates>18.414051029831171,-33.928132960572839,28.98</coordinates></Point></Placemark><Placemark><TimeSpan><begin>2020-03-16T08:27:56Z</begin><end>2020-03-16T08:28:03Z</end></TimeSpan><styleUrl>#point</styleUrl><Point><altitudeMode>clampToGround</altitudeMode><coordinates>18.414555033668876,-33.928376035764813,25.129999999999999</coordinates></Point></Placemark></Folder><Placemark><name>[162] Greys Pass (Down)</name><Style><LineStyle><color>ffff4040</color><width>4</width></LineStyle></Style><MultiGeometry><LineString><coordinates>18.413807032629848,-33.927987031638622,34.259999999999998 18.413838967680931,-33.928030030801892,33.299999999999997 18.413894036784768,-33.928072024136782,32.340000000000003 18.413971988484263,-33.928103037178516,30.899999999999999 18.414051029831171,-33.928132960572839,28.98 18.414555033668876,-33.928376035764813,25.129999999999999 </coordinates></LineString></MultiGeometry></Placemark></Folder></Folder></Document></kml>