<?xml version="1.0" encoding="utf-8"?><kml xmlns="http://www.opengis.net/kml/2.2" xmlns:xsi="http://www.w3.org/2001/XMLSchema-instance" xmlns:kmlx="http://www.google.com/kml/ext/2.2" xmlns:atom="http://www.w3.org/2005/Atom" xmlns:gpxx="http://www.garmin.com/xmlschemas/GpxExtensions/v3"><Document><Style id="point"><IconStyle><scale>0.9</scale><Icon><href>http://maps.google.com/mapfiles/kml/shapes/placemark_circle.png</href></Icon></IconStyle></Style><Folder><name>Tracks</name><Folder><name>[175] Kloof Road (Down)</name><Folder><name>Points</name><Style><ListStyle><listItemType>checkHideChildren</listItemType></ListStyle></Style><Placemark><TimeSpan><begin>2020-03-18T08:40:39Z</begin><end>2020-03-18T08:40:39Z</end></TimeSpan><Style><IconStyle><scale>0.9</scale><Icon><href>http://connect.garmin.com/image/main/icons/kml/grn-play.png</href></Icon></IconStyle></Style><Point><altitudeMode>clampToGround</altitudeMode><coordinates>18.394279964268208,-33.942007021978498,246.22999999999999</coordinates></Point></Placemark><Placemark><TimeSpan><begin>2020-03-18T08:40:39Z</begin><end>2020-03-18T08:40:47Z</end></TimeSpan><styleUrl>#point</styleUrl><Point><altitudeMode>clampToGround</altitudeMode><coordinates>18.393599018454552,-33.94156202673912,244.31</coordinates></Point></Placemark><Placemark><TimeSpan><begin>2020-03-18T08:40:47Z</begin><end>2020-03-18T08:40:48Z</end></TimeSpan><styleUrl>#point</styleUrl><Point><altitudeMode>clampToGround</altitudeMode><coordinates>18.393468009307981,-33.941542999818921,243.83000000000001</coordinates></Point></Placemark><Placemark><TimeSpan><begin>2020-03-18T08:40:48Z</begin><end>2020-03-18T08:40:49Z</end></TimeSpan><styleUrl>#point</styleUrl><Point><altitudeMode>clampToGround</altitudeMode><coordinates>18.393320990726352,-33.941551968455315,243.34999999999999</coordinates></Point></Placemark><Placemark><TimeSpan><begin>2020-03-18T08:40:49Z</begin><end>2020-03-18T08:40:53Z</end></TimeSpan><styleUrl>#point</styleUrl><Point><altitudeMode>clampToGround</altitudeMode><coordinates>18.392764013260603,-33.94158398732543,239.99000000000001</coordinates></Point></Placemark><Placemark><TimeSpan><begin>2020-03-18T08:40:53Z</begin><end>2020-03-18T08:40:54Z</end></TimeSpan><styleUrl>#point</styleUrl><Point><altitudeMode>clampToGround</altitudeMode><coordinates>18.392643984407187,-33.941618017852306,239.50999999999999</coordinates></Point></Placemark><Placemark><TimeSpan><begin>2020-03-18T08:40:54Z</begin><end>2020-03-18T08:40:55Z</end></TimeSpan><styleUrl>#point</styleUrl><Point><altitudeMode>clampToGround</altitudeMode><coordinates>18.392529990524054,-33.941674008965492,238.53999999999999</coordinates></Point></Placemark><Placemark><TimeSpan><begin>2020-03-18T08:40:55Z</begin><end>2020-03-18T08:40:56Z</end></TimeSpan><styleUrl>#point</styleUrl><Point><altitudeMode>clampToGround</altitudeMode><coordinates>18.392424965277314,-33.941751960664988,238.06</coordinates></Point></Placemark><Placemark><TimeSpan><begin>2020-03-18T08:40:56Z</begin><end>2020-03-18T08:40:57Z</end></TimeSpan><styleUrl>#point</styleUrl><Point><altitudeMode>clampToGround</altitudeMode><coordinates>18.392327986657619,-33.941837036982179,237.09999999999999</coordinates></Point></Placemark><Placemark><TimeSpan><begin>2020-03-18T08:40:57Z</begin><end>2020-03-18T08:40:58Z</end></TimeSpan><styleUrl>#point</styleUrl><Point><altitudeMode>clampToGround</altitudeMode><coordinates>18.39222296141088,-33.941926974803209,235.66</coordinates></Point></Placemark><Placemark><TimeSpan><begin>2020-03-18T08:40:58Z</begin><end>2020-03-18T08:40:59Z</end></TimeSpan><styleUrl>#point</styleUrl><Point><altitudeMode>clampToGround</altitudeMode><coordinates>18.392106033861637,-33.941999981179833,235.18000000000001</coordinates></Point></Placemark><Placemark><TimeSpan><begin>2020-03-18T08:40:59Z</begin><end>2020-03-18T08:41:00Z</end></TimeSpan><styleUrl>#point</styleUrl><Point><altitudeMode>clampToGround</altitudeMode><coordinates>18.391981981694698,-33.942055972293019,234.22</coordinates></Point></Placemark><Placemark><TimeSpan><begin>2020-03-18T08:41:00Z</begin><end>2020-03-18T08:41:08Z</end></TimeSpan><styleUrl>#point</styleUrl><Point><altitudeMode>clampToGround</altitudeMode><coordinates>18.391040023416281,-33.942485963925719,225.09</coordinates></Point></Placemark><Placemark><TimeSpan><begin>2020-03-18T08:41:08Z</begin><end>2020-03-18T08:41:09Z</end></TimeSpan><styleUrl>#point</styleUrl><Point><altitudeMode>clampToGround</altitudeMode><coordinates>18.390938015654683,-33.942515971139073,223.63999999999999</coordinates></Point></Placemark><Placemark><TimeSpan><begin>2020-03-18T08:41:09Z</begin><end>2020-03-18T08:41:10Z</end></TimeSpan><styleUrl>#point</styleUrl><Point><altitudeMode>clampToGround</altitudeMode><coordinates>18.390839025378227,-33.942526029422879,222.68000000000001</coordinates></Point></Placemark><Placemark><TimeSpan><begin>2020-03-18T08:41:10Z</begin><end>2020-03-18T08:41:11Z</end></TimeSpan><styleUrl>#point</styleUrl><Point><altitudeMode>clampToGround</altitudeMode><coordinates>18.39073802344501,-33.942517982795835,221.72</coordinates></Point></Placemark><Placemark><TimeSpan><begin>2020-03-18T08:41:11Z</begin><end>2020-03-18T08:41:12Z</end></TimeSpan><styleUrl>#point</styleUrl><Point><altitudeMode>clampToGround</altitudeMode><coordinates>18.390626963227987,-33.942500967532396,220.28</coordinates></Point></Placemark><Placemark><TimeSpan><begin>2020-03-18T08:41:12Z</begin><end>2020-03-18T08:41:13Z</end></TimeSpan><styleUrl>#point</styleUrl><Point><altitudeMode>clampToGround</altitudeMode><coordinates>18.390517998486757,-33.942482024431229,219.31999999999999</coordinates></Point></Placemark><Placemark><TimeSpan><begin>2020-03-18T08:41:13Z</begin><end>2020-03-18T08:41:16Z</end></TimeSpan><styleUrl>#point</styleUrl><Point><altitudeMode>clampToGround</altitudeMode><coordinates>18.39020099490881,-33.942456040531397,215.94999999999999</coordinates></Point></Placemark><Placemark><TimeSpan><begin>2020-03-18T08:41:16Z</begin><end>2020-03-18T08:41:17Z</end></TimeSpan><styleUrl>#point</styleUrl><Point><altitudeMode>clampToGround</altitudeMode><coordinates>18.390094041824341,-33.942466014996171,214.99000000000001</coordinates></Point></Placemark><Placemark><TimeSpan><begin>2020-03-18T08:41:17Z</begin><end>2020-03-18T08:41:18Z</end></TimeSpan><styleUrl>#point</styleUrl><Point><altitudeMode>clampToGround</altitudeMode><coordinates>18.389977030456066,-33.942493004724383,212.59</coordinates></Point></Placemark><Placemark><TimeSpan><begin>2020-03-18T08:41:18Z</begin><end>2020-03-18T08:41:19Z</end></TimeSpan><styleUrl>#point</styleUrl><Point><altitudeMode>clampToGround</altitudeMode><coordinates>18.389859013259411,-33.942531980574131,210.19</coordinates></Point></Placemark><Placemark><TimeSpan><begin>2020-03-18T08:41:19Z</begin><end>2020-03-18T08:41:20Z</end></TimeSpan><styleUrl>#point</styleUrl><Point><altitudeMode>clampToGround</altitudeMode><coordinates>18.389738984405994,-33.942584032192826,208.25999999999999</coordinates></Point></Placemark><Placemark><TimeSpan><begin>2020-03-18T08:41:20Z</begin><end>2020-03-18T08:41:24Z</end></TimeSpan><styleUrl>#point</styleUrl><Point><altitudeMode>clampToGround</altitudeMode><coordinates>18.389287032186985,-33.942757034674287,202.97999999999999</coordinates></Point></Placemark><Placemark><TimeSpan><begin>2020-03-18T08:41:24Z</begin><end>2020-03-18T08:41:25Z</end></TimeSpan><styleUrl>#point</styleUrl><Point><altitudeMode>clampToGround</altitudeMode><coordinates>18.389153005555272,-33.942772960290313,202.00999999999999</coordinates></Point></Placemark><Placemark><TimeSpan><begin>2020-03-18T08:41:25Z</begin><end>2020-03-18T08:41:26Z</end></TimeSpan><styleUrl>#point</styleUrl><Point><altitudeMode>clampToGround</altitudeMode><coordinates>18.38902099058032,-33.942775977775455,201.05000000000001</coordinates></Point></Placemark><Placemark><TimeSpan><begin>2020-03-18T08:41:26Z</begin><end>2020-03-18T08:41:27Z</end></TimeSpan><styleUrl>#point</styleUrl><Point><altitudeMode>clampToGround</altitudeMode><coordinates>18.388896016404033,-33.942754017189145,199.61000000000001</coordinates></Point></Placemark><Placemark><TimeSpan><begin>2020-03-18T08:41:27Z</begin><end>2020-03-18T08:41:28Z</end></TimeSpan><styleUrl>#point</styleUrl><Point><altitudeMode>clampToGround</altitudeMode><coordinates>18.388779005035758,-33.942714035511017,198.65000000000001</coordinates></Point></Placemark><Placemark><TimeSpan><begin>2020-03-18T08:41:28Z</begin><end>2020-03-18T08:41:29Z</end></TimeSpan><styleUrl>#point</styleUrl><Point><altitudeMode>clampToGround</altitudeMode><coordinates>18.388671968132257,-33.942667013034225,197.69</coordinates></Point></Placemark><Placemark><TimeSpan><begin>2020-03-18T08:41:29Z</begin><end>2020-03-18T08:41:30Z</end></TimeSpan><styleUrl>#point</styleUrl><Point><altitudeMode>clampToGround</altitudeMode><coordinates>18.38856803253293,-33.942617978900671,197.21000000000001</coordinates></Point></Placemark><Placemark><TimeSpan><begin>2020-03-18T08:41:30Z</begin><end>2020-03-18T08:41:31Z</end></TimeSpan><styleUrl>#point</styleUrl><Point><altitudeMode>clampToGround</altitudeMode><coordinates>18.388463007286191,-33.942584032192826,194.80000000000001</coordinates></Point></Placemark><Placemark><TimeSpan><begin>2020-03-18T08:41:31Z</begin><end>2020-03-18T08:41:32Z</end></TimeSpan><styleUrl>#point</styleUrl><Point><altitudeMode>clampToGround</altitudeMode><coordinates>18.38835303671658,-33.942574979737401,193.36000000000001</coordinates></Point></Placemark><Placemark><TimeSpan><begin>2020-03-18T08:41:32Z</begin><end>2020-03-18T08:41:33Z</end></TimeSpan><styleUrl>#point</styleUrl><Point><altitudeMode>clampToGround</altitudeMode><coordinates>18.388241976499557,-33.942603981122375,191.44</coordinates></Point></Placemark><Placemark><TimeSpan><begin>2020-03-18T08:41:33Z</begin><end>2020-03-18T08:41:34Z</end></TimeSpan><styleUrl>#point</styleUrl><Point><altitudeMode>clampToGround</altitudeMode><coordinates>18.388163018971682,-33.942661983892322,190.47999999999999</coordinates></Point></Placemark><Placemark><TimeSpan><begin>2020-03-18T08:41:34Z</begin><end>2020-03-18T08:41:35Z</end></TimeSpan><styleUrl>#point</styleUrl><Point><altitudeMode>clampToGround</altitudeMode><coordinates>18.388123037293553,-33.94274203106761,190.47999999999999</coordinates></Point></Placemark><Placemark><TimeSpan><begin>2020-03-18T08:41:35Z</begin><end>2020-03-18T08:41:36Z</end></TimeSpan><styleUrl>#point</styleUrl><Point><altitudeMode>clampToGround</altitudeMode><coordinates>18.38813804090023,-33.942824006080627,190.47999999999999</coordinates></Point></Placemark><Placemark><TimeSpan><begin>2020-03-18T08:41:36Z</begin><end>2020-03-18T08:41:37Z</end></TimeSpan><styleUrl>#point</styleUrl><Point><altitudeMode>clampToGround</altitudeMode><coordinates>18.38818296790123,-33.942896006628871,189.52000000000001</coordinates></Point></Placemark><Placemark><TimeSpan><begin>2020-03-18T08:41:37Z</begin><end>2020-03-18T08:41:38Z</end></TimeSpan><styleUrl>#point</styleUrl><Point><altitudeMode>clampToGround</altitudeMode><coordinates>18.388265026733279,-33.942944034934044,189.03999999999999</coordinates></Point></Placemark><Placemark><TimeSpan><begin>2020-03-18T08:41:38Z</begin><end>2020-03-18T08:41:39Z</end></TimeSpan><styleUrl>#point</styleUrl><Point><altitudeMode>clampToGround</altitudeMode><coordinates>18.388366028666496,-33.942973036319017,187.11000000000001</coordinates></Point></Placemark><Placemark><TimeSpan><begin>2020-03-18T08:41:39Z</begin><end>2020-03-18T08:41:40Z</end></TimeSpan><styleUrl>#point</styleUrl><Point><altitudeMode>clampToGround</altitudeMode><coordinates>18.388468958437443,-33.942990973591805,185.66999999999999</coordinates></Point></Placemark><Placemark><TimeSpan><begin>2020-03-18T08:41:40Z</begin><end>2020-03-18T08:41:41Z</end></TimeSpan><styleUrl>#point</styleUrl><Point><altitudeMode>clampToGround</altitudeMode><coordinates>18.388580018654466,-33.94300103187561,184.71000000000001</coordinates></Point></Placemark><Placemark><TimeSpan><begin>2020-03-18T08:41:41Z</begin><end>2020-03-18T08:41:44Z</end></TimeSpan><styleUrl>#point</styleUrl><Point><altitudeMode>clampToGround</altitudeMode><coordinates>18.388926023617387,-33.943036990240216,179.90000000000001</coordinates></Point></Placemark><Placemark><TimeSpan><begin>2020-03-18T08:41:44Z</begin><end>2020-03-18T08:41:45Z</end></TimeSpan><styleUrl>#point</styleUrl><Point><altitudeMode>clampToGround</altitudeMode><coordinates>18.389032976701856,-33.943069009110332,178.46000000000001</coordinates></Point></Placemark><Placemark><TimeSpan><begin>2020-03-18T08:41:45Z</begin><end>2020-03-18T08:41:46Z</end></TimeSpan><styleUrl>#point</styleUrl><Point><altitudeMode>clampToGround</altitudeMode><coordinates>18.389117969200015,-33.943117037415504,178.46000000000001</coordinates></Point></Placemark><Placemark><TimeSpan><begin>2020-03-18T08:41:46Z</begin><end>2020-03-18T08:41:47Z</end></TimeSpan><styleUrl>#point</styleUrl><Point><altitudeMode>clampToGround</altitudeMode><coordinates>18.389173960313201,-33.943183002993464,177.02000000000001</coordinates></Point></Placemark><Placemark><TimeSpan><begin>2020-03-18T08:41:47Z</begin><end>2020-03-18T08:41:48Z</end></TimeSpan><styleUrl>#point</styleUrl><Point><altitudeMode>clampToGround</altitudeMode><coordinates>18.389205979183316,-33.943255003541708,176.06</coordinates></Point></Placemark><Placemark><TimeSpan><begin>2020-03-18T08:41:48Z</begin><end>2020-03-18T08:41:49Z</end></TimeSpan><styleUrl>#point</styleUrl><Point><altitudeMode>clampToGround</altitudeMode><coordinates>18.389205979183316,-33.943332033231854,175.58000000000001</coordinates></Point></Placemark><Placemark><TimeSpan><begin>2020-03-18T08:41:49Z</begin><end>2020-03-18T08:41:50Z</end></TimeSpan><styleUrl>#point</styleUrl><Point><altitudeMode>clampToGround</altitudeMode><coordinates>18.389179995283484,-33.943407973274589,174.13999999999999</coordinates></Point></Placemark><Placemark><TimeSpan><begin>2020-03-18T08:41:50Z</begin><end>2020-03-18T08:41:51Z</end></TimeSpan><styleUrl>#point</styleUrl><Point><altitudeMode>clampToGround</altitudeMode><coordinates>18.389122998341918,-33.94347402267158,173.16999999999999</coordinates></Point></Placemark><Placemark><TimeSpan><begin>2020-03-18T08:41:51Z</begin><end>2020-03-18T08:41:52Z</end></TimeSpan><styleUrl>#point</styleUrl><Point><altitudeMode>clampToGround</altitudeMode><coordinates>18.38904001750052,-33.943520961329341,172.69</coordinates></Point></Placemark><Placemark><TimeSpan><begin>2020-03-18T08:41:52Z</begin><end>2020-03-18T08:41:53Z</end></TimeSpan><styleUrl>#point</styleUrl><Point><altitudeMode>clampToGround</altitudeMode><coordinates>18.3889339864254,-33.943543005734682,172.21000000000001</coordinates></Point></Placemark><Placemark><TimeSpan><begin>2020-03-18T08:41:53Z</begin><end>2020-03-18T08:41:54Z</end></TimeSpan><styleUrl>#point</styleUrl><Point><altitudeMode>clampToGround</altitudeMode><coordinates>18.388820998370647,-33.943541999906301,171.25</coordinates></Point></Placemark><Placemark><TimeSpan><begin>2020-03-18T08:41:54Z</begin><end>2020-03-18T08:41:55Z</end></TimeSpan><styleUrl>#point</styleUrl><Point><altitudeMode>clampToGround</altitudeMode><coordinates>18.388707004487514,-33.943523978814483,170.28999999999999</coordinates></Point></Placemark><Placemark><TimeSpan><begin>2020-03-18T08:41:55Z</begin><end>2020-03-18T08:41:56Z</end></TimeSpan><styleUrl>#point</styleUrl><Point><altitudeMode>clampToGround</altitudeMode><coordinates>18.388583958148956,-33.943497994914651,169.33000000000001</coordinates></Point></Placemark><Placemark><TimeSpan><begin>2020-03-18T08:41:56Z</begin><end>2020-03-18T08:41:58Z</end></TimeSpan><styleUrl>#point</styleUrl><Point><altitudeMode>clampToGround</altitudeMode><coordinates>18.388338033109903,-33.943480979651213,166.93000000000001</coordinates></Point></Placemark><Placemark><TimeSpan><begin>2020-03-18T08:41:58Z</begin><end>2020-03-18T08:41:59Z</end></TimeSpan><styleUrl>#point</styleUrl><Point><altitudeMode>clampToGround</altitudeMode><coordinates>18.388198977336287,-33.943502018228173,166.44999999999999</coordinates></Point></Placemark><Placemark><TimeSpan><begin>2020-03-18T08:41:59Z</begin><end>2020-03-18T08:42:00Z</end></TimeSpan><styleUrl>#point</styleUrl><Point><altitudeMode>clampToGround</altitudeMode><coordinates>18.388079032301903,-33.943537976592779,165.47999999999999</coordinates></Point></Placemark><Placemark><TimeSpan><begin>2020-03-18T08:42:00Z</begin><end>2020-03-18T08:42:01Z</end></TimeSpan><styleUrl>#point</styleUrl><Point><altitudeMode>clampToGround</altitudeMode><coordinates>18.387973001226783,-33.943586004897952,164.52000000000001</coordinates></Point></Placemark><Placemark><TimeSpan><begin>2020-03-18T08:42:01Z</begin><end>2020-03-18T08:42:02Z</end></TimeSpan><styleUrl>#point</styleUrl><Point><altitudeMode>clampToGround</altitudeMode><coordinates>18.387880967929959,-33.943644007667899,164.03999999999999</coordinates></Point></Placemark><Placemark><TimeSpan><begin>2020-03-18T08:42:02Z</begin><end>2020-03-18T08:42:03Z</end></TimeSpan><styleUrl>#point</styleUrl><Point><altitudeMode>clampToGround</altitudeMode><coordinates>18.38779698126018,-33.943702010437846,163.08000000000001</coordinates></Point></Placemark><Placemark><TimeSpan><begin>2020-03-18T08:42:03Z</begin><end>2020-03-18T08:42:05Z</end></TimeSpan><styleUrl>#point</styleUrl><Point><altitudeMode>clampToGround</altitudeMode><coordinates>18.387620961293578,-33.943777028471231,161.16</coordinates></Point></Placemark><Placemark><TimeSpan><begin>2020-03-18T08:42:05Z</begin><end>2020-03-18T08:42:06Z</end></TimeSpan><styleUrl>#point</styleUrl><Point><altitudeMode>clampToGround</altitudeMode><coordinates>18.387522976845503,-33.943789014592767,160.19999999999999</coordinates></Point></Placemark><Placemark><TimeSpan><begin>2020-03-18T08:42:06Z</begin><end>2020-03-18T08:42:07Z</end></TimeSpan><styleUrl>#point</styleUrl><Point><altitudeMode>clampToGround</altitudeMode><coordinates>18.387427004054189,-33.943795971572399,159.24000000000001</coordinates></Point></Placemark><Placemark><TimeSpan><begin>2020-03-18T08:42:07Z</begin><end>2020-03-18T08:42:17Z</end></TimeSpan><styleUrl>#point</styleUrl><Point><altitudeMode>clampToGround</altitudeMode><coordinates>18.386287987232208,-33.94366898573935,149.62</coordinates></Point></Placemark><Placemark><TimeSpan><begin>2020-03-18T08:42:17Z</begin><end>2020-03-18T08:42:20Z</end></TimeSpan><styleUrl>#point</styleUrl><Point><altitudeMode>clampToGround</altitudeMode><coordinates>18.38592697866261,-33.943572007119656,145.30000000000001</coordinates></Point></Placemark><Placemark><TimeSpan><begin>2020-03-18T08:42:20Z</begin><end>2020-03-18T08:42:21Z</end></TimeSpan><styleUrl>#point</styleUrl><Point><altitudeMode>clampToGround</altitudeMode><coordinates>18.385819019749761,-33.943515010178089,144.34</coordinates></Point></Placemark><Placemark><TimeSpan><begin>2020-03-18T08:42:21Z</begin><end>2020-03-18T08:42:22Z</end></TimeSpan><styleUrl>#point</styleUrl><Point><altitudeMode>clampToGround</altitudeMode><coordinates>18.385730003938079,-33.943433035165071,144.81999999999999</coordinates></Point></Placemark><Placemark><TimeSpan><begin>2020-03-18T08:42:22Z</begin><end>2020-03-18T08:42:23Z</end></TimeSpan><styleUrl>#point</styleUrl><Point><altitudeMode>clampToGround</altitudeMode><coordinates>18.385650962591171,-33.943349970504642,143.84999999999999</coordinates></Point></Placemark><Placemark><TimeSpan><begin>2020-03-18T08:42:23Z</begin><end>2020-03-18T08:42:24Z</end></TimeSpan><styleUrl>#point</styleUrl><Point><altitudeMode>clampToGround</altitudeMode><coordinates>18.385567981749773,-33.943267995491624,142.41</coordinates></Point></Placemark><Placemark><TimeSpan><begin>2020-03-18T08:42:24Z</begin><end>2020-03-18T08:42:25Z</end></TimeSpan><styleUrl>#point</styleUrl><Point><altitudeMode>clampToGround</altitudeMode><coordinates>18.385461028665304,-33.94321502186358,141.93000000000001</coordinates></Point></Placemark><Placemark><TimeSpan><begin>2020-03-18T08:42:25Z</begin><end>2020-03-18T08:42:26Z</end></TimeSpan><styleUrl>#point</styleUrl><Point><altitudeMode>clampToGround</altitudeMode><coordinates>18.385353991761804,-33.943170011043549,141.93000000000001</coordinates></Point></Placemark><Placemark><TimeSpan><begin>2020-03-18T08:42:26Z</begin><end>2020-03-18T08:42:27Z</end></TimeSpan><styleUrl>#point</styleUrl><Point><altitudeMode>clampToGround</altitudeMode><coordinates>18.38523798622191,-33.943148972466588,141.44999999999999</coordinates></Point></Placemark><Placemark><TimeSpan><begin>2020-03-18T08:42:27Z</begin><end>2020-03-18T08:42:28Z</end></TimeSpan><styleUrl>#point</styleUrl><Point><altitudeMode>clampToGround</altitudeMode><coordinates>18.385126003995538,-33.943142015486956,140.49000000000001</coordinates></Point></Placemark><Placemark><TimeSpan><begin>2020-03-18T08:42:28Z</begin><end>2020-03-18T08:42:29Z</end></TimeSpan><styleUrl>#point</styleUrl><Point><altitudeMode>clampToGround</altitudeMode><coordinates>18.385016033425927,-33.943136986345053,139.53</coordinates></Point></Placemark><Placemark><TimeSpan><begin>2020-03-18T08:42:29Z</begin><end>2020-03-18T08:42:34Z</end></TimeSpan><styleUrl>#point</styleUrl><Point><altitudeMode>clampToGround</altitudeMode><coordinates>18.384389989078045,-33.943071020767093,135.68000000000001</coordinates></Point></Placemark><Placemark><TimeSpan><begin>2020-03-18T08:42:34Z</begin><end>2020-03-18T08:42:35Z</end></TimeSpan><styleUrl>#point</styleUrl><Point><altitudeMode>clampToGround</altitudeMode><coordinates>18.384245987981558,-33.943077977746725,135.19999999999999</coordinates></Point></Placemark><Placemark><TimeSpan><begin>2020-03-18T08:42:35Z</begin><end>2020-03-18T08:42:40Z</end></TimeSpan><styleUrl>#point</styleUrl><Point><altitudeMode>clampToGround</altitudeMode><coordinates>18.383491029962897,-33.943115025758743,128.94999999999999</coordinates></Point></Placemark><Placemark><TimeSpan><begin>2020-03-18T08:42:40Z</begin><end>2020-03-18T08:42:44Z</end></TimeSpan><styleUrl>#point</styleUrl><Point><altitudeMode>clampToGround</altitudeMode><coordinates>18.382886024191976,-33.943079989403486,125.59</coordinates></Point></Placemark><Placemark><TimeSpan><begin>2020-03-18T08:42:44Z</begin><end>2020-03-18T08:42:45Z</end></TimeSpan><styleUrl>#point</styleUrl><Point><altitudeMode>clampToGround</altitudeMode><coordinates>18.382735988125205,-33.943091975525022,124.63</coordinates></Point></Placemark><Placemark><TimeSpan><begin>2020-03-18T08:42:45Z</begin><end>2020-03-18T08:42:46Z</end></TimeSpan><styleUrl>#point</styleUrl><Point><altitudeMode>clampToGround</altitudeMode><coordinates>18.382592992857099,-33.943118965253234,122.22</coordinates></Point></Placemark><Placemark><TimeSpan><begin>2020-03-18T08:42:46Z</begin><end>2020-03-18T08:42:47Z</end></TimeSpan><styleUrl>#point</styleUrl><Point><altitudeMode>clampToGround</altitudeMode><coordinates>18.382452009245753,-33.943160036578774,121.26000000000001</coordinates></Point></Placemark><Placemark><TimeSpan><begin>2020-03-18T08:42:47Z</begin><end>2020-03-18T08:42:48Z</end></TimeSpan><styleUrl>#point</styleUrl><Point><altitudeMode>clampToGround</altitudeMode><coordinates>18.382314965128899,-33.943220973014832,119.81999999999999</coordinates></Point></Placemark><Placemark><TimeSpan><begin>2020-03-18T08:42:48Z</begin><end>2020-03-18T08:42:49Z</end></TimeSpan><styleUrl>#point</styleUrl><Point><altitudeMode>clampToGround</altitudeMode><coordinates>18.382183033972979,-33.943294985219836,118.38</coordinates></Point></Placemark><Placemark><TimeSpan><begin>2020-03-18T08:42:49Z</begin><end>2020-03-18T08:42:50Z</end></TimeSpan><styleUrl>#point</styleUrl><Point><altitudeMode>clampToGround</altitudeMode><coordinates>18.382053030654788,-33.943373020738363,116.45999999999999</coordinates></Point></Placemark><Placemark><TimeSpan><begin>2020-03-18T08:42:50Z</begin><end>2020-03-18T08:42:53Z</end></TimeSpan><styleUrl>#point</styleUrl><Point><altitudeMode>clampToGround</altitudeMode><coordinates>18.381666038185358,-33.943593967705965,112.13</coordinates></Point></Placemark><Placemark><TimeSpan><begin>2020-03-18T08:42:53Z</begin><end>2020-03-18T08:42:54Z</end></TimeSpan><styleUrl>#point</styleUrl><Point><altitudeMode>clampToGround</altitudeMode><coordinates>18.38152295909822,-33.943643001839519,110.69</coordinates></Point></Placemark><Placemark><TimeSpan><begin>2020-03-18T08:42:54Z</begin><end>2020-03-18T08:42:55Z</end></TimeSpan><styleUrl>#point</styleUrl><Point><altitudeMode>clampToGround</altitudeMode><coordinates>18.381373006850481,-33.943678960204124,109.25</coordinates></Point></Placemark><Placemark><TimeSpan><begin>2020-03-18T08:42:55Z</begin><end>2020-03-18T08:43:01Z</end></TimeSpan><styleUrl>#point</styleUrl><Point><altitudeMode>clampToGround</altitudeMode><coordinates>18.380456026643515,-33.943822039291263,103.48</coordinates></Point></Placemark><Placemark><TimeSpan><begin>2020-03-18T08:43:01Z</begin><end>2020-03-18T08:43:02Z</end></TimeSpan><styleUrl>#point</styleUrl><Point><altitudeMode>clampToGround</altitudeMode><coordinates>18.380325017496943,-33.943812986835837,102.04000000000001</coordinates></Point></Placemark><Placemark><TimeSpan><begin>2020-03-18T08:43:02Z</begin><end>2020-03-18T08:43:03Z</end></TimeSpan><styleUrl>#point</styleUrl><Point><altitudeMode>clampToGround</altitudeMode><coordinates>18.38018998503685,-33.943790020421147,100.59999999999999</coordinates></Point></Placemark><Placemark><TimeSpan><begin>2020-03-18T08:43:03Z</begin><end>2020-03-18T08:43:04Z</end></TimeSpan><styleUrl>#point</styleUrl><Point><altitudeMode>clampToGround</altitudeMode><coordinates>18.380056964233518,-33.94375498406589,99.629999999999995</coordinates></Point></Placemark><Placemark><TimeSpan><begin>2020-03-18T08:43:04Z</begin><end>2020-03-18T08:43:05Z</end></TimeSpan><styleUrl>#point</styleUrl><Point><altitudeMode>clampToGround</altitudeMode><coordinates>18.379917992278934,-33.943705027922988,98.189999999999998</coordinates></Point></Placemark><Placemark><TimeSpan><begin>2020-03-18T08:43:05Z</begin><end>2020-03-18T08:43:06Z</end></TimeSpan><styleUrl>#point</styleUrl><Point><altitudeMode>clampToGround</altitudeMode><coordinates>18.379776002839208,-33.943647025153041,96.75</coordinates></Point></Placemark><Placemark><TimeSpan><begin>2020-03-18T08:43:06Z</begin><end>2020-03-18T08:43:16Z</end></TimeSpan><styleUrl>#point</styleUrl><Point><altitudeMode>clampToGround</altitudeMode><coordinates>18.378398017957807,-33.942972030490637,84.25</coordinates></Point></Placemark><Placemark><TimeSpan><begin>2020-03-18T08:43:16Z</begin><end>2020-03-18T08:43:20Z</end></TimeSpan><styleUrl>#point</styleUrl><Point><altitudeMode>clampToGround</altitudeMode><coordinates>18.377984035760164,-33.942629965022206,82.329999999999998</coordinates></Point></Placemark><Placemark><TimeSpan><begin>2020-03-18T08:43:20Z</begin><end>2020-03-18T08:43:21Z</end></TimeSpan><styleUrl>#point</styleUrl><Point><altitudeMode>clampToGround</altitudeMode><coordinates>18.377901976928115,-33.942532986402512,81.849999999999994</coordinates></Point></Placemark><Placemark><TimeSpan><begin>2020-03-18T08:43:21Z</begin><end>2020-03-18T08:43:22Z</end></TimeSpan><styleUrl>#point</styleUrl><Point><altitudeMode>clampToGround</altitudeMode><coordinates>18.377835005521774,-33.94244103692472,80.890000000000001</coordinates></Point></Placemark><Placemark><TimeSpan><begin>2020-03-18T08:43:22Z</begin><end>2020-03-18T08:43:23Z</end></TimeSpan><styleUrl>#point</styleUrl><Point><altitudeMode>clampToGround</altitudeMode><coordinates>18.377786977216601,-33.942352021113038,80.409999999999997</coordinates></Point></Placemark><Placemark><TimeSpan><begin>2020-03-18T08:43:23Z</begin><end>2020-03-18T08:43:24Z</end></TimeSpan><styleUrl>#point</styleUrl><Point><altitudeMode>clampToGround</altitudeMode><coordinates>18.377753030508757,-33.942261999472976,79.450000000000003</coordinates></Point></Placemark><Placemark><TimeSpan><begin>2020-03-18T08:43:24Z</begin><end>2020-03-18T08:43:25Z</end></TimeSpan><styleUrl>#point</styleUrl><Point><altitudeMode>clampToGround</altitudeMode><coordinates>18.37774096056819,-33.942172983661294,78.480000000000004</coordinates></Point></Placemark><Placemark><TimeSpan><begin>2020-03-18T08:43:25Z</begin><end>2020-03-18T08:43:26Z</end></TimeSpan><styleUrl>#point</styleUrl><Point><altitudeMode>clampToGround</altitudeMode><coordinates>18.377746995538473,-33.942074999213219,78</coordinates></Point></Placemark><Placemark><TimeSpan><begin>2020-03-18T08:43:26Z</begin><end>2020-03-18T08:43:27Z</end></TimeSpan><styleUrl>#point</styleUrl><Point><altitudeMode>clampToGround</altitudeMode><coordinates>18.377756970003247,-33.94197198562324,78</coordinates></Point></Placemark><Placemark><TimeSpan><begin>2020-03-18T08:43:27Z</begin><end>2020-03-18T08:43:28Z</end></TimeSpan><styleUrl>#point</styleUrl><Point><altitudeMode>clampToGround</altitudeMode><coordinates>18.377779014408588,-33.941868972033262,77.040000000000006</coordinates></Point></Placemark><Placemark><TimeSpan><begin>2020-03-18T08:43:28Z</begin><end>2020-03-18T08:43:36Z</end></TimeSpan><styleUrl>#point</styleUrl><Point><altitudeMode>clampToGround</altitudeMode><coordinates>18.377936007454991,-33.941060034558177,67.909999999999997</coordinates></Point></Placemark><Placemark><TimeSpan><begin>2020-03-18T08:43:36Z</begin><end>2020-03-18T08:43:37Z</end></TimeSpan><styleUrl>#point</styleUrl><Point><altitudeMode>clampToGround</altitudeMode><coordinates>18.377961991354823,-33.940971018746495,67.430000000000007</coordinates></Point></Placemark><Placemark><TimeSpan><begin>2020-03-18T08:43:37Z</begin><end>2020-03-18T08:43:40Z</end></TimeSpan><styleUrl>#point</styleUrl><Point><altitudeMode>clampToGround</altitudeMode><coordinates>18.378028962761164,-33.94078996963799,67.430000000000007</coordinates></Point></Placemark><Placemark><TimeSpan><begin>2020-03-18T08:43:40Z</begin><end>2020-03-18T08:43:41Z</end></TimeSpan><styleUrl>#point</styleUrl><Point><altitudeMode>clampToGround</altitudeMode><coordinates>18.378029968589544,-33.940743030980229,66.469999999999999</coordinates></Point></Placemark><Placemark><TimeSpan><begin>2020-03-18T08:43:41Z</begin><end>2020-03-18T08:43:42Z</end></TimeSpan><styleUrl>#point</styleUrl><Point><altitudeMode>clampToGround</altitudeMode><coordinates>18.378029968589544,-33.940716963261366,66.469999999999999</coordinates></Point></Placemark><Placemark><TimeSpan><begin>2020-03-18T08:43:42Z</begin><end>2020-03-18T08:43:44Z</end></TimeSpan><styleUrl>#point</styleUrl><Point><altitudeMode>clampToGround</altitudeMode><coordinates>18.378028962761164,-33.94066097214818,66.950000000000003</coordinates></Point></Placemark></Folder><Placemark><name>[175] Kloof Road (Down)</name><Style><LineStyle><color>ffff4040</color><width>4</width></LineStyle></Style><MultiGeometry><LineString><coordinates>18.394279964268208,-33.942007021978498,246.22999999999999 18.393599018454552,-33.94156202673912,244.31 18.393468009307981,-33.941542999818921,243.83000000000001 18.393320990726352,-33.941551968455315,243.34999999999999 18.392764013260603,-33.94158398732543,239.99000000000001 18.392643984407187,-33.941618017852306,239.50999999999999 18.392529990524054,-33.941674008965492,238.53999999999999 18.392424965277314,-33.941751960664988,238.06 18.392327986657619,-33.941837036982179,237.09999999999999 18.39222296141088,-33.941926974803209,235.66 18.392106033861637,-33.941999981179833,235.18000000000001 18.391981981694698,-33.942055972293019,234.22 18.391040023416281,-33.942485963925719,225.09 18.390938015654683,-33.942515971139073,223.63999999999999 18.390839025378227,-33.942526029422879,222.68000000000001 18.39073802344501,-33.942517982795835,221.72 18.390626963227987,-33.942500967532396,220.28 18.390517998486757,-33.942482024431229,219.31999999999999 18.39020099490881,-33.942456040531397,215.94999999999999 18.390094041824341,-33.942466014996171,214.99000000000001 18.389977030456066,-33.942493004724383,212.59 18.389859013259411,-33.942531980574131,210.19 18.389738984405994,-33.942584032192826,208.25999999999999 18.389287032186985,-33.942757034674287,202.97999999999999 18.389153005555272,-33.942772960290313,202.00999999999999 18.38902099058032,-33.942775977775455,201.05000000000001 18.388896016404033,-33.942754017189145,199.61000000000001 18.388779005035758,-33.942714035511017,198.65000000000001 18.388671968132257,-33.942667013034225,197.69 18.38856803253293,-33.942617978900671,197.21000000000001 18.388463007286191,-33.942584032192826,194.80000000000001 18.38835303671658,-33.942574979737401,193.36000000000001 18.388241976499557,-33.942603981122375,191.44 18.388163018971682,-33.942661983892322,190.47999999999999 18.388123037293553,-33.94274203106761,190.47999999999999 18.38813804090023,-33.942824006080627,190.47999999999999 18.38818296790123,-33.942896006628871,189.52000000000001 18.388265026733279,-33.942944034934044,189.03999999999999 18.388366028666496,-33.942973036319017,187.11000000000001 18.388468958437443,-33.942990973591805,185.66999999999999 18.388580018654466,-33.94300103187561,184.71000000000001 18.388926023617387,-33.943036990240216,179.90000000000001 18.389032976701856,-33.943069009110332,178.46000000000001 18.389117969200015,-33.943117037415504,178.46000000000001 18.389173960313201,-33.943183002993464,177.02000000000001 18.389205979183316,-33.943255003541708,176.06 18.389205979183316,-33.943332033231854,175.58000000000001 18.389179995283484,-33.943407973274589,174.13999999999999 18.389122998341918,-33.94347402267158,173.16999999999999 18.38904001750052,-33.943520961329341,172.69 18.3889339864254,-33.943543005734682,172.21000000000001 18.388820998370647,-33.943541999906301,171.25 18.388707004487514,-33.943523978814483,170.28999999999999 18.388583958148956,-33.943497994914651,169.33000000000001 18.388338033109903,-33.943480979651213,166.93000000000001 18.388198977336287,-33.943502018228173,166.44999999999999 18.388079032301903,-33.943537976592779,165.47999999999999 18.387973001226783,-33.943586004897952,164.52000000000001 18.387880967929959,-33.943644007667899,164.03999999999999 18.38779698126018,-33.943702010437846,163.08000000000001 18.387620961293578,-33.943777028471231,161.16 18.387522976845503,-33.943789014592767,160.19999999999999 18.387427004054189,-33.943795971572399,159.24000000000001 18.386287987232208,-33.94366898573935,149.62 18.38592697866261,-33.943572007119656,145.30000000000001 18.385819019749761,-33.943515010178089,144.34 18.385730003938079,-33.943433035165071,144.81999999999999 18.385650962591171,-33.943349970504642,143.84999999999999 18.385567981749773,-33.943267995491624,142.41 18.385461028665304,-33.94321502186358,141.93000000000001 18.385353991761804,-33.943170011043549,141.93000000000001 18.38523798622191,-33.943148972466588,141.44999999999999 18.385126003995538,-33.943142015486956,140.49000000000001 18.385016033425927,-33.943136986345053,139.53 18.384389989078045,-33.943071020767093,135.68000000000001 18.384245987981558,-33.943077977746725,135.19999999999999 18.383491029962897,-33.943115025758743,128.94999999999999 18.382886024191976,-33.943079989403486,125.59 18.382735988125205,-33.943091975525022,124.63 18.382592992857099,-33.943118965253234,122.22 18.382452009245753,-33.943160036578774,121.26000000000001 18.382314965128899,-33.943220973014832,119.81999999999999 18.382183033972979,-33.943294985219836,118.38 18.382053030654788,-33.943373020738363,116.45999999999999 18.381666038185358,-33.943593967705965,112.13 18.38152295909822,-33.943643001839519,110.69 18.381373006850481,-33.943678960204124,109.25 18.380456026643515,-33.943822039291263,103.48 18.380325017496943,-33.943812986835837,102.04000000000001 18.38018998503685,-33.943790020421147,100.59999999999999 18.380056964233518,-33.94375498406589,99.629999999999995 18.379917992278934,-33.943705027922988,98.189999999999998 18.379776002839208,-33.943647025153041,96.75 18.378398017957807,-33.942972030490637,84.25 18.377984035760164,-33.942629965022206,82.329999999999998 18.377901976928115,-33.942532986402512,81.849999999999994 18.377835005521774,-33.94244103692472,80.890000000000001 18.377786977216601,-33.942352021113038,80.409999999999997 18.377753030508757,-33.942261999472976,79.450000000000003 18.37774096056819,-33.942172983661294,78.480000000000004 18.377746995538473,-33.942074999213219,78 18.377756970003247,-33.94197198562324,78 18.377779014408588,-33.941868972033262,77.040000000000006 18.377936007454991,-33.941060034558177,67.909999999999997 18.377961991354823,-33.940971018746495,67.430000000000007 18.378028962761164,-33.94078996963799,67.430000000000007 18.378029968589544,-33.940743030980229,66.469999999999999 18.378029968589544,-33.940716963261366,66.469999999999999 18.378028962761164,-33.94066097214818,66.950000000000003 </coordinates></LineString></MultiGeometry></Placemark></Folder></Folder></Document></kml>