<?xml version="1.0" encoding="utf-8"?><kml xmlns="http://www.opengis.net/kml/2.2" xmlns:xsi="http://www.w3.org/2001/XMLSchema-instance" xmlns:kmlx="http://www.google.com/kml/ext/2.2" xmlns:atom="http://www.w3.org/2005/Atom" xmlns:gpxx="http://www.garmin.com/xmlschemas/GpxExtensions/v3"><Document><Style id="point"><IconStyle><scale>0.9</scale><Icon><href>http://maps.google.com/mapfiles/kml/shapes/placemark_circle.png</href></Icon></IconStyle></Style><Folder><name>Tracks</name><Folder><name>[275] Grootpoort</name><Folder><name>Points</name><Style><ListStyle><listItemType>checkHideChildren</listItemType></ListStyle></Style><Placemark><TimeSpan><begin>2022-08-07T08:36:19Z</begin><end>2022-08-07T08:36:19Z</end></TimeSpan><Style><IconStyle><scale>0.9</scale><Icon><href>http://connect.garmin.com/image/main/icons/kml/grn-play.png</href></Icon></IconStyle></Style><Point><altitudeMode>clampToGround</altitudeMode><coordinates>29.642866859212518,-27.945442451164126,1996.8</coordinates></Point></Placemark><Placemark><TimeSpan><begin>2022-08-07T08:36:19Z</begin><end>2022-08-07T08:36:20Z</end></TimeSpan><styleUrl>#point</styleUrl><Point><altitudeMode>clampToGround</altitudeMode><coordinates>29.642866188660264,-27.945348741486669,1997.28</coordinates></Point></Placemark><Placemark><TimeSpan><begin>2022-08-07T08:36:20Z</begin><end>2022-08-07T08:36:21Z</end></TimeSpan><styleUrl>#point</styleUrl><Point><altitudeMode>clampToGround</altitudeMode><coordinates>29.642853196710348,-27.945249751210213,1997.28</coordinates></Point></Placemark><Placemark><TimeSpan><begin>2022-08-07T08:36:21Z</begin><end>2022-08-07T08:36:22Z</end></TimeSpan><styleUrl>#point</styleUrl><Point><altitudeMode>clampToGround</altitudeMode><coordinates>29.642829308286309,-27.945142211392522,1997.28</coordinates></Point></Placemark><Placemark><TimeSpan><begin>2022-08-07T08:36:22Z</begin><end>2022-08-07T08:36:23Z</end></TimeSpan><styleUrl>#point</styleUrl><Point><altitudeMode>clampToGround</altitudeMode><coordinates>29.642796367406845,-27.945022182539105,1997.28</coordinates></Point></Placemark><Placemark><TimeSpan><begin>2022-08-07T08:36:23Z</begin><end>2022-08-07T08:36:29Z</end></TimeSpan><styleUrl>#point</styleUrl><Point><altitudeMode>clampToGround</altitudeMode><coordinates>29.64246679097414,-27.944054072722793,1998.24</coordinates></Point></Placemark><Placemark><TimeSpan><begin>2022-08-07T08:36:29Z</begin><end>2022-08-07T08:36:38Z</end></TimeSpan><styleUrl>#point</styleUrl><Point><altitudeMode>clampToGround</altitudeMode><coordinates>29.642035709694028,-27.942750183865428,1998.24</coordinates></Point></Placemark><Placemark><TimeSpan><begin>2022-08-07T08:36:38Z</begin><end>2022-08-07T08:36:45Z</end></TimeSpan><styleUrl>#point</styleUrl><Point><altitudeMode>clampToGround</altitudeMode><coordinates>29.641850553452969,-27.942257998511195,1997.28</coordinates></Point></Placemark><Placemark><TimeSpan><begin>2022-08-07T08:36:45Z</begin><end>2022-08-07T08:36:54Z</end></TimeSpan><styleUrl>#point</styleUrl><Point><altitudeMode>clampToGround</altitudeMode><coordinates>29.641767991706729,-27.941794898360968,1993.4300000000001</coordinates></Point></Placemark><Placemark><TimeSpan><begin>2022-08-07T08:36:54Z</begin><end>2022-08-07T08:37:02Z</end></TimeSpan><styleUrl>#point</styleUrl><Point><altitudeMode>clampToGround</altitudeMode><coordinates>29.641838148236275,-27.941300952807069,1989.5899999999999</coordinates></Point></Placemark><Placemark><TimeSpan><begin>2022-08-07T08:37:02Z</begin><end>2022-08-07T08:37:04Z</end></TimeSpan><styleUrl>#point</styleUrl><Point><altitudeMode>clampToGround</altitudeMode><coordinates>29.641849463805556,-27.941200537607074,1988.6199999999999</coordinates></Point></Placemark><Placemark><TimeSpan><begin>2022-08-07T08:37:04Z</begin><end>2022-08-07T08:37:05Z</end></TimeSpan><styleUrl>#point</styleUrl><Point><altitudeMode>clampToGround</altitudeMode><coordinates>29.641863293945789,-27.94114806689322,1988.1400000000001</coordinates></Point></Placemark><Placemark><TimeSpan><begin>2022-08-07T08:37:05Z</begin><end>2022-08-07T08:37:11Z</end></TimeSpan><styleUrl>#point</styleUrl><Point><altitudeMode>clampToGround</altitudeMode><coordinates>29.641927247866988,-27.940900297835469,1984.78</coordinates></Point></Placemark><Placemark><TimeSpan><begin>2022-08-07T08:37:11Z</begin><end>2022-08-07T08:37:20Z</end></TimeSpan><styleUrl>#point</styleUrl><Point><altitudeMode>clampToGround</altitudeMode><coordinates>29.641966056078672,-27.940487153828144,1979.97</coordinates></Point></Placemark><Placemark><TimeSpan><begin>2022-08-07T08:37:20Z</begin><end>2022-08-07T08:37:21Z</end></TimeSpan><styleUrl>#point</styleUrl><Point><altitudeMode>clampToGround</altitudeMode><coordinates>29.641955327242613,-27.940443148836493,1979.49</coordinates></Point></Placemark><Placemark><TimeSpan><begin>2022-08-07T08:37:21Z</begin><end>2022-08-07T08:37:22Z</end></TimeSpan><styleUrl>#point</styleUrl><Point><altitudeMode>clampToGround</altitudeMode><coordinates>29.641937976703048,-27.94039755128324,1979.01</coordinates></Point></Placemark><Placemark><TimeSpan><begin>2022-08-07T08:37:22Z</begin><end>2022-08-07T08:37:32Z</end></TimeSpan><styleUrl>#point</styleUrl><Point><altitudeMode>clampToGround</altitudeMode><coordinates>29.641640922054648,-27.940075686201453,1974.2</coordinates></Point></Placemark><Placemark><TimeSpan><begin>2022-08-07T08:37:32Z</begin><end>2022-08-07T08:37:41Z</end></TimeSpan><styleUrl>#point</styleUrl><Point><altitudeMode>clampToGround</altitudeMode><coordinates>29.641239680349827,-27.939802603796124,1969.4000000000001</coordinates></Point></Placemark><Placemark><TimeSpan><begin>2022-08-07T08:37:41Z</begin><end>2022-08-07T08:37:42Z</end></TimeSpan><styleUrl>#point</styleUrl><Point><altitudeMode>clampToGround</altitudeMode><coordinates>29.641214031726122,-27.939768154174089,1968.9200000000001</coordinates></Point></Placemark><Placemark><TimeSpan><begin>2022-08-07T08:37:42Z</begin><end>2022-08-07T08:37:43Z</end></TimeSpan><styleUrl>#point</styleUrl><Point><altitudeMode>clampToGround</altitudeMode><coordinates>29.641198189929128,-27.939733201637864,1968.4400000000001</coordinates></Point></Placemark><Placemark><TimeSpan><begin>2022-08-07T08:37:43Z</begin><end>2022-08-07T08:37:44Z</end></TimeSpan><styleUrl>#point</styleUrl><Point><altitudeMode>clampToGround</altitudeMode><coordinates>29.641192071139812,-27.939700428396463,1967.96</coordinates></Point></Placemark><Placemark><TimeSpan><begin>2022-08-07T08:37:44Z</begin><end>2022-08-07T08:37:45Z</end></TimeSpan><styleUrl>#point</styleUrl><Point><altitudeMode>clampToGround</altitudeMode><coordinates>29.641192574054003,-27.93967385776341,1967.96</coordinates></Point></Placemark><Placemark><TimeSpan><begin>2022-08-07T08:37:45Z</begin><end>2022-08-07T08:37:46Z</end></TimeSpan><styleUrl>#point</styleUrl><Point><altitudeMode>clampToGround</altitudeMode><coordinates>29.641200536862016,-27.939651226624846,1967.48</coordinates></Point></Placemark><Placemark><TimeSpan><begin>2022-08-07T08:37:46Z</begin><end>2022-08-07T08:37:47Z</end></TimeSpan><styleUrl>#point</styleUrl><Point><altitudeMode>clampToGround</altitudeMode><coordinates>29.641213780269027,-27.939629517495632,1967.48</coordinates></Point></Placemark><Placemark><TimeSpan><begin>2022-08-07T08:37:47Z</begin><end>2022-08-07T08:37:48Z</end></TimeSpan><styleUrl>#point</styleUrl><Point><altitudeMode>clampToGround</altitudeMode><coordinates>29.641230460256338,-27.939605712890625,1967.48</coordinates></Point></Placemark><Placemark><TimeSpan><begin>2022-08-07T08:37:48Z</begin><end>2022-08-07T08:37:56Z</end></TimeSpan><styleUrl>#point</styleUrl><Point><altitudeMode>clampToGround</altitudeMode><coordinates>29.641439840197563,-27.93949406594038,1966.03</coordinates></Point></Placemark><Placemark><TimeSpan><begin>2022-08-07T08:37:56Z</begin><end>2022-08-07T08:38:03Z</end></TimeSpan><styleUrl>#point</styleUrl><Point><altitudeMode>clampToGround</altitudeMode><coordinates>29.641772098839283,-27.939527845010161,1962.6700000000001</coordinates></Point></Placemark><Placemark><TimeSpan><begin>2022-08-07T08:38:03Z</begin><end>2022-08-07T08:38:04Z</end></TimeSpan><styleUrl>#point</styleUrl><Point><altitudeMode>clampToGround</altitudeMode><coordinates>29.641826916486025,-27.939522312954068,1962.1900000000001</coordinates></Point></Placemark><Placemark><TimeSpan><begin>2022-08-07T08:38:04Z</begin><end>2022-08-07T08:38:05Z</end></TimeSpan><styleUrl>#point</styleUrl><Point><altitudeMode>clampToGround</altitudeMode><coordinates>29.641886930912733,-27.93951166793704,1961.71</coordinates></Point></Placemark><Placemark><TimeSpan><begin>2022-08-07T08:38:05Z</begin><end>2022-08-07T08:38:06Z</end></TimeSpan><styleUrl>#point</styleUrl><Point><altitudeMode>clampToGround</altitudeMode><coordinates>29.641950884833932,-27.93949699960649,1960.75</coordinates></Point></Placemark><Placemark><TimeSpan><begin>2022-08-07T08:38:06Z</begin><end>2022-08-07T08:38:07Z</end></TimeSpan><styleUrl>#point</styleUrl><Point><altitudeMode>clampToGround</altitudeMode><coordinates>29.642012743279338,-27.93947696685791,1959.78</coordinates></Point></Placemark><Placemark><TimeSpan><begin>2022-08-07T08:38:07Z</begin><end>2022-08-07T08:38:08Z</end></TimeSpan><styleUrl>#point</styleUrl><Point><altitudeMode>clampToGround</altitudeMode><coordinates>29.642068482935429,-27.939454251900315,1959.3</coordinates></Point></Placemark><Placemark><TimeSpan><begin>2022-08-07T08:38:08Z</begin><end>2022-08-07T08:38:09Z</end></TimeSpan><styleUrl>#point</styleUrl><Point><altitudeMode>clampToGround</altitudeMode><coordinates>29.642116846516728,-27.939428016543388,1958.3399999999999</coordinates></Point></Placemark><Placemark><TimeSpan><begin>2022-08-07T08:38:09Z</begin><end>2022-08-07T08:38:10Z</end></TimeSpan><styleUrl>#point</styleUrl><Point><altitudeMode>clampToGround</altitudeMode><coordinates>29.642159091308713,-27.939400272443891,1957.8599999999999</coordinates></Point></Placemark><Placemark><TimeSpan><begin>2022-08-07T08:38:10Z</begin><end>2022-08-07T08:38:11Z</end></TimeSpan><styleUrl>#point</styleUrl><Point><altitudeMode>clampToGround</altitudeMode><coordinates>29.642193373292685,-27.939370097592473,1957.3800000000001</coordinates></Point></Placemark><Placemark><TimeSpan><begin>2022-08-07T08:38:11Z</begin><end>2022-08-07T08:38:12Z</end></TimeSpan><styleUrl>#point</styleUrl><Point><altitudeMode>clampToGround</altitudeMode><coordinates>29.642220363020897,-27.93933673761785,1956.9000000000001</coordinates></Point></Placemark><Placemark><TimeSpan><begin>2022-08-07T08:38:12Z</begin><end>2022-08-07T08:38:13Z</end></TimeSpan><styleUrl>#point</styleUrl><Point><altitudeMode>clampToGround</altitudeMode><coordinates>29.642246598377824,-27.939302707090974,1956.4200000000001</coordinates></Point></Placemark><Placemark><TimeSpan><begin>2022-08-07T08:38:13Z</begin><end>2022-08-07T08:38:19Z</end></TimeSpan><styleUrl>#point</styleUrl><Point><altitudeMode>clampToGround</altitudeMode><coordinates>29.642396969720721,-27.939096763730049,1953.0599999999999</coordinates></Point></Placemark><Placemark><TimeSpan><begin>2022-08-07T08:38:19Z</begin><end>2022-08-07T08:38:23Z</end></TimeSpan><styleUrl>#point</styleUrl><Point><altitudeMode>clampToGround</altitudeMode><coordinates>29.642459079623222,-27.938931891694665,1951.1300000000001</coordinates></Point></Placemark><Placemark><TimeSpan><begin>2022-08-07T08:38:23Z</begin><end>2022-08-07T08:38:37Z</end></TimeSpan><styleUrl>#point</styleUrl><Point><altitudeMode>clampToGround</altitudeMode><coordinates>29.642544323578477,-27.938313726335764,1944.4000000000001</coordinates></Point></Placemark><Placemark><TimeSpan><begin>2022-08-07T08:38:37Z</begin><end>2022-08-07T08:38:38Z</end></TimeSpan><styleUrl>#point</styleUrl><Point><altitudeMode>clampToGround</altitudeMode><coordinates>29.64253862388432,-27.93827248737216,1943.9200000000001</coordinates></Point></Placemark><Placemark><TimeSpan><begin>2022-08-07T08:38:38Z</begin><end>2022-08-07T08:38:52Z</end></TimeSpan><styleUrl>#point</styleUrl><Point><altitudeMode>clampToGround</altitudeMode><coordinates>29.642537115141749,-27.937752809375525,1937.1900000000001</coordinates></Point></Placemark><Placemark><TimeSpan><begin>2022-08-07T08:38:52Z</begin><end>2022-08-07T08:38:56Z</end></TimeSpan><styleUrl>#point</styleUrl><Point><altitudeMode>clampToGround</altitudeMode><coordinates>29.64255471713841,-27.937620794400573,1935.75</coordinates></Point></Placemark><Placemark><TimeSpan><begin>2022-08-07T08:38:56Z</begin><end>2022-08-07T08:39:01Z</end></TimeSpan><styleUrl>#point</styleUrl><Point><altitudeMode>clampToGround</altitudeMode><coordinates>29.642572235316038,-27.937377635389566,1933.3499999999999</coordinates></Point></Placemark><Placemark><TimeSpan><begin>2022-08-07T08:39:01Z</begin><end>2022-08-07T08:39:15Z</end></TimeSpan><styleUrl>#point</styleUrl><Point><altitudeMode>clampToGround</altitudeMode><coordinates>29.642585227265954,-27.936771875247359,1927.5799999999999</coordinates></Point></Placemark><Placemark><TimeSpan><begin>2022-08-07T08:39:15Z</begin><end>2022-08-07T08:39:26Z</end></TimeSpan><styleUrl>#point</styleUrl><Point><altitudeMode>clampToGround</altitudeMode><coordinates>29.642464276403189,-27.936357976868749,1923.74</coordinates></Point></Placemark><Placemark><TimeSpan><begin>2022-08-07T08:39:26Z</begin><end>2022-08-07T08:39:27Z</end></TimeSpan><styleUrl>#point</styleUrl><Point><altitudeMode>clampToGround</altitudeMode><coordinates>29.642471484839916,-27.936313468962908,1923.25</coordinates></Point></Placemark><Placemark><TimeSpan><begin>2022-08-07T08:39:27Z</begin><end>2022-08-07T08:39:39Z</end></TimeSpan><styleUrl>#point</styleUrl><Point><altitudeMode>clampToGround</altitudeMode><coordinates>29.64257231913507,-27.935726819559932,1917.49</coordinates></Point></Placemark><Placemark><TimeSpan><begin>2022-08-07T08:39:39Z</begin><end>2022-08-07T08:39:40Z</end></TimeSpan><styleUrl>#point</styleUrl><Point><altitudeMode>clampToGround</altitudeMode><coordinates>29.642587574198842,-27.935686251148582,1917.01</coordinates></Point></Placemark><Placemark><TimeSpan><begin>2022-08-07T08:39:40Z</begin><end>2022-08-07T08:39:41Z</end></TimeSpan><styleUrl>#point</styleUrl><Point><altitudeMode>clampToGround</altitudeMode><coordinates>29.642607942223549,-27.935646437108517,1916.53</coordinates></Point></Placemark><Placemark><TimeSpan><begin>2022-08-07T08:39:41Z</begin><end>2022-08-07T08:39:44Z</end></TimeSpan><styleUrl>#point</styleUrl><Point><altitudeMode>clampToGround</altitudeMode><coordinates>29.642669800668955,-27.935527330264449,1915.0799999999999</coordinates></Point></Placemark><Placemark><TimeSpan><begin>2022-08-07T08:39:44Z</begin><end>2022-08-07T08:39:56Z</end></TimeSpan><styleUrl>#point</styleUrl><Point><altitudeMode>clampToGround</altitudeMode><coordinates>29.642903571948409,-27.935085939243436,1908.3499999999999</coordinates></Point></Placemark><Placemark><TimeSpan><begin>2022-08-07T08:39:56Z</begin><end>2022-08-07T08:40:09Z</end></TimeSpan><styleUrl>#point</styleUrl><Point><altitudeMode>clampToGround</altitudeMode><coordinates>29.642995689064264,-27.934599537402391,1903.0699999999999</coordinates></Point></Placemark><Placemark><TimeSpan><begin>2022-08-07T08:40:09Z</begin><end>2022-08-07T08:40:10Z</end></TimeSpan><styleUrl>#point</styleUrl><Point><altitudeMode>clampToGround</altitudeMode><coordinates>29.642976997420192,-27.934558633714914,1902.5899999999999</coordinates></Point></Placemark><Placemark><TimeSpan><begin>2022-08-07T08:40:10Z</begin><end>2022-08-07T08:40:13Z</end></TimeSpan><styleUrl>#point</styleUrl><Point><altitudeMode>clampToGround</altitudeMode><coordinates>29.642911870032549,-27.934441454708576,1901.1400000000001</coordinates></Point></Placemark><Placemark><TimeSpan><begin>2022-08-07T08:40:13Z</begin><end>2022-08-07T08:40:18Z</end></TimeSpan><styleUrl>#point</styleUrl><Point><altitudeMode>clampToGround</altitudeMode><coordinates>29.642823524773121,-27.934285551309586,1899.22</coordinates></Point></Placemark><Placemark><TimeSpan><begin>2022-08-07T08:40:18Z</begin><end>2022-08-07T08:40:19Z</end></TimeSpan><styleUrl>#point</styleUrl><Point><altitudeMode>clampToGround</altitudeMode><coordinates>29.64282251894474,-27.934252023696899,1899.22</coordinates></Point></Placemark><Placemark><TimeSpan><begin>2022-08-07T08:40:19Z</begin><end>2022-08-07T08:40:20Z</end></TimeSpan><styleUrl>#point</styleUrl><Point><altitudeMode>clampToGround</altitudeMode><coordinates>29.642825368791819,-27.934218244627118,1898.74</coordinates></Point></Placemark><Placemark><TimeSpan><begin>2022-08-07T08:40:20Z</begin><end>2022-08-07T08:40:21Z</end></TimeSpan><styleUrl>#point</styleUrl><Point><altitudeMode>clampToGround</altitudeMode><coordinates>29.642834505066276,-27.934183711186051,1898.74</coordinates></Point></Placemark><Placemark><TimeSpan><begin>2022-08-07T08:40:21Z</begin><end>2022-08-07T08:40:22Z</end></TimeSpan><styleUrl>#point</styleUrl><Point><altitudeMode>clampToGround</altitudeMode><coordinates>29.642853951081634,-27.934145238250494,1898.26</coordinates></Point></Placemark><Placemark><TimeSpan><begin>2022-08-07T08:40:22Z</begin><end>2022-08-07T08:40:23Z</end></TimeSpan><styleUrl>#point</styleUrl><Point><altitudeMode>clampToGround</altitudeMode><coordinates>29.642888149246573,-27.934100143611431,1898.26</coordinates></Point></Placemark><Placemark><TimeSpan><begin>2022-08-07T08:40:23Z</begin><end>2022-08-07T08:40:24Z</end></TimeSpan><styleUrl>#point</styleUrl><Point><altitudeMode>clampToGround</altitudeMode><coordinates>29.642938440665603,-27.934051193296909,1897.78</coordinates></Point></Placemark><Placemark><TimeSpan><begin>2022-08-07T08:40:24Z</begin><end>2022-08-07T08:40:25Z</end></TimeSpan><styleUrl>#point</styleUrl><Point><altitudeMode>clampToGround</altitudeMode><coordinates>29.643002226948738,-27.934003164991736,1897.78</coordinates></Point></Placemark><Placemark><TimeSpan><begin>2022-08-07T08:40:25Z</begin><end>2022-08-07T08:40:26Z</end></TimeSpan><styleUrl>#point</styleUrl><Point><altitudeMode>clampToGround</altitudeMode><coordinates>29.643077161163092,-27.933952454477549,1897.3</coordinates></Point></Placemark><Placemark><TimeSpan><begin>2022-08-07T08:40:26Z</begin><end>2022-08-07T08:40:37Z</end></TimeSpan><styleUrl>#point</styleUrl><Point><altitudeMode>clampToGround</altitudeMode><coordinates>29.643700607120991,-27.933467896655202,1892.49</coordinates></Point></Placemark><Placemark><TimeSpan><begin>2022-08-07T08:40:37Z</begin><end>2022-08-07T08:40:51Z</end></TimeSpan><styleUrl>#point</styleUrl><Point><altitudeMode>clampToGround</altitudeMode><coordinates>29.644454894587398,-27.932861382141709,1880.48</coordinates></Point></Placemark><Placemark><TimeSpan><begin>2022-08-07T08:40:51Z</begin><end>2022-08-07T08:41:03Z</end></TimeSpan><styleUrl>#point</styleUrl><Point><altitudeMode>clampToGround</altitudeMode><coordinates>29.645124357193708,-27.932339441031218,1873.75</coordinates></Point></Placemark><Placemark><TimeSpan><begin>2022-08-07T08:41:03Z</begin><end>2022-08-07T08:41:15Z</end></TimeSpan><styleUrl>#point</styleUrl><Point><altitudeMode>clampToGround</altitudeMode><coordinates>29.645713437348604,-27.931725298985839,1865.5799999999999</coordinates></Point></Placemark><Placemark><TimeSpan><begin>2022-08-07T08:41:15Z</begin><end>2022-08-07T08:41:23Z</end></TimeSpan><styleUrl>#point</styleUrl><Point><altitudeMode>clampToGround</altitudeMode><coordinates>29.645890211686492,-27.931234538555145,1861.25</coordinates></Point></Placemark><Placemark><TimeSpan><begin>2022-08-07T08:41:23Z</begin><end>2022-08-07T08:41:29Z</end></TimeSpan><styleUrl>#point</styleUrl><Point><altitudeMode>clampToGround</altitudeMode><coordinates>29.645863808691502,-27.930861543864012,1859.3299999999999</coordinates></Point></Placemark><Placemark><TimeSpan><begin>2022-08-07T08:41:29Z</begin><end>2022-08-07T08:41:32Z</end></TimeSpan><styleUrl>#point</styleUrl><Point><altitudeMode>clampToGround</altitudeMode><coordinates>29.645793819800019,-27.930694660171866,1858.3699999999999</coordinates></Point></Placemark><Placemark><TimeSpan><begin>2022-08-07T08:41:32Z</begin><end>2022-08-07T08:41:33Z</end></TimeSpan><styleUrl>#point</styleUrl><Point><altitudeMode>clampToGround</altitudeMode><coordinates>29.645759956911206,-27.930636825039983,1858.3699999999999</coordinates></Point></Placemark><Placemark><TimeSpan><begin>2022-08-07T08:41:33Z</begin><end>2022-08-07T08:41:47Z</end></TimeSpan><styleUrl>#point</styleUrl><Point><altitudeMode>clampToGround</altitudeMode><coordinates>29.645154196768999,-27.929795365780592,1855.96</coordinates></Point></Placemark><Placemark><TimeSpan><begin>2022-08-07T08:41:47Z</begin><end>2022-08-07T08:41:56Z</end></TimeSpan><styleUrl>#point</styleUrl><Point><altitudeMode>clampToGround</altitudeMode><coordinates>29.644623873755336,-27.929105032235384,1853.0799999999999</coordinates></Point></Placemark><Placemark><TimeSpan><begin>2022-08-07T08:41:56Z</begin><end>2022-08-07T08:42:12Z</end></TimeSpan><styleUrl>#point</styleUrl><Point><altitudeMode>clampToGround</altitudeMode><coordinates>29.643625086173415,-27.928058300167322,1845.3900000000001</coordinates></Point></Placemark><Placemark><TimeSpan><begin>2022-08-07T08:42:12Z</begin><end>2022-08-07T08:42:24Z</end></TimeSpan><styleUrl>#point</styleUrl><Point><altitudeMode>clampToGround</altitudeMode><coordinates>29.642873648554087,-27.927227150648832,1841.54</coordinates></Point></Placemark><Placemark><TimeSpan><begin>2022-08-07T08:42:24Z</begin><end>2022-08-07T08:42:31Z</end></TimeSpan><styleUrl>#point</styleUrl><Point><altitudeMode>clampToGround</altitudeMode><coordinates>29.642293285578489,-27.926556011661887,1845.8699999999999</coordinates></Point></Placemark><Placemark><TimeSpan><begin>2022-08-07T08:42:31Z</begin><end>2022-08-07T08:42:39Z</end></TimeSpan><styleUrl>#point</styleUrl><Point><altitudeMode>clampToGround</altitudeMode><coordinates>29.641706887632608,-27.9259820189327,1846.8299999999999</coordinates></Point></Placemark><Placemark><TimeSpan><begin>2022-08-07T08:42:39Z</begin><end>2022-08-07T08:42:49Z</end></TimeSpan><styleUrl>#point</styleUrl><Point><altitudeMode>clampToGround</altitudeMode><coordinates>29.641157202422619,-27.925443314015865,1842.98</coordinates></Point></Placemark><Placemark><TimeSpan><begin>2022-08-07T08:42:49Z</begin><end>2022-08-07T08:43:01Z</end></TimeSpan><styleUrl>#point</styleUrl><Point><altitudeMode>clampToGround</altitudeMode><coordinates>29.640433173626661,-27.924826992675662,1840.5799999999999</coordinates></Point></Placemark><Placemark><TimeSpan><begin>2022-08-07T08:43:01Z</begin><end>2022-08-07T08:43:17Z</end></TimeSpan><styleUrl>#point</styleUrl><Point><altitudeMode>clampToGround</altitudeMode><coordinates>29.639148646965623,-27.923930967226624,1837.22</coordinates></Point></Placemark><Placemark><TimeSpan><begin>2022-08-07T08:43:17Z</begin><end>2022-08-07T08:43:26Z</end></TimeSpan><styleUrl>#point</styleUrl><Point><altitudeMode>clampToGround</altitudeMode><coordinates>29.638827368617058,-27.923702644184232,1833.8499999999999</coordinates></Point></Placemark><Placemark><TimeSpan><begin>2022-08-07T08:43:26Z</begin><end>2022-08-07T08:43:37Z</end></TimeSpan><styleUrl>#point</styleUrl><Point><altitudeMode>clampToGround</altitudeMode><coordinates>29.638322526589036,-27.923304168507457,1827.1199999999999</coordinates></Point></Placemark><Placemark><TimeSpan><begin>2022-08-07T08:43:37Z</begin><end>2022-08-07T08:43:44Z</end></TimeSpan><styleUrl>#point</styleUrl><Point><altitudeMode>clampToGround</altitudeMode><coordinates>29.6377959754318,-27.922898065298796,1821.8399999999999</coordinates></Point></Placemark><Placemark><TimeSpan><begin>2022-08-07T08:43:44Z</begin><end>2022-08-07T08:43:56Z</end></TimeSpan><styleUrl>#point</styleUrl><Point><altitudeMode>clampToGround</altitudeMode><coordinates>29.63697262108326,-27.92213992215693,1817.99</coordinates></Point></Placemark><Placemark><TimeSpan><begin>2022-08-07T08:43:56Z</begin><end>2022-08-07T08:44:04Z</end></TimeSpan><styleUrl>#point</styleUrl><Point><altitudeMode>clampToGround</altitudeMode><coordinates>29.63669802993536,-27.921821493655443,1817.03</coordinates></Point></Placemark><Placemark><TimeSpan><begin>2022-08-07T08:44:04Z</begin><end>2022-08-07T08:44:11Z</end></TimeSpan><styleUrl>#point</styleUrl><Point><altitudeMode>clampToGround</altitudeMode><coordinates>29.636212382465601,-27.921259235590696,1818.47</coordinates></Point></Placemark><Placemark><TimeSpan><begin>2022-08-07T08:44:11Z</begin><end>2022-08-07T08:44:20Z</end></TimeSpan><styleUrl>#point</styleUrl><Point><altitudeMode>clampToGround</altitudeMode><coordinates>29.635546859353781,-27.920443844050169,1818.95</coordinates></Point></Placemark><Placemark><TimeSpan><begin>2022-08-07T08:44:20Z</begin><end>2022-08-07T08:44:31Z</end></TimeSpan><styleUrl>#point</styleUrl><Point><altitudeMode>clampToGround</altitudeMode><coordinates>29.634988959878683,-27.919686203822494,1814.6300000000001</coordinates></Point></Placemark><Placemark><TimeSpan><begin>2022-08-07T08:44:31Z</begin><end>2022-08-07T08:44:42Z</end></TimeSpan><styleUrl>#point</styleUrl><Point><altitudeMode>clampToGround</altitudeMode><coordinates>29.634709423407912,-27.918919343501329,1810.3</coordinates></Point></Placemark><Placemark><TimeSpan><begin>2022-08-07T08:44:42Z</begin><end>2022-08-07T08:44:43Z</end></TimeSpan><styleUrl>#point</styleUrl><Point><altitudeMode>clampToGround</altitudeMode><coordinates>29.634694084525108,-27.918873159214854,1809.8199999999999</coordinates></Point></Placemark><Placemark><TimeSpan><begin>2022-08-07T08:44:43Z</begin><end>2022-08-07T08:44:44Z</end></TimeSpan><styleUrl>#point</styleUrl><Point><altitudeMode>clampToGround</altitudeMode><coordinates>29.634674722328782,-27.918835189193487,1809.3399999999999</coordinates></Point></Placemark><Placemark><TimeSpan><begin>2022-08-07T08:44:44Z</begin><end>2022-08-07T08:44:45Z</end></TimeSpan><styleUrl>#point</styleUrl><Point><altitudeMode>clampToGround</altitudeMode><coordinates>29.634658629074693,-27.918802499771118,1809.3399999999999</coordinates></Point></Placemark><Placemark><TimeSpan><begin>2022-08-07T08:44:45Z</begin><end>2022-08-07T08:44:46Z</end></TimeSpan><styleUrl>#point</styleUrl><Point><altitudeMode>clampToGround</altitudeMode><coordinates>29.634652007371187,-27.918770313262939,1808.8599999999999</coordinates></Point></Placemark><Placemark><TimeSpan><begin>2022-08-07T08:44:46Z</begin><end>2022-08-07T08:44:47Z</end></TimeSpan><styleUrl>#point</styleUrl><Point><altitudeMode>clampToGround</altitudeMode><coordinates>29.634646140038967,-27.918735779821873,1808.8599999999999</coordinates></Point></Placemark><Placemark><TimeSpan><begin>2022-08-07T08:44:47Z</begin><end>2022-08-07T08:44:48Z</end></TimeSpan><styleUrl>#point</styleUrl><Point><altitudeMode>clampToGround</altitudeMode><coordinates>29.63463650085032,-27.918696468695998,1808.3800000000001</coordinates></Point></Placemark><Placemark><TimeSpan><begin>2022-08-07T08:44:48Z</begin><end>2022-08-07T08:44:49Z</end></TimeSpan><styleUrl>#point</styleUrl><Point><altitudeMode>clampToGround</altitudeMode><coordinates>29.634622000157833,-27.918645842000842,1808.3800000000001</coordinates></Point></Placemark><Placemark><TimeSpan><begin>2022-08-07T08:44:49Z</begin><end>2022-08-07T08:44:59Z</end></TimeSpan><styleUrl>#point</styleUrl><Point><altitudeMode>clampToGround</altitudeMode><coordinates>29.634435754269361,-27.91804226115346,1804.53</coordinates></Point></Placemark><Placemark><TimeSpan><begin>2022-08-07T08:44:59Z</begin><end>2022-08-07T08:45:10Z</end></TimeSpan><styleUrl>#point</styleUrl><Point><altitudeMode>clampToGround</altitudeMode><coordinates>29.634211957454681,-27.917326781898737,1801.6500000000001</coordinates></Point></Placemark><Placemark><TimeSpan><begin>2022-08-07T08:45:10Z</begin><end>2022-08-07T08:45:18Z</end></TimeSpan><styleUrl>#point</styleUrl><Point><altitudeMode>clampToGround</altitudeMode><coordinates>29.633981622755527,-27.916468139737844,1804.53</coordinates></Point></Placemark></Folder><Placemark><name>[275] Grootpoort</name><Style><LineStyle><color>ff0000ff</color><width>4</width></LineStyle></Style><MultiGeometry><LineString><coordinates>29.642866859212518,-27.945442451164126,1996.8 29.642866188660264,-27.945348741486669,1997.28 29.642853196710348,-27.945249751210213,1997.28 29.642829308286309,-27.945142211392522,1997.28 29.642796367406845,-27.945022182539105,1997.28 29.64246679097414,-27.944054072722793,1998.24 29.642035709694028,-27.942750183865428,1998.24 29.641850553452969,-27.942257998511195,1997.28 29.641767991706729,-27.941794898360968,1993.4300000000001 29.641838148236275,-27.941300952807069,1989.5899999999999 29.641849463805556,-27.941200537607074,1988.6199999999999 29.641863293945789,-27.94114806689322,1988.1400000000001 29.641927247866988,-27.940900297835469,1984.78 29.641966056078672,-27.940487153828144,1979.97 29.641955327242613,-27.940443148836493,1979.49 29.641937976703048,-27.94039755128324,1979.01 29.641640922054648,-27.940075686201453,1974.2 29.641239680349827,-27.939802603796124,1969.4000000000001 29.641214031726122,-27.939768154174089,1968.9200000000001 29.641198189929128,-27.939733201637864,1968.4400000000001 29.641192071139812,-27.939700428396463,1967.96 29.641192574054003,-27.93967385776341,1967.96 29.641200536862016,-27.939651226624846,1967.48 29.641213780269027,-27.939629517495632,1967.48 29.641230460256338,-27.939605712890625,1967.48 29.641439840197563,-27.93949406594038,1966.03 29.641772098839283,-27.939527845010161,1962.6700000000001 29.641826916486025,-27.939522312954068,1962.1900000000001 29.641886930912733,-27.93951166793704,1961.71 29.641950884833932,-27.93949699960649,1960.75 29.642012743279338,-27.93947696685791,1959.78 29.642068482935429,-27.939454251900315,1959.3 29.642116846516728,-27.939428016543388,1958.3399999999999 29.642159091308713,-27.939400272443891,1957.8599999999999 29.642193373292685,-27.939370097592473,1957.3800000000001 29.642220363020897,-27.93933673761785,1956.9000000000001 29.642246598377824,-27.939302707090974,1956.4200000000001 29.642396969720721,-27.939096763730049,1953.0599999999999 29.642459079623222,-27.938931891694665,1951.1300000000001 29.642544323578477,-27.938313726335764,1944.4000000000001 29.64253862388432,-27.93827248737216,1943.9200000000001 29.642537115141749,-27.937752809375525,1937.1900000000001 29.64255471713841,-27.937620794400573,1935.75 29.642572235316038,-27.937377635389566,1933.3499999999999 29.642585227265954,-27.936771875247359,1927.5799999999999 29.642464276403189,-27.936357976868749,1923.74 29.642471484839916,-27.936313468962908,1923.25 29.64257231913507,-27.935726819559932,1917.49 29.642587574198842,-27.935686251148582,1917.01 29.642607942223549,-27.935646437108517,1916.53 29.642669800668955,-27.935527330264449,1915.0799999999999 29.642903571948409,-27.935085939243436,1908.3499999999999 29.642995689064264,-27.934599537402391,1903.0699999999999 29.642976997420192,-27.934558633714914,1902.5899999999999 29.642911870032549,-27.934441454708576,1901.1400000000001 29.642823524773121,-27.934285551309586,1899.22 29.64282251894474,-27.934252023696899,1899.22 29.642825368791819,-27.934218244627118,1898.74 29.642834505066276,-27.934183711186051,1898.74 29.642853951081634,-27.934145238250494,1898.26 29.642888149246573,-27.934100143611431,1898.26 29.642938440665603,-27.934051193296909,1897.78 29.643002226948738,-27.934003164991736,1897.78 29.643077161163092,-27.933952454477549,1897.3 29.643700607120991,-27.933467896655202,1892.49 29.644454894587398,-27.932861382141709,1880.48 29.645124357193708,-27.932339441031218,1873.75 29.645713437348604,-27.931725298985839,1865.5799999999999 29.645890211686492,-27.931234538555145,1861.25 29.645863808691502,-27.930861543864012,1859.3299999999999 29.645793819800019,-27.930694660171866,1858.3699999999999 29.645759956911206,-27.930636825039983,1858.3699999999999 29.645154196768999,-27.929795365780592,1855.96 29.644623873755336,-27.929105032235384,1853.0799999999999 29.643625086173415,-27.928058300167322,1845.3900000000001 29.642873648554087,-27.927227150648832,1841.54 29.642293285578489,-27.926556011661887,1845.8699999999999 29.641706887632608,-27.9259820189327,1846.8299999999999 29.641157202422619,-27.925443314015865,1842.98 29.640433173626661,-27.924826992675662,1840.5799999999999 29.639148646965623,-27.923930967226624,1837.22 29.638827368617058,-27.923702644184232,1833.8499999999999 29.638322526589036,-27.923304168507457,1827.1199999999999 29.6377959754318,-27.922898065298796,1821.8399999999999 29.63697262108326,-27.92213992215693,1817.99 29.63669802993536,-27.921821493655443,1817.03 29.636212382465601,-27.921259235590696,1818.47 29.635546859353781,-27.920443844050169,1818.95 29.634988959878683,-27.919686203822494,1814.6300000000001 29.634709423407912,-27.918919343501329,1810.3 29.634694084525108,-27.918873159214854,1809.8199999999999 29.634674722328782,-27.918835189193487,1809.3399999999999 29.634658629074693,-27.918802499771118,1809.3399999999999 29.634652007371187,-27.918770313262939,1808.8599999999999 29.634646140038967,-27.918735779821873,1808.8599999999999 29.63463650085032,-27.918696468695998,1808.3800000000001 29.634622000157833,-27.918645842000842,1808.3800000000001 29.634435754269361,-27.91804226115346,1804.53 29.634211957454681,-27.917326781898737,1801.6500000000001 29.633981622755527,-27.916468139737844,1804.53 </coordinates></LineString></MultiGeometry></Placemark></Folder></Folder></Document></kml>