<?xml version="1.0" encoding="utf-8"?><kml xmlns="http://www.opengis.net/kml/2.2" xmlns:xsi="http://www.w3.org/2001/XMLSchema-instance" xmlns:kmlx="http://www.google.com/kml/ext/2.2" xmlns:atom="http://www.w3.org/2005/Atom" xmlns:gpxx="http://www.garmin.com/xmlschemas/GpxExtensions/v3"><Document><Style id="point"><IconStyle><scale>0.9</scale><Icon><href>http://maps.google.com/mapfiles/kml/shapes/placemark_circle.png</href></Icon></IconStyle></Style><Folder><name>Tracks</name><Folder><name>[285] Hattingshoogte Pass</name><Folder><name>Points</name><Style><ListStyle><listItemType>checkHideChildren</listItemType></ListStyle></Style><Placemark><TimeSpan><begin>2022-08-08T09:20:55Z</begin><end>2022-08-08T09:20:55Z</end></TimeSpan><Style><IconStyle><scale>0.9</scale><Icon><href>http://connect.garmin.com/image/main/icons/kml/grn-play.png</href></Icon></IconStyle></Style><Point><altitudeMode>clampToGround</altitudeMode><coordinates>30.296845575794578,-27.539246873930097,1663.22</coordinates></Point></Placemark><Placemark><TimeSpan><begin>2022-08-08T09:20:55Z</begin><end>2022-08-08T09:21:03Z</end></TimeSpan><styleUrl>#point</styleUrl><Point><altitudeMode>clampToGround</altitudeMode><coordinates>30.295735895633698,-27.538107521831989,1670.9100000000001</coordinates></Point></Placemark><Placemark><TimeSpan><begin>2022-08-08T09:21:03Z</begin><end>2022-08-08T09:21:15Z</end></TimeSpan><styleUrl>#point</styleUrl><Point><altitudeMode>clampToGround</altitudeMode><coordinates>30.294316252693534,-27.536438098177314,1682.9300000000001</coordinates></Point></Placemark><Placemark><TimeSpan><begin>2022-08-08T09:21:15Z</begin><end>2022-08-08T09:21:21Z</end></TimeSpan><styleUrl>#point</styleUrl><Point><altitudeMode>clampToGround</altitudeMode><coordinates>30.293986508622766,-27.535948008298874,1687.25</coordinates></Point></Placemark><Placemark><TimeSpan><begin>2022-08-08T09:21:21Z</begin><end>2022-08-08T09:21:29Z</end></TimeSpan><styleUrl>#point</styleUrl><Point><altitudeMode>clampToGround</altitudeMode><coordinates>30.293535394594073,-27.535174945369363,1692.54</coordinates></Point></Placemark><Placemark><TimeSpan><begin>2022-08-08T09:21:29Z</begin><end>2022-08-08T09:21:40Z</end></TimeSpan><styleUrl>#point</styleUrl><Point><altitudeMode>clampToGround</altitudeMode><coordinates>30.292735258117318,-27.533725211396813,1697.3399999999999</coordinates></Point></Placemark><Placemark><TimeSpan><begin>2022-08-08T09:21:40Z</begin><end>2022-08-08T09:21:51Z</end></TimeSpan><styleUrl>#point</styleUrl><Point><altitudeMode>clampToGround</altitudeMode><coordinates>30.29165843501687,-27.532238261774182,1707.9200000000001</coordinates></Point></Placemark><Placemark><TimeSpan><begin>2022-08-08T09:21:51Z</begin><end>2022-08-08T09:21:58Z</end></TimeSpan><styleUrl>#point</styleUrl><Point><altitudeMode>clampToGround</altitudeMode><coordinates>30.291106319054961,-27.531538791954517,1713.6900000000001</coordinates></Point></Placemark><Placemark><TimeSpan><begin>2022-08-08T09:21:58Z</begin><end>2022-08-08T09:22:12Z</end></TimeSpan><styleUrl>#point</styleUrl><Point><altitudeMode>clampToGround</altitudeMode><coordinates>30.289556924253702,-27.530030719935894,1724.74</coordinates></Point></Placemark><Placemark><TimeSpan><begin>2022-08-08T09:22:12Z</begin><end>2022-08-08T09:22:21Z</end></TimeSpan><styleUrl>#point</styleUrl><Point><altitudeMode>clampToGround</altitudeMode><coordinates>30.288203833624721,-27.529078032821417,1732.4300000000001</coordinates></Point></Placemark><Placemark><TimeSpan><begin>2022-08-08T09:22:21Z</begin><end>2022-08-08T09:22:33Z</end></TimeSpan><styleUrl>#point</styleUrl><Point><altitudeMode>clampToGround</altitudeMode><coordinates>30.28635730035603,-27.527645565569401,1747.8099999999999</coordinates></Point></Placemark><Placemark><TimeSpan><begin>2022-08-08T09:22:33Z</begin><end>2022-08-08T09:22:40Z</end></TimeSpan><styleUrl>#point</styleUrl><Point><altitudeMode>clampToGround</altitudeMode><coordinates>30.285575771704316,-27.527042655274272,1757.9100000000001</coordinates></Point></Placemark><Placemark><TimeSpan><begin>2022-08-08T09:22:40Z</begin><end>2022-08-08T09:22:49Z</end></TimeSpan><styleUrl>#point</styleUrl><Point><altitudeMode>clampToGround</altitudeMode><coordinates>30.284476233646274,-27.5262969173491,1764.1600000000001</coordinates></Point></Placemark><Placemark><TimeSpan><begin>2022-08-08T09:22:49Z</begin><end>2022-08-08T09:22:57Z</end></TimeSpan><styleUrl>#point</styleUrl><Point><altitudeMode>clampToGround</altitudeMode><coordinates>30.283627146854997,-27.525485968217254,1768</coordinates></Point></Placemark><Placemark><TimeSpan><begin>2022-08-08T09:22:57Z</begin><end>2022-08-08T09:23:08Z</end></TimeSpan><styleUrl>#point</styleUrl><Point><altitudeMode>clampToGround</altitudeMode><coordinates>30.282438257709146,-27.524298671633005,1767.04</coordinates></Point></Placemark><Placemark><TimeSpan><begin>2022-08-08T09:23:08Z</begin><end>2022-08-08T09:23:16Z</end></TimeSpan><styleUrl>#point</styleUrl><Point><altitudeMode>clampToGround</altitudeMode><coordinates>30.281257582828403,-27.523674806579947,1768.96</coordinates></Point></Placemark><Placemark><TimeSpan><begin>2022-08-08T09:23:16Z</begin><end>2022-08-08T09:23:27Z</end></TimeSpan><styleUrl>#point</styleUrl><Point><altitudeMode>clampToGround</altitudeMode><coordinates>30.279477518051863,-27.522882968187332,1771.8499999999999</coordinates></Point></Placemark><Placemark><TimeSpan><begin>2022-08-08T09:23:27Z</begin><end>2022-08-08T09:23:34Z</end></TimeSpan><styleUrl>#point</styleUrl><Point><altitudeMode>clampToGround</altitudeMode><coordinates>30.278697833418846,-27.522521456703544,1768</coordinates></Point></Placemark><Placemark><TimeSpan><begin>2022-08-08T09:23:34Z</begin><end>2022-08-08T09:23:35Z</end></TimeSpan><styleUrl>#point</styleUrl><Point><altitudeMode>clampToGround</altitudeMode><coordinates>30.278590377420187,-27.522498490288854,1767.52</coordinates></Point></Placemark><Placemark><TimeSpan><begin>2022-08-08T09:23:35Z</begin><end>2022-08-08T09:23:36Z</end></TimeSpan><styleUrl>#point</styleUrl><Point><altitudeMode>clampToGround</altitudeMode><coordinates>30.278469091281295,-27.522485833615065,1766.5599999999999</coordinates></Point></Placemark><Placemark><TimeSpan><begin>2022-08-08T09:23:36Z</begin><end>2022-08-08T09:23:37Z</end></TimeSpan><styleUrl>#point</styleUrl><Point><altitudeMode>clampToGround</altitudeMode><coordinates>30.278333639726043,-27.522485749796033,1765.1199999999999</coordinates></Point></Placemark><Placemark><TimeSpan><begin>2022-08-08T09:23:37Z</begin><end>2022-08-08T09:23:38Z</end></TimeSpan><styleUrl>#point</styleUrl><Point><altitudeMode>clampToGround</altitudeMode><coordinates>30.278184860944748,-27.522498238831758,1764.1600000000001</coordinates></Point></Placemark><Placemark><TimeSpan><begin>2022-08-08T09:23:38Z</begin><end>2022-08-08T09:23:39Z</end></TimeSpan><styleUrl>#point</styleUrl><Point><altitudeMode>clampToGround</altitudeMode><coordinates>30.278027867898345,-27.52252078615129,1763.2</coordinates></Point></Placemark><Placemark><TimeSpan><begin>2022-08-08T09:23:39Z</begin><end>2022-08-08T09:23:40Z</end></TimeSpan><styleUrl>#point</styleUrl><Point><altitudeMode>clampToGround</altitudeMode><coordinates>30.277868779376149,-27.522553224116564,1762.23</coordinates></Point></Placemark><Placemark><TimeSpan><begin>2022-08-08T09:23:40Z</begin><end>2022-08-08T09:23:47Z</end></TimeSpan><styleUrl>#point</styleUrl><Point><altitudeMode>clampToGround</altitudeMode><coordinates>30.276823556050658,-27.522803759202361,1761.75</coordinates></Point></Placemark><Placemark><TimeSpan><begin>2022-08-08T09:23:47Z</begin><end>2022-08-08T09:23:48Z</end></TimeSpan><styleUrl>#point</styleUrl><Point><altitudeMode>clampToGround</altitudeMode><coordinates>30.276665724813938,-27.522814655676484,1762.71</coordinates></Point></Placemark><Placemark><TimeSpan><begin>2022-08-08T09:23:48Z</begin><end>2022-08-08T09:23:56Z</end></TimeSpan><styleUrl>#point</styleUrl><Point><altitudeMode>clampToGround</altitudeMode><coordinates>30.27520140632987,-27.522723795846105,1775.6900000000001</coordinates></Point></Placemark><Placemark><TimeSpan><begin>2022-08-08T09:23:56Z</begin><end>2022-08-08T09:24:02Z</end></TimeSpan><styleUrl>#point</styleUrl><Point><altitudeMode>clampToGround</altitudeMode><coordinates>30.274174958467484,-27.522615753114223,1787.71</coordinates></Point></Placemark><Placemark><TimeSpan><begin>2022-08-08T09:24:02Z</begin><end>2022-08-08T09:24:14Z</end></TimeSpan><styleUrl>#point</styleUrl><Point><altitudeMode>clampToGround</altitudeMode><coordinates>30.272698486223817,-27.522271005436778,1801.6500000000001</coordinates></Point></Placemark><Placemark><TimeSpan><begin>2022-08-08T09:24:14Z</begin><end>2022-08-08T09:24:23Z</end></TimeSpan><styleUrl>#point</styleUrl><Point><altitudeMode>clampToGround</altitudeMode><coordinates>30.271105505526066,-27.521760212257504,1811.26</coordinates></Point></Placemark><Placemark><TimeSpan><begin>2022-08-08T09:24:23Z</begin><end>2022-08-08T09:24:34Z</end></TimeSpan><styleUrl>#point</styleUrl><Point><altitudeMode>clampToGround</altitudeMode><coordinates>30.269161323085427,-27.521081194281578,1830.97</coordinates></Point></Placemark><Placemark><TimeSpan><begin>2022-08-08T09:24:34Z</begin><end>2022-08-08T09:24:42Z</end></TimeSpan><styleUrl>#point</styleUrl><Point><altitudeMode>clampToGround</altitudeMode><coordinates>30.26817343197763,-27.520352471619844,1848.75</coordinates></Point></Placemark><Placemark><TimeSpan><begin>2022-08-08T09:24:42Z</begin><end>2022-08-08T09:24:53Z</end></TimeSpan><styleUrl>#point</styleUrl><Point><altitudeMode>clampToGround</altitudeMode><coordinates>30.266667539253831,-27.518959231674671,1879.03</coordinates></Point></Placemark><Placemark><TimeSpan><begin>2022-08-08T09:24:53Z</begin><end>2022-08-08T09:25:03Z</end></TimeSpan><styleUrl>#point</styleUrl><Point><altitudeMode>clampToGround</altitudeMode><coordinates>30.265399692580104,-27.517773527652025,1904.51</coordinates></Point></Placemark><Placemark><TimeSpan><begin>2022-08-08T09:25:03Z</begin><end>2022-08-08T09:25:13Z</end></TimeSpan><styleUrl>#point</styleUrl><Point><altitudeMode>clampToGround</altitudeMode><coordinates>30.264091193675995,-27.516750851646066,1926.1400000000001</coordinates></Point></Placemark><Placemark><TimeSpan><begin>2022-08-08T09:25:13Z</begin><end>2022-08-08T09:25:28Z</end></TimeSpan><styleUrl>#point</styleUrl><Point><altitudeMode>clampToGround</altitudeMode><coordinates>30.262067299336195,-27.515501696616411,1962.1900000000001</coordinates></Point></Placemark><Placemark><TimeSpan><begin>2022-08-08T09:25:28Z</begin><end>2022-08-08T09:25:36Z</end></TimeSpan><styleUrl>#point</styleUrl><Point><altitudeMode>clampToGround</altitudeMode><coordinates>30.261044204235077,-27.515108250081539,1964.5899999999999</coordinates></Point></Placemark><Placemark><TimeSpan><begin>2022-08-08T09:25:36Z</begin><end>2022-08-08T09:25:50Z</end></TimeSpan><styleUrl>#point</styleUrl><Point><altitudeMode>clampToGround</altitudeMode><coordinates>30.259052999317646,-27.514417162165046,1961.71</coordinates></Point></Placemark><Placemark><TimeSpan><begin>2022-08-08T09:25:50Z</begin><end>2022-08-08T09:25:59Z</end></TimeSpan><styleUrl>#point</styleUrl><Point><altitudeMode>clampToGround</altitudeMode><coordinates>30.257947174832225,-27.514034193009138,1962.6700000000001</coordinates></Point></Placemark><Placemark><TimeSpan><begin>2022-08-08T09:25:59Z</begin><end>2022-08-08T09:26:10Z</end></TimeSpan><styleUrl>#point</styleUrl><Point><altitudeMode>clampToGround</altitudeMode><coordinates>30.256427535787225,-27.513818359002471,1965.55</coordinates></Point></Placemark><Placemark><TimeSpan><begin>2022-08-08T09:26:10Z</begin><end>2022-08-08T09:26:23Z</end></TimeSpan><styleUrl>#point</styleUrl><Point><altitudeMode>clampToGround</altitudeMode><coordinates>30.254905465990305,-27.513647619634867,1960.75</coordinates></Point></Placemark><Placemark><TimeSpan><begin>2022-08-08T09:26:23Z</begin><end>2022-08-08T09:26:32Z</end></TimeSpan><styleUrl>#point</styleUrl><Point><altitudeMode>clampToGround</altitudeMode><coordinates>30.253505352884531,-27.513429606333375,1967.48</coordinates></Point></Placemark><Placemark><TimeSpan><begin>2022-08-08T09:26:32Z</begin><end>2022-08-08T09:26:41Z</end></TimeSpan><styleUrl>#point</styleUrl><Point><altitudeMode>clampToGround</altitudeMode><coordinates>30.252126110717654,-27.513241181150079,1967.48</coordinates></Point></Placemark><Placemark><TimeSpan><begin>2022-08-08T09:26:41Z</begin><end>2022-08-08T09:26:54Z</end></TimeSpan><styleUrl>#point</styleUrl><Point><altitudeMode>clampToGround</altitudeMode><coordinates>30.250253174453974,-27.512707589194179,1956.4200000000001</coordinates></Point></Placemark><Placemark><TimeSpan><begin>2022-08-08T09:26:54Z</begin><end>2022-08-08T09:27:09Z</end></TimeSpan><styleUrl>#point</styleUrl><Point><altitudeMode>clampToGround</altitudeMode><coordinates>30.247989557683468,-27.511951290071011,1944.4000000000001</coordinates></Point></Placemark><Placemark><TimeSpan><begin>2022-08-08T09:27:09Z</begin><end>2022-08-08T09:27:12Z</end></TimeSpan><styleUrl>#point</styleUrl><Point><altitudeMode>clampToGround</altitudeMode><coordinates>30.247584376484156,-27.51178314909339,1942.48</coordinates></Point></Placemark><Placemark><TimeSpan><begin>2022-08-08T09:27:12Z</begin><end>2022-08-08T09:27:13Z</end></TimeSpan><styleUrl>#point</styleUrl><Point><altitudeMode>clampToGround</altitudeMode><coordinates>30.247463593259454,-27.511707209050655,1942.48</coordinates></Point></Placemark><Placemark><TimeSpan><begin>2022-08-08T09:27:13Z</begin><end>2022-08-08T09:27:14Z</end></TimeSpan><styleUrl>#point</styleUrl><Point><altitudeMode>clampToGround</altitudeMode><coordinates>30.247347922995687,-27.511620372533798,1942</coordinates></Point></Placemark><Placemark><TimeSpan><begin>2022-08-08T09:27:14Z</begin><end>2022-08-08T09:27:21Z</end></TimeSpan><styleUrl>#point</styleUrl><Point><altitudeMode>clampToGround</altitudeMode><coordinates>30.246451226994395,-27.510781176388264,1943.9200000000001</coordinates></Point></Placemark><Placemark><TimeSpan><begin>2022-08-08T09:27:21Z</begin><end>2022-08-08T09:27:29Z</end></TimeSpan><styleUrl>#point</styleUrl><Point><altitudeMode>clampToGround</altitudeMode><coordinates>30.245572803542018,-27.509346446022391,1948.73</coordinates></Point></Placemark></Folder><Placemark><name>[285] Hattingshoogte Pass</name><Style><LineStyle><color>ff0080ff</color><width>4</width></LineStyle></Style><MultiGeometry><LineString><coordinates>30.296845575794578,-27.539246873930097,1663.22 30.295735895633698,-27.538107521831989,1670.9100000000001 30.294316252693534,-27.536438098177314,1682.9300000000001 30.293986508622766,-27.535948008298874,1687.25 30.293535394594073,-27.535174945369363,1692.54 30.292735258117318,-27.533725211396813,1697.3399999999999 30.29165843501687,-27.532238261774182,1707.9200000000001 30.291106319054961,-27.531538791954517,1713.6900000000001 30.289556924253702,-27.530030719935894,1724.74 30.288203833624721,-27.529078032821417,1732.4300000000001 30.28635730035603,-27.527645565569401,1747.8099999999999 30.285575771704316,-27.527042655274272,1757.9100000000001 30.284476233646274,-27.5262969173491,1764.1600000000001 30.283627146854997,-27.525485968217254,1768 30.282438257709146,-27.524298671633005,1767.04 30.281257582828403,-27.523674806579947,1768.96 30.279477518051863,-27.522882968187332,1771.8499999999999 30.278697833418846,-27.522521456703544,1768 30.278590377420187,-27.522498490288854,1767.52 30.278469091281295,-27.522485833615065,1766.5599999999999 30.278333639726043,-27.522485749796033,1765.1199999999999 30.278184860944748,-27.522498238831758,1764.1600000000001 30.278027867898345,-27.52252078615129,1763.2 30.277868779376149,-27.522553224116564,1762.23 30.276823556050658,-27.522803759202361,1761.75 30.276665724813938,-27.522814655676484,1762.71 30.27520140632987,-27.522723795846105,1775.6900000000001 30.274174958467484,-27.522615753114223,1787.71 30.272698486223817,-27.522271005436778,1801.6500000000001 30.271105505526066,-27.521760212257504,1811.26 30.269161323085427,-27.521081194281578,1830.97 30.26817343197763,-27.520352471619844,1848.75 30.266667539253831,-27.518959231674671,1879.03 30.265399692580104,-27.517773527652025,1904.51 30.264091193675995,-27.516750851646066,1926.1400000000001 30.262067299336195,-27.515501696616411,1962.1900000000001 30.261044204235077,-27.515108250081539,1964.5899999999999 30.259052999317646,-27.514417162165046,1961.71 30.257947174832225,-27.514034193009138,1962.6700000000001 30.256427535787225,-27.513818359002471,1965.55 30.254905465990305,-27.513647619634867,1960.75 30.253505352884531,-27.513429606333375,1967.48 30.252126110717654,-27.513241181150079,1967.48 30.250253174453974,-27.512707589194179,1956.4200000000001 30.247989557683468,-27.511951290071011,1944.4000000000001 30.247584376484156,-27.51178314909339,1942.48 30.247463593259454,-27.511707209050655,1942.48 30.247347922995687,-27.511620372533798,1942 30.246451226994395,-27.510781176388264,1943.9200000000001 30.245572803542018,-27.509346446022391,1948.73 </coordinates></LineString></MultiGeometry></Placemark></Folder></Folder></Document></kml>