<?xml version="1.0" encoding="utf-8"?><kml xmlns="http://www.opengis.net/kml/2.2" xmlns:xsi="http://www.w3.org/2001/XMLSchema-instance" xmlns:kmlx="http://www.google.com/kml/ext/2.2" xmlns:atom="http://www.w3.org/2005/Atom" xmlns:gpxx="http://www.garmin.com/xmlschemas/GpxExtensions/v3"><Document><Style id="point"><IconStyle><scale>0.9</scale><Icon><href>http://maps.google.com/mapfiles/kml/shapes/placemark_circle.png</href></Icon></IconStyle></Style><Folder><name>Tracks</name><Folder><name>[289] Barrowfield Pass</name><Folder><name>Points</name><Style><ListStyle><listItemType>checkHideChildren</listItemType></ListStyle></Style><Placemark><TimeSpan><begin>2022-08-08T10:28:20Z</begin><end>2022-08-08T10:28:20Z</end></TimeSpan><Style><IconStyle><scale>0.9</scale><Icon><href>http://connect.garmin.com/image/main/icons/kml/grn-play.png</href></Icon></IconStyle></Style><Point><altitudeMode>clampToGround</altitudeMode><coordinates>30.083575593307614,-27.464775005355477,1753.5799999999999</coordinates></Point></Placemark><Placemark><TimeSpan><begin>2022-08-08T10:28:20Z</begin><end>2022-08-08T10:28:21Z</end></TimeSpan><styleUrl>#point</styleUrl><Point><altitudeMode>clampToGround</altitudeMode><coordinates>30.083721773698926,-27.464808197692037,1753.5799999999999</coordinates></Point></Placemark><Placemark><TimeSpan><begin>2022-08-08T10:28:21Z</begin><end>2022-08-08T10:28:22Z</end></TimeSpan><styleUrl>#point</styleUrl><Point><altitudeMode>clampToGround</altitudeMode><coordinates>30.083866277709603,-27.464852286502719,1753.5799999999999</coordinates></Point></Placemark><Placemark><TimeSpan><begin>2022-08-08T10:28:22Z</begin><end>2022-08-08T10:28:23Z</end></TimeSpan><styleUrl>#point</styleUrl><Point><altitudeMode>clampToGround</altitudeMode><coordinates>30.08401027880609,-27.464903835207224,1753.5799999999999</coordinates></Point></Placemark><Placemark><TimeSpan><begin>2022-08-08T10:28:23Z</begin><end>2022-08-08T10:28:27Z</end></TimeSpan><styleUrl>#point</styleUrl><Point><altitudeMode>clampToGround</altitudeMode><coordinates>30.084560718387365,-27.465191669762135,1753.0999999999999</coordinates></Point></Placemark><Placemark><TimeSpan><begin>2022-08-08T10:28:27Z</begin><end>2022-08-08T10:28:28Z</end></TimeSpan><styleUrl>#point</styleUrl><Point><altitudeMode>clampToGround</altitudeMode><coordinates>30.084672113880515,-27.465283283963799,1753.0999999999999</coordinates></Point></Placemark><Placemark><TimeSpan><begin>2022-08-08T10:28:28Z</begin><end>2022-08-08T10:28:29Z</end></TimeSpan><styleUrl>#point</styleUrl><Point><altitudeMode>clampToGround</altitudeMode><coordinates>30.084775295108557,-27.465385291725397,1752.6199999999999</coordinates></Point></Placemark><Placemark><TimeSpan><begin>2022-08-08T10:28:29Z</begin><end>2022-08-08T10:28:30Z</end></TimeSpan><styleUrl>#point</styleUrl><Point><altitudeMode>clampToGround</altitudeMode><coordinates>30.084869675338268,-27.465496938675642,1752.1400000000001</coordinates></Point></Placemark><Placemark><TimeSpan><begin>2022-08-08T10:28:30Z</begin><end>2022-08-08T10:28:31Z</end></TimeSpan><styleUrl>#point</styleUrl><Point><altitudeMode>clampToGround</altitudeMode><coordinates>30.084953410550952,-27.465614788234234,1751.1800000000001</coordinates></Point></Placemark><Placemark><TimeSpan><begin>2022-08-08T10:28:31Z</begin><end>2022-08-08T10:28:32Z</end></TimeSpan><styleUrl>#point</styleUrl><Point><altitudeMode>clampToGround</altitudeMode><coordinates>30.085023315623403,-27.465735487639904,1750.7</coordinates></Point></Placemark><Placemark><TimeSpan><begin>2022-08-08T10:28:32Z</begin><end>2022-08-08T10:28:33Z</end></TimeSpan><styleUrl>#point</styleUrl><Point><altitudeMode>clampToGround</altitudeMode><coordinates>30.085078971460462,-27.465857528150082,1749.74</coordinates></Point></Placemark><Placemark><TimeSpan><begin>2022-08-08T10:28:33Z</begin><end>2022-08-08T10:28:34Z</end></TimeSpan><styleUrl>#point</styleUrl><Point><altitudeMode>clampToGround</altitudeMode><coordinates>30.085121132433414,-27.465981747955084,1749.26</coordinates></Point></Placemark><Placemark><TimeSpan><begin>2022-08-08T10:28:34Z</begin><end>2022-08-08T10:28:35Z</end></TimeSpan><styleUrl>#point</styleUrl><Point><altitudeMode>clampToGround</altitudeMode><coordinates>30.085152899846435,-27.466109404340386,1748.78</coordinates></Point></Placemark><Placemark><TimeSpan><begin>2022-08-08T10:28:35Z</begin><end>2022-08-08T10:28:36Z</end></TimeSpan><styleUrl>#point</styleUrl><Point><altitudeMode>clampToGround</altitudeMode><coordinates>30.085175950080156,-27.466237815096974,1747.8099999999999</coordinates></Point></Placemark><Placemark><TimeSpan><begin>2022-08-08T10:28:36Z</begin><end>2022-08-08T10:28:38Z</end></TimeSpan><styleUrl>#point</styleUrl><Point><altitudeMode>clampToGround</altitudeMode><coordinates>30.085199670866132,-27.466481812298298,1746.3699999999999</coordinates></Point></Placemark><Placemark><TimeSpan><begin>2022-08-08T10:28:38Z</begin><end>2022-08-08T10:28:39Z</end></TimeSpan><styleUrl>#point</styleUrl><Point><altitudeMode>clampToGround</altitudeMode><coordinates>30.085189528763294,-27.466604271903634,1745.4100000000001</coordinates></Point></Placemark><Placemark><TimeSpan><begin>2022-08-08T10:28:39Z</begin><end>2022-08-08T10:28:40Z</end></TimeSpan><styleUrl>#point</styleUrl><Point><altitudeMode>clampToGround</altitudeMode><coordinates>30.08516245521605,-27.466725390404463,1744.45</coordinates></Point></Placemark><Placemark><TimeSpan><begin>2022-08-08T10:28:40Z</begin><end>2022-08-08T10:28:41Z</end></TimeSpan><styleUrl>#point</styleUrl><Point><altitudeMode>clampToGround</altitudeMode><coordinates>30.085120797157288,-27.466848604381084,1743.49</coordinates></Point></Placemark><Placemark><TimeSpan><begin>2022-08-08T10:28:41Z</begin><end>2022-08-08T10:28:42Z</end></TimeSpan><styleUrl>#point</styleUrl><Point><altitudeMode>clampToGround</altitudeMode><coordinates>30.085065141320229,-27.466970644891262,1743.01</coordinates></Point></Placemark><Placemark><TimeSpan><begin>2022-08-08T10:28:42Z</begin><end>2022-08-08T10:28:43Z</end></TimeSpan><styleUrl>#point</styleUrl><Point><altitudeMode>clampToGround</altitudeMode><coordinates>30.084997666999698,-27.467084471136332,1742.05</coordinates></Point></Placemark><Placemark><TimeSpan><begin>2022-08-08T10:28:43Z</begin><end>2022-08-08T10:28:44Z</end></TimeSpan><styleUrl>#point</styleUrl><Point><altitudeMode>clampToGround</altitudeMode><coordinates>30.084921140223742,-27.467187903821468,1741.0799999999999</coordinates></Point></Placemark><Placemark><TimeSpan><begin>2022-08-08T10:28:44Z</begin><end>2022-08-08T10:28:45Z</end></TimeSpan><styleUrl>#point</styleUrl><Point><altitudeMode>clampToGround</altitudeMode><coordinates>30.084839416667819,-27.46728178113699,1740.1199999999999</coordinates></Point></Placemark><Placemark><TimeSpan><begin>2022-08-08T10:28:45Z</begin><end>2022-08-08T10:28:46Z</end></TimeSpan><styleUrl>#point</styleUrl><Point><altitudeMode>clampToGround</altitudeMode><coordinates>30.084755597636104,-27.46736878529191,1739.1600000000001</coordinates></Point></Placemark><Placemark><TimeSpan><begin>2022-08-08T10:28:46Z</begin><end>2022-08-08T10:28:47Z</end></TimeSpan><styleUrl>#point</styleUrl><Point><altitudeMode>clampToGround</altitudeMode><coordinates>30.084669599309564,-27.467449503019452,1738.2</coordinates></Point></Placemark><Placemark><TimeSpan><begin>2022-08-08T10:28:47Z</begin><end>2022-08-08T10:28:49Z</end></TimeSpan><styleUrl>#point</styleUrl><Point><altitudeMode>clampToGround</altitudeMode><coordinates>30.084477737545967,-27.467599203810096,1736.28</coordinates></Point></Placemark><Placemark><TimeSpan><begin>2022-08-08T10:28:49Z</begin><end>2022-08-08T10:28:50Z</end></TimeSpan><styleUrl>#point</styleUrl><Point><altitudeMode>clampToGround</altitudeMode><coordinates>30.08436743170023,-27.467665588483214,1735.3199999999999</coordinates></Point></Placemark><Placemark><TimeSpan><begin>2022-08-08T10:28:50Z</begin><end>2022-08-08T10:28:51Z</end></TimeSpan><styleUrl>#point</styleUrl><Point><altitudeMode>clampToGround</altitudeMode><coordinates>30.084247067570686,-27.46772401034832,1734.3599999999999</coordinates></Point></Placemark><Placemark><TimeSpan><begin>2022-08-08T10:28:51Z</begin><end>2022-08-08T10:28:52Z</end></TimeSpan><styleUrl>#point</styleUrl><Point><altitudeMode>clampToGround</altitudeMode><coordinates>30.084117399528623,-27.467776061967015,1732.9100000000001</coordinates></Point></Placemark><Placemark><TimeSpan><begin>2022-08-08T10:28:52Z</begin><end>2022-08-08T10:28:53Z</end></TimeSpan><styleUrl>#point</styleUrl><Point><altitudeMode>clampToGround</altitudeMode><coordinates>30.083985133096576,-27.467823084443808,1731.95</coordinates></Point></Placemark><Placemark><TimeSpan><begin>2022-08-08T10:28:53Z</begin><end>2022-08-08T10:29:02Z</end></TimeSpan><styleUrl>#point</styleUrl><Point><altitudeMode>clampToGround</altitudeMode><coordinates>30.082996319979429,-27.468375787138939,1722.3399999999999</coordinates></Point></Placemark><Placemark><TimeSpan><begin>2022-08-08T10:29:02Z</begin><end>2022-08-08T10:29:04Z</end></TimeSpan><styleUrl>#point</styleUrl><Point><altitudeMode>clampToGround</altitudeMode><coordinates>30.082832705229521,-27.46855515986681,1719.46</coordinates></Point></Placemark><Placemark><TimeSpan><begin>2022-08-08T10:29:04Z</begin><end>2022-08-08T10:29:05Z</end></TimeSpan><styleUrl>#point</styleUrl><Point><altitudeMode>clampToGround</altitudeMode><coordinates>30.082769002765417,-27.468656748533249,1717.53</coordinates></Point></Placemark><Placemark><TimeSpan><begin>2022-08-08T10:29:05Z</begin><end>2022-08-08T10:29:06Z</end></TimeSpan><styleUrl>#point</styleUrl><Point><altitudeMode>clampToGround</altitudeMode><coordinates>30.082713263109326,-27.468772837892175,1716.0899999999999</coordinates></Point></Placemark><Placemark><TimeSpan><begin>2022-08-08T10:29:06Z</begin><end>2022-08-08T10:29:07Z</end></TimeSpan><styleUrl>#point</styleUrl><Point><altitudeMode>clampToGround</altitudeMode><coordinates>30.082662887871265,-27.468906613066792,1714.1700000000001</coordinates></Point></Placemark><Placemark><TimeSpan><begin>2022-08-08T10:29:07Z</begin><end>2022-08-08T10:29:08Z</end></TimeSpan><styleUrl>#point</styleUrl><Point><altitudeMode>clampToGround</altitudeMode><coordinates>30.082614608108997,-27.469050446525216,1711.76</coordinates></Point></Placemark><Placemark><TimeSpan><begin>2022-08-08T10:29:08Z</begin><end>2022-08-08T10:29:16Z</end></TimeSpan><styleUrl>#point</styleUrl><Point><altitudeMode>clampToGround</altitudeMode><coordinates>30.082158129662275,-27.470456846058369,1695.9000000000001</coordinates></Point></Placemark><Placemark><TimeSpan><begin>2022-08-08T10:29:16Z</begin><end>2022-08-08T10:29:30Z</end></TimeSpan><styleUrl>#point</styleUrl><Point><altitudeMode>clampToGround</altitudeMode><coordinates>30.081252297386527,-27.472771676257253,1681</coordinates></Point></Placemark><Placemark><TimeSpan><begin>2022-08-08T10:29:30Z</begin><end>2022-08-08T10:29:43Z</end></TimeSpan><styleUrl>#point</styleUrl><Point><altitudeMode>clampToGround</altitudeMode><coordinates>30.080336406826973,-27.474538749083877,1668.99</coordinates></Point></Placemark><Placemark><TimeSpan><begin>2022-08-08T10:29:43Z</begin><end>2022-08-08T10:29:53Z</end></TimeSpan><styleUrl>#point</styleUrl><Point><altitudeMode>clampToGround</altitudeMode><coordinates>30.079273162409663,-27.475899970158935,1666.0999999999999</coordinates></Point></Placemark><Placemark><TimeSpan><begin>2022-08-08T10:29:53Z</begin><end>2022-08-08T10:30:03Z</end></TimeSpan><styleUrl>#point</styleUrl><Point><altitudeMode>clampToGround</altitudeMode><coordinates>30.078315027058125,-27.47743452899158,1674.75</coordinates></Point></Placemark><Placemark><TimeSpan><begin>2022-08-08T10:30:03Z</begin><end>2022-08-08T10:30:13Z</end></TimeSpan><styleUrl>#point</styleUrl><Point><altitudeMode>clampToGround</altitudeMode><coordinates>30.077078612521291,-27.479156590998173,1676.6800000000001</coordinates></Point></Placemark><Placemark><TimeSpan><begin>2022-08-08T10:30:13Z</begin><end>2022-08-08T10:30:20Z</end></TimeSpan><styleUrl>#point</styleUrl><Point><altitudeMode>clampToGround</altitudeMode><coordinates>30.076374532654881,-27.480219583958387,1681</coordinates></Point></Placemark><Placemark><TimeSpan><begin>2022-08-08T10:30:20Z</begin><end>2022-08-08T10:30:29Z</end></TimeSpan><styleUrl>#point</styleUrl><Point><altitudeMode>clampToGround</altitudeMode><coordinates>30.075745554640889,-27.481752801686525,1683.4100000000001</coordinates></Point></Placemark><Placemark><TimeSpan><begin>2022-08-08T10:30:29Z</begin><end>2022-08-08T10:30:30Z</end></TimeSpan><styleUrl>#point</styleUrl><Point><altitudeMode>clampToGround</altitudeMode><coordinates>30.075641451403499,-27.481901245191693,1683.4100000000001</coordinates></Point></Placemark><Placemark><TimeSpan><begin>2022-08-08T10:30:30Z</begin><end>2022-08-08T10:30:31Z</end></TimeSpan><styleUrl>#point</styleUrl><Point><altitudeMode>clampToGround</altitudeMode><coordinates>30.07552326656878,-27.482045497745275,1683.8900000000001</coordinates></Point></Placemark><Placemark><TimeSpan><begin>2022-08-08T10:30:31Z</begin><end>2022-08-08T10:30:41Z</end></TimeSpan><styleUrl>#point</styleUrl><Point><altitudeMode>clampToGround</altitudeMode><coordinates>30.074159614741802,-27.48360444791615,1685.3299999999999</coordinates></Point></Placemark><Placemark><TimeSpan><begin>2022-08-08T10:30:41Z</begin><end>2022-08-08T10:30:49Z</end></TimeSpan><styleUrl>#point</styleUrl><Point><altitudeMode>clampToGround</altitudeMode><coordinates>30.073265433311462,-27.48494379222393,1682.4400000000001</coordinates></Point></Placemark><Placemark><TimeSpan><begin>2022-08-08T10:30:49Z</begin><end>2022-08-08T10:30:58Z</end></TimeSpan><styleUrl>#point</styleUrl><Point><altitudeMode>clampToGround</altitudeMode><coordinates>30.072310985997319,-27.486670380458236,1675.23</coordinates></Point></Placemark><Placemark><TimeSpan><begin>2022-08-08T10:30:58Z</begin><end>2022-08-08T10:31:03Z</end></TimeSpan><styleUrl>#point</styleUrl><Point><altitudeMode>clampToGround</altitudeMode><coordinates>30.071983672678471,-27.487514605745673,1672.3499999999999</coordinates></Point></Placemark><Placemark><TimeSpan><begin>2022-08-08T10:31:03Z</begin><end>2022-08-08T10:31:04Z</end></TimeSpan><styleUrl>#point</styleUrl><Point><altitudeMode>clampToGround</altitudeMode><coordinates>30.071957688778639,-27.487694565206766,1671.8699999999999</coordinates></Point></Placemark><Placemark><TimeSpan><begin>2022-08-08T10:31:04Z</begin><end>2022-08-08T10:31:11Z</end></TimeSpan><styleUrl>#point</styleUrl><Point><altitudeMode>clampToGround</altitudeMode><coordinates>30.071855681017041,-27.489207666367292,1670.4300000000001</coordinates></Point></Placemark><Placemark><TimeSpan><begin>2022-08-08T10:31:11Z</begin><end>2022-08-08T10:31:21Z</end></TimeSpan><styleUrl>#point</styleUrl><Point><altitudeMode>clampToGround</altitudeMode><coordinates>30.071742357686162,-27.491507744416595,1665.1400000000001</coordinates></Point></Placemark><Placemark><TimeSpan><begin>2022-08-08T10:31:21Z</begin><end>2022-08-08T10:31:34Z</end></TimeSpan><styleUrl>#point</styleUrl><Point><altitudeMode>clampToGround</altitudeMode><coordinates>30.071570780128241,-27.49463033862412,1670.4300000000001</coordinates></Point></Placemark><Placemark><TimeSpan><begin>2022-08-08T10:31:34Z</begin><end>2022-08-08T10:31:43Z</end></TimeSpan><styleUrl>#point</styleUrl><Point><altitudeMode>clampToGround</altitudeMode><coordinates>30.071393670514226,-27.496561948210001,1683.4100000000001</coordinates></Point></Placemark><Placemark><TimeSpan><begin>2022-08-08T10:31:43Z</begin><end>2022-08-08T10:31:44Z</end></TimeSpan><styleUrl>#point</styleUrl><Point><altitudeMode>clampToGround</altitudeMode><coordinates>30.071333488449454,-27.496706116944551,1683.8900000000001</coordinates></Point></Placemark><Placemark><TimeSpan><begin>2022-08-08T10:31:44Z</begin><end>2022-08-08T10:31:45Z</end></TimeSpan><styleUrl>#point</styleUrl><Point><altitudeMode>clampToGround</altitudeMode><coordinates>30.071256458759308,-27.496833857148886,1684.3699999999999</coordinates></Point></Placemark><Placemark><TimeSpan><begin>2022-08-08T10:31:45Z</begin><end>2022-08-08T10:31:46Z</end></TimeSpan><styleUrl>#point</styleUrl><Point><altitudeMode>clampToGround</altitudeMode><coordinates>30.071161324158311,-27.496953969821334,1684.8499999999999</coordinates></Point></Placemark><Placemark><TimeSpan><begin>2022-08-08T10:31:46Z</begin><end>2022-08-08T10:31:47Z</end></TimeSpan><styleUrl>#point</styleUrl><Point><altitudeMode>clampToGround</altitudeMode><coordinates>30.07105378434062,-27.497070310637355,1684.8499999999999</coordinates></Point></Placemark><Placemark><TimeSpan><begin>2022-08-08T10:31:47Z</begin><end>2022-08-08T10:31:48Z</end></TimeSpan><styleUrl>#point</styleUrl><Point><altitudeMode>clampToGround</altitudeMode><coordinates>30.07092964835465,-27.497193273156881,1684.8499999999999</coordinates></Point></Placemark><Placemark><TimeSpan><begin>2022-08-08T10:31:48Z</begin><end>2022-08-08T10:31:55Z</end></TimeSpan><styleUrl>#point</styleUrl><Point><altitudeMode>clampToGround</altitudeMode><coordinates>30.069802785292268,-27.498181331902742,1680.04</coordinates></Point></Placemark><Placemark><TimeSpan><begin>2022-08-08T10:31:55Z</begin><end>2022-08-08T10:32:07Z</end></TimeSpan><styleUrl>#point</styleUrl><Point><altitudeMode>clampToGround</altitudeMode><coordinates>30.067815436050296,-27.499766517430544,1668.99</coordinates></Point></Placemark><Placemark><TimeSpan><begin>2022-08-08T10:32:07Z</begin><end>2022-08-08T10:32:17Z</end></TimeSpan><styleUrl>#point</styleUrl><Point><altitudeMode>clampToGround</altitudeMode><coordinates>30.066349105909467,-27.500734962522984,1661.78</coordinates></Point></Placemark><Placemark><TimeSpan><begin>2022-08-08T10:32:17Z</begin><end>2022-08-08T10:32:24Z</end></TimeSpan><styleUrl>#point</styleUrl><Point><altitudeMode>clampToGround</altitudeMode><coordinates>30.064770122990012,-27.50141054391861,1653.1199999999999</coordinates></Point></Placemark><Placemark><TimeSpan><begin>2022-08-08T10:32:24Z</begin><end>2022-08-08T10:32:33Z</end></TimeSpan><styleUrl>#point</styleUrl><Point><altitudeMode>clampToGround</altitudeMode><coordinates>30.062827114015818,-27.502220654860139,1647.3599999999999</coordinates></Point></Placemark><Placemark><TimeSpan><begin>2022-08-08T10:32:33Z</begin><end>2022-08-08T10:32:46Z</end></TimeSpan><styleUrl>#point</styleUrl><Point><altitudeMode>clampToGround</altitudeMode><coordinates>30.05999612621963,-27.503367634490132,1641.5899999999999</coordinates></Point></Placemark><Placemark><TimeSpan><begin>2022-08-08T10:32:46Z</begin><end>2022-08-08T10:32:59Z</end></TimeSpan><styleUrl>#point</styleUrl><Point><altitudeMode>clampToGround</altitudeMode><coordinates>30.057608792558312,-27.504333229735494,1638.7</coordinates></Point></Placemark><Placemark><TimeSpan><begin>2022-08-08T10:32:59Z</begin><end>2022-08-08T10:33:04Z</end></TimeSpan><styleUrl>#point</styleUrl><Point><altitudeMode>clampToGround</altitudeMode><coordinates>30.056867497041821,-27.504684515297413,1635.3399999999999</coordinates></Point></Placemark><Placemark><TimeSpan><begin>2022-08-08T10:33:04Z</begin><end>2022-08-08T10:33:05Z</end></TimeSpan><styleUrl>#point</styleUrl><Point><altitudeMode>clampToGround</altitudeMode><coordinates>30.056759621948004,-27.504770178347826,1634.3800000000001</coordinates></Point></Placemark><Placemark><TimeSpan><begin>2022-08-08T10:33:05Z</begin><end>2022-08-08T10:33:06Z</end></TimeSpan><styleUrl>#point</styleUrl><Point><altitudeMode>clampToGround</altitudeMode><coordinates>30.056667001917958,-27.504862882196903,1633.9000000000001</coordinates></Point></Placemark><Placemark><TimeSpan><begin>2022-08-08T10:33:06Z</begin><end>2022-08-08T10:33:07Z</end></TimeSpan><styleUrl>#point</styleUrl><Point><altitudeMode>clampToGround</altitudeMode><coordinates>30.056587960571051,-27.504964889958501,1632.9400000000001</coordinates></Point></Placemark><Placemark><TimeSpan><begin>2022-08-08T10:33:07Z</begin><end>2022-08-08T10:33:08Z</end></TimeSpan><styleUrl>#point</styleUrl><Point><altitudeMode>clampToGround</altitudeMode><coordinates>30.056521911174059,-27.505077207460999,1631.98</coordinates></Point></Placemark><Placemark><TimeSpan><begin>2022-08-08T10:33:08Z</begin><end>2022-08-08T10:33:09Z</end></TimeSpan><styleUrl>#point</styleUrl><Point><altitudeMode>clampToGround</altitudeMode><coordinates>30.056471787393093,-27.505199834704399,1631.49</coordinates></Point></Placemark><Placemark><TimeSpan><begin>2022-08-08T10:33:09Z</begin><end>2022-08-08T10:33:10Z</end></TimeSpan><styleUrl>#point</styleUrl><Point><altitudeMode>clampToGround</altitudeMode><coordinates>30.056439936161041,-27.505328999832273,1630.05</coordinates></Point></Placemark><Placemark><TimeSpan><begin>2022-08-08T10:33:10Z</begin><end>2022-08-08T10:33:11Z</end></TimeSpan><styleUrl>#point</styleUrl><Point><altitudeMode>clampToGround</altitudeMode><coordinates>30.056425938382745,-27.505461182445288,1629.0899999999999</coordinates></Point></Placemark><Placemark><TimeSpan><begin>2022-08-08T10:33:11Z</begin><end>2022-08-08T10:33:12Z</end></TimeSpan><styleUrl>#point</styleUrl><Point><altitudeMode>clampToGround</altitudeMode><coordinates>30.056427447125316,-27.505597304552794,1628.1300000000001</coordinates></Point></Placemark><Placemark><TimeSpan><begin>2022-08-08T10:33:12Z</begin><end>2022-08-08T10:33:13Z</end></TimeSpan><styleUrl>#point</styleUrl><Point><altitudeMode>clampToGround</altitudeMode><coordinates>30.056440439075232,-27.505734767764807,1626.6900000000001</coordinates></Point></Placemark><Placemark><TimeSpan><begin>2022-08-08T10:33:13Z</begin><end>2022-08-08T10:33:14Z</end></TimeSpan><styleUrl>#point</styleUrl><Point><altitudeMode>clampToGround</altitudeMode><coordinates>30.056458124890924,-27.505870386958122,1625.73</coordinates></Point></Placemark><Placemark><TimeSpan><begin>2022-08-08T10:33:14Z</begin><end>2022-08-08T10:33:24Z</end></TimeSpan><styleUrl>#point</styleUrl><Point><altitudeMode>clampToGround</altitudeMode><coordinates>30.056424764916301,-27.507208054885268,1611.79</coordinates></Point></Placemark><Placemark><TimeSpan><begin>2022-08-08T10:33:24Z</begin><end>2022-08-08T10:33:31Z</end></TimeSpan><styleUrl>#point</styleUrl><Point><altitudeMode>clampToGround</altitudeMode><coordinates>30.056028552353382,-27.508038617670536,1602.1700000000001</coordinates></Point></Placemark><Placemark><TimeSpan><begin>2022-08-08T10:33:31Z</begin><end>2022-08-08T10:33:32Z</end></TimeSpan><styleUrl>#point</styleUrl><Point><altitudeMode>clampToGround</altitudeMode><coordinates>30.055986726656556,-27.508155629038811,1600.73</coordinates></Point></Placemark><Placemark><TimeSpan><begin>2022-08-08T10:33:32Z</begin><end>2022-08-08T10:33:33Z</end></TimeSpan><styleUrl>#point</styleUrl><Point><altitudeMode>clampToGround</altitudeMode><coordinates>30.055961664766073,-27.508277837187052,1599.29</coordinates></Point></Placemark><Placemark><TimeSpan><begin>2022-08-08T10:33:33Z</begin><end>2022-08-08T10:33:34Z</end></TimeSpan><styleUrl>#point</styleUrl><Point><altitudeMode>clampToGround</altitudeMode><coordinates>30.055954456329346,-27.508404655382037,1597.8499999999999</coordinates></Point></Placemark><Placemark><TimeSpan><begin>2022-08-08T10:33:34Z</begin><end>2022-08-08T10:33:35Z</end></TimeSpan><styleUrl>#point</styleUrl><Point><altitudeMode>clampToGround</altitudeMode><coordinates>30.05596149712801,-27.508535161614418,1596.8900000000001</coordinates></Point></Placemark><Placemark><TimeSpan><begin>2022-08-08T10:33:35Z</begin><end>2022-08-08T10:33:36Z</end></TimeSpan><styleUrl>#point</styleUrl><Point><altitudeMode>clampToGround</altitudeMode><coordinates>30.055981026962399,-27.508662985637784,1595.45</coordinates></Point></Placemark><Placemark><TimeSpan><begin>2022-08-08T10:33:36Z</begin><end>2022-08-08T10:33:37Z</end></TimeSpan><styleUrl>#point</styleUrl><Point><altitudeMode>clampToGround</altitudeMode><coordinates>30.056006340309978,-27.50878837890923,1594</coordinates></Point></Placemark><Placemark><TimeSpan><begin>2022-08-08T10:33:37Z</begin><end>2022-08-08T10:33:40Z</end></TimeSpan><styleUrl>#point</styleUrl><Point><altitudeMode>clampToGround</altitudeMode><coordinates>30.056058559566736,-27.509173694998026,1590.6400000000001</coordinates></Point></Placemark><Placemark><TimeSpan><begin>2022-08-08T10:33:40Z</begin><end>2022-08-08T10:33:41Z</end></TimeSpan><styleUrl>#point</styleUrl><Point><altitudeMode>clampToGround</altitudeMode><coordinates>30.056045148521662,-27.509311493486166,1589.6800000000001</coordinates></Point></Placemark><Placemark><TimeSpan><begin>2022-08-08T10:33:41Z</begin><end>2022-08-08T10:33:42Z</end></TimeSpan><styleUrl>#point</styleUrl><Point><altitudeMode>clampToGround</altitudeMode><coordinates>30.056013213470578,-27.509452812373638,1588.72</coordinates></Point></Placemark><Placemark><TimeSpan><begin>2022-08-08T10:33:42Z</begin><end>2022-08-08T10:33:43Z</end></TimeSpan><styleUrl>#point</styleUrl><Point><altitudeMode>clampToGround</altitudeMode><coordinates>30.055968621745706,-27.509593963623047,1588.24</coordinates></Point></Placemark><Placemark><TimeSpan><begin>2022-08-08T10:33:43Z</begin><end>2022-08-08T10:33:44Z</end></TimeSpan><styleUrl>#point</styleUrl><Point><altitudeMode>clampToGround</altitudeMode><coordinates>30.055917492136359,-27.509729750454426,1587.27</coordinates></Point></Placemark><Placemark><TimeSpan><begin>2022-08-08T10:33:44Z</begin><end>2022-08-08T10:33:46Z</end></TimeSpan><styleUrl>#point</styleUrl><Point><altitudeMode>clampToGround</altitudeMode><coordinates>30.055794781073928,-27.509976262226701,1585.3499999999999</coordinates></Point></Placemark><Placemark><TimeSpan><begin>2022-08-08T10:33:46Z</begin><end>2022-08-08T10:33:47Z</end></TimeSpan><styleUrl>#point</styleUrl><Point><altitudeMode>clampToGround</altitudeMode><coordinates>30.055717499926686,-27.510087657719851,1584.3900000000001</coordinates></Point></Placemark><Placemark><TimeSpan><begin>2022-08-08T10:33:47Z</begin><end>2022-08-08T10:33:48Z</end></TimeSpan><styleUrl>#point</styleUrl><Point><altitudeMode>clampToGround</altitudeMode><coordinates>30.055627226829529,-27.510192263871431,1583.4300000000001</coordinates></Point></Placemark><Placemark><TimeSpan><begin>2022-08-08T10:33:48Z</begin><end>2022-08-08T10:33:49Z</end></TimeSpan><styleUrl>#point</styleUrl><Point><altitudeMode>clampToGround</altitudeMode><coordinates>30.055527566000819,-27.510288571938872,1582.47</coordinates></Point></Placemark><Placemark><TimeSpan><begin>2022-08-08T10:33:49Z</begin><end>2022-08-08T10:33:50Z</end></TimeSpan><styleUrl>#point</styleUrl><Point><altitudeMode>clampToGround</altitudeMode><coordinates>30.055418601259589,-27.510377168655396,1581.51</coordinates></Point></Placemark><Placemark><TimeSpan><begin>2022-08-08T10:33:50Z</begin><end>2022-08-08T10:33:51Z</end></TimeSpan><styleUrl>#point</styleUrl><Point><altitudeMode>clampToGround</altitudeMode><coordinates>30.055299578234553,-27.510461742058396,1580.0599999999999</coordinates></Point></Placemark><Placemark><TimeSpan><begin>2022-08-08T10:33:51Z</begin><end>2022-08-08T10:34:02Z</end></TimeSpan><styleUrl>#point</styleUrl><Point><altitudeMode>clampToGround</altitudeMode><coordinates>30.053716320544481,-27.51133413054049,1557.47</coordinates></Point></Placemark><Placemark><TimeSpan><begin>2022-08-08T10:34:02Z</begin><end>2022-08-08T10:34:12Z</end></TimeSpan><styleUrl>#point</styleUrl><Point><altitudeMode>clampToGround</altitudeMode><coordinates>30.052082939073443,-27.512245662510395,1538.25</coordinates></Point></Placemark><Placemark><TimeSpan><begin>2022-08-08T10:34:12Z</begin><end>2022-08-08T10:34:25Z</end></TimeSpan><styleUrl>#point</styleUrl><Point><altitudeMode>clampToGround</altitudeMode><coordinates>30.049718990921974,-27.513545025140047,1518.54</coordinates></Point></Placemark><Placemark><TimeSpan><begin>2022-08-08T10:34:25Z</begin><end>2022-08-08T10:34:33Z</end></TimeSpan><styleUrl>#point</styleUrl><Point><altitudeMode>clampToGround</altitudeMode><coordinates>30.048354836180806,-27.514126813039184,1508.9300000000001</coordinates></Point></Placemark><Placemark><TimeSpan><begin>2022-08-08T10:34:33Z</begin><end>2022-08-08T10:34:39Z</end></TimeSpan><styleUrl>#point</styleUrl><Point><altitudeMode>clampToGround</altitudeMode><coordinates>30.046922452747822,-27.514464687556028,1498.3499999999999</coordinates></Point></Placemark><Placemark><TimeSpan><begin>2022-08-08T10:34:39Z</begin><end>2022-08-08T10:34:46Z</end></TimeSpan><styleUrl>#point</styleUrl><Point><altitudeMode>clampToGround</altitudeMode><coordinates>30.045320671051741,-27.514803148806095,1489.7</coordinates></Point></Placemark><Placemark><TimeSpan><begin>2022-08-08T10:34:46Z</begin><end>2022-08-08T10:34:48Z</end></TimeSpan><styleUrl>#point</styleUrl><Point><altitudeMode>clampToGround</altitudeMode><coordinates>30.044999895617366,-27.51492653042078,1486.8199999999999</coordinates></Point></Placemark><Placemark><TimeSpan><begin>2022-08-08T10:34:48Z</begin><end>2022-08-08T10:34:49Z</end></TimeSpan><styleUrl>#point</styleUrl><Point><altitudeMode>clampToGround</altitudeMode><coordinates>30.044861091300845,-27.515001213178039,1485.3699999999999</coordinates></Point></Placemark><Placemark><TimeSpan><begin>2022-08-08T10:34:49Z</begin><end>2022-08-08T10:34:50Z</end></TimeSpan><styleUrl>#point</styleUrl><Point><altitudeMode>clampToGround</altitudeMode><coordinates>30.044738464057446,-27.515087379142642,1484.4100000000001</coordinates></Point></Placemark><Placemark><TimeSpan><begin>2022-08-08T10:34:50Z</begin><end>2022-08-08T10:34:51Z</end></TimeSpan><styleUrl>#point</styleUrl><Point><altitudeMode>clampToGround</altitudeMode><coordinates>30.044633354991674,-27.515186788514256,1482.97</coordinates></Point></Placemark><Placemark><TimeSpan><begin>2022-08-08T10:34:51Z</begin><end>2022-08-08T10:34:52Z</end></TimeSpan><styleUrl>#point</styleUrl><Point><altitudeMode>clampToGround</altitudeMode><coordinates>30.044544171541929,-27.515297261998057,1482.01</coordinates></Point></Placemark><Placemark><TimeSpan><begin>2022-08-08T10:34:52Z</begin><end>2022-08-08T10:34:53Z</end></TimeSpan><styleUrl>#point</styleUrl><Point><altitudeMode>clampToGround</altitudeMode><coordinates>30.044472673907876,-27.515415027737617,1480.5699999999999</coordinates></Point></Placemark><Placemark><TimeSpan><begin>2022-08-08T10:34:53Z</begin><end>2022-08-08T10:34:54Z</end></TimeSpan><styleUrl>#point</styleUrl><Point><altitudeMode>clampToGround</altitudeMode><coordinates>30.044419532641768,-27.515533212572336,1479.1300000000001</coordinates></Point></Placemark><Placemark><TimeSpan><begin>2022-08-08T10:34:54Z</begin><end>2022-08-08T10:34:55Z</end></TimeSpan><styleUrl>#point</styleUrl><Point><altitudeMode>clampToGround</altitudeMode><coordinates>30.044384328648448,-27.515650643035769,1477.6800000000001</coordinates></Point></Placemark><Placemark><TimeSpan><begin>2022-08-08T10:34:55Z</begin><end>2022-08-08T10:34:56Z</end></TimeSpan><styleUrl>#point</styleUrl><Point><altitudeMode>clampToGround</altitudeMode><coordinates>30.0443678162992,-27.515767654404044,1476.24</coordinates></Point></Placemark><Placemark><TimeSpan><begin>2022-08-08T10:34:56Z</begin><end>2022-08-08T10:34:57Z</end></TimeSpan><styleUrl>#point</styleUrl><Point><altitudeMode>clampToGround</altitudeMode><coordinates>30.044370666146278,-27.515883073210716,1475.28</coordinates></Point></Placemark><Placemark><TimeSpan><begin>2022-08-08T10:34:57Z</begin><end>2022-08-08T10:34:58Z</end></TimeSpan><styleUrl>#point</styleUrl><Point><altitudeMode>clampToGround</altitudeMode><coordinates>30.044393129646778,-27.516000419855118,1473.8399999999999</coordinates></Point></Placemark><Placemark><TimeSpan><begin>2022-08-08T10:34:58Z</begin><end>2022-08-08T10:34:59Z</end></TimeSpan><styleUrl>#point</styleUrl><Point><altitudeMode>clampToGround</altitudeMode><coordinates>30.044429004192352,-27.516110641881824,1472.4000000000001</coordinates></Point></Placemark><Placemark><TimeSpan><begin>2022-08-08T10:34:59Z</begin><end>2022-08-08T10:35:00Z</end></TimeSpan><styleUrl>#point</styleUrl><Point><altitudeMode>clampToGround</altitudeMode><coordinates>30.044477200135589,-27.51622723415494,1470.95</coordinates></Point></Placemark><Placemark><TimeSpan><begin>2022-08-08T10:35:00Z</begin><end>2022-08-08T10:35:09Z</end></TimeSpan><styleUrl>#point</styleUrl><Point><altitudeMode>clampToGround</altitudeMode><coordinates>30.044916747137904,-27.517433054745197,1455.5699999999999</coordinates></Point></Placemark><Placemark><TimeSpan><begin>2022-08-08T10:35:09Z</begin><end>2022-08-08T10:35:10Z</end></TimeSpan><styleUrl>#point</styleUrl><Point><altitudeMode>clampToGround</altitudeMode><coordinates>30.044922363013029,-27.517585605382919,1454.1300000000001</coordinates></Point></Placemark><Placemark><TimeSpan><begin>2022-08-08T10:35:10Z</begin><end>2022-08-08T10:35:11Z</end></TimeSpan><styleUrl>#point</styleUrl><Point><altitudeMode>clampToGround</altitudeMode><coordinates>30.044917752966285,-27.517743268981576,1452.21</coordinates></Point></Placemark><Placemark><TimeSpan><begin>2022-08-08T10:35:11Z</begin><end>2022-08-08T10:35:21Z</end></TimeSpan><styleUrl>#point</styleUrl><Point><altitudeMode>clampToGround</altitudeMode><coordinates>30.044672163203359,-27.519446639344096,1435.8699999999999</coordinates></Point></Placemark><Placemark><TimeSpan><begin>2022-08-08T10:35:21Z</begin><end>2022-08-08T10:35:34Z</end></TimeSpan><styleUrl>#point</styleUrl><Point><altitudeMode>clampToGround</altitudeMode><coordinates>30.04430235363543,-27.521812850609422,1416.6400000000001</coordinates></Point></Placemark><Placemark><TimeSpan><begin>2022-08-08T10:35:34Z</begin><end>2022-08-08T10:35:48Z</end></TimeSpan><styleUrl>#point</styleUrl><Point><altitudeMode>clampToGround</altitudeMode><coordinates>30.043926341459155,-27.524241004139185,1397.8900000000001</coordinates></Point></Placemark><Placemark><TimeSpan><begin>2022-08-08T10:35:48Z</begin><end>2022-08-08T10:35:56Z</end></TimeSpan><styleUrl>#point</styleUrl><Point><altitudeMode>clampToGround</altitudeMode><coordinates>30.043713608756661,-27.525508515536785,1391.6500000000001</coordinates></Point></Placemark><Placemark><TimeSpan><begin>2022-08-08T10:35:56Z</begin><end>2022-08-08T10:36:05Z</end></TimeSpan><styleUrl>#point</styleUrl><Point><altitudeMode>clampToGround</altitudeMode><coordinates>30.043527614325285,-27.526853391900659,1389.72</coordinates></Point></Placemark><Placemark><TimeSpan><begin>2022-08-08T10:36:05Z</begin><end>2022-08-08T10:36:13Z</end></TimeSpan><styleUrl>#point</styleUrl><Point><altitudeMode>clampToGround</altitudeMode><coordinates>30.043209018185735,-27.528235986828804,1398.8599999999999</coordinates></Point></Placemark><Placemark><TimeSpan><begin>2022-08-08T10:36:13Z</begin><end>2022-08-08T10:36:21Z</end></TimeSpan><styleUrl>#point</styleUrl><Point><altitudeMode>clampToGround</altitudeMode><coordinates>30.042582973837852,-27.529606595635414,1402.22</coordinates></Point></Placemark><Placemark><TimeSpan><begin>2022-08-08T10:36:21Z</begin><end>2022-08-08T10:36:28Z</end></TimeSpan><styleUrl>#point</styleUrl><Point><altitudeMode>clampToGround</altitudeMode><coordinates>30.042192125692964,-27.530417963862419,1402.22</coordinates></Point></Placemark><Placemark><TimeSpan><begin>2022-08-08T10:36:28Z</begin><end>2022-08-08T10:36:29Z</end></TimeSpan><styleUrl>#point</styleUrl><Point><altitudeMode>clampToGround</altitudeMode><coordinates>30.042158514261246,-27.53047957085073,1402.22</coordinates></Point></Placemark><Placemark><TimeSpan><begin>2022-08-08T10:36:29Z</begin><end>2022-08-08T10:36:30Z</end></TimeSpan><styleUrl>#point</styleUrl><Point><altitudeMode>clampToGround</altitudeMode><coordinates>30.042127417400479,-27.530526593327522,1402.22</coordinates></Point></Placemark><Placemark><TimeSpan><begin>2022-08-08T10:36:30Z</begin><end>2022-08-08T10:36:31Z</end></TimeSpan><styleUrl>#point</styleUrl><Point><altitudeMode>clampToGround</altitudeMode><coordinates>30.042093051597476,-27.530594822019339,1402.22</coordinates></Point></Placemark><Placemark><TimeSpan><begin>2022-08-08T10:36:31Z</begin><end>2022-08-08T10:36:32Z</end></TimeSpan><styleUrl>#point</styleUrl><Point><altitudeMode>clampToGround</altitudeMode><coordinates>30.042054913938046,-27.53067210316658,1402.22</coordinates></Point></Placemark></Folder><Placemark><name>[289] Barrowfield Pass</name><Style><LineStyle><color>ff0000ff</color><width>4</width></LineStyle></Style><MultiGeometry><LineString><coordinates>30.083575593307614,-27.464775005355477,1753.5799999999999 30.083721773698926,-27.464808197692037,1753.5799999999999 30.083866277709603,-27.464852286502719,1753.5799999999999 30.08401027880609,-27.464903835207224,1753.5799999999999 30.084560718387365,-27.465191669762135,1753.0999999999999 30.084672113880515,-27.465283283963799,1753.0999999999999 30.084775295108557,-27.465385291725397,1752.6199999999999 30.084869675338268,-27.465496938675642,1752.1400000000001 30.084953410550952,-27.465614788234234,1751.1800000000001 30.085023315623403,-27.465735487639904,1750.7 30.085078971460462,-27.465857528150082,1749.74 30.085121132433414,-27.465981747955084,1749.26 30.085152899846435,-27.466109404340386,1748.78 30.085175950080156,-27.466237815096974,1747.8099999999999 30.085199670866132,-27.466481812298298,1746.3699999999999 30.085189528763294,-27.466604271903634,1745.4100000000001 30.08516245521605,-27.466725390404463,1744.45 30.085120797157288,-27.466848604381084,1743.49 30.085065141320229,-27.466970644891262,1743.01 30.084997666999698,-27.467084471136332,1742.05 30.084921140223742,-27.467187903821468,1741.0799999999999 30.084839416667819,-27.46728178113699,1740.1199999999999 30.084755597636104,-27.46736878529191,1739.1600000000001 30.084669599309564,-27.467449503019452,1738.2 30.084477737545967,-27.467599203810096,1736.28 30.08436743170023,-27.467665588483214,1735.3199999999999 30.084247067570686,-27.46772401034832,1734.3599999999999 30.084117399528623,-27.467776061967015,1732.9100000000001 30.083985133096576,-27.467823084443808,1731.95 30.082996319979429,-27.468375787138939,1722.3399999999999 30.082832705229521,-27.46855515986681,1719.46 30.082769002765417,-27.468656748533249,1717.53 30.082713263109326,-27.468772837892175,1716.0899999999999 30.082662887871265,-27.468906613066792,1714.1700000000001 30.082614608108997,-27.469050446525216,1711.76 30.082158129662275,-27.470456846058369,1695.9000000000001 30.081252297386527,-27.472771676257253,1681 30.080336406826973,-27.474538749083877,1668.99 30.079273162409663,-27.475899970158935,1666.0999999999999 30.078315027058125,-27.47743452899158,1674.75 30.077078612521291,-27.479156590998173,1676.6800000000001 30.076374532654881,-27.480219583958387,1681 30.075745554640889,-27.481752801686525,1683.4100000000001 30.075641451403499,-27.481901245191693,1683.4100000000001 30.07552326656878,-27.482045497745275,1683.8900000000001 30.074159614741802,-27.48360444791615,1685.3299999999999 30.073265433311462,-27.48494379222393,1682.4400000000001 30.072310985997319,-27.486670380458236,1675.23 30.071983672678471,-27.487514605745673,1672.3499999999999 30.071957688778639,-27.487694565206766,1671.8699999999999 30.071855681017041,-27.489207666367292,1670.4300000000001 30.071742357686162,-27.491507744416595,1665.1400000000001 30.071570780128241,-27.49463033862412,1670.4300000000001 30.071393670514226,-27.496561948210001,1683.4100000000001 30.071333488449454,-27.496706116944551,1683.8900000000001 30.071256458759308,-27.496833857148886,1684.3699999999999 30.071161324158311,-27.496953969821334,1684.8499999999999 30.07105378434062,-27.497070310637355,1684.8499999999999 30.07092964835465,-27.497193273156881,1684.8499999999999 30.069802785292268,-27.498181331902742,1680.04 30.067815436050296,-27.499766517430544,1668.99 30.066349105909467,-27.500734962522984,1661.78 30.064770122990012,-27.50141054391861,1653.1199999999999 30.062827114015818,-27.502220654860139,1647.3599999999999 30.05999612621963,-27.503367634490132,1641.5899999999999 30.057608792558312,-27.504333229735494,1638.7 30.056867497041821,-27.504684515297413,1635.3399999999999 30.056759621948004,-27.504770178347826,1634.3800000000001 30.056667001917958,-27.504862882196903,1633.9000000000001 30.056587960571051,-27.504964889958501,1632.9400000000001 30.056521911174059,-27.505077207460999,1631.98 30.056471787393093,-27.505199834704399,1631.49 30.056439936161041,-27.505328999832273,1630.05 30.056425938382745,-27.505461182445288,1629.0899999999999 30.056427447125316,-27.505597304552794,1628.1300000000001 30.056440439075232,-27.505734767764807,1626.6900000000001 30.056458124890924,-27.505870386958122,1625.73 30.056424764916301,-27.507208054885268,1611.79 30.056028552353382,-27.508038617670536,1602.1700000000001 30.055986726656556,-27.508155629038811,1600.73 30.055961664766073,-27.508277837187052,1599.29 30.055954456329346,-27.508404655382037,1597.8499999999999 30.05596149712801,-27.508535161614418,1596.8900000000001 30.055981026962399,-27.508662985637784,1595.45 30.056006340309978,-27.50878837890923,1594 30.056058559566736,-27.509173694998026,1590.6400000000001 30.056045148521662,-27.509311493486166,1589.6800000000001 30.056013213470578,-27.509452812373638,1588.72 30.055968621745706,-27.509593963623047,1588.24 30.055917492136359,-27.509729750454426,1587.27 30.055794781073928,-27.509976262226701,1585.3499999999999 30.055717499926686,-27.510087657719851,1584.3900000000001 30.055627226829529,-27.510192263871431,1583.4300000000001 30.055527566000819,-27.510288571938872,1582.47 30.055418601259589,-27.510377168655396,1581.51 30.055299578234553,-27.510461742058396,1580.0599999999999 30.053716320544481,-27.51133413054049,1557.47 30.052082939073443,-27.512245662510395,1538.25 30.049718990921974,-27.513545025140047,1518.54 30.048354836180806,-27.514126813039184,1508.9300000000001 30.046922452747822,-27.514464687556028,1498.3499999999999 30.045320671051741,-27.514803148806095,1489.7 30.044999895617366,-27.51492653042078,1486.8199999999999 30.044861091300845,-27.515001213178039,1485.3699999999999 30.044738464057446,-27.515087379142642,1484.4100000000001 30.044633354991674,-27.515186788514256,1482.97 30.044544171541929,-27.515297261998057,1482.01 30.044472673907876,-27.515415027737617,1480.5699999999999 30.044419532641768,-27.515533212572336,1479.1300000000001 30.044384328648448,-27.515650643035769,1477.6800000000001 30.0443678162992,-27.515767654404044,1476.24 30.044370666146278,-27.515883073210716,1475.28 30.044393129646778,-27.516000419855118,1473.8399999999999 30.044429004192352,-27.516110641881824,1472.4000000000001 30.044477200135589,-27.51622723415494,1470.95 30.044916747137904,-27.517433054745197,1455.5699999999999 30.044922363013029,-27.517585605382919,1454.1300000000001 30.044917752966285,-27.517743268981576,1452.21 30.044672163203359,-27.519446639344096,1435.8699999999999 30.04430235363543,-27.521812850609422,1416.6400000000001 30.043926341459155,-27.524241004139185,1397.8900000000001 30.043713608756661,-27.525508515536785,1391.6500000000001 30.043527614325285,-27.526853391900659,1389.72 30.043209018185735,-27.528235986828804,1398.8599999999999 30.042582973837852,-27.529606595635414,1402.22 30.042192125692964,-27.530417963862419,1402.22 30.042158514261246,-27.53047957085073,1402.22 30.042127417400479,-27.530526593327522,1402.22 30.042093051597476,-27.530594822019339,1402.22 30.042054913938046,-27.53067210316658,1402.22 </coordinates></LineString></MultiGeometry></Placemark></Folder></Folder></Document></kml>