<?xml version="1.0" encoding="utf-8"?><kml xmlns="http://www.opengis.net/kml/2.2" xmlns:xsi="http://www.w3.org/2001/XMLSchema-instance" xmlns:kmlx="http://www.google.com/kml/ext/2.2" xmlns:atom="http://www.w3.org/2005/Atom" xmlns:gpxx="http://www.garmin.com/xmlschemas/GpxExtensions/v3"><Document><Style id="point"><IconStyle><scale>0.9</scale><Icon><href>http://maps.google.com/mapfiles/kml/shapes/placemark_circle.png</href></Icon></IconStyle></Style><Folder><name>Tracks</name><Folder><name>[304] Grootvlei Pass</name><Folder><name>Points</name><Style><ListStyle><listItemType>checkHideChildren</listItemType></ListStyle></Style><Placemark><TimeSpan><begin>2022-09-06T08:56:43Z</begin><end>2022-09-06T08:56:43Z</end></TimeSpan><Style><IconStyle><scale>0.9</scale><Icon><href>http://connect.garmin.com/image/main/icons/kml/grn-play.png</href></Icon></IconStyle></Style><Point><altitudeMode>clampToGround</altitudeMode><coordinates>17.772727981209755,-30.21072001196444,662.00999999999999</coordinates></Point></Placemark><Placemark><TimeSpan><begin>2022-09-06T08:56:43Z</begin><end>2022-09-06T08:56:46Z</end></TimeSpan><styleUrl>#point</styleUrl><Point><altitudeMode>clampToGround</altitudeMode><coordinates>17.772383987903595,-30.210726968944073,659.60000000000002</coordinates></Point></Placemark><Placemark><TimeSpan><begin>2022-09-06T08:56:46Z</begin><end>2022-09-06T08:56:47Z</end></TimeSpan><styleUrl>#point</styleUrl><Point><altitudeMode>clampToGround</altitudeMode><coordinates>17.772148959338665,-30.210787989199162,659.60000000000002</coordinates></Point></Placemark><Placemark><TimeSpan><begin>2022-09-06T08:56:47Z</begin><end>2022-09-06T08:56:48Z</end></TimeSpan><styleUrl>#point</styleUrl><Point><altitudeMode>clampToGround</altitudeMode><coordinates>17.772148959338665,-30.210787989199162,658.63999999999999</coordinates></Point></Placemark><Placemark><TimeSpan><begin>2022-09-06T08:56:48Z</begin><end>2022-09-06T08:56:49Z</end></TimeSpan><styleUrl>#point</styleUrl><Point><altitudeMode>clampToGround</altitudeMode><coordinates>17.772044017910957,-30.210838029161096,658.15999999999997</coordinates></Point></Placemark><Placemark><TimeSpan><begin>2022-09-06T08:56:49Z</begin><end>2022-09-06T08:56:50Z</end></TimeSpan><styleUrl>#point</styleUrl><Point><altitudeMode>clampToGround</altitudeMode><coordinates>17.771932035684586,-30.21089100278914,657.20000000000005</coordinates></Point></Placemark><Placemark><TimeSpan><begin>2022-09-06T08:56:50Z</begin><end>2022-09-06T08:56:51Z</end></TimeSpan><styleUrl>#point</styleUrl><Point><altitudeMode>clampToGround</altitudeMode><coordinates>17.771823992952704,-30.210955962538719,656.72000000000003</coordinates></Point></Placemark><Placemark><TimeSpan><begin>2022-09-06T08:56:51Z</begin><end>2022-09-06T08:56:52Z</end></TimeSpan><styleUrl>#point</styleUrl><Point><altitudeMode>clampToGround</altitudeMode><coordinates>17.77172802016139,-30.211032992228866,656.72000000000003</coordinates></Point></Placemark><Placemark><TimeSpan><begin>2022-09-06T08:56:52Z</begin><end>2022-09-06T08:56:53Z</end></TimeSpan><styleUrl>#point</styleUrl><Point><altitudeMode>clampToGround</altitudeMode><coordinates>17.771639004349709,-30.21110599860549,657.20000000000005</coordinates></Point></Placemark><Placemark><TimeSpan><begin>2022-09-06T08:56:53Z</begin><end>2022-09-06T08:57:02Z</end></TimeSpan><styleUrl>#point</styleUrl><Point><altitudeMode>clampToGround</altitudeMode><coordinates>17.771108010783792,-30.211582006886601,655.75999999999999</coordinates></Point></Placemark><Placemark><TimeSpan><begin>2022-09-06T08:57:02Z</begin><end>2022-09-06T08:57:12Z</end></TimeSpan><styleUrl>#point</styleUrl><Point><altitudeMode>clampToGround</altitudeMode><coordinates>17.770495964214206,-30.212131021544337,653.83000000000004</coordinates></Point></Placemark><Placemark><TimeSpan><begin>2022-09-06T08:57:12Z</begin><end>2022-09-06T08:57:28Z</end></TimeSpan><styleUrl>#point</styleUrl><Point><altitudeMode>clampToGround</altitudeMode><coordinates>17.769291987642646,-30.213151015341282,652.87</coordinates></Point></Placemark><Placemark><TimeSpan><begin>2022-09-06T08:57:28Z</begin><end>2022-09-06T08:57:36Z</end></TimeSpan><styleUrl>#point</styleUrl><Point><altitudeMode>clampToGround</altitudeMode><coordinates>17.769216969609261,-30.213213041424751,652.87</coordinates></Point></Placemark><Placemark><TimeSpan><begin>2022-09-06T08:57:36Z</begin><end>2022-09-06T08:57:46Z</end></TimeSpan><styleUrl>#point</styleUrl><Point><altitudeMode>clampToGround</altitudeMode><coordinates>17.769056959077716,-30.213345978409052,649.50999999999999</coordinates></Point></Placemark><Placemark><TimeSpan><begin>2022-09-06T08:57:46Z</begin><end>2022-09-06T08:57:50Z</end></TimeSpan><styleUrl>#point</styleUrl><Point><altitudeMode>clampToGround</altitudeMode><coordinates>17.768853027373552,-30.213560974225402,646.13999999999999</coordinates></Point></Placemark><Placemark><TimeSpan><begin>2022-09-06T08:57:50Z</begin><end>2022-09-06T08:57:51Z</end></TimeSpan><styleUrl>#point</styleUrl><Point><altitudeMode>clampToGround</altitudeMode><coordinates>17.768813967704773,-30.213616965338588,645.65999999999997</coordinates></Point></Placemark><Placemark><TimeSpan><begin>2022-09-06T08:57:51Z</begin><end>2022-09-06T08:57:52Z</end></TimeSpan><styleUrl>#point</styleUrl><Point><altitudeMode>clampToGround</altitudeMode><coordinates>17.768774991855025,-30.213673040270805,644.70000000000005</coordinates></Point></Placemark><Placemark><TimeSpan><begin>2022-09-06T08:57:52Z</begin><end>2022-09-06T08:57:53Z</end></TimeSpan><styleUrl>#point</styleUrl><Point><altitudeMode>clampToGround</altitudeMode><coordinates>17.768738027662039,-30.21372701972723,644.22000000000003</coordinates></Point></Placemark><Placemark><TimeSpan><begin>2022-09-06T08:57:53Z</begin><end>2022-09-06T08:57:54Z</end></TimeSpan><styleUrl>#point</styleUrl><Point><altitudeMode>clampToGround</altitudeMode><coordinates>17.768740961328149,-30.213784016668797,643.25999999999999</coordinates></Point></Placemark><Placemark><TimeSpan><begin>2022-09-06T08:57:54Z</begin><end>2022-09-06T08:57:55Z</end></TimeSpan><styleUrl>#point</styleUrl><Point><altitudeMode>clampToGround</altitudeMode><coordinates>17.768751019611955,-30.213847970589995,642.77999999999997</coordinates></Point></Placemark><Placemark><TimeSpan><begin>2022-09-06T08:57:55Z</begin><end>2022-09-06T08:57:56Z</end></TimeSpan><styleUrl>#point</styleUrl><Point><altitudeMode>clampToGround</altitudeMode><coordinates>17.768760994076729,-30.213915025815368,641.82000000000005</coordinates></Point></Placemark><Placemark><TimeSpan><begin>2022-09-06T08:57:56Z</begin><end>2022-09-06T08:57:57Z</end></TimeSpan><styleUrl>#point</styleUrl><Point><altitudeMode>clampToGround</altitudeMode><coordinates>17.768770968541503,-30.213984008878469,641.34000000000003</coordinates></Point></Placemark><Placemark><TimeSpan><begin>2022-09-06T08:57:57Z</begin><end>2022-09-06T08:57:58Z</end></TimeSpan><styleUrl>#point</styleUrl><Point><altitudeMode>clampToGround</altitudeMode><coordinates>17.768782032653689,-30.214055003598332,640.38</coordinates></Point></Placemark><Placemark><TimeSpan><begin>2022-09-06T08:57:58Z</begin><end>2022-09-06T08:58:02Z</end></TimeSpan><styleUrl>#point</styleUrl><Point><altitudeMode>clampToGround</altitudeMode><coordinates>17.768824025988579,-30.214337976649404,636.52999999999997</coordinates></Point></Placemark><Placemark><TimeSpan><begin>2022-09-06T08:58:02Z</begin><end>2022-09-06T08:58:06Z</end></TimeSpan><styleUrl>#point</styleUrl><Point><altitudeMode>clampToGround</altitudeMode><coordinates>17.768863001838326,-30.214593959972262,632.67999999999995</coordinates></Point></Placemark><Placemark><TimeSpan><begin>2022-09-06T08:58:06Z</begin><end>2022-09-06T08:58:09Z</end></TimeSpan><styleUrl>#point</styleUrl><Point><altitudeMode>clampToGround</altitudeMode><coordinates>17.768896026536822,-30.214875005185604,629.79999999999995</coordinates></Point></Placemark><Placemark><TimeSpan><begin>2022-09-06T08:58:09Z</begin><end>2022-09-06T08:58:12Z</end></TimeSpan><styleUrl>#point</styleUrl><Point><altitudeMode>clampToGround</altitudeMode><coordinates>17.76891496963799,-30.21503702737391,625.47000000000003</coordinates></Point></Placemark><Placemark><TimeSpan><begin>2022-09-06T08:58:12Z</begin><end>2022-09-06T08:58:14Z</end></TimeSpan><styleUrl>#point</styleUrl><Point><altitudeMode>clampToGround</altitudeMode><coordinates>17.768936008214951,-30.215213969349861,621.63</coordinates></Point></Placemark><Placemark><TimeSpan><begin>2022-09-06T08:58:14Z</begin><end>2022-09-06T08:58:16Z</end></TimeSpan><styleUrl>#point</styleUrl><Point><altitudeMode>clampToGround</altitudeMode><coordinates>17.768974984064698,-30.215411027893424,617.77999999999997</coordinates></Point></Placemark><Placemark><TimeSpan><begin>2022-09-06T08:58:16Z</begin><end>2022-09-06T08:58:18Z</end></TimeSpan><styleUrl>#point</styleUrl><Point><altitudeMode>clampToGround</altitudeMode><coordinates>17.769057964906096,-30.215697018429637,614.89999999999998</coordinates></Point></Placemark><Placemark><TimeSpan><begin>2022-09-06T08:58:18Z</begin><end>2022-09-06T08:58:21Z</end></TimeSpan><styleUrl>#point</styleUrl><Point><altitudeMode>clampToGround</altitudeMode><coordinates>17.769103981554508,-30.215873960405588,610.09000000000003</coordinates></Point></Placemark><Placemark><TimeSpan><begin>2022-09-06T08:58:21Z</begin><end>2022-09-06T08:58:23Z</end></TimeSpan><styleUrl>#point</styleUrl><Point><altitudeMode>clampToGround</altitudeMode><coordinates>17.769128959625959,-30.216051992028952,606.73000000000002</coordinates></Point></Placemark><Placemark><TimeSpan><begin>2022-09-06T08:58:23Z</begin><end>2022-09-06T08:58:26Z</end></TimeSpan><styleUrl>#point</styleUrl><Point><altitudeMode>clampToGround</altitudeMode><coordinates>17.769166007637978,-30.216310992836952,602.39999999999998</coordinates></Point></Placemark><Placemark><TimeSpan><begin>2022-09-06T08:58:26Z</begin><end>2022-09-06T08:58:29Z</end></TimeSpan><styleUrl>#point</styleUrl><Point><altitudeMode>clampToGround</altitudeMode><coordinates>17.76921303011477,-30.216552978381515,599.51999999999998</coordinates></Point></Placemark><Placemark><TimeSpan><begin>2022-09-06T08:58:29Z</begin><end>2022-09-06T08:58:30Z</end></TimeSpan><styleUrl>#point</styleUrl><Point><altitudeMode>clampToGround</altitudeMode><coordinates>17.769226022064686,-30.216620033606887,598.55999999999995</coordinates></Point></Placemark><Placemark><TimeSpan><begin>2022-09-06T08:58:30Z</begin><end>2022-09-06T08:58:31Z</end></TimeSpan><styleUrl>#point</styleUrl><Point><altitudeMode>clampToGround</altitudeMode><coordinates>17.769217975437641,-30.216689016669989,597.60000000000002</coordinates></Point></Placemark><Placemark><TimeSpan><begin>2022-09-06T08:58:31Z</begin><end>2022-09-06T08:58:32Z</end></TimeSpan><styleUrl>#point</styleUrl><Point><altitudeMode>clampToGround</altitudeMode><coordinates>17.769211018458009,-30.21675799973309,596.63999999999999</coordinates></Point></Placemark><Placemark><TimeSpan><begin>2022-09-06T08:58:32Z</begin><end>2022-09-06T08:58:33Z</end></TimeSpan><styleUrl>#point</styleUrl><Point><altitudeMode>clampToGround</altitudeMode><coordinates>17.769195009022951,-30.216818014159799,595.66999999999996</coordinates></Point></Placemark><Placemark><TimeSpan><begin>2022-09-06T08:58:33Z</begin><end>2022-09-06T08:58:34Z</end></TimeSpan><styleUrl>#point</styleUrl><Point><altitudeMode>clampToGround</altitudeMode><coordinates>17.769157039001584,-30.216880040243268,594.23000000000002</coordinates></Point></Placemark><Placemark><TimeSpan><begin>2022-09-06T08:58:34Z</begin><end>2022-09-06T08:58:35Z</end></TimeSpan><styleUrl>#point</styleUrl><Point><altitudeMode>clampToGround</altitudeMode><coordinates>17.769117979332805,-30.216941982507706,592.78999999999996</coordinates></Point></Placemark><Placemark><TimeSpan><begin>2022-09-06T08:58:35Z</begin><end>2022-09-06T08:58:36Z</end></TimeSpan><styleUrl>#point</styleUrl><Point><altitudeMode>clampToGround</altitudeMode><coordinates>17.768981019034982,-30.217047007754445,591.35000000000002</coordinates></Point></Placemark><Placemark><TimeSpan><begin>2022-09-06T08:58:36Z</begin><end>2022-09-06T08:58:37Z</end></TimeSpan><styleUrl>#point</styleUrl><Point><altitudeMode>clampToGround</altitudeMode><coordinates>17.768981019034982,-30.217047007754445,589.90999999999997</coordinates></Point></Placemark><Placemark><TimeSpan><begin>2022-09-06T08:58:37Z</begin><end>2022-09-06T08:58:40Z</end></TimeSpan><styleUrl>#point</styleUrl><Point><altitudeMode>clampToGround</altitudeMode><coordinates>17.768563013523817,-30.217308020219207,587.01999999999998</coordinates></Point></Placemark><Placemark><TimeSpan><begin>2022-09-06T08:58:40Z</begin><end>2022-09-06T08:58:41Z</end></TimeSpan><styleUrl>#point</styleUrl><Point><altitudeMode>clampToGround</altitudeMode><coordinates>17.768563013523817,-30.217308020219207,586.05999999999995</coordinates></Point></Placemark><Placemark><TimeSpan><begin>2022-09-06T08:58:41Z</begin><end>2022-09-06T08:58:42Z</end></TimeSpan><styleUrl>#point</styleUrl><Point><altitudeMode>clampToGround</altitudeMode><coordinates>17.768450025469065,-30.217378009110689,585.10000000000002</coordinates></Point></Placemark><Placemark><TimeSpan><begin>2022-09-06T08:58:42Z</begin><end>2022-09-06T08:58:43Z</end></TimeSpan><styleUrl>#point</styleUrl><Point><altitudeMode>clampToGround</altitudeMode><coordinates>17.768369978293777,-30.217480016872287,584.13999999999999</coordinates></Point></Placemark><Placemark><TimeSpan><begin>2022-09-06T08:58:43Z</begin><end>2022-09-06T08:58:44Z</end></TimeSpan><styleUrl>#point</styleUrl><Point><altitudeMode>clampToGround</altitudeMode><coordinates>17.768307030200958,-30.217597028240561,583.17999999999995</coordinates></Point></Placemark><Placemark><TimeSpan><begin>2022-09-06T08:58:44Z</begin><end>2022-09-06T08:58:45Z</end></TimeSpan><styleUrl>#point</styleUrl><Point><altitudeMode>clampToGround</altitudeMode><coordinates>17.768250033259392,-30.217701969668269,582.70000000000005</coordinates></Point></Placemark><Placemark><TimeSpan><begin>2022-09-06T08:58:45Z</begin><end>2022-09-06T08:58:46Z</end></TimeSpan><styleUrl>#point</styleUrl><Point><altitudeMode>clampToGround</altitudeMode><coordinates>17.768196975812316,-30.217801965773106,581.25</coordinates></Point></Placemark><Placemark><TimeSpan><begin>2022-09-06T08:58:46Z</begin><end>2022-09-06T08:58:50Z</end></TimeSpan><styleUrl>#point</styleUrl><Point><altitudeMode>clampToGround</altitudeMode><coordinates>17.768034031614661,-30.218103965744376,577.40999999999997</coordinates></Point></Placemark><Placemark><TimeSpan><begin>2022-09-06T08:58:50Z</begin><end>2022-09-06T08:58:51Z</end></TimeSpan><styleUrl>#point</styleUrl><Point><altitudeMode>clampToGround</altitudeMode><coordinates>17.768008969724178,-30.218150988221169,576.92999999999995</coordinates></Point></Placemark><Placemark><TimeSpan><begin>2022-09-06T08:58:51Z</begin><end>2022-09-06T08:58:59Z</end></TimeSpan><styleUrl>#point</styleUrl><Point><altitudeMode>clampToGround</altitudeMode><coordinates>17.767825992777944,-30.218490036204457,574.52999999999997</coordinates></Point></Placemark><Placemark><TimeSpan><begin>2022-09-06T08:58:59Z</begin><end>2022-09-06T09:00:00Z</end></TimeSpan><styleUrl>#point</styleUrl><Point><altitudeMode>clampToGround</altitudeMode><coordinates>17.767723985016346,-30.21864602342248,574.03999999999996</coordinates></Point></Placemark><Placemark><TimeSpan><begin>2022-09-06T09:00:00Z</begin><end>2022-09-06T09:00:10Z</end></TimeSpan><styleUrl>#point</styleUrl><Point><altitudeMode>clampToGround</altitudeMode><coordinates>17.767334980890155,-30.219218004494905,570.67999999999995</coordinates></Point></Placemark><Placemark><TimeSpan><begin>2022-09-06T09:00:10Z</begin><end>2022-09-06T09:00:14Z</end></TimeSpan><styleUrl>#point</styleUrl><Point><altitudeMode>clampToGround</altitudeMode><coordinates>17.767102969810367,-30.219558980315924,566.83000000000004</coordinates></Point></Placemark><Placemark><TimeSpan><begin>2022-09-06T09:00:14Z</begin><end>2022-09-06T09:00:19Z</end></TimeSpan><styleUrl>#point</styleUrl><Point><altitudeMode>clampToGround</altitudeMode><coordinates>17.766730980947614,-30.220104977488518,562.99000000000001</coordinates></Point></Placemark><Placemark><TimeSpan><begin>2022-09-06T09:00:19Z</begin><end>2022-09-06T09:00:22Z</end></TimeSpan><styleUrl>#point</styleUrl><Point><altitudeMode>clampToGround</altitudeMode><coordinates>17.766613969579339,-30.220277979969978,559.62</coordinates></Point></Placemark><Placemark><TimeSpan><begin>2022-09-06T09:00:22Z</begin><end>2022-09-06T09:00:26Z</end></TimeSpan><styleUrl>#point</styleUrl><Point><altitudeMode>clampToGround</altitudeMode><coordinates>17.766408026218414,-30.220579979941249,556.25999999999999</coordinates></Point></Placemark><Placemark><TimeSpan><begin>2022-09-06T09:00:26Z</begin><end>2022-09-06T09:00:28Z</end></TimeSpan><styleUrl>#point</styleUrl><Point><altitudeMode>clampToGround</altitudeMode><coordinates>17.766294032335281,-30.220691962167621,554.82000000000005</coordinates></Point></Placemark><Placemark><TimeSpan><begin>2022-09-06T09:00:28Z</begin><end>2022-09-06T09:00:29Z</end></TimeSpan><styleUrl>#point</styleUrl><Point><altitudeMode>clampToGround</altitudeMode><coordinates>17.766180038452148,-30.220794975757599,554.34000000000003</coordinates></Point></Placemark><Placemark><TimeSpan><begin>2022-09-06T09:00:29Z</begin><end>2022-09-06T09:00:30Z</end></TimeSpan><styleUrl>#point</styleUrl><Point><altitudeMode>clampToGround</altitudeMode><coordinates>17.766180038452148,-30.220794975757599,553.38</coordinates></Point></Placemark><Placemark><TimeSpan><begin>2022-09-06T09:00:30Z</begin><end>2022-09-06T09:00:31Z</end></TimeSpan><styleUrl>#point</styleUrl><Point><altitudeMode>clampToGround</altitudeMode><coordinates>17.766116000711918,-30.220834035426378,552.89999999999998</coordinates></Point></Placemark><Placemark><TimeSpan><begin>2022-09-06T09:00:31Z</begin><end>2022-09-06T09:00:32Z</end></TimeSpan><styleUrl>#point</styleUrl><Point><altitudeMode>clampToGround</altitudeMode><coordinates>17.766045005992055,-30.220866976305842,551.92999999999995</coordinates></Point></Placemark><Placemark><TimeSpan><begin>2022-09-06T09:00:32Z</begin><end>2022-09-06T09:00:33Z</end></TimeSpan><styleUrl>#point</styleUrl><Point><altitudeMode>clampToGround</altitudeMode><coordinates>17.765975017100573,-30.220898995175958,551.45000000000005</coordinates></Point></Placemark><Placemark><TimeSpan><begin>2022-09-06T09:00:33Z</begin><end>2022-09-06T09:00:35Z</end></TimeSpan><styleUrl>#point</styleUrl><Point><altitudeMode>clampToGround</altitudeMode><coordinates>17.76584199629724,-30.22094601765275,550.49000000000001</coordinates></Point></Placemark><Placemark><TimeSpan><begin>2022-09-06T09:00:35Z</begin><end>2022-09-06T09:00:36Z</end></TimeSpan><styleUrl>#point</styleUrl><Point><altitudeMode>clampToGround</altitudeMode><coordinates>17.765708975493908,-30.220955992117524,550.00999999999999</coordinates></Point></Placemark><Placemark><TimeSpan><begin>2022-09-06T09:00:36Z</begin><end>2022-09-06T09:00:37Z</end></TimeSpan><styleUrl>#point</styleUrl><Point><altitudeMode>clampToGround</altitudeMode><coordinates>17.765708975493908,-30.220955992117524,549.52999999999997</coordinates></Point></Placemark><Placemark><TimeSpan><begin>2022-09-06T09:00:37Z</begin><end>2022-09-06T09:00:38Z</end></TimeSpan><styleUrl>#point</styleUrl><Point><altitudeMode>clampToGround</altitudeMode><coordinates>17.765636974945664,-30.220962027087808,549.04999999999995</coordinates></Point></Placemark><Placemark><TimeSpan><begin>2022-09-06T09:00:38Z</begin><end>2022-09-06T09:00:39Z</end></TimeSpan><styleUrl>#point</styleUrl><Point><altitudeMode>clampToGround</altitudeMode><coordinates>17.765574026852846,-30.220952974632382,548.57000000000005</coordinates></Point></Placemark><Placemark><TimeSpan><begin>2022-09-06T09:00:39Z</begin><end>2022-09-06T09:00:40Z</end></TimeSpan><styleUrl>#point</styleUrl><Point><altitudeMode>clampToGround</altitudeMode><coordinates>17.765505965799093,-30.220924979075789,548.09000000000003</coordinates></Point></Placemark><Placemark><TimeSpan><begin>2022-09-06T09:00:40Z</begin><end>2022-09-06T09:00:41Z</end></TimeSpan><styleUrl>#point</styleUrl><Point><altitudeMode>clampToGround</altitudeMode><coordinates>17.765435976907611,-30.220894971862435,547.61000000000001</coordinates></Point></Placemark><Placemark><TimeSpan><begin>2022-09-06T09:00:41Z</begin><end>2022-09-06T09:00:42Z</end></TimeSpan><styleUrl>#point</styleUrl><Point><altitudeMode>clampToGround</altitudeMode><coordinates>17.765364982187748,-30.220865970477462,547.61000000000001</coordinates></Point></Placemark><Placemark><TimeSpan><begin>2022-09-06T09:00:42Z</begin><end>2022-09-06T09:00:43Z</end></TimeSpan><styleUrl>#point</styleUrl><Point><altitudeMode>clampToGround</altitudeMode><coordinates>17.765314020216465,-30.220829006284475,547.13</coordinates></Point></Placemark><Placemark><TimeSpan><begin>2022-09-06T09:00:43Z</begin><end>2022-09-06T09:00:44Z</end></TimeSpan><styleUrl>#point</styleUrl><Point><altitudeMode>clampToGround</altitudeMode><coordinates>17.765260962769389,-30.220779972150922,546.16999999999996</coordinates></Point></Placemark><Placemark><TimeSpan><begin>2022-09-06T09:00:44Z</begin><end>2022-09-06T09:00:45Z</end></TimeSpan><styleUrl>#point</styleUrl><Point><altitudeMode>clampToGround</altitudeMode><coordinates>17.765206983312964,-30.2207310218364,545.69000000000005</coordinates></Point></Placemark><Placemark><TimeSpan><begin>2022-09-06T09:00:45Z</begin><end>2022-09-06T09:00:46Z</end></TimeSpan><styleUrl>#point</styleUrl><Point><altitudeMode>clampToGround</altitudeMode><coordinates>17.765151998028159,-30.220679976046085,545.20000000000005</coordinates></Point></Placemark><Placemark><TimeSpan><begin>2022-09-06T09:00:46Z</begin><end>2022-09-06T09:00:47Z</end></TimeSpan><styleUrl>#point</styleUrl><Point><altitudeMode>clampToGround</altitudeMode><coordinates>17.765096006914973,-30.220627002418041,545.20000000000005</coordinates></Point></Placemark><Placemark><TimeSpan><begin>2022-09-06T09:00:47Z</begin><end>2022-09-06T09:00:55Z</end></TimeSpan><styleUrl>#point</styleUrl><Point><altitudeMode>clampToGround</altitudeMode><coordinates>17.764820996671915,-30.220100032165647,543.27999999999997</coordinates></Point></Placemark><Placemark><TimeSpan><begin>2022-09-06T09:00:55Z</begin><end>2022-09-06T09:00:56Z</end></TimeSpan><styleUrl>#point</styleUrl><Point><altitudeMode>clampToGround</altitudeMode><coordinates>17.764772968366742,-30.220057033002377,542.79999999999995</coordinates></Point></Placemark><Placemark><TimeSpan><begin>2022-09-06T09:00:56Z</begin><end>2022-09-06T09:00:57Z</end></TimeSpan><styleUrl>#point</styleUrl><Point><altitudeMode>clampToGround</altitudeMode><coordinates>17.76472401805222,-30.220013028010726,542.79999999999995</coordinates></Point></Placemark><Placemark><TimeSpan><begin>2022-09-06T09:00:57Z</begin><end>2022-09-06T09:00:58Z</end></TimeSpan><styleUrl>#point</styleUrl><Point><altitudeMode>clampToGround</altitudeMode><coordinates>17.764623016119003,-30.219931975007057,542.32000000000005</coordinates></Point></Placemark><Placemark><TimeSpan><begin>2022-09-06T09:00:58Z</begin><end>2022-09-06T09:00:59Z</end></TimeSpan><styleUrl>#point</styleUrl><Point><altitudeMode>clampToGround</altitudeMode><coordinates>17.764623016119003,-30.219931975007057,542.32000000000005</coordinates></Point></Placemark><Placemark><TimeSpan><begin>2022-09-06T09:00:59Z</begin><end>2022-09-06T09:01:00Z</end></TimeSpan><styleUrl>#point</styleUrl><Point><altitudeMode>clampToGround</altitudeMode><coordinates>17.764556966722012,-30.219920994713902,541.84000000000003</coordinates></Point></Placemark><Placemark><TimeSpan><begin>2022-09-06T09:01:00Z</begin><end>2022-09-06T09:01:01Z</end></TimeSpan><styleUrl>#point</styleUrl><Point><altitudeMode>clampToGround</altitudeMode><coordinates>17.764486977830529,-30.219908002763987,541.36000000000001</coordinates></Point></Placemark><Placemark><TimeSpan><begin>2022-09-06T09:01:01Z</begin><end>2022-09-06T09:01:02Z</end></TimeSpan><styleUrl>#point</styleUrl><Point><altitudeMode>clampToGround</altitudeMode><coordinates>17.764414977282286,-30.219896016642451,541.36000000000001</coordinates></Point></Placemark><Placemark><TimeSpan><begin>2022-09-06T09:01:02Z</begin><end>2022-09-06T09:01:05Z</end></TimeSpan><styleUrl>#point</styleUrl><Point><altitudeMode>clampToGround</altitudeMode><coordinates>17.764199981465936,-30.219900961965322,539.44000000000005</coordinates></Point></Placemark><Placemark><TimeSpan><begin>2022-09-06T09:01:05Z</begin><end>2022-09-06T09:01:06Z</end></TimeSpan><styleUrl>#point</styleUrl><Point><altitudeMode>clampToGround</altitudeMode><coordinates>17.764135021716356,-30.219929963350296,538.96000000000004</coordinates></Point></Placemark><Placemark><TimeSpan><begin>2022-09-06T09:01:06Z</begin><end>2022-09-06T09:01:07Z</end></TimeSpan><styleUrl>#point</styleUrl><Point><altitudeMode>clampToGround</altitudeMode><coordinates>17.764066038653255,-30.219960976392031,538.48000000000002</coordinates></Point></Placemark><Placemark><TimeSpan><begin>2022-09-06T09:01:07Z</begin><end>2022-09-06T09:01:08Z</end></TimeSpan><styleUrl>#point</styleUrl><Point><altitudeMode>clampToGround</altitudeMode><coordinates>17.763994038105011,-30.219992995262146,537.99000000000001</coordinates></Point></Placemark><Placemark><TimeSpan><begin>2022-09-06T09:01:08Z</begin><end>2022-09-06T09:01:09Z</end></TimeSpan><styleUrl>#point</styleUrl><Point><altitudeMode>clampToGround</altitudeMode><coordinates>17.763920025900006,-30.220026019960642,537.50999999999999</coordinates></Point></Placemark><Placemark><TimeSpan><begin>2022-09-06T09:01:09Z</begin><end>2022-09-06T09:01:10Z</end></TimeSpan><styleUrl>#point</styleUrl><Point><altitudeMode>clampToGround</altitudeMode><coordinates>17.763862023130059,-30.220067007467151,537.02999999999997</coordinates></Point></Placemark><Placemark><TimeSpan><begin>2022-09-06T09:01:10Z</begin><end>2022-09-06T09:01:11Z</end></TimeSpan><styleUrl>#point</styleUrl><Point><altitudeMode>clampToGround</altitudeMode><coordinates>17.763811983168125,-30.220124004408717,536.54999999999995</coordinates></Point></Placemark><Placemark><TimeSpan><begin>2022-09-06T09:01:11Z</begin><end>2022-09-06T09:01:12Z</end></TimeSpan><styleUrl>#point</styleUrl><Point><altitudeMode>clampToGround</altitudeMode><coordinates>17.763763032853603,-30.220181001350284,535.59000000000003</coordinates></Point></Placemark><Placemark><TimeSpan><begin>2022-09-06T09:01:12Z</begin><end>2022-09-06T09:01:13Z</end></TimeSpan><styleUrl>#point</styleUrl><Point><altitudeMode>clampToGround</altitudeMode><coordinates>17.763727996498346,-30.220239004120231,535.11000000000001</coordinates></Point></Placemark><Placemark><TimeSpan><begin>2022-09-06T09:01:13Z</begin><end>2022-09-06T09:01:14Z</end></TimeSpan><styleUrl>#point</styleUrl><Point><altitudeMode>clampToGround</altitudeMode><coordinates>17.76371399872005,-30.220304969698191,534.14999999999998</coordinates></Point></Placemark><Placemark><TimeSpan><begin>2022-09-06T09:01:14Z</begin><end>2022-09-06T09:01:15Z</end></TimeSpan><styleUrl>#point</styleUrl><Point><altitudeMode>clampToGround</altitudeMode><coordinates>17.763698995113373,-30.220373030751944,533.19000000000005</coordinates></Point></Placemark><Placemark><TimeSpan><begin>2022-09-06T09:01:15Z</begin><end>2022-09-06T09:01:19Z</end></TimeSpan><styleUrl>#point</styleUrl><Point><altitudeMode>clampToGround</altitudeMode><coordinates>17.76360897347331,-30.220648963004351,529.82000000000005</coordinates></Point></Placemark><Placemark><TimeSpan><begin>2022-09-06T09:01:19Z</begin><end>2022-09-06T09:01:20Z</end></TimeSpan><styleUrl>#point</styleUrl><Point><altitudeMode>clampToGround</altitudeMode><coordinates>17.76356203481555,-30.220706965774298,529.34000000000003</coordinates></Point></Placemark><Placemark><TimeSpan><begin>2022-09-06T09:01:20Z</begin><end>2022-09-06T09:01:21Z</end></TimeSpan><styleUrl>#point</styleUrl><Point><altitudeMode>clampToGround</altitudeMode><coordinates>17.763513000681996,-30.220767986029387,528.86000000000001</coordinates></Point></Placemark><Placemark><TimeSpan><begin>2022-09-06T09:01:21Z</begin><end>2022-09-06T09:01:32Z</end></TimeSpan><styleUrl>#point</styleUrl><Point><altitudeMode>clampToGround</altitudeMode><coordinates>17.762800035998225,-30.221573989838362,528.86000000000001</coordinates></Point></Placemark><Placemark><TimeSpan><begin>2022-09-06T09:01:32Z</begin><end>2022-09-06T09:01:34Z</end></TimeSpan><styleUrl>#point</styleUrl><Point><altitudeMode>clampToGround</altitudeMode><coordinates>17.762615969404578,-30.221736012026668,528.86000000000001</coordinates></Point></Placemark><Placemark><TimeSpan><begin>2022-09-06T09:01:34Z</begin><end>2022-09-06T09:01:35Z</end></TimeSpan><styleUrl>#point</styleUrl><Point><altitudeMode>clampToGround</altitudeMode><coordinates>17.762615969404578,-30.221736012026668,528.86000000000001</coordinates></Point></Placemark><Placemark><TimeSpan><begin>2022-09-06T09:01:35Z</begin><end>2022-09-06T09:01:44Z</end></TimeSpan><styleUrl>#point</styleUrl><Point><altitudeMode>clampToGround</altitudeMode><coordinates>17.761933011934161,-30.222318973392248,528.86000000000001</coordinates></Point></Placemark><Placemark><TimeSpan><begin>2022-09-06T09:01:44Z</begin><end>2022-09-06T09:01:45Z</end></TimeSpan><styleUrl>#point</styleUrl><Point><altitudeMode>clampToGround</altitudeMode><coordinates>17.761868974193931,-30.222373036667705,528.38</coordinates></Point></Placemark><Placemark><TimeSpan><begin>2022-09-06T09:01:45Z</begin><end>2022-09-06T09:01:46Z</end></TimeSpan><styleUrl>#point</styleUrl><Point><altitudeMode>clampToGround</altitudeMode><coordinates>17.761731008067727,-30.222476972267032,528.38</coordinates></Point></Placemark><Placemark><TimeSpan><begin>2022-09-06T09:01:46Z</begin><end>2022-09-06T09:01:47Z</end></TimeSpan><styleUrl>#point</styleUrl><Point><altitudeMode>clampToGround</altitudeMode><coordinates>17.761636041104794,-30.22251402027905,527.89999999999998</coordinates></Point></Placemark><Placemark><TimeSpan><begin>2022-09-06T09:01:47Z</begin><end>2022-09-06T09:01:48Z</end></TimeSpan><styleUrl>#point</styleUrl><Point><altitudeMode>clampToGround</altitudeMode><coordinates>17.761636041104794,-30.22251402027905,528.38</coordinates></Point></Placemark><Placemark><TimeSpan><begin>2022-09-06T09:01:48Z</begin><end>2022-09-06T09:01:49Z</end></TimeSpan><styleUrl>#point</styleUrl><Point><altitudeMode>clampToGround</altitudeMode><coordinates>17.761536967009306,-30.222551990300417,527.89999999999998</coordinates></Point></Placemark><Placemark><TimeSpan><begin>2022-09-06T09:01:49Z</begin><end>2022-09-06T09:02:01Z</end></TimeSpan><styleUrl>#point</styleUrl><Point><altitudeMode>clampToGround</altitudeMode><coordinates>17.76027699932456,-30.222706971690059,525.5</coordinates></Point></Placemark><Placemark><TimeSpan><begin>2022-09-06T09:02:01Z</begin><end>2022-09-06T09:02:02Z</end></TimeSpan><styleUrl>#point</styleUrl><Point><altitudeMode>clampToGround</altitudeMode><coordinates>17.760183038190007,-30.222691968083382,525.5</coordinates></Point></Placemark><Placemark><TimeSpan><begin>2022-09-06T09:02:02Z</begin><end>2022-09-06T09:02:03Z</end></TimeSpan><styleUrl>#point</styleUrl><Point><altitudeMode>clampToGround</altitudeMode><coordinates>17.760089999064803,-30.222661038860679,525.01999999999998</coordinates></Point></Placemark><Placemark><TimeSpan><begin>2022-09-06T09:02:03Z</begin><end>2022-09-06T09:02:04Z</end></TimeSpan><styleUrl>#point</styleUrl><Point><altitudeMode>clampToGround</altitudeMode><coordinates>17.75999503210187,-30.222629019990563,524.53999999999996</coordinates></Point></Placemark><Placemark><TimeSpan><begin>2022-09-06T09:02:04Z</begin><end>2022-09-06T09:02:05Z</end></TimeSpan><styleUrl>#point</styleUrl><Point><altitudeMode>clampToGround</altitudeMode><coordinates>17.759898975491524,-30.222597001120448,523.09000000000003</coordinates></Point></Placemark><Placemark><TimeSpan><begin>2022-09-06T09:02:05Z</begin><end>2022-09-06T09:02:09Z</end></TimeSpan><styleUrl>#point</styleUrl><Point><altitudeMode>clampToGround</altitudeMode><coordinates>17.759404024109244,-30.222333976998925,519.73000000000002</coordinates></Point></Placemark><Placemark><TimeSpan><begin>2022-09-06T09:02:09Z</begin><end>2022-09-06T09:02:10Z</end></TimeSpan><styleUrl>#point</styleUrl><Point><altitudeMode>clampToGround</altitudeMode><coordinates>17.759295981377363,-30.222275974228978,519.25</coordinates></Point></Placemark><Placemark><TimeSpan><begin>2022-09-06T09:02:10Z</begin><end>2022-09-06T09:02:14Z</end></TimeSpan><styleUrl>#point</styleUrl><Point><altitudeMode>clampToGround</altitudeMode><coordinates>17.758993981406093,-30.222115963697433,517.80999999999995</coordinates></Point></Placemark><Placemark><TimeSpan><begin>2022-09-06T09:02:14Z</begin><end>2022-09-06T09:02:18Z</end></TimeSpan><styleUrl>#point</styleUrl><Point><altitudeMode>clampToGround</altitudeMode><coordinates>17.758614029735327,-30.221913037821651,514.44000000000005</coordinates></Point></Placemark><Placemark><TimeSpan><begin>2022-09-06T09:02:18Z</begin><end>2022-09-06T09:02:21Z</end></TimeSpan><styleUrl>#point</styleUrl><Point><altitudeMode>clampToGround</altitudeMode><coordinates>17.75830096565187,-30.221745986491442,511.07999999999998</coordinates></Point></Placemark><Placemark><TimeSpan><begin>2022-09-06T09:02:21Z</begin><end>2022-09-06T09:02:27Z</end></TimeSpan><styleUrl>#point</styleUrl><Point><altitudeMode>clampToGround</altitudeMode><coordinates>17.757786987349391,-30.221402999013662,507.23000000000002</coordinates></Point></Placemark><Placemark><TimeSpan><begin>2022-09-06T09:02:27Z</begin><end>2022-09-06T09:02:29Z</end></TimeSpan><styleUrl>#point</styleUrl><Point><altitudeMode>clampToGround</altitudeMode><coordinates>17.757599987089634,-30.221309037879109,503.87</coordinates></Point></Placemark><Placemark><TimeSpan><begin>2022-09-06T09:02:29Z</begin><end>2022-09-06T09:02:32Z</end></TimeSpan><styleUrl>#point</styleUrl><Point><altitudeMode>clampToGround</altitudeMode><coordinates>17.757324976846576,-30.221196971833706,501.45999999999998</coordinates></Point></Placemark><Placemark><TimeSpan><begin>2022-09-06T09:02:32Z</begin><end>2022-09-06T09:02:33Z</end></TimeSpan><styleUrl>#point</styleUrl><Point><altitudeMode>clampToGround</altitudeMode><coordinates>17.757236966863275,-30.221168976277113,500.98000000000002</coordinates></Point></Placemark><Placemark><TimeSpan><begin>2022-09-06T09:02:33Z</begin><end>2022-09-06T09:02:34Z</end></TimeSpan><styleUrl>#point</styleUrl><Point><altitudeMode>clampToGround</altitudeMode><coordinates>17.757147029042244,-30.221139974892139,500.01999999999998</coordinates></Point></Placemark><Placemark><TimeSpan><begin>2022-09-06T09:02:34Z</begin><end>2022-09-06T09:02:35Z</end></TimeSpan><styleUrl>#point</styleUrl><Point><altitudeMode>clampToGround</altitudeMode><coordinates>17.757060024887323,-30.221112985163927,500.01999999999998</coordinates></Point></Placemark><Placemark><TimeSpan><begin>2022-09-06T09:02:35Z</begin><end>2022-09-06T09:02:36Z</end></TimeSpan><styleUrl>#point</styleUrl><Point><altitudeMode>clampToGround</altitudeMode><coordinates>17.756974026560783,-30.221084989607334,499.54000000000002</coordinates></Point></Placemark><Placemark><TimeSpan><begin>2022-09-06T09:02:36Z</begin><end>2022-09-06T09:02:37Z</end></TimeSpan><styleUrl>#point</styleUrl><Point><altitudeMode>clampToGround</altitudeMode><coordinates>17.756892973557115,-30.221052970737219,499.54000000000002</coordinates></Point></Placemark><Placemark><TimeSpan><begin>2022-09-06T09:02:37Z</begin><end>2022-09-06T09:02:38Z</end></TimeSpan><styleUrl>#point</styleUrl><Point><altitudeMode>clampToGround</altitudeMode><coordinates>17.756815021857619,-30.221018018200994,499.06</coordinates></Point></Placemark><Placemark><TimeSpan><begin>2022-09-06T09:02:38Z</begin><end>2022-09-06T09:02:39Z</end></TimeSpan><styleUrl>#point</styleUrl><Point><altitudeMode>clampToGround</altitudeMode><coordinates>17.756737992167473,-30.220981976017356,498.10000000000002</coordinates></Point></Placemark><Placemark><TimeSpan><begin>2022-09-06T09:02:39Z</begin><end>2022-09-06T09:02:42Z</end></TimeSpan><styleUrl>#point</styleUrl><Point><altitudeMode>clampToGround</altitudeMode><coordinates>17.756444960832596,-30.220791036263108,494.74000000000001</coordinates></Point></Placemark><Placemark><TimeSpan><begin>2022-09-06T09:02:42Z</begin><end>2022-09-06T09:02:45Z</end></TimeSpan><styleUrl>#point</styleUrl><Point><altitudeMode>clampToGround</altitudeMode><coordinates>17.756319986656308,-30.220665978267789,491.85000000000002</coordinates></Point></Placemark><Placemark><TimeSpan><begin>2022-09-06T09:02:45Z</begin><end>2022-09-06T09:02:48Z</end></TimeSpan><styleUrl>#point</styleUrl><Point><altitudeMode>clampToGround</altitudeMode><coordinates>17.756142038851976,-30.220472021028399,488.49000000000001</coordinates></Point></Placemark><Placemark><TimeSpan><begin>2022-09-06T09:02:48Z</begin><end>2022-09-06T09:02:51Z</end></TimeSpan><styleUrl>#point</styleUrl><Point><altitudeMode>clampToGround</altitudeMode><coordinates>17.755960989743471,-30.220273034647107,485.12</coordinates></Point></Placemark><Placemark><TimeSpan><begin>2022-09-06T09:02:51Z</begin><end>2022-09-06T09:02:54Z</end></TimeSpan><styleUrl>#point</styleUrl><Point><altitudeMode>clampToGround</altitudeMode><coordinates>17.755776001140475,-30.220072036609054,481.27999999999997</coordinates></Point></Placemark><Placemark><TimeSpan><begin>2022-09-06T09:02:54Z</begin><end>2022-09-06T09:02:57Z</end></TimeSpan><styleUrl>#point</styleUrl><Point><altitudeMode>clampToGround</altitudeMode><coordinates>17.755497973412275,-30.219889981672168,477.91000000000003</coordinates></Point></Placemark><Placemark><TimeSpan><begin>2022-09-06T09:02:57Z</begin><end>2022-09-06T09:03:00Z</end></TimeSpan><styleUrl>#point</styleUrl><Point><altitudeMode>clampToGround</altitudeMode><coordinates>17.755187004804611,-30.219729971140623,474.06999999999999</coordinates></Point></Placemark><Placemark><TimeSpan><begin>2022-09-06T09:03:00Z</begin><end>2022-09-06T09:03:03Z</end></TimeSpan><styleUrl>#point</styleUrl><Point><altitudeMode>clampToGround</altitudeMode><coordinates>17.754921969026327,-30.219581024721265,470.69999999999999</coordinates></Point></Placemark><Placemark><TimeSpan><begin>2022-09-06T09:03:03Z</begin><end>2022-09-06T09:03:07Z</end></TimeSpan><styleUrl>#point</styleUrl><Point><altitudeMode>clampToGround</altitudeMode><coordinates>17.754609994590282,-30.219372985884547,466.86000000000001</coordinates></Point></Placemark><Placemark><TimeSpan><begin>2022-09-06T09:03:07Z</begin><end>2022-09-06T09:03:10Z</end></TimeSpan><styleUrl>#point</styleUrl><Point><altitudeMode>clampToGround</altitudeMode><coordinates>17.754344036802649,-30.219207024201751,463.49000000000001</coordinates></Point></Placemark><Placemark><TimeSpan><begin>2022-09-06T09:03:10Z</begin><end>2022-09-06T09:03:13Z</end></TimeSpan><styleUrl>#point</styleUrl><Point><altitudeMode>clampToGround</altitudeMode><coordinates>17.75406600907445,-30.219062017276883,459.64999999999998</coordinates></Point></Placemark><Placemark><TimeSpan><begin>2022-09-06T09:03:13Z</begin><end>2022-09-06T09:03:18Z</end></TimeSpan><styleUrl>#point</styleUrl><Point><altitudeMode>clampToGround</altitudeMode><coordinates>17.753552030771971,-30.218793964013457,455.80000000000001</coordinates></Point></Placemark><Placemark><TimeSpan><begin>2022-09-06T09:03:18Z</begin><end>2022-09-06T09:03:22Z</end></TimeSpan><styleUrl>#point</styleUrl><Point><altitudeMode>clampToGround</altitudeMode><coordinates>17.753105023875833,-30.21856103092432,452.92000000000002</coordinates></Point></Placemark><Placemark><TimeSpan><begin>2022-09-06T09:03:22Z</begin><end>2022-09-06T09:03:25Z</end></TimeSpan><styleUrl>#point</styleUrl><Point><altitudeMode>clampToGround</altitudeMode><coordinates>17.752614011988044,-30.21830496378243,450.51999999999998</coordinates></Point></Placemark><Placemark><TimeSpan><begin>2022-09-06T09:03:25Z</begin><end>2022-09-06T09:03:28Z</end></TimeSpan><styleUrl>#point</styleUrl><Point><altitudeMode>clampToGround</altitudeMode><coordinates>17.752388035878539,-30.218187030404806,449.06999999999999</coordinates></Point></Placemark><Placemark><TimeSpan><begin>2022-09-06T09:03:28Z</begin><end>2022-09-06T09:03:32Z</end></TimeSpan><styleUrl>#point</styleUrl><Point><altitudeMode>clampToGround</altitudeMode><coordinates>17.751900963485241,-30.217901039868593,446.19</coordinates></Point></Placemark><Placemark><TimeSpan><begin>2022-09-06T09:03:32Z</begin><end>2022-09-06T09:03:34Z</end></TimeSpan><styleUrl>#point</styleUrl><Point><altitudeMode>clampToGround</altitudeMode><coordinates>17.751770038157701,-30.217751003801823,444.75</coordinates></Point></Placemark><Placemark><TimeSpan><begin>2022-09-06T09:03:34Z</begin><end>2022-09-06T09:03:38Z</end></TimeSpan><styleUrl>#point</styleUrl><Point><altitudeMode>clampToGround</altitudeMode><coordinates>17.751567028462887,-30.217522010207176,441.38</coordinates></Point></Placemark><Placemark><TimeSpan><begin>2022-09-06T09:03:38Z</begin><end>2022-09-06T09:03:41Z</end></TimeSpan><styleUrl>#point</styleUrl><Point><altitudeMode>clampToGround</altitudeMode><coordinates>17.75138103403151,-30.217311037704349,438.01999999999998</coordinates></Point></Placemark><Placemark><TimeSpan><begin>2022-09-06T09:03:41Z</begin><end>2022-09-06T09:03:44Z</end></TimeSpan><styleUrl>#point</styleUrl><Point><altitudeMode>clampToGround</altitudeMode><coordinates>17.751203002408147,-30.217108028009534,435.13</coordinates></Point></Placemark><Placemark><TimeSpan><begin>2022-09-06T09:03:44Z</begin><end>2022-09-06T09:03:47Z</end></TimeSpan><styleUrl>#point</styleUrl><Point><altitudeMode>clampToGround</altitudeMode><coordinates>17.751019019633532,-30.216898983344436,431.76999999999998</coordinates></Point></Placemark><Placemark><TimeSpan><begin>2022-09-06T09:03:47Z</begin><end>2022-09-06T09:03:50Z</end></TimeSpan><styleUrl>#point</styleUrl><Point><altitudeMode>clampToGround</altitudeMode><coordinates>17.750840988010168,-30.216696979478002,428.88999999999999</coordinates></Point></Placemark><Placemark><TimeSpan><begin>2022-09-06T09:03:50Z</begin><end>2022-09-06T09:03:53Z</end></TimeSpan><styleUrl>#point</styleUrl><Point><altitudeMode>clampToGround</altitudeMode><coordinates>17.750734034925699,-30.216445019468665,424.07999999999998</coordinates></Point></Placemark><Placemark><TimeSpan><begin>2022-09-06T09:03:53Z</begin><end>2022-09-06T09:03:56Z</end></TimeSpan><styleUrl>#point</styleUrl><Point><altitudeMode>clampToGround</altitudeMode><coordinates>17.750619035214186,-30.216142013669014,419.26999999999998</coordinates></Point></Placemark><Placemark><TimeSpan><begin>2022-09-06T09:03:56Z</begin><end>2022-09-06T09:03:57Z</end></TimeSpan><styleUrl>#point</styleUrl><Point><altitudeMode>clampToGround</altitudeMode><coordinates>17.750606965273619,-30.216036988422275,419.26999999999998</coordinates></Point></Placemark><Placemark><TimeSpan><begin>2022-09-06T09:03:57Z</begin><end>2022-09-06T09:03:59Z</end></TimeSpan><styleUrl>#point</styleUrl><Point><altitudeMode>clampToGround</altitudeMode><coordinates>17.750583998858929,-30.215832972899079,415.91000000000003</coordinates></Point></Placemark><Placemark><TimeSpan><begin>2022-09-06T09:03:59Z</begin><end>2022-09-06T09:04:01Z</end></TimeSpan><styleUrl>#point</styleUrl><Point><altitudeMode>clampToGround</altitudeMode><coordinates>17.750561032444239,-30.215629963204265,413.98000000000002</coordinates></Point></Placemark><Placemark><TimeSpan><begin>2022-09-06T09:04:01Z</begin><end>2022-09-06T09:04:10Z</end></TimeSpan><styleUrl>#point</styleUrl><Point><altitudeMode>clampToGround</altitudeMode><coordinates>17.750361962243915,-30.214841980487108,410.62</coordinates></Point></Placemark><Placemark><TimeSpan><begin>2022-09-06T09:04:10Z</begin><end>2022-09-06T09:04:14Z</end></TimeSpan><styleUrl>#point</styleUrl><Point><altitudeMode>clampToGround</altitudeMode><coordinates>17.750216033309698,-30.21465003490448,407.74000000000001</coordinates></Point></Placemark><Placemark><TimeSpan><begin>2022-09-06T09:04:14Z</begin><end>2022-09-06T09:04:15Z</end></TimeSpan><styleUrl>#point</styleUrl><Point><altitudeMode>clampToGround</altitudeMode><coordinates>17.750150989741087,-30.214593959972262,407.25999999999999</coordinates></Point></Placemark><Placemark><TimeSpan><begin>2022-09-06T09:04:15Z</begin><end>2022-09-06T09:04:16Z</end></TimeSpan><styleUrl>#point</styleUrl><Point><altitudeMode>clampToGround</altitudeMode><coordinates>17.750022998079658,-30.214483989402652,406.29000000000002</coordinates></Point></Placemark><Placemark><TimeSpan><begin>2022-09-06T09:04:16Z</begin><end>2022-09-06T09:04:17Z</end></TimeSpan><styleUrl>#point</styleUrl><Point><altitudeMode>clampToGround</altitudeMode><coordinates>17.750022998079658,-30.214483989402652,404.85000000000002</coordinates></Point></Placemark><Placemark><TimeSpan><begin>2022-09-06T09:04:17Z</begin><end>2022-09-06T09:04:18Z</end></TimeSpan><styleUrl>#point</styleUrl><Point><altitudeMode>clampToGround</altitudeMode><coordinates>17.749947980046272,-30.214443001896143,403.88999999999999</coordinates></Point></Placemark><Placemark><TimeSpan><begin>2022-09-06T09:04:18Z</begin><end>2022-09-06T09:04:19Z</end></TimeSpan><styleUrl>#point</styleUrl><Point><altitudeMode>clampToGround</altitudeMode><coordinates>17.749869022518396,-30.214398996904492,402.93000000000001</coordinates></Point></Placemark><Placemark><TimeSpan><begin>2022-09-06T09:04:19Z</begin><end>2022-09-06T09:04:22Z</end></TimeSpan><styleUrl>#point</styleUrl><Point><altitudeMode>clampToGround</altitudeMode><coordinates>17.749624019488692,-30.214263964444399,399.56999999999999</coordinates></Point></Placemark><Placemark><TimeSpan><begin>2022-09-06T09:04:22Z</begin><end>2022-09-06T09:04:25Z</end></TimeSpan><styleUrl>#point</styleUrl><Point><altitudeMode>clampToGround</altitudeMode><coordinates>17.749365018680692,-30.214143013581634,395.72000000000003</coordinates></Point></Placemark><Placemark><TimeSpan><begin>2022-09-06T09:04:25Z</begin><end>2022-09-06T09:04:28Z</end></TimeSpan><styleUrl>#point</styleUrl><Point><altitudeMode>clampToGround</altitudeMode><coordinates>17.749094031751156,-30.214017033576965,392.36000000000001</coordinates></Point></Placemark><Placemark><TimeSpan><begin>2022-09-06T09:04:28Z</begin><end>2022-09-06T09:04:31Z</end></TimeSpan><styleUrl>#point</styleUrl><Point><altitudeMode>clampToGround</altitudeMode><coordinates>17.748809969052672,-30.213886024430394,388.99000000000001</coordinates></Point></Placemark><Placemark><TimeSpan><begin>2022-09-06T09:04:31Z</begin><end>2022-09-06T09:04:35Z</end></TimeSpan><styleUrl>#point</styleUrl><Point><altitudeMode>clampToGround</altitudeMode><coordinates>17.748451977968216,-30.213718973100185,385.63</coordinates></Point></Placemark><Placemark><TimeSpan><begin>2022-09-06T09:04:35Z</begin><end>2022-09-06T09:04:40Z</end></TimeSpan><styleUrl>#point</styleUrl><Point><altitudeMode>clampToGround</altitudeMode><coordinates>17.748037995770574,-30.213530967012048,382.74000000000001</coordinates></Point></Placemark></Folder><Placemark><name>[304] Grootvlei Pass</name><Style><LineStyle><color>ff0000ff</color><width>4</width></LineStyle></Style><MultiGeometry><LineString><coordinates>17.772727981209755,-30.21072001196444,662.00999999999999 17.772383987903595,-30.210726968944073,659.60000000000002 17.772148959338665,-30.210787989199162,659.60000000000002 17.772148959338665,-30.210787989199162,658.63999999999999 17.772044017910957,-30.210838029161096,658.15999999999997 17.771932035684586,-30.21089100278914,657.20000000000005 17.771823992952704,-30.210955962538719,656.72000000000003 17.77172802016139,-30.211032992228866,656.72000000000003 17.771639004349709,-30.21110599860549,657.20000000000005 17.771108010783792,-30.211582006886601,655.75999999999999 17.770495964214206,-30.212131021544337,653.83000000000004 17.769291987642646,-30.213151015341282,652.87 17.769216969609261,-30.213213041424751,652.87 17.769056959077716,-30.213345978409052,649.50999999999999 17.768853027373552,-30.213560974225402,646.13999999999999 17.768813967704773,-30.213616965338588,645.65999999999997 17.768774991855025,-30.213673040270805,644.70000000000005 17.768738027662039,-30.21372701972723,644.22000000000003 17.768740961328149,-30.213784016668797,643.25999999999999 17.768751019611955,-30.213847970589995,642.77999999999997 17.768760994076729,-30.213915025815368,641.82000000000005 17.768770968541503,-30.213984008878469,641.34000000000003 17.768782032653689,-30.214055003598332,640.38 17.768824025988579,-30.214337976649404,636.52999999999997 17.768863001838326,-30.214593959972262,632.67999999999995 17.768896026536822,-30.214875005185604,629.79999999999995 17.76891496963799,-30.21503702737391,625.47000000000003 17.768936008214951,-30.215213969349861,621.63 17.768974984064698,-30.215411027893424,617.77999999999997 17.769057964906096,-30.215697018429637,614.89999999999998 17.769103981554508,-30.215873960405588,610.09000000000003 17.769128959625959,-30.216051992028952,606.73000000000002 17.769166007637978,-30.216310992836952,602.39999999999998 17.76921303011477,-30.216552978381515,599.51999999999998 17.769226022064686,-30.216620033606887,598.55999999999995 17.769217975437641,-30.216689016669989,597.60000000000002 17.769211018458009,-30.21675799973309,596.63999999999999 17.769195009022951,-30.216818014159799,595.66999999999996 17.769157039001584,-30.216880040243268,594.23000000000002 17.769117979332805,-30.216941982507706,592.78999999999996 17.768981019034982,-30.217047007754445,591.35000000000002 17.768981019034982,-30.217047007754445,589.90999999999997 17.768563013523817,-30.217308020219207,587.01999999999998 17.768563013523817,-30.217308020219207,586.05999999999995 17.768450025469065,-30.217378009110689,585.10000000000002 17.768369978293777,-30.217480016872287,584.13999999999999 17.768307030200958,-30.217597028240561,583.17999999999995 17.768250033259392,-30.217701969668269,582.70000000000005 17.768196975812316,-30.217801965773106,581.25 17.768034031614661,-30.218103965744376,577.40999999999997 17.768008969724178,-30.218150988221169,576.92999999999995 17.767825992777944,-30.218490036204457,574.52999999999997 17.767723985016346,-30.21864602342248,574.03999999999996 17.767334980890155,-30.219218004494905,570.67999999999995 17.767102969810367,-30.219558980315924,566.83000000000004 17.766730980947614,-30.220104977488518,562.99000000000001 17.766613969579339,-30.220277979969978,559.62 17.766408026218414,-30.220579979941249,556.25999999999999 17.766294032335281,-30.220691962167621,554.82000000000005 17.766180038452148,-30.220794975757599,554.34000000000003 17.766180038452148,-30.220794975757599,553.38 17.766116000711918,-30.220834035426378,552.89999999999998 17.766045005992055,-30.220866976305842,551.92999999999995 17.765975017100573,-30.220898995175958,551.45000000000005 17.76584199629724,-30.22094601765275,550.49000000000001 17.765708975493908,-30.220955992117524,550.00999999999999 17.765708975493908,-30.220955992117524,549.52999999999997 17.765636974945664,-30.220962027087808,549.04999999999995 17.765574026852846,-30.220952974632382,548.57000000000005 17.765505965799093,-30.220924979075789,548.09000000000003 17.765435976907611,-30.220894971862435,547.61000000000001 17.765364982187748,-30.220865970477462,547.61000000000001 17.765314020216465,-30.220829006284475,547.13 17.765260962769389,-30.220779972150922,546.16999999999996 17.765206983312964,-30.2207310218364,545.69000000000005 17.765151998028159,-30.220679976046085,545.20000000000005 17.765096006914973,-30.220627002418041,545.20000000000005 17.764820996671915,-30.220100032165647,543.27999999999997 17.764772968366742,-30.220057033002377,542.79999999999995 17.76472401805222,-30.220013028010726,542.79999999999995 17.764623016119003,-30.219931975007057,542.32000000000005 17.764623016119003,-30.219931975007057,542.32000000000005 17.764556966722012,-30.219920994713902,541.84000000000003 17.764486977830529,-30.219908002763987,541.36000000000001 17.764414977282286,-30.219896016642451,541.36000000000001 17.764199981465936,-30.219900961965322,539.44000000000005 17.764135021716356,-30.219929963350296,538.96000000000004 17.764066038653255,-30.219960976392031,538.48000000000002 17.763994038105011,-30.219992995262146,537.99000000000001 17.763920025900006,-30.220026019960642,537.50999999999999 17.763862023130059,-30.220067007467151,537.02999999999997 17.763811983168125,-30.220124004408717,536.54999999999995 17.763763032853603,-30.220181001350284,535.59000000000003 17.763727996498346,-30.220239004120231,535.11000000000001 17.76371399872005,-30.220304969698191,534.14999999999998 17.763698995113373,-30.220373030751944,533.19000000000005 17.76360897347331,-30.220648963004351,529.82000000000005 17.76356203481555,-30.220706965774298,529.34000000000003 17.763513000681996,-30.220767986029387,528.86000000000001 17.762800035998225,-30.221573989838362,528.86000000000001 17.762615969404578,-30.221736012026668,528.86000000000001 17.762615969404578,-30.221736012026668,528.86000000000001 17.761933011934161,-30.222318973392248,528.86000000000001 17.761868974193931,-30.222373036667705,528.38 17.761731008067727,-30.222476972267032,528.38 17.761636041104794,-30.22251402027905,527.89999999999998 17.761636041104794,-30.22251402027905,528.38 17.761536967009306,-30.222551990300417,527.89999999999998 17.76027699932456,-30.222706971690059,525.5 17.760183038190007,-30.222691968083382,525.5 17.760089999064803,-30.222661038860679,525.01999999999998 17.75999503210187,-30.222629019990563,524.53999999999996 17.759898975491524,-30.222597001120448,523.09000000000003 17.759404024109244,-30.222333976998925,519.73000000000002 17.759295981377363,-30.222275974228978,519.25 17.758993981406093,-30.222115963697433,517.80999999999995 17.758614029735327,-30.221913037821651,514.44000000000005 17.75830096565187,-30.221745986491442,511.07999999999998 17.757786987349391,-30.221402999013662,507.23000000000002 17.757599987089634,-30.221309037879109,503.87 17.757324976846576,-30.221196971833706,501.45999999999998 17.757236966863275,-30.221168976277113,500.98000000000002 17.757147029042244,-30.221139974892139,500.01999999999998 17.757060024887323,-30.221112985163927,500.01999999999998 17.756974026560783,-30.221084989607334,499.54000000000002 17.756892973557115,-30.221052970737219,499.54000000000002 17.756815021857619,-30.221018018200994,499.06 17.756737992167473,-30.220981976017356,498.10000000000002 17.756444960832596,-30.220791036263108,494.74000000000001 17.756319986656308,-30.220665978267789,491.85000000000002 17.756142038851976,-30.220472021028399,488.49000000000001 17.755960989743471,-30.220273034647107,485.12 17.755776001140475,-30.220072036609054,481.27999999999997 17.755497973412275,-30.219889981672168,477.91000000000003 17.755187004804611,-30.219729971140623,474.06999999999999 17.754921969026327,-30.219581024721265,470.69999999999999 17.754609994590282,-30.219372985884547,466.86000000000001 17.754344036802649,-30.219207024201751,463.49000000000001 17.75406600907445,-30.219062017276883,459.64999999999998 17.753552030771971,-30.218793964013457,455.80000000000001 17.753105023875833,-30.21856103092432,452.92000000000002 17.752614011988044,-30.21830496378243,450.51999999999998 17.752388035878539,-30.218187030404806,449.06999999999999 17.751900963485241,-30.217901039868593,446.19 17.751770038157701,-30.217751003801823,444.75 17.751567028462887,-30.217522010207176,441.38 17.75138103403151,-30.217311037704349,438.01999999999998 17.751203002408147,-30.217108028009534,435.13 17.751019019633532,-30.216898983344436,431.76999999999998 17.750840988010168,-30.216696979478002,428.88999999999999 17.750734034925699,-30.216445019468665,424.07999999999998 17.750619035214186,-30.216142013669014,419.26999999999998 17.750606965273619,-30.216036988422275,419.26999999999998 17.750583998858929,-30.215832972899079,415.91000000000003 17.750561032444239,-30.215629963204265,413.98000000000002 17.750361962243915,-30.214841980487108,410.62 17.750216033309698,-30.21465003490448,407.74000000000001 17.750150989741087,-30.214593959972262,407.25999999999999 17.750022998079658,-30.214483989402652,406.29000000000002 17.750022998079658,-30.214483989402652,404.85000000000002 17.749947980046272,-30.214443001896143,403.88999999999999 17.749869022518396,-30.214398996904492,402.93000000000001 17.749624019488692,-30.214263964444399,399.56999999999999 17.749365018680692,-30.214143013581634,395.72000000000003 17.749094031751156,-30.214017033576965,392.36000000000001 17.748809969052672,-30.213886024430394,388.99000000000001 17.748451977968216,-30.213718973100185,385.63 17.748037995770574,-30.213530967012048,382.74000000000001 </coordinates></LineString></MultiGeometry></Placemark></Folder></Folder></Document></kml>