<?xml version="1.0" encoding="utf-8"?><kml xmlns="http://www.opengis.net/kml/2.2" xmlns:xsi="http://www.w3.org/2001/XMLSchema-instance" xmlns:kmlx="http://www.google.com/kml/ext/2.2" xmlns:atom="http://www.w3.org/2005/Atom" xmlns:gpxx="http://www.garmin.com/xmlschemas/GpxExtensions/v3"><Document><Style id="point"><IconStyle><scale>0.9</scale><Icon><href>http://maps.google.com/mapfiles/kml/shapes/placemark_circle.png</href></Icon></IconStyle></Style><Folder><name>Tracks</name><Folder><name>[309] Windpoort Pass</name><Folder><name>Points</name><Style><ListStyle><listItemType>checkHideChildren</listItemType></ListStyle></Style><Placemark><TimeSpan><begin>2022-09-07T07:24:14Z</begin><end>2022-09-07T07:24:14Z</end></TimeSpan><Style><IconStyle><scale>0.9</scale><Icon><href>http://connect.garmin.com/image/main/icons/kml/grn-play.png</href></Icon></IconStyle></Style><Point><altitudeMode>clampToGround</altitudeMode><coordinates>17.434080988168716,-29.260866986587644,373.61000000000001</coordinates></Point></Placemark><Placemark><TimeSpan><begin>2022-09-07T07:24:14Z</begin><end>2022-09-07T07:24:28Z</end></TimeSpan><styleUrl>#point</styleUrl><Point><altitudeMode>clampToGround</altitudeMode><coordinates>17.429483011364937,-29.261227995157242,376.97000000000003</coordinates></Point></Placemark><Placemark><TimeSpan><begin>2022-09-07T07:24:28Z</begin><end>2022-09-07T07:24:29Z</end></TimeSpan><styleUrl>#point</styleUrl><Point><altitudeMode>clampToGround</altitudeMode><coordinates>17.429157039150596,-29.261253979057074,376.97000000000003</coordinates></Point></Placemark><Placemark><TimeSpan><begin>2022-09-07T07:24:29Z</begin><end>2022-09-07T07:24:37Z</end></TimeSpan><styleUrl>#point</styleUrl><Point><altitudeMode>clampToGround</altitudeMode><coordinates>17.426540963351727,-29.261462017893791,380.33999999999997</coordinates></Point></Placemark><Placemark><TimeSpan><begin>2022-09-07T07:24:37Z</begin><end>2022-09-07T07:24:42Z</end></TimeSpan><styleUrl>#point</styleUrl><Point><altitudeMode>clampToGround</altitudeMode><coordinates>17.424993999302387,-29.261585986241698,383.69999999999999</coordinates></Point></Placemark><Placemark><TimeSpan><begin>2022-09-07T07:24:42Z</begin><end>2022-09-07T07:24:45Z</end></TimeSpan><styleUrl>#point</styleUrl><Point><altitudeMode>clampToGround</altitudeMode><coordinates>17.424082970246673,-29.261696040630341,384.66000000000003</coordinates></Point></Placemark><Placemark><TimeSpan><begin>2022-09-07T07:24:45Z</begin><end>2022-09-07T07:24:50Z</end></TimeSpan><styleUrl>#point</styleUrl><Point><altitudeMode>clampToGround</altitudeMode><coordinates>17.422588979825377,-29.262000974267721,387.06999999999999</coordinates></Point></Placemark><Placemark><TimeSpan><begin>2022-09-07T07:24:50Z</begin><end>2022-09-07T07:24:59Z</end></TimeSpan><styleUrl>#point</styleUrl><Point><altitudeMode>clampToGround</altitudeMode><coordinates>17.419939963147044,-29.262863975018263,384.66000000000003</coordinates></Point></Placemark><Placemark><TimeSpan><begin>2022-09-07T07:24:59Z</begin><end>2022-09-07T07:25:04Z</end></TimeSpan><styleUrl>#point</styleUrl><Point><altitudeMode>clampToGround</altitudeMode><coordinates>17.418557032942772,-29.263556990772486,381.77999999999997</coordinates></Point></Placemark><Placemark><TimeSpan><begin>2022-09-07T07:25:04Z</begin><end>2022-09-07T07:25:09Z</end></TimeSpan><styleUrl>#point</styleUrl><Point><altitudeMode>clampToGround</altitudeMode><coordinates>17.417240990325809,-29.264331981539726,377.44999999999999</coordinates></Point></Placemark><Placemark><TimeSpan><begin>2022-09-07T07:25:09Z</begin><end>2022-09-07T07:25:13Z</end></TimeSpan><styleUrl>#point</styleUrl><Point><altitudeMode>clampToGround</altitudeMode><coordinates>17.416210016235709,-29.264964982867241,374.56999999999999</coordinates></Point></Placemark><Placemark><TimeSpan><begin>2022-09-07T07:25:13Z</begin><end>2022-09-07T07:25:17Z</end></TimeSpan><styleUrl>#point</styleUrl><Point><altitudeMode>clampToGround</altitudeMode><coordinates>17.415175018832088,-29.265598990023136,371.20999999999998</coordinates></Point></Placemark><Placemark><TimeSpan><begin>2022-09-07T07:25:17Z</begin><end>2022-09-07T07:25:20Z</end></TimeSpan><styleUrl>#point</styleUrl><Point><altitudeMode>clampToGround</altitudeMode><coordinates>17.414404973387718,-29.266071980819106,369.27999999999997</coordinates></Point></Placemark><Placemark><TimeSpan><begin>2022-09-07T07:25:20Z</begin><end>2022-09-07T07:25:24Z</end></TimeSpan><styleUrl>#point</styleUrl><Point><altitudeMode>clampToGround</altitudeMode><coordinates>17.413377016782761,-29.26670297048986,366.39999999999998</coordinates></Point></Placemark><Placemark><TimeSpan><begin>2022-09-07T07:25:24Z</begin><end>2022-09-07T07:25:28Z</end></TimeSpan><styleUrl>#point</styleUrl><Point><altitudeMode>clampToGround</altitudeMode><coordinates>17.412351993843913,-29.267331026494503,363.04000000000002</coordinates></Point></Placemark><Placemark><TimeSpan><begin>2022-09-07T07:25:28Z</begin><end>2022-09-07T07:25:32Z</end></TimeSpan><styleUrl>#point</styleUrl><Point><altitudeMode>clampToGround</altitudeMode><coordinates>17.411047015339136,-29.268132001161575,359.19</coordinates></Point></Placemark><Placemark><TimeSpan><begin>2022-09-07T07:25:32Z</begin><end>2022-09-07T07:25:36Z</end></TimeSpan><styleUrl>#point</styleUrl><Point><altitudeMode>clampToGround</altitudeMode><coordinates>17.410257020965219,-29.268616978079081,356.31</coordinates></Point></Placemark><Placemark><TimeSpan><begin>2022-09-07T07:25:36Z</begin><end>2022-09-07T07:25:38Z</end></TimeSpan><styleUrl>#point</styleUrl><Point><altitudeMode>clampToGround</altitudeMode><coordinates>17.409727033227682,-29.268942028284073,355.33999999999997</coordinates></Point></Placemark><Placemark><TimeSpan><begin>2022-09-07T07:25:38Z</begin><end>2022-09-07T07:26:04Z</end></TimeSpan><styleUrl>#point</styleUrl><Point><altitudeMode>clampToGround</altitudeMode><coordinates>17.402959987521172,-29.273094004020095,354.86000000000001</coordinates></Point></Placemark><Placemark><TimeSpan><begin>2022-09-07T07:26:04Z</begin><end>2022-09-07T07:26:13Z</end></TimeSpan><styleUrl>#point</styleUrl><Point><altitudeMode>clampToGround</altitudeMode><coordinates>17.400486990809441,-29.2742870002985,354.86000000000001</coordinates></Point></Placemark><Placemark><TimeSpan><begin>2022-09-07T07:26:13Z</begin><end>2022-09-07T07:26:19Z</end></TimeSpan><styleUrl>#point</styleUrl><Point><altitudeMode>clampToGround</altitudeMode><coordinates>17.398715978488326,-29.274856969714165,351.5</coordinates></Point></Placemark><Placemark><TimeSpan><begin>2022-09-07T07:26:19Z</begin><end>2022-09-07T07:26:27Z</end></TimeSpan><styleUrl>#point</styleUrl><Point><altitudeMode>clampToGround</altitudeMode><coordinates>17.396292015910149,-29.275380000472069,348.13</coordinates></Point></Placemark><Placemark><TimeSpan><begin>2022-09-07T07:26:27Z</begin><end>2022-09-07T07:26:34Z</end></TimeSpan><styleUrl>#point</styleUrl><Point><altitudeMode>clampToGround</altitudeMode><coordinates>17.394125964492559,-29.275799011811614,344.29000000000002</coordinates></Point></Placemark><Placemark><TimeSpan><begin>2022-09-07T07:26:34Z</begin><end>2022-09-07T07:26:35Z</end></TimeSpan><styleUrl>#point</styleUrl><Point><altitudeMode>clampToGround</altitudeMode><coordinates>17.393808960914612,-29.275860032066703,344.29000000000002</coordinates></Point></Placemark><Placemark><TimeSpan><begin>2022-09-07T07:26:35Z</begin><end>2022-09-07T07:26:41Z</end></TimeSpan><styleUrl>#point</styleUrl><Point><altitudeMode>clampToGround</altitudeMode><coordinates>17.391885984688997,-29.276231015101075,341.41000000000003</coordinates></Point></Placemark><Placemark><TimeSpan><begin>2022-09-07T07:26:41Z</begin><end>2022-09-07T07:26:47Z</end></TimeSpan><styleUrl>#point</styleUrl><Point><altitudeMode>clampToGround</altitudeMode><coordinates>17.389926966279745,-29.276609038934112,338.04000000000002</coordinates></Point></Placemark><Placemark><TimeSpan><begin>2022-09-07T07:26:47Z</begin><end>2022-09-07T07:26:48Z</end></TimeSpan><styleUrl>#point</styleUrl><Point><altitudeMode>clampToGround</altitudeMode><coordinates>17.389603005722165,-29.27667198702693,338.04000000000002</coordinates></Point></Placemark><Placemark><TimeSpan><begin>2022-09-07T07:26:48Z</begin><end>2022-09-07T07:26:56Z</end></TimeSpan><styleUrl>#point</styleUrl><Point><altitudeMode>clampToGround</altitudeMode><coordinates>17.387066977098584,-29.277160987257957,334.68000000000001</coordinates></Point></Placemark><Placemark><TimeSpan><begin>2022-09-07T07:26:56Z</begin><end>2022-09-07T07:27:08Z</end></TimeSpan><styleUrl>#point</styleUrl><Point><altitudeMode>clampToGround</altitudeMode><coordinates>17.383570969104767,-29.277835981920362,331.79000000000002</coordinates></Point></Placemark><Placemark><TimeSpan><begin>2022-09-07T07:27:08Z</begin><end>2022-09-07T07:27:16Z</end></TimeSpan><styleUrl>#point</styleUrl><Point><altitudeMode>clampToGround</altitudeMode><coordinates>17.38108498044312,-29.278316013514996,329.38999999999999</coordinates></Point></Placemark><Placemark><TimeSpan><begin>2022-09-07T07:27:16Z</begin><end>2022-09-07T07:27:20Z</end></TimeSpan><styleUrl>#point</styleUrl><Point><altitudeMode>clampToGround</altitudeMode><coordinates>17.379821995273232,-29.278560010716319,327.94999999999999</coordinates></Point></Placemark><Placemark><TimeSpan><begin>2022-09-07T07:27:20Z</begin><end>2022-09-07T07:27:32Z</end></TimeSpan><styleUrl>#point</styleUrl><Point><altitudeMode>clampToGround</altitudeMode><coordinates>17.376082995906472,-29.279282027855515,324.57999999999998</coordinates></Point></Placemark><Placemark><TimeSpan><begin>2022-09-07T07:27:32Z</begin><end>2022-09-07T07:27:42Z</end></TimeSpan><styleUrl>#point</styleUrl><Point><altitudeMode>clampToGround</altitudeMode><coordinates>17.37266100011766,-29.279942018911242,321.22000000000003</coordinates></Point></Placemark><Placemark><TimeSpan><begin>2022-09-07T07:27:42Z</begin><end>2022-09-07T07:28:04Z</end></TimeSpan><styleUrl>#point</styleUrl><Point><altitudeMode>clampToGround</altitudeMode><coordinates>17.366159996017814,-29.28118497133255,322.18000000000001</coordinates></Point></Placemark><Placemark><TimeSpan><begin>2022-09-07T07:28:04Z</begin><end>2022-09-07T07:28:13Z</end></TimeSpan><styleUrl>#point</styleUrl><Point><altitudeMode>clampToGround</altitudeMode><coordinates>17.363353986293077,-29.281616974622011,318.81</coordinates></Point></Placemark></Folder><Placemark><name>[309] Windpoort Pass</name><Style><LineStyle><color>ff00ff00</color><width>4</width></LineStyle></Style><MultiGeometry><LineString><coordinates>17.434080988168716,-29.260866986587644,373.61000000000001 17.429483011364937,-29.261227995157242,376.97000000000003 17.429157039150596,-29.261253979057074,376.97000000000003 17.426540963351727,-29.261462017893791,380.33999999999997 17.424993999302387,-29.261585986241698,383.69999999999999 17.424082970246673,-29.261696040630341,384.66000000000003 17.422588979825377,-29.262000974267721,387.06999999999999 17.419939963147044,-29.262863975018263,384.66000000000003 17.418557032942772,-29.263556990772486,381.77999999999997 17.417240990325809,-29.264331981539726,377.44999999999999 17.416210016235709,-29.264964982867241,374.56999999999999 17.415175018832088,-29.265598990023136,371.20999999999998 17.414404973387718,-29.266071980819106,369.27999999999997 17.413377016782761,-29.26670297048986,366.39999999999998 17.412351993843913,-29.267331026494503,363.04000000000002 17.411047015339136,-29.268132001161575,359.19 17.410257020965219,-29.268616978079081,356.31 17.409727033227682,-29.268942028284073,355.33999999999997 17.402959987521172,-29.273094004020095,354.86000000000001 17.400486990809441,-29.2742870002985,354.86000000000001 17.398715978488326,-29.274856969714165,351.5 17.396292015910149,-29.275380000472069,348.13 17.394125964492559,-29.275799011811614,344.29000000000002 17.393808960914612,-29.275860032066703,344.29000000000002 17.391885984688997,-29.276231015101075,341.41000000000003 17.389926966279745,-29.276609038934112,338.04000000000002 17.389603005722165,-29.27667198702693,338.04000000000002 17.387066977098584,-29.277160987257957,334.68000000000001 17.383570969104767,-29.277835981920362,331.79000000000002 17.38108498044312,-29.278316013514996,329.38999999999999 17.379821995273232,-29.278560010716319,327.94999999999999 17.376082995906472,-29.279282027855515,324.57999999999998 17.37266100011766,-29.279942018911242,321.22000000000003 17.366159996017814,-29.28118497133255,322.18000000000001 17.363353986293077,-29.281616974622011,318.81 </coordinates></LineString></MultiGeometry></Placemark></Folder></Folder></Document></kml>