<?xml version="1.0" encoding="utf-8"?><kml xmlns="http://www.opengis.net/kml/2.2" xmlns:xsi="http://www.w3.org/2001/XMLSchema-instance" xmlns:kmlx="http://www.google.com/kml/ext/2.2" xmlns:atom="http://www.w3.org/2005/Atom" xmlns:gpxx="http://www.garmin.com/xmlschemas/GpxExtensions/v3"><Document><Style id="point"><IconStyle><scale>0.9</scale><Icon><href>http://maps.google.com/mapfiles/kml/shapes/placemark_circle.png</href></Icon></IconStyle></Style><Folder><name>Tracks</name><Folder><name>[315] Perdekop to R543 Dirt road</name><Folder><name>Points</name><Style><ListStyle><listItemType>checkHideChildren</listItemType></ListStyle></Style><Placemark><TimeSpan><begin>2022-10-28T12:58:00Z</begin><end>2022-10-28T12:58:00Z</end></TimeSpan><Style><IconStyle><scale>0.9</scale><Icon><href>http://connect.garmin.com/image/main/icons/kml/grn-play.png</href></Icon></IconStyle></Style><Point><altitudeMode>clampToGround</altitudeMode><coordinates>29.601359004154801,-27.213811269029975,1716.0899999999999</coordinates></Point></Placemark><Placemark><TimeSpan><begin>2022-10-28T12:58:00Z</begin><end>2022-10-28T12:58:06Z</end></TimeSpan><styleUrl>#point</styleUrl><Point><altitudeMode>clampToGround</altitudeMode><coordinates>29.600774450227618,-27.214413257315755,1719.9400000000001</coordinates></Point></Placemark><Placemark><TimeSpan><begin>2022-10-28T12:58:06Z</begin><end>2022-10-28T12:58:13Z</end></TimeSpan><styleUrl>#point</styleUrl><Point><altitudeMode>clampToGround</altitudeMode><coordinates>29.60050480440259,-27.214692123234272,1721.8599999999999</coordinates></Point></Placemark><Placemark><TimeSpan><begin>2022-10-28T12:58:13Z</begin><end>2022-10-28T12:58:27Z</end></TimeSpan><styleUrl>#point</styleUrl><Point><altitudeMode>clampToGround</altitudeMode><coordinates>29.600512683391571,-27.214684747159481,1721.8599999999999</coordinates></Point></Placemark><Placemark><TimeSpan><begin>2022-10-28T12:58:27Z</begin><end>2022-10-28T12:58:48Z</end></TimeSpan><styleUrl>#point</styleUrl><Point><altitudeMode>clampToGround</altitudeMode><coordinates>29.600394163280725,-27.214798657223582,1722.3399999999999</coordinates></Point></Placemark><Placemark><TimeSpan><begin>2022-10-28T12:58:48Z</begin><end>2022-10-28T12:58:56Z</end></TimeSpan><styleUrl>#point</styleUrl><Point><altitudeMode>clampToGround</altitudeMode><coordinates>29.599783038720489,-27.21545378677547,1724.26</coordinates></Point></Placemark><Placemark><TimeSpan><begin>2022-10-28T12:58:56Z</begin><end>2022-10-28T12:59:06Z</end></TimeSpan><styleUrl>#point</styleUrl><Point><altitudeMode>clampToGround</altitudeMode><coordinates>29.598675202578306,-27.21669539809227,1726.1800000000001</coordinates></Point></Placemark><Placemark><TimeSpan><begin>2022-10-28T12:59:06Z</begin><end>2022-10-28T12:59:26Z</end></TimeSpan><styleUrl>#point</styleUrl><Point><altitudeMode>clampToGround</altitudeMode><coordinates>29.596492135897279,-27.219262942671776,1719.46</coordinates></Point></Placemark><Placemark><TimeSpan><begin>2022-10-28T12:59:26Z</begin><end>2022-10-28T12:59:37Z</end></TimeSpan><styleUrl>#point</styleUrl><Point><altitudeMode>clampToGround</altitudeMode><coordinates>29.595359321683645,-27.220594324171543,1709.8399999999999</coordinates></Point></Placemark><Placemark><TimeSpan><begin>2022-10-28T12:59:37Z</begin><end>2022-10-28T12:59:50Z</end></TimeSpan><styleUrl>#point</styleUrl><Point><altitudeMode>clampToGround</altitudeMode><coordinates>29.593952670693398,-27.222239021211863,1697.3399999999999</coordinates></Point></Placemark><Placemark><TimeSpan><begin>2022-10-28T12:59:50Z</begin><end>2022-10-28T13:00:02Z</end></TimeSpan><styleUrl>#point</styleUrl><Point><altitudeMode>clampToGround</altitudeMode><coordinates>29.592141257598996,-27.22422955557704,1693.02</coordinates></Point></Placemark><Placemark><TimeSpan><begin>2022-10-28T13:00:02Z</begin><end>2022-10-28T13:00:12Z</end></TimeSpan><styleUrl>#point</styleUrl><Point><altitudeMode>clampToGround</altitudeMode><coordinates>29.590400252491236,-27.225488349795341,1689.1700000000001</coordinates></Point></Placemark><Placemark><TimeSpan><begin>2022-10-28T13:00:12Z</begin><end>2022-10-28T13:00:22Z</end></TimeSpan><styleUrl>#point</styleUrl><Point><altitudeMode>clampToGround</altitudeMode><coordinates>29.588696714490652,-27.226221263408661,1680.52</coordinates></Point></Placemark><Placemark><TimeSpan><begin>2022-10-28T13:00:22Z</begin><end>2022-10-28T13:00:34Z</end></TimeSpan><styleUrl>#point</styleUrl><Point><altitudeMode>clampToGround</altitudeMode><coordinates>29.586466290056705,-27.226707581430674,1666.0999999999999</coordinates></Point></Placemark><Placemark><TimeSpan><begin>2022-10-28T13:00:34Z</begin><end>2022-10-28T13:00:46Z</end></TimeSpan><styleUrl>#point</styleUrl><Point><altitudeMode>clampToGround</altitudeMode><coordinates>29.584071999415755,-27.226678663864732,1655.05</coordinates></Point></Placemark><Placemark><TimeSpan><begin>2022-10-28T13:00:46Z</begin><end>2022-10-28T13:00:59Z</end></TimeSpan><styleUrl>#point</styleUrl><Point><altitudeMode>clampToGround</altitudeMode><coordinates>29.581211255863309,-27.226551426574588,1655.53</coordinates></Point></Placemark><Placemark><TimeSpan><begin>2022-10-28T13:00:59Z</begin><end>2022-10-28T13:01:13Z</end></TimeSpan><styleUrl>#point</styleUrl><Point><altitudeMode>clampToGround</altitudeMode><coordinates>29.578236099332571,-27.22642058506608,1643.99</coordinates></Point></Placemark><Placemark><TimeSpan><begin>2022-10-28T13:01:13Z</begin><end>2022-10-28T13:01:30Z</end></TimeSpan><styleUrl>#point</styleUrl><Point><altitudeMode>clampToGround</altitudeMode><coordinates>29.574959278106689,-27.226274069398642,1625.25</coordinates></Point></Placemark><Placemark><TimeSpan><begin>2022-10-28T13:01:30Z</begin><end>2022-10-28T13:01:41Z</end></TimeSpan><styleUrl>#point</styleUrl><Point><altitudeMode>clampToGround</altitudeMode><coordinates>29.573092209175229,-27.226358558982611,1615.1500000000001</coordinates></Point></Placemark><Placemark><TimeSpan><begin>2022-10-28T13:01:41Z</begin><end>2022-10-28T13:01:50Z</end></TimeSpan><styleUrl>#point</styleUrl><Point><altitudeMode>clampToGround</altitudeMode><coordinates>29.571710452437401,-27.226837333291769,1606.5</coordinates></Point></Placemark><Placemark><TimeSpan><begin>2022-10-28T13:01:50Z</begin><end>2022-10-28T13:01:59Z</end></TimeSpan><styleUrl>#point</styleUrl><Point><altitudeMode>clampToGround</altitudeMode><coordinates>29.570525754243135,-27.227682061493397,1598.3299999999999</coordinates></Point></Placemark><Placemark><TimeSpan><begin>2022-10-28T13:01:59Z</begin><end>2022-10-28T13:02:09Z</end></TimeSpan><styleUrl>#point</styleUrl><Point><altitudeMode>clampToGround</altitudeMode><coordinates>29.569593518972397,-27.228984776884317,1588.24</coordinates></Point></Placemark><Placemark><TimeSpan><begin>2022-10-28T13:02:09Z</begin><end>2022-10-28T13:02:17Z</end></TimeSpan><styleUrl>#point</styleUrl><Point><altitudeMode>clampToGround</altitudeMode><coordinates>29.569283137097955,-27.230191435664892,1583.4300000000001</coordinates></Point></Placemark><Placemark><TimeSpan><begin>2022-10-28T13:02:17Z</begin><end>2022-10-28T13:02:28Z</end></TimeSpan><styleUrl>#point</styleUrl><Point><altitudeMode>clampToGround</altitudeMode><coordinates>29.569250782951713,-27.231952305883169,1579.5799999999999</coordinates></Point></Placemark><Placemark><TimeSpan><begin>2022-10-28T13:02:28Z</begin><end>2022-10-28T13:02:39Z</end></TimeSpan><styleUrl>#point</styleUrl><Point><altitudeMode>clampToGround</altitudeMode><coordinates>29.569104770198464,-27.233523325994611,1575.74</coordinates></Point></Placemark><Placemark><TimeSpan><begin>2022-10-28T13:02:39Z</begin><end>2022-10-28T13:02:47Z</end></TimeSpan><styleUrl>#point</styleUrl><Point><altitudeMode>clampToGround</altitudeMode><coordinates>29.568536560982466,-27.234687991440296,1575.26</coordinates></Point></Placemark><Placemark><TimeSpan><begin>2022-10-28T13:02:47Z</begin><end>2022-10-28T13:02:55Z</end></TimeSpan><styleUrl>#point</styleUrl><Point><altitudeMode>clampToGround</altitudeMode><coordinates>29.567475495859981,-27.235718127340078,1576.7</coordinates></Point></Placemark><Placemark><TimeSpan><begin>2022-10-28T13:02:55Z</begin><end>2022-10-28T13:03:06Z</end></TimeSpan><styleUrl>#point</styleUrl><Point><altitudeMode>clampToGround</altitudeMode><coordinates>29.565721750259399,-27.236758321523666,1581.51</coordinates></Point></Placemark><Placemark><TimeSpan><begin>2022-10-28T13:03:06Z</begin><end>2022-10-28T13:03:16Z</end></TimeSpan><styleUrl>#point</styleUrl><Point><altitudeMode>clampToGround</altitudeMode><coordinates>29.564369414001703,-27.237548651173711,1585.3499999999999</coordinates></Point></Placemark><Placemark><TimeSpan><begin>2022-10-28T13:03:16Z</begin><end>2022-10-28T13:03:26Z</end></TimeSpan><styleUrl>#point</styleUrl><Point><altitudeMode>clampToGround</altitudeMode><coordinates>29.562837285920978,-27.238446185365319,1589.6800000000001</coordinates></Point></Placemark><Placemark><TimeSpan><begin>2022-10-28T13:03:26Z</begin><end>2022-10-28T13:03:37Z</end></TimeSpan><styleUrl>#point</styleUrl><Point><altitudeMode>clampToGround</altitudeMode><coordinates>29.560965355485678,-27.239535748958588,1594.96</coordinates></Point></Placemark><Placemark><TimeSpan><begin>2022-10-28T13:03:37Z</begin><end>2022-10-28T13:03:47Z</end></TimeSpan><styleUrl>#point</styleUrl><Point><altitudeMode>clampToGround</altitudeMode><coordinates>29.559478238224983,-27.240379136055708,1600.25</coordinates></Point></Placemark><Placemark><TimeSpan><begin>2022-10-28T13:03:47Z</begin><end>2022-10-28T13:03:56Z</end></TimeSpan><styleUrl>#point</styleUrl><Point><altitudeMode>clampToGround</altitudeMode><coordinates>29.557733377441764,-27.241385215893388,1609.3800000000001</coordinates></Point></Placemark><Placemark><TimeSpan><begin>2022-10-28T13:03:56Z</begin><end>2022-10-28T13:04:03Z</end></TimeSpan><styleUrl>#point</styleUrl><Point><altitudeMode>clampToGround</altitudeMode><coordinates>29.556508613750339,-27.24210798740387,1616.1099999999999</coordinates></Point></Placemark><Placemark><TimeSpan><begin>2022-10-28T13:04:03Z</begin><end>2022-10-28T13:04:08Z</end></TimeSpan><styleUrl>#point</styleUrl><Point><altitudeMode>clampToGround</altitudeMode><coordinates>29.556026821956038,-27.242404287680984,1619</coordinates></Point></Placemark><Placemark><TimeSpan><begin>2022-10-28T13:04:08Z</begin><end>2022-10-28T13:04:15Z</end></TimeSpan><styleUrl>#point</styleUrl><Point><altitudeMode>clampToGround</altitudeMode><coordinates>29.555930849164724,-27.242455501109362,1620.9200000000001</coordinates></Point></Placemark><Placemark><TimeSpan><begin>2022-10-28T13:04:15Z</begin><end>2022-10-28T13:04:31Z</end></TimeSpan><styleUrl>#point</styleUrl><Point><altitudeMode>clampToGround</altitudeMode><coordinates>29.555764887481928,-27.242550468072295,1621.4000000000001</coordinates></Point></Placemark><Placemark><TimeSpan><begin>2022-10-28T13:04:31Z</begin><end>2022-10-28T13:04:39Z</end></TimeSpan><styleUrl>#point</styleUrl><Point><altitudeMode>clampToGround</altitudeMode><coordinates>29.554845057427883,-27.243035277351737,1623.8</coordinates></Point></Placemark><Placemark><TimeSpan><begin>2022-10-28T13:04:39Z</begin><end>2022-10-28T13:04:49Z</end></TimeSpan><styleUrl>#point</styleUrl><Point><altitudeMode>clampToGround</altitudeMode><coordinates>29.553432958200574,-27.243721000850201,1625.25</coordinates></Point></Placemark><Placemark><TimeSpan><begin>2022-10-28T13:04:49Z</begin><end>2022-10-28T13:05:00Z</end></TimeSpan><styleUrl>#point</styleUrl><Point><altitudeMode>clampToGround</altitudeMode><coordinates>29.551946930587292,-27.244447879493237,1623.3199999999999</coordinates></Point></Placemark><Placemark><TimeSpan><begin>2022-10-28T13:05:00Z</begin><end>2022-10-28T13:05:10Z</end></TimeSpan><styleUrl>#point</styleUrl><Point><altitudeMode>clampToGround</altitudeMode><coordinates>29.550746474415064,-27.245048023760319,1617.0699999999999</coordinates></Point></Placemark><Placemark><TimeSpan><begin>2022-10-28T13:05:10Z</begin><end>2022-10-28T13:05:25Z</end></TimeSpan><styleUrl>#point</styleUrl><Point><altitudeMode>clampToGround</altitudeMode><coordinates>29.548861468210816,-27.245980510488153,1605.54</coordinates></Point></Placemark><Placemark><TimeSpan><begin>2022-10-28T13:05:25Z</begin><end>2022-10-28T13:05:38Z</end></TimeSpan><styleUrl>#point</styleUrl><Point><altitudeMode>clampToGround</altitudeMode><coordinates>29.547051647678018,-27.246900089085102,1601.6900000000001</coordinates></Point></Placemark><Placemark><TimeSpan><begin>2022-10-28T13:05:38Z</begin><end>2022-10-28T13:05:49Z</end></TimeSpan><styleUrl>#point</styleUrl><Point><altitudeMode>clampToGround</altitudeMode><coordinates>29.545174688100815,-27.247826121747494,1607.9400000000001</coordinates></Point></Placemark><Placemark><TimeSpan><begin>2022-10-28T13:05:49Z</begin><end>2022-10-28T13:06:00Z</end></TimeSpan><styleUrl>#point</styleUrl><Point><altitudeMode>clampToGround</altitudeMode><coordinates>29.543176777660847,-27.248819628730416,1620.4400000000001</coordinates></Point></Placemark><Placemark><TimeSpan><begin>2022-10-28T13:06:00Z</begin><end>2022-10-28T13:06:08Z</end></TimeSpan><styleUrl>#point</styleUrl><Point><altitudeMode>clampToGround</altitudeMode><coordinates>29.541915552690625,-27.249465538188815,1627.6500000000001</coordinates></Point></Placemark><Placemark><TimeSpan><begin>2022-10-28T13:06:08Z</begin><end>2022-10-28T13:06:21Z</end></TimeSpan><styleUrl>#point</styleUrl><Point><altitudeMode>clampToGround</altitudeMode><coordinates>29.539461666718125,-27.250687032938004,1633.4200000000001</coordinates></Point></Placemark><Placemark><TimeSpan><begin>2022-10-28T13:06:21Z</begin><end>2022-10-28T13:06:35Z</end></TimeSpan><styleUrl>#point</styleUrl><Point><altitudeMode>clampToGround</altitudeMode><coordinates>29.536513583734632,-27.252158559858799,1637.26</coordinates></Point></Placemark><Placemark><TimeSpan><begin>2022-10-28T13:06:35Z</begin><end>2022-10-28T13:06:49Z</end></TimeSpan><styleUrl>#point</styleUrl><Point><altitudeMode>clampToGround</altitudeMode><coordinates>29.533535493537784,-27.253618100658059,1637.26</coordinates></Point></Placemark><Placemark><TimeSpan><begin>2022-10-28T13:06:49Z</begin><end>2022-10-28T13:06:59Z</end></TimeSpan><styleUrl>#point</styleUrl><Point><altitudeMode>clampToGround</altitudeMode><coordinates>29.531956007704139,-27.254576738923788,1630.05</coordinates></Point></Placemark><Placemark><TimeSpan><begin>2022-10-28T13:06:59Z</begin><end>2022-10-28T13:07:08Z</end></TimeSpan><styleUrl>#point</styleUrl><Point><altitudeMode>clampToGround</altitudeMode><coordinates>29.531003572046757,-27.255475614219904,1622.3599999999999</coordinates></Point></Placemark><Placemark><TimeSpan><begin>2022-10-28T13:07:08Z</begin><end>2022-10-28T13:07:19Z</end></TimeSpan><styleUrl>#point</styleUrl><Point><altitudeMode>clampToGround</altitudeMode><coordinates>29.530194466933608,-27.256669532507658,1615.6300000000001</coordinates></Point></Placemark><Placemark><TimeSpan><begin>2022-10-28T13:07:19Z</begin><end>2022-10-28T13:07:32Z</end></TimeSpan><styleUrl>#point</styleUrl><Point><altitudeMode>clampToGround</altitudeMode><coordinates>29.52956423163414,-27.258370975032449,1607.9400000000001</coordinates></Point></Placemark><Placemark><TimeSpan><begin>2022-10-28T13:07:32Z</begin><end>2022-10-28T13:07:41Z</end></TimeSpan><styleUrl>#point</styleUrl><Point><altitudeMode>clampToGround</altitudeMode><coordinates>29.529436072334647,-27.25981492549181,1604.5799999999999</coordinates></Point></Placemark><Placemark><TimeSpan><begin>2022-10-28T13:07:41Z</begin><end>2022-10-28T13:07:49Z</end></TimeSpan><styleUrl>#point</styleUrl><Point><altitudeMode>clampToGround</altitudeMode><coordinates>29.529478820040822,-27.261022590100765,1604.5799999999999</coordinates></Point></Placemark><Placemark><TimeSpan><begin>2022-10-28T13:07:49Z</begin><end>2022-10-28T13:07:56Z</end></TimeSpan><styleUrl>#point</styleUrl><Point><altitudeMode>clampToGround</altitudeMode><coordinates>29.529568422585726,-27.262170240283012,1604.0999999999999</coordinates></Point></Placemark><Placemark><TimeSpan><begin>2022-10-28T13:07:56Z</begin><end>2022-10-28T13:08:08Z</end></TimeSpan><styleUrl>#point</styleUrl><Point><altitudeMode>clampToGround</altitudeMode><coordinates>29.529716530814767,-27.264468893408775,1604.0999999999999</coordinates></Point></Placemark><Placemark><TimeSpan><begin>2022-10-28T13:08:08Z</begin><end>2022-10-28T13:08:16Z</end></TimeSpan><styleUrl>#point</styleUrl><Point><altitudeMode>clampToGround</altitudeMode><coordinates>29.52979582361877,-27.265639761462808,1604.0999999999999</coordinates></Point></Placemark><Placemark><TimeSpan><begin>2022-10-28T13:08:16Z</begin><end>2022-10-28T13:08:22Z</end></TimeSpan><styleUrl>#point</styleUrl><Point><altitudeMode>clampToGround</altitudeMode><coordinates>29.529820382595062,-27.266585743054748,1604.5799999999999</coordinates></Point></Placemark><Placemark><TimeSpan><begin>2022-10-28T13:08:22Z</begin><end>2022-10-28T13:08:33Z</end></TimeSpan><styleUrl>#point</styleUrl><Point><altitudeMode>clampToGround</altitudeMode><coordinates>29.529600022360682,-27.268715752288699,1606.5</coordinates></Point></Placemark><Placemark><TimeSpan><begin>2022-10-28T13:08:33Z</begin><end>2022-10-28T13:08:43Z</end></TimeSpan><styleUrl>#point</styleUrl><Point><altitudeMode>clampToGround</altitudeMode><coordinates>29.529053522273898,-27.270477460697293,1608.9000000000001</coordinates></Point></Placemark><Placemark><TimeSpan><begin>2022-10-28T13:08:43Z</begin><end>2022-10-28T13:08:52Z</end></TimeSpan><styleUrl>#point</styleUrl><Point><altitudeMode>clampToGround</altitudeMode><coordinates>29.528487324714661,-27.272153086960316,1610.8299999999999</coordinates></Point></Placemark><Placemark><TimeSpan><begin>2022-10-28T13:08:52Z</begin><end>2022-10-28T13:09:02Z</end></TimeSpan><styleUrl>#point</styleUrl><Point><altitudeMode>clampToGround</altitudeMode><coordinates>29.528199909254909,-27.273899959400296,1612.75</coordinates></Point></Placemark><Placemark><TimeSpan><begin>2022-10-28T13:09:02Z</begin><end>2022-10-28T13:09:14Z</end></TimeSpan><styleUrl>#point</styleUrl><Point><altitudeMode>clampToGround</altitudeMode><coordinates>29.528357908129692,-27.275888230651617,1616.5899999999999</coordinates></Point></Placemark><Placemark><TimeSpan><begin>2022-10-28T13:09:14Z</begin><end>2022-10-28T13:09:25Z</end></TimeSpan><styleUrl>#point</styleUrl><Point><altitudeMode>clampToGround</altitudeMode><coordinates>29.528865432366729,-27.277771476656199,1620.4400000000001</coordinates></Point></Placemark><Placemark><TimeSpan><begin>2022-10-28T13:09:25Z</begin><end>2022-10-28T13:09:40Z</end></TimeSpan><styleUrl>#point</styleUrl><Point><altitudeMode>clampToGround</altitudeMode><coordinates>29.529574541375041,-27.280389899387956,1631.98</coordinates></Point></Placemark><Placemark><TimeSpan><begin>2022-10-28T13:09:40Z</begin><end>2022-10-28T13:09:52Z</end></TimeSpan><styleUrl>#point</styleUrl><Point><altitudeMode>clampToGround</altitudeMode><coordinates>29.530097655951977,-27.282381188124418,1640.1500000000001</coordinates></Point></Placemark><Placemark><TimeSpan><begin>2022-10-28T13:09:52Z</begin><end>2022-10-28T13:10:03Z</end></TimeSpan><styleUrl>#point</styleUrl><Point><altitudeMode>clampToGround</altitudeMode><coordinates>29.53060258179903,-27.284229062497616,1645.4300000000001</coordinates></Point></Placemark><Placemark><TimeSpan><begin>2022-10-28T13:10:03Z</begin><end>2022-10-28T13:10:16Z</end></TimeSpan><styleUrl>#point</styleUrl><Point><altitudeMode>clampToGround</altitudeMode><coordinates>29.531207755208015,-27.286508185788989,1651.6800000000001</coordinates></Point></Placemark><Placemark><TimeSpan><begin>2022-10-28T13:10:16Z</begin><end>2022-10-28T13:10:30Z</end></TimeSpan><styleUrl>#point</styleUrl><Point><altitudeMode>clampToGround</altitudeMode><coordinates>29.531645374372602,-27.289057374000549,1664.1800000000001</coordinates></Point></Placemark><Placemark><TimeSpan><begin>2022-10-28T13:10:30Z</begin><end>2022-10-28T13:10:40Z</end></TimeSpan><styleUrl>#point</styleUrl><Point><altitudeMode>clampToGround</altitudeMode><coordinates>29.53194142319262,-27.290762169286609,1669.95</coordinates></Point></Placemark><Placemark><TimeSpan><begin>2022-10-28T13:10:40Z</begin><end>2022-10-28T13:10:48Z</end></TimeSpan><styleUrl>#point</styleUrl><Point><altitudeMode>clampToGround</altitudeMode><coordinates>29.532473674044013,-27.291828263550997,1670.4300000000001</coordinates></Point></Placemark><Placemark><TimeSpan><begin>2022-10-28T13:10:48Z</begin><end>2022-10-28T13:10:58Z</end></TimeSpan><styleUrl>#point</styleUrl><Point><altitudeMode>clampToGround</altitudeMode><coordinates>29.533316222950816,-27.292921599000692,1671.8699999999999</coordinates></Point></Placemark><Placemark><TimeSpan><begin>2022-10-28T13:10:58Z</begin><end>2022-10-28T13:11:05Z</end></TimeSpan><styleUrl>#point</styleUrl><Point><altitudeMode>clampToGround</altitudeMode><coordinates>29.533928856253624,-27.29407369159162,1672.8299999999999</coordinates></Point></Placemark><Placemark><TimeSpan><begin>2022-10-28T13:11:05Z</begin><end>2022-10-28T13:11:14Z</end></TimeSpan><styleUrl>#point</styleUrl><Point><altitudeMode>clampToGround</altitudeMode><coordinates>29.534327164292336,-27.295659547671676,1676.2</coordinates></Point></Placemark><Placemark><TimeSpan><begin>2022-10-28T13:11:14Z</begin><end>2022-10-28T13:11:26Z</end></TimeSpan><styleUrl>#point</styleUrl><Point><altitudeMode>clampToGround</altitudeMode><coordinates>29.534315010532737,-27.297709845006466,1678.5999999999999</coordinates></Point></Placemark><Placemark><TimeSpan><begin>2022-10-28T13:11:26Z</begin><end>2022-10-28T13:11:32Z</end></TimeSpan><styleUrl>#point</styleUrl><Point><altitudeMode>clampToGround</altitudeMode><coordinates>29.534137649461627,-27.298564380034804,1678.5999999999999</coordinates></Point></Placemark><Placemark><TimeSpan><begin>2022-10-28T13:11:32Z</begin><end>2022-10-28T13:11:39Z</end></TimeSpan><styleUrl>#point</styleUrl><Point><altitudeMode>clampToGround</altitudeMode><coordinates>29.534059278666973,-27.2988719958812,1678.5999999999999</coordinates></Point></Placemark><Placemark><TimeSpan><begin>2022-10-28T13:11:39Z</begin><end>2022-10-28T13:11:45Z</end></TimeSpan><styleUrl>#point</styleUrl><Point><altitudeMode>clampToGround</altitudeMode><coordinates>29.533917373046279,-27.299517905339599,1679.0799999999999</coordinates></Point></Placemark><Placemark><TimeSpan><begin>2022-10-28T13:11:45Z</begin><end>2022-10-28T13:11:56Z</end></TimeSpan><styleUrl>#point</styleUrl><Point><altitudeMode>clampToGround</altitudeMode><coordinates>29.533687541261315,-27.301315823569894,1684.3699999999999</coordinates></Point></Placemark><Placemark><TimeSpan><begin>2022-10-28T13:11:56Z</begin><end>2022-10-28T13:12:10Z</end></TimeSpan><styleUrl>#point</styleUrl><Point><altitudeMode>clampToGround</altitudeMode><coordinates>29.533783262595534,-27.303660158067942,1693.5</coordinates></Point></Placemark><Placemark><TimeSpan><begin>2022-10-28T13:12:10Z</begin><end>2022-10-28T13:12:17Z</end></TimeSpan><styleUrl>#point</styleUrl><Point><altitudeMode>clampToGround</altitudeMode><coordinates>29.533896502107382,-27.304283771663904,1697.3399999999999</coordinates></Point></Placemark><Placemark><TimeSpan><begin>2022-10-28T13:12:17Z</begin><end>2022-10-28T13:12:23Z</end></TimeSpan><styleUrl>#point</styleUrl><Point><altitudeMode>clampToGround</altitudeMode><coordinates>29.534006137400866,-27.304891962558031,1700.71</coordinates></Point></Placemark><Placemark><TimeSpan><begin>2022-10-28T13:12:23Z</begin><end>2022-10-28T13:12:30Z</end></TimeSpan><styleUrl>#point</styleUrl><Point><altitudeMode>clampToGround</altitudeMode><coordinates>29.534228090196848,-27.306089652702212,1708.4000000000001</coordinates></Point></Placemark><Placemark><TimeSpan><begin>2022-10-28T13:12:30Z</begin><end>2022-10-28T13:12:42Z</end></TimeSpan><styleUrl>#point</styleUrl><Point><altitudeMode>clampToGround</altitudeMode><coordinates>29.534693537279963,-27.308460474014282,1725.22</coordinates></Point></Placemark><Placemark><TimeSpan><begin>2022-10-28T13:12:42Z</begin><end>2022-10-28T13:12:50Z</end></TimeSpan><styleUrl>#point</styleUrl><Point><altitudeMode>clampToGround</altitudeMode><coordinates>29.535212712362409,-27.30976059101522,1735.8</coordinates></Point></Placemark><Placemark><TimeSpan><begin>2022-10-28T13:12:50Z</begin><end>2022-10-28T13:13:00Z</end></TimeSpan><styleUrl>#point</styleUrl><Point><altitudeMode>clampToGround</altitudeMode><coordinates>29.536127680912614,-27.310933638364077,1744.9300000000001</coordinates></Point></Placemark><Placemark><TimeSpan><begin>2022-10-28T13:13:00Z</begin><end>2022-10-28T13:13:08Z</end></TimeSpan><styleUrl>#point</styleUrl><Point><altitudeMode>clampToGround</altitudeMode><coordinates>29.537181537598372,-27.311756322160363,1748.29</coordinates></Point></Placemark><Placemark><TimeSpan><begin>2022-10-28T13:13:08Z</begin><end>2022-10-28T13:13:16Z</end></TimeSpan><styleUrl>#point</styleUrl><Point><altitudeMode>clampToGround</altitudeMode><coordinates>29.538402277976274,-27.312574228271842,1747.3299999999999</coordinates></Point></Placemark><Placemark><TimeSpan><begin>2022-10-28T13:13:16Z</begin><end>2022-10-28T13:13:24Z</end></TimeSpan><styleUrl>#point</styleUrl><Point><altitudeMode>clampToGround</altitudeMode><coordinates>29.539231583476067,-27.313285600394011,1746.8499999999999</coordinates></Point></Placemark><Placemark><TimeSpan><begin>2022-10-28T13:13:24Z</begin><end>2022-10-28T13:13:32Z</end></TimeSpan><styleUrl>#point</styleUrl><Point><altitudeMode>clampToGround</altitudeMode><coordinates>29.539958965033293,-27.314351694658399,1750.7</coordinates></Point></Placemark><Placemark><TimeSpan><begin>2022-10-28T13:13:32Z</begin><end>2022-10-28T13:13:40Z</end></TimeSpan><styleUrl>#point</styleUrl><Point><altitudeMode>clampToGround</altitudeMode><coordinates>29.54030086286366,-27.315671676769853,1760.79</coordinates></Point></Placemark><Placemark><TimeSpan><begin>2022-10-28T13:13:40Z</begin><end>2022-10-28T13:13:51Z</end></TimeSpan><styleUrl>#point</styleUrl><Point><altitudeMode>clampToGround</altitudeMode><coordinates>29.540264904499054,-27.317523825913668,1770.8900000000001</coordinates></Point></Placemark><Placemark><TimeSpan><begin>2022-10-28T13:13:51Z</begin><end>2022-10-28T13:13:58Z</end></TimeSpan><styleUrl>#point</styleUrl><Point><altitudeMode>clampToGround</altitudeMode><coordinates>29.540415946394205,-27.31853979639709,1776.1700000000001</coordinates></Point></Placemark><Placemark><TimeSpan><begin>2022-10-28T13:13:58Z</begin><end>2022-10-28T13:14:07Z</end></TimeSpan><styleUrl>#point</styleUrl><Point><altitudeMode>clampToGround</altitudeMode><coordinates>29.540874101221561,-27.319605806842446,1780.5</coordinates></Point></Placemark><Placemark><TimeSpan><begin>2022-10-28T13:14:07Z</begin><end>2022-10-28T13:14:15Z</end></TimeSpan><styleUrl>#point</styleUrl><Point><altitudeMode>clampToGround</altitudeMode><coordinates>29.541591759771109,-27.320877509191632,1781.46</coordinates></Point></Placemark><Placemark><TimeSpan><begin>2022-10-28T13:14:15Z</begin><end>2022-10-28T13:14:24Z</end></TimeSpan><styleUrl>#point</styleUrl><Point><altitudeMode>clampToGround</altitudeMode><coordinates>29.542057374492288,-27.322406703606248,1780.02</coordinates></Point></Placemark><Placemark><TimeSpan><begin>2022-10-28T13:14:24Z</begin><end>2022-10-28T13:14:34Z</end></TimeSpan><styleUrl>#point</styleUrl><Point><altitudeMode>clampToGround</altitudeMode><coordinates>29.542248900979757,-27.32446345500648,1783.3800000000001</coordinates></Point></Placemark><Placemark><TimeSpan><begin>2022-10-28T13:14:34Z</begin><end>2022-10-28T13:14:41Z</end></TimeSpan><styleUrl>#point</styleUrl><Point><altitudeMode>clampToGround</altitudeMode><coordinates>29.542368846014142,-27.325863400474191,1788.1900000000001</coordinates></Point></Placemark><Placemark><TimeSpan><begin>2022-10-28T13:14:41Z</begin><end>2022-10-28T13:14:51Z</end></TimeSpan><styleUrl>#point</styleUrl><Point><altitudeMode>clampToGround</altitudeMode><coordinates>29.542498849332333,-27.327367281541228,1790.1099999999999</coordinates></Point></Placemark><Placemark><TimeSpan><begin>2022-10-28T13:14:51Z</begin><end>2022-10-28T13:15:00Z</end></TimeSpan><styleUrl>#point</styleUrl><Point><altitudeMode>clampToGround</altitudeMode><coordinates>29.542475296184421,-27.328718192875385,1786.27</coordinates></Point></Placemark><Placemark><TimeSpan><begin>2022-10-28T13:15:00Z</begin><end>2022-10-28T13:15:09Z</end></TimeSpan><styleUrl>#point</styleUrl><Point><altitudeMode>clampToGround</altitudeMode><coordinates>29.5422397647053,-27.329957373440266,1777.1300000000001</coordinates></Point></Placemark><Placemark><TimeSpan><begin>2022-10-28T13:15:09Z</begin><end>2022-10-28T13:15:21Z</end></TimeSpan><styleUrl>#point</styleUrl><Point><altitudeMode>clampToGround</altitudeMode><coordinates>29.541665352880955,-27.331703491508961,1763.2</coordinates></Point></Placemark><Placemark><TimeSpan><begin>2022-10-28T13:15:21Z</begin><end>2022-10-28T13:15:31Z</end></TimeSpan><styleUrl>#point</styleUrl><Point><altitudeMode>clampToGround</altitudeMode><coordinates>29.541514059528708,-27.333265794441104,1756.47</coordinates></Point></Placemark><Placemark><TimeSpan><begin>2022-10-28T13:15:31Z</begin><end>2022-10-28T13:15:43Z</end></TimeSpan><styleUrl>#point</styleUrl><Point><altitudeMode>clampToGround</altitudeMode><coordinates>29.541684882715344,-27.335265045985579,1749.26</coordinates></Point></Placemark><Placemark><TimeSpan><begin>2022-10-28T13:15:43Z</begin><end>2022-10-28T13:15:51Z</end></TimeSpan><styleUrl>#point</styleUrl><Point><altitudeMode>clampToGround</altitudeMode><coordinates>29.541744897142053,-27.33640749938786,1746.8499999999999</coordinates></Point></Placemark><Placemark><TimeSpan><begin>2022-10-28T13:15:51Z</begin><end>2022-10-28T13:15:59Z</end></TimeSpan><styleUrl>#point</styleUrl><Point><altitudeMode>clampToGround</altitudeMode><coordinates>29.541830141097307,-27.337596975266933,1747.8099999999999</coordinates></Point></Placemark><Placemark><TimeSpan><begin>2022-10-28T13:15:59Z</begin><end>2022-10-28T13:16:05Z</end></TimeSpan><styleUrl>#point</styleUrl><Point><altitudeMode>clampToGround</altitudeMode><coordinates>29.541881270706654,-27.338222684338689,1752.1400000000001</coordinates></Point></Placemark><Placemark><TimeSpan><begin>2022-10-28T13:16:05Z</begin><end>2022-10-28T13:16:07Z</end></TimeSpan><styleUrl>#point</styleUrl><Point><altitudeMode>clampToGround</altitudeMode><coordinates>29.541855622082949,-27.338302144780755,1753.0999999999999</coordinates></Point></Placemark></Folder><Placemark><name>[315] Perdekop to R543 Dirt road</name><Style><LineStyle><color>ffff4040</color><width>4</width></LineStyle></Style><MultiGeometry><LineString><coordinates>29.601359004154801,-27.213811269029975,1716.0899999999999 29.600774450227618,-27.214413257315755,1719.9400000000001 29.60050480440259,-27.214692123234272,1721.8599999999999 29.600512683391571,-27.214684747159481,1721.8599999999999 29.600394163280725,-27.214798657223582,1722.3399999999999 29.599783038720489,-27.21545378677547,1724.26 29.598675202578306,-27.21669539809227,1726.1800000000001 29.596492135897279,-27.219262942671776,1719.46 29.595359321683645,-27.220594324171543,1709.8399999999999 29.593952670693398,-27.222239021211863,1697.3399999999999 29.592141257598996,-27.22422955557704,1693.02 29.590400252491236,-27.225488349795341,1689.1700000000001 29.588696714490652,-27.226221263408661,1680.52 29.586466290056705,-27.226707581430674,1666.0999999999999 29.584071999415755,-27.226678663864732,1655.05 29.581211255863309,-27.226551426574588,1655.53 29.578236099332571,-27.22642058506608,1643.99 29.574959278106689,-27.226274069398642,1625.25 29.573092209175229,-27.226358558982611,1615.1500000000001 29.571710452437401,-27.226837333291769,1606.5 29.570525754243135,-27.227682061493397,1598.3299999999999 29.569593518972397,-27.228984776884317,1588.24 29.569283137097955,-27.230191435664892,1583.4300000000001 29.569250782951713,-27.231952305883169,1579.5799999999999 29.569104770198464,-27.233523325994611,1575.74 29.568536560982466,-27.234687991440296,1575.26 29.567475495859981,-27.235718127340078,1576.7 29.565721750259399,-27.236758321523666,1581.51 29.564369414001703,-27.237548651173711,1585.3499999999999 29.562837285920978,-27.238446185365319,1589.6800000000001 29.560965355485678,-27.239535748958588,1594.96 29.559478238224983,-27.240379136055708,1600.25 29.557733377441764,-27.241385215893388,1609.3800000000001 29.556508613750339,-27.24210798740387,1616.1099999999999 29.556026821956038,-27.242404287680984,1619 29.555930849164724,-27.242455501109362,1620.9200000000001 29.555764887481928,-27.242550468072295,1621.4000000000001 29.554845057427883,-27.243035277351737,1623.8 29.553432958200574,-27.243721000850201,1625.25 29.551946930587292,-27.244447879493237,1623.3199999999999 29.550746474415064,-27.245048023760319,1617.0699999999999 29.548861468210816,-27.245980510488153,1605.54 29.547051647678018,-27.246900089085102,1601.6900000000001 29.545174688100815,-27.247826121747494,1607.9400000000001 29.543176777660847,-27.248819628730416,1620.4400000000001 29.541915552690625,-27.249465538188815,1627.6500000000001 29.539461666718125,-27.250687032938004,1633.4200000000001 29.536513583734632,-27.252158559858799,1637.26 29.533535493537784,-27.253618100658059,1637.26 29.531956007704139,-27.254576738923788,1630.05 29.531003572046757,-27.255475614219904,1622.3599999999999 29.530194466933608,-27.256669532507658,1615.6300000000001 29.52956423163414,-27.258370975032449,1607.9400000000001 29.529436072334647,-27.25981492549181,1604.5799999999999 29.529478820040822,-27.261022590100765,1604.5799999999999 29.529568422585726,-27.262170240283012,1604.0999999999999 29.529716530814767,-27.264468893408775,1604.0999999999999 29.52979582361877,-27.265639761462808,1604.0999999999999 29.529820382595062,-27.266585743054748,1604.5799999999999 29.529600022360682,-27.268715752288699,1606.5 29.529053522273898,-27.270477460697293,1608.9000000000001 29.528487324714661,-27.272153086960316,1610.8299999999999 29.528199909254909,-27.273899959400296,1612.75 29.528357908129692,-27.275888230651617,1616.5899999999999 29.528865432366729,-27.277771476656199,1620.4400000000001 29.529574541375041,-27.280389899387956,1631.98 29.530097655951977,-27.282381188124418,1640.1500000000001 29.53060258179903,-27.284229062497616,1645.4300000000001 29.531207755208015,-27.286508185788989,1651.6800000000001 29.531645374372602,-27.289057374000549,1664.1800000000001 29.53194142319262,-27.290762169286609,1669.95 29.532473674044013,-27.291828263550997,1670.4300000000001 29.533316222950816,-27.292921599000692,1671.8699999999999 29.533928856253624,-27.29407369159162,1672.8299999999999 29.534327164292336,-27.295659547671676,1676.2 29.534315010532737,-27.297709845006466,1678.5999999999999 29.534137649461627,-27.298564380034804,1678.5999999999999 29.534059278666973,-27.2988719958812,1678.5999999999999 29.533917373046279,-27.299517905339599,1679.0799999999999 29.533687541261315,-27.301315823569894,1684.3699999999999 29.533783262595534,-27.303660158067942,1693.5 29.533896502107382,-27.304283771663904,1697.3399999999999 29.534006137400866,-27.304891962558031,1700.71 29.534228090196848,-27.306089652702212,1708.4000000000001 29.534693537279963,-27.308460474014282,1725.22 29.535212712362409,-27.30976059101522,1735.8 29.536127680912614,-27.310933638364077,1744.9300000000001 29.537181537598372,-27.311756322160363,1748.29 29.538402277976274,-27.312574228271842,1747.3299999999999 29.539231583476067,-27.313285600394011,1746.8499999999999 29.539958965033293,-27.314351694658399,1750.7 29.54030086286366,-27.315671676769853,1760.79 29.540264904499054,-27.317523825913668,1770.8900000000001 29.540415946394205,-27.31853979639709,1776.1700000000001 29.540874101221561,-27.319605806842446,1780.5 29.541591759771109,-27.320877509191632,1781.46 29.542057374492288,-27.322406703606248,1780.02 29.542248900979757,-27.32446345500648,1783.3800000000001 29.542368846014142,-27.325863400474191,1788.1900000000001 29.542498849332333,-27.327367281541228,1790.1099999999999 29.542475296184421,-27.328718192875385,1786.27 29.5422397647053,-27.329957373440266,1777.1300000000001 29.541665352880955,-27.331703491508961,1763.2 29.541514059528708,-27.333265794441104,1756.47 29.541684882715344,-27.335265045985579,1749.26 29.541744897142053,-27.33640749938786,1746.8499999999999 29.541830141097307,-27.337596975266933,1747.8099999999999 29.541881270706654,-27.338222684338689,1752.1400000000001 29.541855622082949,-27.338302144780755,1753.0999999999999 </coordinates></LineString></MultiGeometry></Placemark></Folder></Folder></Document></kml>