<?xml version="1.0" encoding="utf-8"?><kml xmlns="http://www.opengis.net/kml/2.2" xmlns:xsi="http://www.w3.org/2001/XMLSchema-instance" xmlns:kmlx="http://www.google.com/kml/ext/2.2" xmlns:atom="http://www.w3.org/2005/Atom" xmlns:gpxx="http://www.garmin.com/xmlschemas/GpxExtensions/v3"><Document><Style id="point"><IconStyle><scale>0.9</scale><Icon><href>http://maps.google.com/mapfiles/kml/shapes/placemark_circle.png</href></Icon></IconStyle></Style><Folder><name>Tracks</name><Folder><name>[330] Mohale Dam wall 2</name><Folder><name>Points</name><Style><ListStyle><listItemType>checkHideChildren</listItemType></ListStyle></Style><Placemark><TimeSpan><begin>2022-12-19T11:53:08Z</begin><end>2022-12-19T11:53:08Z</end></TimeSpan><Style><IconStyle><scale>0.9</scale><Icon><href>http://connect.garmin.com/image/main/icons/kml/grn-play.png</href></Icon></IconStyle></Style><Point><altitudeMode>clampToGround</altitudeMode><coordinates>28.100283611565828,-29.458561046048999,1941.04</coordinates></Point></Placemark><Placemark><TimeSpan><begin>2022-12-19T11:53:08Z</begin><end>2022-12-19T11:53:15Z</end></TimeSpan><styleUrl>#point</styleUrl><Point><altitudeMode>clampToGround</altitudeMode><coordinates>28.100284617394209,-29.458564566448331,1941.04</coordinates></Point></Placemark><Placemark><TimeSpan><begin>2022-12-19T11:53:15Z</begin><end>2022-12-19T11:53:21Z</end></TimeSpan><styleUrl>#point</styleUrl><Point><altitudeMode>clampToGround</altitudeMode><coordinates>28.10026659630239,-29.458698509261012,1942.96</coordinates></Point></Placemark><Placemark><TimeSpan><begin>2022-12-19T11:53:21Z</begin><end>2022-12-19T11:53:22Z</end></TimeSpan><styleUrl>#point</styleUrl><Point><altitudeMode>clampToGround</altitudeMode><coordinates>28.100236169993877,-29.458719715476036,1943.4400000000001</coordinates></Point></Placemark><Placemark><TimeSpan><begin>2022-12-19T11:53:22Z</begin><end>2022-12-19T11:53:23Z</end></TimeSpan><styleUrl>#point</styleUrl><Point><altitudeMode>clampToGround</altitudeMode><coordinates>28.100201385095716,-29.458735808730125,1943.9200000000001</coordinates></Point></Placemark><Placemark><TimeSpan><begin>2022-12-19T11:53:23Z</begin><end>2022-12-19T11:53:24Z</end></TimeSpan><styleUrl>#point</styleUrl><Point><altitudeMode>clampToGround</altitudeMode><coordinates>28.10016299597919,-29.458744106814265,1944.4000000000001</coordinates></Point></Placemark><Placemark><TimeSpan><begin>2022-12-19T11:53:24Z</begin><end>2022-12-19T11:53:26Z</end></TimeSpan><styleUrl>#point</styleUrl><Point><altitudeMode>clampToGround</altitudeMode><coordinates>28.10008336789906,-29.458729103207588,1944.8800000000001</coordinates></Point></Placemark><Placemark><TimeSpan><begin>2022-12-19T11:53:26Z</begin><end>2022-12-19T11:53:27Z</end></TimeSpan><styleUrl>#point</styleUrl><Point><altitudeMode>clampToGround</altitudeMode><coordinates>28.100054115056992,-29.458705214783549,1945.3599999999999</coordinates></Point></Placemark><Placemark><TimeSpan><begin>2022-12-19T11:53:27Z</begin><end>2022-12-19T11:53:28Z</end></TimeSpan><styleUrl>#point</styleUrl><Point><altitudeMode>clampToGround</altitudeMode><coordinates>28.100031651556492,-29.45867688395083,1946.3299999999999</coordinates></Point></Placemark><Placemark><TimeSpan><begin>2022-12-19T11:53:28Z</begin><end>2022-12-19T11:53:29Z</end></TimeSpan><styleUrl>#point</styleUrl><Point><altitudeMode>clampToGround</altitudeMode><coordinates>28.100011786445975,-29.458646876737475,1946.8099999999999</coordinates></Point></Placemark><Placemark><TimeSpan><begin>2022-12-19T11:53:29Z</begin><end>2022-12-19T11:53:42Z</end></TimeSpan><styleUrl>#point</styleUrl><Point><altitudeMode>clampToGround</altitudeMode><coordinates>28.099704338237643,-29.458167850971222,1954.02</coordinates></Point></Placemark><Placemark><TimeSpan><begin>2022-12-19T11:53:42Z</begin><end>2022-12-19T11:53:43Z</end></TimeSpan><styleUrl>#point</styleUrl><Point><altitudeMode>clampToGround</altitudeMode><coordinates>28.099673241376877,-29.458136837929487,1954.98</coordinates></Point></Placemark><Placemark><TimeSpan><begin>2022-12-19T11:53:43Z</begin><end>2022-12-19T11:53:44Z</end></TimeSpan><styleUrl>#point</styleUrl><Point><altitudeMode>clampToGround</altitudeMode><coordinates>28.099634181708097,-29.458110183477402,1955.46</coordinates></Point></Placemark><Placemark><TimeSpan><begin>2022-12-19T11:53:44Z</begin><end>2022-12-19T11:53:45Z</end></TimeSpan><styleUrl>#point</styleUrl><Point><altitudeMode>clampToGround</altitudeMode><coordinates>28.099598893895745,-29.458095096051693,1955.9400000000001</coordinates></Point></Placemark><Placemark><TimeSpan><begin>2022-12-19T11:53:45Z</begin><end>2022-12-19T11:53:46Z</end></TimeSpan><styleUrl>#point</styleUrl><Point><altitudeMode>clampToGround</altitudeMode><coordinates>28.099558828398585,-29.458086881786585,1956.4200000000001</coordinates></Point></Placemark><Placemark><TimeSpan><begin>2022-12-19T11:53:46Z</begin><end>2022-12-19T11:53:47Z</end></TimeSpan><styleUrl>#point</styleUrl><Point><altitudeMode>clampToGround</altitudeMode><coordinates>28.099524127319455,-29.458089815452695,1956.4200000000001</coordinates></Point></Placemark><Placemark><TimeSpan><begin>2022-12-19T11:53:47Z</begin><end>2022-12-19T11:53:48Z</end></TimeSpan><styleUrl>#point</styleUrl><Point><altitudeMode>clampToGround</altitudeMode><coordinates>28.099485905840993,-29.458102807402611,1956.9000000000001</coordinates></Point></Placemark><Placemark><TimeSpan><begin>2022-12-19T11:53:48Z</begin><end>2022-12-19T11:53:49Z</end></TimeSpan><styleUrl>#point</styleUrl><Point><altitudeMode>clampToGround</altitudeMode><coordinates>28.099447516724467,-29.458120577037334,1957.3800000000001</coordinates></Point></Placemark><Placemark><TimeSpan><begin>2022-12-19T11:53:49Z</begin><end>2022-12-19T11:53:54Z</end></TimeSpan><styleUrl>#point</styleUrl><Point><altitudeMode>clampToGround</altitudeMode><coordinates>28.09919698163867,-29.45823616348207,1958.8199999999999</coordinates></Point></Placemark><Placemark><TimeSpan><begin>2022-12-19T11:53:54Z</begin><end>2022-12-19T11:53:55Z</end></TimeSpan><styleUrl>#point</styleUrl><Point><altitudeMode>clampToGround</altitudeMode><coordinates>28.099150294438004,-29.458258710801601,1959.3</coordinates></Point></Placemark><Placemark><TimeSpan><begin>2022-12-19T11:53:55Z</begin><end>2022-12-19T11:53:56Z</end></TimeSpan><styleUrl>#point</styleUrl><Point><altitudeMode>clampToGround</altitudeMode><coordinates>28.099104110151529,-29.458265835419297,1960.27</coordinates></Point></Placemark><Placemark><TimeSpan><begin>2022-12-19T11:53:56Z</begin><end>2022-12-19T11:53:57Z</end></TimeSpan><styleUrl>#point</styleUrl><Point><altitudeMode>clampToGround</altitudeMode><coordinates>28.09905432164669,-29.458263739943504,1960.75</coordinates></Point></Placemark><Placemark><TimeSpan><begin>2022-12-19T11:53:57Z</begin><end>2022-12-19T11:53:58Z</end></TimeSpan><styleUrl>#point</styleUrl><Point><altitudeMode>clampToGround</altitudeMode><coordinates>28.099008807912469,-29.458255190402269,1960.75</coordinates></Point></Placemark><Placemark><TimeSpan><begin>2022-12-19T11:53:58Z</begin><end>2022-12-19T11:53:59Z</end></TimeSpan><styleUrl>#point</styleUrl><Point><altitudeMode>clampToGround</altitudeMode><coordinates>28.098955331370234,-29.458243623375893,1961.23</coordinates></Point></Placemark><Placemark><TimeSpan><begin>2022-12-19T11:53:59Z</begin><end>2022-12-19T11:54:04Z</end></TimeSpan><styleUrl>#point</styleUrl><Point><altitudeMode>clampToGround</altitudeMode><coordinates>28.098683087155223,-29.458203306421638,1962.1900000000001</coordinates></Point></Placemark><Placemark><TimeSpan><begin>2022-12-19T11:54:04Z</begin><end>2022-12-19T11:54:05Z</end></TimeSpan><styleUrl>#point</styleUrl><Point><altitudeMode>clampToGround</altitudeMode><coordinates>28.098628520965576,-29.458207078278065,1962.1900000000001</coordinates></Point></Placemark><Placemark><TimeSpan><begin>2022-12-19T11:54:05Z</begin><end>2022-12-19T11:54:06Z</end></TimeSpan><styleUrl>#point</styleUrl><Point><altitudeMode>clampToGround</altitudeMode><coordinates>28.098584096878767,-29.458218226209283,1962.6700000000001</coordinates></Point></Placemark><Placemark><TimeSpan><begin>2022-12-19T11:54:06Z</begin><end>2022-12-19T11:54:07Z</end></TimeSpan><styleUrl>#point</styleUrl><Point><altitudeMode>clampToGround</altitudeMode><coordinates>28.098541684448719,-29.458239935338497,1962.6700000000001</coordinates></Point></Placemark><Placemark><TimeSpan><begin>2022-12-19T11:54:07Z</begin><end>2022-12-19T11:54:08Z</end></TimeSpan><styleUrl>#point</styleUrl><Point><altitudeMode>clampToGround</altitudeMode><coordinates>28.098509749397635,-29.458273462951183,1962.6700000000001</coordinates></Point></Placemark><Placemark><TimeSpan><begin>2022-12-19T11:54:08Z</begin><end>2022-12-19T11:54:09Z</end></TimeSpan><styleUrl>#point</styleUrl><Point><altitudeMode>clampToGround</altitudeMode><coordinates>28.098485358059406,-29.458312690258026,1963.1500000000001</coordinates></Point></Placemark><Placemark><TimeSpan><begin>2022-12-19T11:54:09Z</begin><end>2022-12-19T11:54:10Z</end></TimeSpan><styleUrl>#point</styleUrl><Point><altitudeMode>clampToGround</altitudeMode><coordinates>28.09846255928278,-29.458356024697423,1963.6300000000001</coordinates></Point></Placemark><Placemark><TimeSpan><begin>2022-12-19T11:54:10Z</begin><end>2022-12-19T11:54:29Z</end></TimeSpan><styleUrl>#point</styleUrl><Point><altitudeMode>clampToGround</altitudeMode><coordinates>28.097993088886142,-29.459147527813911,1970.8399999999999</coordinates></Point></Placemark><Placemark><TimeSpan><begin>2022-12-19T11:54:29Z</begin><end>2022-12-19T11:54:42Z</end></TimeSpan><styleUrl>#point</styleUrl><Point><altitudeMode>clampToGround</altitudeMode><coordinates>28.097661249339581,-29.459725962951779,1976.1300000000001</coordinates></Point></Placemark><Placemark><TimeSpan><begin>2022-12-19T11:54:42Z</begin><end>2022-12-19T11:54:44Z</end></TimeSpan><styleUrl>#point</styleUrl><Point><altitudeMode>clampToGround</altitudeMode><coordinates>28.0976118799299,-29.459704672917724,1977.0899999999999</coordinates></Point></Placemark><Placemark><TimeSpan><begin>2022-12-19T11:54:44Z</begin><end>2022-12-19T11:54:45Z</end></TimeSpan><styleUrl>#point</styleUrl><Point><altitudeMode>clampToGround</altitudeMode><coordinates>28.097609113901854,-29.459672151133418,1977.0899999999999</coordinates></Point></Placemark><Placemark><TimeSpan><begin>2022-12-19T11:54:45Z</begin><end>2022-12-19T11:54:46Z</end></TimeSpan><styleUrl>#point</styleUrl><Point><altitudeMode>clampToGround</altitudeMode><coordinates>28.097616992890835,-29.459638958796859,1977.5699999999999</coordinates></Point></Placemark><Placemark><TimeSpan><begin>2022-12-19T11:54:46Z</begin><end>2022-12-19T11:54:47Z</end></TimeSpan><styleUrl>#point</styleUrl><Point><altitudeMode>clampToGround</altitudeMode><coordinates>28.097634091973305,-29.459592858329415,1978.05</coordinates></Point></Placemark><Placemark><TimeSpan><begin>2022-12-19T11:54:47Z</begin><end>2022-12-19T11:54:48Z</end></TimeSpan><styleUrl>#point</styleUrl><Point><altitudeMode>clampToGround</altitudeMode><coordinates>28.097652532160282,-29.459544662386179,1978.05</coordinates></Point></Placemark><Placemark><TimeSpan><begin>2022-12-19T11:54:48Z</begin><end>2022-12-19T11:55:09Z</end></TimeSpan><styleUrl>#point</styleUrl><Point><altitudeMode>clampToGround</altitudeMode><coordinates>28.098025862127542,-29.458413776010275,1986.7</coordinates></Point></Placemark><Placemark><TimeSpan><begin>2022-12-19T11:55:09Z</begin><end>2022-12-19T11:55:20Z</end></TimeSpan><styleUrl>#point</styleUrl><Point><altitudeMode>clampToGround</altitudeMode><coordinates>28.098217975348234,-29.457876663655043,1989.5899999999999</coordinates></Point></Placemark><Placemark><TimeSpan><begin>2022-12-19T11:55:20Z</begin><end>2022-12-19T11:55:25Z</end></TimeSpan><styleUrl>#point</styleUrl><Point><altitudeMode>clampToGround</altitudeMode><coordinates>28.098282096907496,-29.457752108573914,1990.0699999999999</coordinates></Point></Placemark><Placemark><TimeSpan><begin>2022-12-19T11:55:25Z</begin><end>2022-12-19T11:55:37Z</end></TimeSpan><styleUrl>#point</styleUrl><Point><altitudeMode>clampToGround</altitudeMode><coordinates>28.098272792994976,-29.457728639245033,1990.0699999999999</coordinates></Point></Placemark><Placemark><TimeSpan><begin>2022-12-19T11:55:37Z</begin><end>2022-12-19T11:56:14Z</end></TimeSpan><styleUrl>#point</styleUrl><Point><altitudeMode>clampToGround</altitudeMode><coordinates>28.098270697519183,-29.457745905965567,1993.4300000000001</coordinates></Point></Placemark><Placemark><TimeSpan><begin>2022-12-19T11:56:14Z</begin><end>2022-12-19T11:56:16Z</end></TimeSpan><styleUrl>#point</styleUrl><Point><altitudeMode>clampToGround</altitudeMode><coordinates>28.098256280645728,-29.457745319232345,1993.4300000000001</coordinates></Point></Placemark><Placemark><TimeSpan><begin>2022-12-19T11:56:16Z</begin><end>2022-12-19T11:56:17Z</end></TimeSpan><styleUrl>#point</styleUrl><Point><altitudeMode>clampToGround</altitudeMode><coordinates>28.098233062773943,-29.45775244385004,1993.4300000000001</coordinates></Point></Placemark><Placemark><TimeSpan><begin>2022-12-19T11:56:17Z</begin><end>2022-12-19T11:56:18Z</end></TimeSpan><styleUrl>#point</styleUrl><Point><altitudeMode>clampToGround</altitudeMode><coordinates>28.098203139379621,-29.457773398607969,1992.95</coordinates></Point></Placemark><Placemark><TimeSpan><begin>2022-12-19T11:56:18Z</begin><end>2022-12-19T11:56:19Z</end></TimeSpan><styleUrl>#point</styleUrl><Point><altitudeMode>clampToGround</altitudeMode><coordinates>28.098175143823028,-29.457808686420321,1993.4300000000001</coordinates></Point></Placemark><Placemark><TimeSpan><begin>2022-12-19T11:56:19Z</begin><end>2022-12-19T11:56:20Z</end></TimeSpan><styleUrl>#point</styleUrl><Point><altitudeMode>clampToGround</altitudeMode><coordinates>28.098150752484798,-29.457853361964226,1993.4300000000001</coordinates></Point></Placemark><Placemark><TimeSpan><begin>2022-12-19T11:56:20Z</begin><end>2022-12-19T11:56:21Z</end></TimeSpan><styleUrl>#point</styleUrl><Point><altitudeMode>clampToGround</altitudeMode><coordinates>28.098127702251077,-29.457901641726494,1993.9100000000001</coordinates></Point></Placemark><Placemark><TimeSpan><begin>2022-12-19T11:56:21Z</begin><end>2022-12-19T11:56:33Z</end></TimeSpan><styleUrl>#point</styleUrl><Point><altitudeMode>clampToGround</altitudeMode><coordinates>28.09772863984108,-29.458583006635308,1997.76</coordinates></Point></Placemark><Placemark><TimeSpan><begin>2022-12-19T11:56:33Z</begin><end>2022-12-19T11:56:55Z</end></TimeSpan><styleUrl>#point</styleUrl><Point><altitudeMode>clampToGround</altitudeMode><coordinates>28.097030678763986,-29.459867365658283,2006.8900000000001</coordinates></Point></Placemark><Placemark><TimeSpan><begin>2022-12-19T11:56:55Z</begin><end>2022-12-19T11:56:58Z</end></TimeSpan><styleUrl>#point</styleUrl><Point><altitudeMode>clampToGround</altitudeMode><coordinates>28.096982650458813,-29.459965601563454,2007.8499999999999</coordinates></Point></Placemark><Placemark><TimeSpan><begin>2022-12-19T11:56:58Z</begin><end>2022-12-19T11:56:59Z</end></TimeSpan><styleUrl>#point</styleUrl><Point><altitudeMode>clampToGround</altitudeMode><coordinates>28.096958175301552,-29.459967194125056,2008.3299999999999</coordinates></Point></Placemark><Placemark><TimeSpan><begin>2022-12-19T11:56:59Z</begin><end>2022-12-19T11:57:00Z</end></TimeSpan><styleUrl>#point</styleUrl><Point><altitudeMode>clampToGround</altitudeMode><coordinates>28.096940908581018,-29.45995026268065,2008.3299999999999</coordinates></Point></Placemark><Placemark><TimeSpan><begin>2022-12-19T11:57:00Z</begin><end>2022-12-19T11:57:01Z</end></TimeSpan><styleUrl>#point</styleUrl><Point><altitudeMode>clampToGround</altitudeMode><coordinates>28.096934370696545,-29.459921009838581,2008.8099999999999</coordinates></Point></Placemark><Placemark><TimeSpan><begin>2022-12-19T11:57:01Z</begin><end>2022-12-19T11:57:02Z</end></TimeSpan><styleUrl>#point</styleUrl><Point><altitudeMode>clampToGround</altitudeMode><coordinates>28.096936885267496,-29.459884632378817,2008.8099999999999</coordinates></Point></Placemark><Placemark><TimeSpan><begin>2022-12-19T11:57:02Z</begin><end>2022-12-19T11:57:03Z</end></TimeSpan><styleUrl>#point</styleUrl><Point><altitudeMode>clampToGround</altitudeMode><coordinates>28.096945686265826,-29.459843309596181,2009.29</coordinates></Point></Placemark><Placemark><TimeSpan><begin>2022-12-19T11:57:03Z</begin><end>2022-12-19T11:57:04Z</end></TimeSpan><styleUrl>#point</styleUrl><Point><altitudeMode>clampToGround</altitudeMode><coordinates>28.096957001835108,-29.459798550233245,2009.77</coordinates></Point></Placemark><Placemark><TimeSpan><begin>2022-12-19T11:57:04Z</begin><end>2022-12-19T11:57:26Z</end></TimeSpan><styleUrl>#point</styleUrl><Point><altitudeMode>clampToGround</altitudeMode><coordinates>28.09723561629653,-29.458843767642975,2019.3900000000001</coordinates></Point></Placemark><Placemark><TimeSpan><begin>2022-12-19T11:57:26Z</begin><end>2022-12-19T11:57:47Z</end></TimeSpan><styleUrl>#point</styleUrl><Point><altitudeMode>clampToGround</altitudeMode><coordinates>28.097527641803026,-29.457929385825992,2027.5599999999999</coordinates></Point></Placemark><Placemark><TimeSpan><begin>2022-12-19T11:57:47Z</begin><end>2022-12-19T11:58:08Z</end></TimeSpan><styleUrl>#point</styleUrl><Point><altitudeMode>clampToGround</altitudeMode><coordinates>28.097855458036065,-29.456944931298494,2034.77</coordinates></Point></Placemark><Placemark><TimeSpan><begin>2022-12-19T11:58:08Z</begin><end>2022-12-19T11:58:10Z</end></TimeSpan><styleUrl>#point</styleUrl><Point><altitudeMode>clampToGround</altitudeMode><coordinates>28.097896445542574,-29.456857088953257,2035.73</coordinates></Point></Placemark><Placemark><TimeSpan><begin>2022-12-19T11:58:10Z</begin><end>2022-12-19T11:58:11Z</end></TimeSpan><styleUrl>#point</styleUrl><Point><altitudeMode>clampToGround</altitudeMode><coordinates>28.097919328138232,-29.456817526370287,2035.73</coordinates></Point></Placemark><Placemark><TimeSpan><begin>2022-12-19T11:58:11Z</begin><end>2022-12-19T11:58:12Z</end></TimeSpan><styleUrl>#point</styleUrl><Point><altitudeMode>clampToGround</altitudeMode><coordinates>28.097930895164609,-29.456778969615698,2036.21</coordinates></Point></Placemark><Placemark><TimeSpan><begin>2022-12-19T11:58:12Z</begin><end>2022-12-19T11:58:13Z</end></TimeSpan><styleUrl>#point</styleUrl><Point><altitudeMode>clampToGround</altitudeMode><coordinates>28.09792360290885,-29.4567512255162,2036.6900000000001</coordinates></Point></Placemark><Placemark><TimeSpan><begin>2022-12-19T11:58:13Z</begin><end>2022-12-19T11:58:15Z</end></TimeSpan><styleUrl>#point</styleUrl><Point><altitudeMode>clampToGround</altitudeMode><coordinates>28.097879346460104,-29.456739658489823,2037.6500000000001</coordinates></Point></Placemark><Placemark><TimeSpan><begin>2022-12-19T11:58:15Z</begin><end>2022-12-19T11:58:16Z</end></TimeSpan><styleUrl>#point</styleUrl><Point><altitudeMode>clampToGround</altitudeMode><coordinates>28.097857218235731,-29.456755584105849,2038.1300000000001</coordinates></Point></Placemark><Placemark><TimeSpan><begin>2022-12-19T11:58:16Z</begin><end>2022-12-19T11:58:17Z</end></TimeSpan><styleUrl>#point</styleUrl><Point><altitudeMode>clampToGround</altitudeMode><coordinates>28.097839029505849,-29.456778131425381,2038.6099999999999</coordinates></Point></Placemark><Placemark><TimeSpan><begin>2022-12-19T11:58:17Z</begin><end>2022-12-19T11:58:18Z</end></TimeSpan><styleUrl>#point</styleUrl><Point><altitudeMode>clampToGround</altitudeMode><coordinates>28.097816817462444,-29.456810066476464,2039.0899999999999</coordinates></Point></Placemark><Placemark><TimeSpan><begin>2022-12-19T11:58:18Z</begin><end>2022-12-19T11:58:19Z</end></TimeSpan><styleUrl>#point</styleUrl><Point><altitudeMode>clampToGround</altitudeMode><coordinates>28.097790665924549,-29.456849629059434,2039.5699999999999</coordinates></Point></Placemark><Placemark><TimeSpan><begin>2022-12-19T11:58:19Z</begin><end>2022-12-19T11:58:36Z</end></TimeSpan><styleUrl>#point</styleUrl><Point><altitudeMode>clampToGround</altitudeMode><coordinates>28.097349107265472,-29.457583716139197,2047.75</coordinates></Point></Placemark><Placemark><TimeSpan><begin>2022-12-19T11:58:36Z</begin><end>2022-12-19T11:58:59Z</end></TimeSpan><styleUrl>#point</styleUrl><Point><altitudeMode>clampToGround</altitudeMode><coordinates>28.096731612458825,-29.458567835390568,2059.2800000000002</coordinates></Point></Placemark><Placemark><TimeSpan><begin>2022-12-19T11:58:59Z</begin><end>2022-12-19T11:59:19Z</end></TimeSpan><styleUrl>#point</styleUrl><Point><altitudeMode>clampToGround</altitudeMode><coordinates>28.096234649419785,-29.45941474288702,2068.8899999999999</coordinates></Point></Placemark><Placemark><TimeSpan><begin>2022-12-19T11:59:19Z</begin><end>2022-12-19T11:59:30Z</end></TimeSpan><styleUrl>#point</styleUrl><Point><altitudeMode>clampToGround</altitudeMode><coordinates>28.096133396029472,-29.459593025967479,2072.7399999999998</coordinates></Point></Placemark><Placemark><TimeSpan><begin>2022-12-19T11:59:30Z</begin><end>2022-12-19T12:00:10Z</end></TimeSpan><styleUrl>#point</styleUrl><Point><altitudeMode>clampToGround</altitudeMode><coordinates>28.096140185371041,-29.459583470597863,2072.7399999999998</coordinates></Point></Placemark><Placemark><TimeSpan><begin>2022-12-19T12:00:10Z</begin><end>2022-12-19T12:00:18Z</end></TimeSpan><styleUrl>#point</styleUrl><Point><altitudeMode>clampToGround</altitudeMode><coordinates>28.096012193709612,-29.459790419787169,2073.2199999999998</coordinates></Point></Placemark><Placemark><TimeSpan><begin>2022-12-19T12:00:18Z</begin><end>2022-12-19T12:00:28Z</end></TimeSpan><styleUrl>#point</styleUrl><Point><altitudeMode>clampToGround</altitudeMode><coordinates>28.095784457400441,-29.460176909342408,2076.5900000000001</coordinates></Point></Placemark><Placemark><TimeSpan><begin>2022-12-19T12:00:28Z</begin><end>2022-12-19T12:00:40Z</end></TimeSpan><styleUrl>#point</styleUrl><Point><altitudeMode>clampToGround</altitudeMode><coordinates>28.095568958669901,-29.460599776357412,2080.9099999999999</coordinates></Point></Placemark><Placemark><TimeSpan><begin>2022-12-19T12:00:40Z</begin><end>2022-12-19T12:00:44Z</end></TimeSpan><styleUrl>#point</styleUrl><Point><altitudeMode>clampToGround</altitudeMode><coordinates>28.095506597310305,-29.460720475763083,2081.8699999999999</coordinates></Point></Placemark><Placemark><TimeSpan><begin>2022-12-19T12:00:44Z</begin><end>2022-12-19T12:00:45Z</end></TimeSpan><styleUrl>#point</styleUrl><Point><altitudeMode>clampToGround</altitudeMode><coordinates>28.095479942858219,-29.460721565410495,2081.8699999999999</coordinates></Point></Placemark><Placemark><TimeSpan><begin>2022-12-19T12:00:45Z</begin><end>2022-12-19T12:00:46Z</end></TimeSpan><styleUrl>#point</styleUrl><Point><altitudeMode>clampToGround</altitudeMode><coordinates>28.09545798227191,-29.460707316175103,2082.3499999999999</coordinates></Point></Placemark><Placemark><TimeSpan><begin>2022-12-19T12:00:46Z</begin><end>2022-12-19T12:00:47Z</end></TimeSpan><styleUrl>#point</styleUrl><Point><altitudeMode>clampToGround</altitudeMode><coordinates>28.095452031120658,-29.460676973685622,2082.3499999999999</coordinates></Point></Placemark><Placemark><TimeSpan><begin>2022-12-19T12:00:47Z</begin><end>2022-12-19T12:00:48Z</end></TimeSpan><styleUrl>#point</styleUrl><Point><altitudeMode>clampToGround</altitudeMode><coordinates>28.095457395538688,-29.460652079433203,2082.3499999999999</coordinates></Point></Placemark><Placemark><TimeSpan><begin>2022-12-19T12:00:48Z</begin><end>2022-12-19T12:00:49Z</end></TimeSpan><styleUrl>#point</styleUrl><Point><altitudeMode>clampToGround</altitudeMode><coordinates>28.095464184880257,-29.460619641467929,2082.3499999999999</coordinates></Point></Placemark><Placemark><TimeSpan><begin>2022-12-19T12:00:49Z</begin><end>2022-12-19T12:00:56Z</end></TimeSpan><styleUrl>#point</styleUrl><Point><altitudeMode>clampToGround</altitudeMode><coordinates>28.095559403300285,-29.460406489670277,2081.3899999999999</coordinates></Point></Placemark><Placemark><TimeSpan><begin>2022-12-19T12:00:56Z</begin><end>2022-12-19T12:00:57Z</end></TimeSpan><styleUrl>#point</styleUrl><Point><altitudeMode>clampToGround</altitudeMode><coordinates>28.095570802688599,-29.460368352010846,2081.3899999999999</coordinates></Point></Placemark><Placemark><TimeSpan><begin>2022-12-19T12:00:57Z</begin><end>2022-12-19T12:00:58Z</end></TimeSpan><styleUrl>#point</styleUrl><Point><altitudeMode>clampToGround</altitudeMode><coordinates>28.09557574801147,-29.460332728922367,2081.3899999999999</coordinates></Point></Placemark><Placemark><TimeSpan><begin>2022-12-19T12:00:58Z</begin><end>2022-12-19T12:00:59Z</end></TimeSpan><styleUrl>#point</styleUrl><Point><altitudeMode>clampToGround</altitudeMode><coordinates>28.095579100772738,-29.460299536585808,2080.9099999999999</coordinates></Point></Placemark><Placemark><TimeSpan><begin>2022-12-19T12:00:59Z</begin><end>2022-12-19T12:01:00Z</end></TimeSpan><styleUrl>#point</styleUrl><Point><altitudeMode>clampToGround</altitudeMode><coordinates>28.095585806295276,-29.460269613191485,2080.9099999999999</coordinates></Point></Placemark><Placemark><TimeSpan><begin>2022-12-19T12:01:00Z</begin><end>2022-12-19T12:01:01Z</end></TimeSpan><styleUrl>#point</styleUrl><Point><altitudeMode>clampToGround</altitudeMode><coordinates>28.095595445483923,-29.460239019244909,2080.9099999999999</coordinates></Point></Placemark><Placemark><TimeSpan><begin>2022-12-19T12:01:01Z</begin><end>2022-12-19T12:01:14Z</end></TimeSpan><styleUrl>#point</styleUrl><Point><altitudeMode>clampToGround</altitudeMode><coordinates>28.095824019983411,-29.459733171388507,2081.3899999999999</coordinates></Point></Placemark><Placemark><TimeSpan><begin>2022-12-19T12:01:14Z</begin><end>2022-12-19T12:01:29Z</end></TimeSpan><styleUrl>#point</styleUrl><Point><altitudeMode>clampToGround</altitudeMode><coordinates>28.096180250868201,-29.458893053233624,2080.9099999999999</coordinates></Point></Placemark><Placemark><TimeSpan><begin>2022-12-19T12:01:29Z</begin><end>2022-12-19T12:01:47Z</end></TimeSpan><styleUrl>#point</styleUrl><Point><altitudeMode>clampToGround</altitudeMode><coordinates>28.096647625789046,-29.457817152142525,2080.9099999999999</coordinates></Point></Placemark><Placemark><TimeSpan><begin>2022-12-19T12:01:47Z</begin><end>2022-12-19T12:02:05Z</end></TimeSpan><styleUrl>#point</styleUrl><Point><altitudeMode>clampToGround</altitudeMode><coordinates>28.097143918275833,-29.45664569735527,2080.4299999999998</coordinates></Point></Placemark><Placemark><TimeSpan><begin>2022-12-19T12:02:05Z</begin><end>2022-12-19T12:02:17Z</end></TimeSpan><styleUrl>#point</styleUrl><Point><altitudeMode>clampToGround</altitudeMode><coordinates>28.097475171089172,-29.455909766256809,2080.4299999999998</coordinates></Point></Placemark><Placemark><TimeSpan><begin>2022-12-19T12:02:17Z</begin><end>2022-12-19T12:02:18Z</end></TimeSpan><styleUrl>#point</styleUrl><Point><altitudeMode>clampToGround</altitudeMode><coordinates>28.097515571862459,-29.455865509808064,2080.9099999999999</coordinates></Point></Placemark><Placemark><TimeSpan><begin>2022-12-19T12:02:18Z</begin><end>2022-12-19T12:02:19Z</end></TimeSpan><styleUrl>#point</styleUrl><Point><altitudeMode>clampToGround</altitudeMode><coordinates>28.097566869109869,-29.45582770742476,2081.3899999999999</coordinates></Point></Placemark><Placemark><TimeSpan><begin>2022-12-19T12:02:19Z</begin><end>2022-12-19T12:02:20Z</end></TimeSpan><styleUrl>#point</styleUrl><Point><altitudeMode>clampToGround</altitudeMode><coordinates>28.097621100023389,-29.455797364935279,2081.3899999999999</coordinates></Point></Placemark><Placemark><TimeSpan><begin>2022-12-19T12:02:20Z</begin><end>2022-12-19T12:02:21Z</end></TimeSpan><styleUrl>#point</styleUrl><Point><altitudeMode>clampToGround</altitudeMode><coordinates>28.09767248108983,-29.455773811787367,2081.8699999999999</coordinates></Point></Placemark><Placemark><TimeSpan><begin>2022-12-19T12:02:21Z</begin><end>2022-12-19T12:02:24Z</end></TimeSpan><styleUrl>#point</styleUrl><Point><altitudeMode>clampToGround</altitudeMode><coordinates>28.097810614854097,-29.455704325810075,2082.3499999999999</coordinates></Point></Placemark><Placemark><TimeSpan><begin>2022-12-19T12:02:24Z</begin><end>2022-12-19T12:02:30Z</end></TimeSpan><styleUrl>#point</styleUrl><Point><altitudeMode>clampToGround</altitudeMode><coordinates>28.098093001171947,-29.455555798485875,2082.8299999999999</coordinates></Point></Placemark><Placemark><TimeSpan><begin>2022-12-19T12:02:30Z</begin><end>2022-12-19T12:02:31Z</end></TimeSpan><styleUrl>#point</styleUrl><Point><altitudeMode>clampToGround</altitudeMode><coordinates>28.098119739443064,-29.455520678311586,2082.8299999999999</coordinates></Point></Placemark><Placemark><TimeSpan><begin>2022-12-19T12:02:31Z</begin><end>2022-12-19T12:02:32Z</end></TimeSpan><styleUrl>#point</styleUrl><Point><altitudeMode>clampToGround</altitudeMode><coordinates>28.098136503249407,-29.455483378842473,2082.8299999999999</coordinates></Point></Placemark><Placemark><TimeSpan><begin>2022-12-19T12:02:32Z</begin><end>2022-12-19T12:02:33Z</end></TimeSpan><styleUrl>#point</styleUrl><Point><altitudeMode>clampToGround</altitudeMode><coordinates>28.098139688372612,-29.455443983897567,2082.3499999999999</coordinates></Point></Placemark><Placemark><TimeSpan><begin>2022-12-19T12:02:33Z</begin><end>2022-12-19T12:02:34Z</end></TimeSpan><styleUrl>#point</styleUrl><Point><altitudeMode>clampToGround</altitudeMode><coordinates>28.098130216822028,-29.455404337495565,2082.3499999999999</coordinates></Point></Placemark><Placemark><TimeSpan><begin>2022-12-19T12:02:34Z</begin><end>2022-12-19T12:02:35Z</end></TimeSpan><styleUrl>#point</styleUrl><Point><altitudeMode>clampToGround</altitudeMode><coordinates>28.09811026789248,-29.455364774912596,2082.3499999999999</coordinates></Point></Placemark><Placemark><TimeSpan><begin>2022-12-19T12:02:35Z</begin><end>2022-12-19T12:02:36Z</end></TimeSpan><styleUrl>#point</styleUrl><Point><altitudeMode>clampToGround</altitudeMode><coordinates>28.09808093123138,-29.455328732728958,2081.8699999999999</coordinates></Point></Placemark><Placemark><TimeSpan><begin>2022-12-19T12:02:36Z</begin><end>2022-12-19T12:02:37Z</end></TimeSpan><styleUrl>#point</styleUrl><Point><altitudeMode>clampToGround</altitudeMode><coordinates>28.098042793571949,-29.455294953659177,2081.8699999999999</coordinates></Point></Placemark><Placemark><TimeSpan><begin>2022-12-19T12:02:37Z</begin><end>2022-12-19T12:02:38Z</end></TimeSpan><styleUrl>#point</styleUrl><Point><altitudeMode>clampToGround</altitudeMode><coordinates>28.098000464960933,-29.455262934789062,2081.8699999999999</coordinates></Point></Placemark><Placemark><TimeSpan><begin>2022-12-19T12:02:38Z</begin><end>2022-12-19T12:02:39Z</end></TimeSpan><styleUrl>#point</styleUrl><Point><altitudeMode>clampToGround</altitudeMode><coordinates>28.097953610122204,-29.45522865280509,2081.3899999999999</coordinates></Point></Placemark><Placemark><TimeSpan><begin>2022-12-19T12:02:39Z</begin><end>2022-12-19T12:02:41Z</end></TimeSpan><styleUrl>#point</styleUrl><Point><altitudeMode>clampToGround</altitudeMode><coordinates>28.097864091396332,-29.455158747732639,2081.3899999999999</coordinates></Point></Placemark><Placemark><TimeSpan><begin>2022-12-19T12:02:41Z</begin><end>2022-12-19T12:02:42Z</end></TimeSpan><styleUrl>#point</styleUrl><Point><altitudeMode>clampToGround</altitudeMode><coordinates>28.097825953736901,-29.455120777711272,2081.3899999999999</coordinates></Point></Placemark><Placemark><TimeSpan><begin>2022-12-19T12:02:42Z</begin><end>2022-12-19T12:02:43Z</end></TimeSpan><styleUrl>#point</styleUrl><Point><altitudeMode>clampToGround</altitudeMode><coordinates>28.097799383103848,-29.45508012548089,2081.3899999999999</coordinates></Point></Placemark><Placemark><TimeSpan><begin>2022-12-19T12:02:43Z</begin><end>2022-12-19T12:02:44Z</end></TimeSpan><styleUrl>#point</styleUrl><Point><altitudeMode>clampToGround</altitudeMode><coordinates>28.097785720601678,-29.455038802698255,2081.3899999999999</coordinates></Point></Placemark><Placemark><TimeSpan><begin>2022-12-19T12:02:44Z</begin><end>2022-12-19T12:02:45Z</end></TimeSpan><styleUrl>#point</styleUrl><Point><altitudeMode>clampToGround</altitudeMode><coordinates>28.097782619297504,-29.455000329762697,2081.3899999999999</coordinates></Point></Placemark><Placemark><TimeSpan><begin>2022-12-19T12:02:45Z</begin><end>2022-12-19T12:02:46Z</end></TimeSpan><styleUrl>#point</styleUrl><Point><altitudeMode>clampToGround</altitudeMode><coordinates>28.097784211859107,-29.454964371398091,2081.3899999999999</coordinates></Point></Placemark><Placemark><TimeSpan><begin>2022-12-19T12:02:46Z</begin><end>2022-12-19T12:02:47Z</end></TimeSpan><styleUrl>#point</styleUrl><Point><altitudeMode>clampToGround</altitudeMode><coordinates>28.097787480801344,-29.454930173233151,2081.3899999999999</coordinates></Point></Placemark><Placemark><TimeSpan><begin>2022-12-19T12:02:47Z</begin><end>2022-12-19T12:02:54Z</end></TimeSpan><styleUrl>#point</styleUrl><Point><altitudeMode>clampToGround</altitudeMode><coordinates>28.09775504283607,-29.454765049740672,2080.9099999999999</coordinates></Point></Placemark><Placemark><TimeSpan><begin>2022-12-19T12:02:54Z</begin><end>2022-12-19T12:02:55Z</end></TimeSpan><styleUrl>#point</styleUrl><Point><altitudeMode>clampToGround</altitudeMode><coordinates>28.097746660932899,-29.454755578190088,2080.9099999999999</coordinates></Point></Placemark><Placemark><TimeSpan><begin>2022-12-19T12:02:55Z</begin><end>2022-12-19T12:02:56Z</end></TimeSpan><styleUrl>#point</styleUrl><Point><altitudeMode>clampToGround</altitudeMode><coordinates>28.097742972895503,-29.454744849354029,2080.9099999999999</coordinates></Point></Placemark><Placemark><TimeSpan><begin>2022-12-19T12:02:56Z</begin><end>2022-12-19T12:02:57Z</end></TimeSpan><styleUrl>#point</styleUrl><Point><altitudeMode>clampToGround</altitudeMode><coordinates>28.097740625962615,-29.45473219268024,2080.9099999999999</coordinates></Point></Placemark><Placemark><TimeSpan><begin>2022-12-19T12:02:57Z</begin><end>2022-12-19T12:03:09Z</end></TimeSpan><styleUrl>#point</styleUrl><Point><altitudeMode>clampToGround</altitudeMode><coordinates>28.097704332321882,-29.454704280942678,2082.3499999999999</coordinates></Point></Placemark><Placemark><TimeSpan><begin>2022-12-19T12:03:09Z</begin><end>2022-12-19T12:03:26Z</end></TimeSpan><styleUrl>#point</styleUrl><Point><altitudeMode>clampToGround</altitudeMode><coordinates>28.097700979560614,-29.454675279557705,2082.3499999999999</coordinates></Point></Placemark><Placemark><TimeSpan><begin>2022-12-19T12:03:26Z</begin><end>2022-12-19T12:04:06Z</end></TimeSpan><styleUrl>#point</styleUrl><Point><altitudeMode>clampToGround</altitudeMode><coordinates>28.097706092521548,-29.454667149111629,2083.79</coordinates></Point></Placemark><Placemark><TimeSpan><begin>2022-12-19T12:04:06Z</begin><end>2022-12-19T12:05:05Z</end></TimeSpan><styleUrl>#point</styleUrl><Point><altitudeMode>clampToGround</altitudeMode><coordinates>28.097729478031397,-29.454677794128656,2086.6799999999998</coordinates></Point></Placemark><Placemark><TimeSpan><begin>2022-12-19T12:05:05Z</begin><end>2022-12-19T12:05:53Z</end></TimeSpan><styleUrl>#point</styleUrl><Point><altitudeMode>clampToGround</altitudeMode><coordinates>28.097712127491832,-29.454674776643515,2084.2800000000002</coordinates></Point></Placemark><Placemark><TimeSpan><begin>2022-12-19T12:05:53Z</begin><end>2022-12-19T12:06:45Z</end></TimeSpan><styleUrl>#point</styleUrl><Point><altitudeMode>clampToGround</altitudeMode><coordinates>28.097742889076471,-29.454670585691929,2083.3099999999999</coordinates></Point></Placemark><Placemark><TimeSpan><begin>2022-12-19T12:06:45Z</begin><end>2022-12-19T12:07:45Z</end></TimeSpan><styleUrl>#point</styleUrl><Point><altitudeMode>clampToGround</altitudeMode><coordinates>28.097728975117207,-29.454659186303616,2082.8299999999999</coordinates></Point></Placemark></Folder><Placemark><name>[330] Mohale Dam wall 2</name><Style><LineStyle><color>ffff4040</color><width>4</width></LineStyle></Style><MultiGeometry><LineString><coordinates>28.100283611565828,-29.458561046048999,1941.04 28.100284617394209,-29.458564566448331,1941.04 28.10026659630239,-29.458698509261012,1942.96 28.100236169993877,-29.458719715476036,1943.4400000000001 28.100201385095716,-29.458735808730125,1943.9200000000001 28.10016299597919,-29.458744106814265,1944.4000000000001 28.10008336789906,-29.458729103207588,1944.8800000000001 28.100054115056992,-29.458705214783549,1945.3599999999999 28.100031651556492,-29.45867688395083,1946.3299999999999 28.100011786445975,-29.458646876737475,1946.8099999999999 28.099704338237643,-29.458167850971222,1954.02 28.099673241376877,-29.458136837929487,1954.98 28.099634181708097,-29.458110183477402,1955.46 28.099598893895745,-29.458095096051693,1955.9400000000001 28.099558828398585,-29.458086881786585,1956.4200000000001 28.099524127319455,-29.458089815452695,1956.4200000000001 28.099485905840993,-29.458102807402611,1956.9000000000001 28.099447516724467,-29.458120577037334,1957.3800000000001 28.09919698163867,-29.45823616348207,1958.8199999999999 28.099150294438004,-29.458258710801601,1959.3 28.099104110151529,-29.458265835419297,1960.27 28.09905432164669,-29.458263739943504,1960.75 28.099008807912469,-29.458255190402269,1960.75 28.098955331370234,-29.458243623375893,1961.23 28.098683087155223,-29.458203306421638,1962.1900000000001 28.098628520965576,-29.458207078278065,1962.1900000000001 28.098584096878767,-29.458218226209283,1962.6700000000001 28.098541684448719,-29.458239935338497,1962.6700000000001 28.098509749397635,-29.458273462951183,1962.6700000000001 28.098485358059406,-29.458312690258026,1963.1500000000001 28.09846255928278,-29.458356024697423,1963.6300000000001 28.097993088886142,-29.459147527813911,1970.8399999999999 28.097661249339581,-29.459725962951779,1976.1300000000001 28.0976118799299,-29.459704672917724,1977.0899999999999 28.097609113901854,-29.459672151133418,1977.0899999999999 28.097616992890835,-29.459638958796859,1977.5699999999999 28.097634091973305,-29.459592858329415,1978.05 28.097652532160282,-29.459544662386179,1978.05 28.098025862127542,-29.458413776010275,1986.7 28.098217975348234,-29.457876663655043,1989.5899999999999 28.098282096907496,-29.457752108573914,1990.0699999999999 28.098272792994976,-29.457728639245033,1990.0699999999999 28.098270697519183,-29.457745905965567,1993.4300000000001 28.098256280645728,-29.457745319232345,1993.4300000000001 28.098233062773943,-29.45775244385004,1993.4300000000001 28.098203139379621,-29.457773398607969,1992.95 28.098175143823028,-29.457808686420321,1993.4300000000001 28.098150752484798,-29.457853361964226,1993.4300000000001 28.098127702251077,-29.457901641726494,1993.9100000000001 28.09772863984108,-29.458583006635308,1997.76 28.097030678763986,-29.459867365658283,2006.8900000000001 28.096982650458813,-29.459965601563454,2007.8499999999999 28.096958175301552,-29.459967194125056,2008.3299999999999 28.096940908581018,-29.45995026268065,2008.3299999999999 28.096934370696545,-29.459921009838581,2008.8099999999999 28.096936885267496,-29.459884632378817,2008.8099999999999 28.096945686265826,-29.459843309596181,2009.29 28.096957001835108,-29.459798550233245,2009.77 28.09723561629653,-29.458843767642975,2019.3900000000001 28.097527641803026,-29.457929385825992,2027.5599999999999 28.097855458036065,-29.456944931298494,2034.77 28.097896445542574,-29.456857088953257,2035.73 28.097919328138232,-29.456817526370287,2035.73 28.097930895164609,-29.456778969615698,2036.21 28.09792360290885,-29.4567512255162,2036.6900000000001 28.097879346460104,-29.456739658489823,2037.6500000000001 28.097857218235731,-29.456755584105849,2038.1300000000001 28.097839029505849,-29.456778131425381,2038.6099999999999 28.097816817462444,-29.456810066476464,2039.0899999999999 28.097790665924549,-29.456849629059434,2039.5699999999999 28.097349107265472,-29.457583716139197,2047.75 28.096731612458825,-29.458567835390568,2059.2800000000002 28.096234649419785,-29.45941474288702,2068.8899999999999 28.096133396029472,-29.459593025967479,2072.7399999999998 28.096140185371041,-29.459583470597863,2072.7399999999998 28.096012193709612,-29.459790419787169,2073.2199999999998 28.095784457400441,-29.460176909342408,2076.5900000000001 28.095568958669901,-29.460599776357412,2080.9099999999999 28.095506597310305,-29.460720475763083,2081.8699999999999 28.095479942858219,-29.460721565410495,2081.8699999999999 28.09545798227191,-29.460707316175103,2082.3499999999999 28.095452031120658,-29.460676973685622,2082.3499999999999 28.095457395538688,-29.460652079433203,2082.3499999999999 28.095464184880257,-29.460619641467929,2082.3499999999999 28.095559403300285,-29.460406489670277,2081.3899999999999 28.095570802688599,-29.460368352010846,2081.3899999999999 28.09557574801147,-29.460332728922367,2081.3899999999999 28.095579100772738,-29.460299536585808,2080.9099999999999 28.095585806295276,-29.460269613191485,2080.9099999999999 28.095595445483923,-29.460239019244909,2080.9099999999999 28.095824019983411,-29.459733171388507,2081.3899999999999 28.096180250868201,-29.458893053233624,2080.9099999999999 28.096647625789046,-29.457817152142525,2080.9099999999999 28.097143918275833,-29.45664569735527,2080.4299999999998 28.097475171089172,-29.455909766256809,2080.4299999999998 28.097515571862459,-29.455865509808064,2080.9099999999999 28.097566869109869,-29.45582770742476,2081.3899999999999 28.097621100023389,-29.455797364935279,2081.3899999999999 28.09767248108983,-29.455773811787367,2081.8699999999999 28.097810614854097,-29.455704325810075,2082.3499999999999 28.098093001171947,-29.455555798485875,2082.8299999999999 28.098119739443064,-29.455520678311586,2082.8299999999999 28.098136503249407,-29.455483378842473,2082.8299999999999 28.098139688372612,-29.455443983897567,2082.3499999999999 28.098130216822028,-29.455404337495565,2082.3499999999999 28.09811026789248,-29.455364774912596,2082.3499999999999 28.09808093123138,-29.455328732728958,2081.8699999999999 28.098042793571949,-29.455294953659177,2081.8699999999999 28.098000464960933,-29.455262934789062,2081.8699999999999 28.097953610122204,-29.45522865280509,2081.3899999999999 28.097864091396332,-29.455158747732639,2081.3899999999999 28.097825953736901,-29.455120777711272,2081.3899999999999 28.097799383103848,-29.45508012548089,2081.3899999999999 28.097785720601678,-29.455038802698255,2081.3899999999999 28.097782619297504,-29.455000329762697,2081.3899999999999 28.097784211859107,-29.454964371398091,2081.3899999999999 28.097787480801344,-29.454930173233151,2081.3899999999999 28.09775504283607,-29.454765049740672,2080.9099999999999 28.097746660932899,-29.454755578190088,2080.9099999999999 28.097742972895503,-29.454744849354029,2080.9099999999999 28.097740625962615,-29.45473219268024,2080.9099999999999 28.097704332321882,-29.454704280942678,2082.3499999999999 28.097700979560614,-29.454675279557705,2082.3499999999999 28.097706092521548,-29.454667149111629,2083.79 28.097729478031397,-29.454677794128656,2086.6799999999998 28.097712127491832,-29.454674776643515,2084.2800000000002 28.097742889076471,-29.454670585691929,2083.3099999999999 28.097728975117207,-29.454659186303616,2082.8299999999999 </coordinates></LineString></MultiGeometry></Placemark></Folder></Folder></Document></kml>