<?xml version="1.0" encoding="utf-8"?><kml xmlns="http://www.opengis.net/kml/2.2" xmlns:xsi="http://www.w3.org/2001/XMLSchema-instance" xmlns:kmlx="http://www.google.com/kml/ext/2.2" xmlns:atom="http://www.w3.org/2005/Atom" xmlns:gpxx="http://www.garmin.com/xmlschemas/GpxExtensions/v3"><Document><Style id="point"><IconStyle><scale>0.9</scale><Icon><href>http://maps.google.com/mapfiles/kml/shapes/placemark_circle.png</href></Icon></IconStyle></Style><Folder><name>Tracks</name><Folder><name>[340] Klipnek Pass</name><Folder><name>Points</name><Style><ListStyle><listItemType>checkHideChildren</listItemType></ListStyle></Style><Placemark><TimeSpan><begin>2023-04-07T07:53:13Z</begin><end>2023-04-07T07:53:13Z</end></TimeSpan><Style><IconStyle><scale>0.9</scale><Icon><href>http://connect.garmin.com/image/main/icons/kml/grn-play.png</href></Icon></IconStyle></Style><Point><altitudeMode>clampToGround</altitudeMode><coordinates>28.395936721935868,-28.283597426488996,1680.52</coordinates></Point></Placemark><Placemark><TimeSpan><begin>2023-04-07T07:53:13Z</begin><end>2023-04-07T07:53:32Z</end></TimeSpan><styleUrl>#point</styleUrl><Point><altitudeMode>clampToGround</altitudeMode><coordinates>28.40170606970787,-28.286115350201726,1690.6199999999999</coordinates></Point></Placemark><Placemark><TimeSpan><begin>2023-04-07T07:53:32Z</begin><end>2023-04-07T07:53:50Z</end></TimeSpan><styleUrl>#point</styleUrl><Point><altitudeMode>clampToGround</altitudeMode><coordinates>28.406918440014124,-28.288273187354207,1711.76</coordinates></Point></Placemark><Placemark><TimeSpan><begin>2023-04-07T07:53:50Z</begin><end>2023-04-07T07:53:57Z</end></TimeSpan><styleUrl>#point</styleUrl><Point><altitudeMode>clampToGround</altitudeMode><coordinates>28.409168729558587,-28.288576444610953,1721.8599999999999</coordinates></Point></Placemark><Placemark><TimeSpan><begin>2023-04-07T07:53:57Z</begin><end>2023-04-07T07:54:09Z</end></TimeSpan><styleUrl>#point</styleUrl><Point><altitudeMode>clampToGround</altitudeMode><coordinates>28.413198748603463,-28.28902873210609,1721.8599999999999</coordinates></Point></Placemark><Placemark><TimeSpan><begin>2023-04-07T07:54:09Z</begin><end>2023-04-07T07:54:15Z</end></TimeSpan><styleUrl>#point</styleUrl><Point><altitudeMode>clampToGround</altitudeMode><coordinates>28.415014855563641,-28.289796095341444,1713.6900000000001</coordinates></Point></Placemark><Placemark><TimeSpan><begin>2023-04-07T07:54:15Z</begin><end>2023-04-07T07:54:25Z</end></TimeSpan><styleUrl>#point</styleUrl><Point><altitudeMode>clampToGround</altitudeMode><coordinates>28.418040135875344,-28.291022032499313,1699.75</coordinates></Point></Placemark><Placemark><TimeSpan><begin>2023-04-07T07:54:25Z</begin><end>2023-04-07T07:54:32Z</end></TimeSpan><styleUrl>#point</styleUrl><Point><altitudeMode>clampToGround</altitudeMode><coordinates>28.420245330780745,-28.291289750486612,1696.8599999999999</coordinates></Point></Placemark><Placemark><TimeSpan><begin>2023-04-07T07:54:32Z</begin><end>2023-04-07T07:54:39Z</end></TimeSpan><styleUrl>#point</styleUrl><Point><altitudeMode>clampToGround</altitudeMode><coordinates>28.422449603676796,-28.291051285341382,1698.3099999999999</coordinates></Point></Placemark><Placemark><TimeSpan><begin>2023-04-07T07:54:39Z</begin><end>2023-04-07T07:54:49Z</end></TimeSpan><styleUrl>#point</styleUrl><Point><altitudeMode>clampToGround</altitudeMode><coordinates>28.425546297803521,-28.290143106132746,1704.0699999999999</coordinates></Point></Placemark></Folder><Placemark><name>[340] Klipnek Pass</name><Style><LineStyle><color>ff00ff00</color><width>4</width></LineStyle></Style><MultiGeometry><LineString><coordinates>28.395936721935868,-28.283597426488996,1680.52 28.40170606970787,-28.286115350201726,1690.6199999999999 28.406918440014124,-28.288273187354207,1711.76 28.409168729558587,-28.288576444610953,1721.8599999999999 28.413198748603463,-28.28902873210609,1721.8599999999999 28.415014855563641,-28.289796095341444,1713.6900000000001 28.418040135875344,-28.291022032499313,1699.75 28.420245330780745,-28.291289750486612,1696.8599999999999 28.422449603676796,-28.291051285341382,1698.3099999999999 28.425546297803521,-28.290143106132746,1704.0699999999999 </coordinates></LineString></MultiGeometry></Placemark></Folder></Folder></Document></kml>