<?xml version="1.0" encoding="utf-8"?><kml xmlns="http://www.opengis.net/kml/2.2" xmlns:xsi="http://www.w3.org/2001/XMLSchema-instance" xmlns:kmlx="http://www.google.com/kml/ext/2.2" xmlns:atom="http://www.w3.org/2005/Atom" xmlns:gpxx="http://www.garmin.com/xmlschemas/GpxExtensions/v3"><Document><Style id="point"><IconStyle><scale>0.9</scale><Icon><href>http://maps.google.com/mapfiles/kml/shapes/placemark_circle.png</href></Icon></IconStyle></Style><Folder><name>Tracks</name><Folder><name>[347] Helpmekaar Pass (North)</name><Folder><name>Points</name><Style><ListStyle><listItemType>checkHideChildren</listItemType></ListStyle></Style><Placemark><TimeSpan><begin>2023-04-08T07:44:42Z</begin><end>2023-04-08T07:44:42Z</end></TimeSpan><Style><IconStyle><scale>0.9</scale><Icon><href>http://connect.garmin.com/image/main/icons/kml/grn-play.png</href></Icon></IconStyle></Style><Point><altitudeMode>clampToGround</altitudeMode><coordinates>30.418182676658034,-28.544843327254057,1123.4400000000001</coordinates></Point></Placemark><Placemark><TimeSpan><begin>2023-04-08T07:44:42Z</begin><end>2023-04-08T07:44:49Z</end></TimeSpan><styleUrl>#point</styleUrl><Point><altitudeMode>clampToGround</altitudeMode><coordinates>30.418432205915451,-28.543552681803703,1128.24</coordinates></Point></Placemark><Placemark><TimeSpan><begin>2023-04-08T07:44:49Z</begin><end>2023-04-08T07:44:58Z</end></TimeSpan><styleUrl>#point</styleUrl><Point><altitudeMode>clampToGround</altitudeMode><coordinates>30.418823305517435,-28.541431473568082,1134.49</coordinates></Point></Placemark><Placemark><TimeSpan><begin>2023-04-08T07:44:58Z</begin><end>2023-04-08T07:45:05Z</end></TimeSpan><styleUrl>#point</styleUrl><Point><altitudeMode>clampToGround</altitudeMode><coordinates>30.419145002961159,-28.540028342977166,1135.9400000000001</coordinates></Point></Placemark><Placemark><TimeSpan><begin>2023-04-08T07:45:05Z</begin><end>2023-04-08T07:45:06Z</end></TimeSpan><styleUrl>#point</styleUrl><Point><altitudeMode>clampToGround</altitudeMode><coordinates>30.419235024601221,-28.539871517568827,1136.4200000000001</coordinates></Point></Placemark><Placemark><TimeSpan><begin>2023-04-08T07:45:06Z</begin><end>2023-04-08T07:45:07Z</end></TimeSpan><styleUrl>#point</styleUrl><Point><altitudeMode>clampToGround</altitudeMode><coordinates>30.419351533055305,-28.539725337177515,1136.9000000000001</coordinates></Point></Placemark><Placemark><TimeSpan><begin>2023-04-08T07:45:07Z</begin><end>2023-04-08T07:45:08Z</end></TimeSpan><styleUrl>#point</styleUrl><Point><altitudeMode>clampToGround</altitudeMode><coordinates>30.419488241896033,-28.539588963612914,1137.3800000000001</coordinates></Point></Placemark><Placemark><TimeSpan><begin>2023-04-08T07:45:08Z</begin><end>2023-04-08T07:45:09Z</end></TimeSpan><styleUrl>#point</styleUrl><Point><altitudeMode>clampToGround</altitudeMode><coordinates>30.419642804190516,-28.539460888132453,1138.3399999999999</coordinates></Point></Placemark><Placemark><TimeSpan><begin>2023-04-08T07:45:09Z</begin><end>2023-04-08T07:45:10Z</end></TimeSpan><styleUrl>#point</styleUrl><Point><altitudeMode>clampToGround</altitudeMode><coordinates>30.419811196625233,-28.539341362193227,1139.78</coordinates></Point></Placemark><Placemark><TimeSpan><begin>2023-04-08T07:45:10Z</begin><end>2023-04-08T07:45:11Z</end></TimeSpan><styleUrl>#point</styleUrl><Point><altitudeMode>clampToGround</altitudeMode><coordinates>30.41998403146863,-28.539238683879375,1140.74</coordinates></Point></Placemark><Placemark><TimeSpan><begin>2023-04-08T07:45:11Z</begin><end>2023-04-08T07:45:12Z</end></TimeSpan><styleUrl>#point</styleUrl><Point><altitudeMode>clampToGround</altitudeMode><coordinates>30.420171786099672,-28.539149919524789,1142.1800000000001</coordinates></Point></Placemark><Placemark><TimeSpan><begin>2023-04-08T07:45:12Z</begin><end>2023-04-08T07:45:13Z</end></TimeSpan><styleUrl>#point</styleUrl><Point><altitudeMode>clampToGround</altitudeMode><coordinates>30.420368257910013,-28.539077751338482,1143.6300000000001</coordinates></Point></Placemark><Placemark><TimeSpan><begin>2023-04-08T07:45:13Z</begin><end>2023-04-08T07:45:14Z</end></TimeSpan><styleUrl>#point</styleUrl><Point><altitudeMode>clampToGround</altitudeMode><coordinates>30.420562718063593,-28.539025951176882,1145.0699999999999</coordinates></Point></Placemark><Placemark><TimeSpan><begin>2023-04-08T07:45:14Z</begin><end>2023-04-08T07:45:15Z</end></TimeSpan><styleUrl>#point</styleUrl><Point><altitudeMode>clampToGround</altitudeMode><coordinates>30.420745611190796,-28.538996363058686,1146.03</coordinates></Point></Placemark><Placemark><TimeSpan><begin>2023-04-08T07:45:15Z</begin><end>2023-04-08T07:45:16Z</end></TimeSpan><styleUrl>#point</styleUrl><Point><altitudeMode>clampToGround</altitudeMode><coordinates>30.420918446034193,-28.538994770497084,1146.99</coordinates></Point></Placemark><Placemark><TimeSpan><begin>2023-04-08T07:45:16Z</begin><end>2023-04-08T07:45:17Z</end></TimeSpan><styleUrl>#point</styleUrl><Point><altitudeMode>clampToGround</altitudeMode><coordinates>30.421070326119661,-28.539022598415613,1147.95</coordinates></Point></Placemark><Placemark><TimeSpan><begin>2023-04-08T07:45:17Z</begin><end>2023-04-08T07:45:18Z</end></TimeSpan><styleUrl>#point</styleUrl><Point><altitudeMode>clampToGround</altitudeMode><coordinates>30.421215500682592,-28.539078002795577,1148.9100000000001</coordinates></Point></Placemark><Placemark><TimeSpan><begin>2023-04-08T07:45:18Z</begin><end>2023-04-08T07:45:19Z</end></TimeSpan><styleUrl>#point</styleUrl><Point><altitudeMode>clampToGround</altitudeMode><coordinates>30.421350449323654,-28.539151092991233,1149.8699999999999</coordinates></Point></Placemark><Placemark><TimeSpan><begin>2023-04-08T07:45:19Z</begin><end>2023-04-08T07:45:20Z</end></TimeSpan><styleUrl>#point</styleUrl><Point><altitudeMode>clampToGround</altitudeMode><coordinates>30.42147827334702,-28.539235666394234,1150.8399999999999</coordinates></Point></Placemark><Placemark><TimeSpan><begin>2023-04-08T07:45:20Z</begin><end>2023-04-08T07:45:21Z</end></TimeSpan><styleUrl>#point</styleUrl><Point><altitudeMode>clampToGround</altitudeMode><coordinates>30.421611377969384,-28.539325436577201,1151.8</coordinates></Point></Placemark><Placemark><TimeSpan><begin>2023-04-08T07:45:21Z</begin><end>2023-04-08T07:45:29Z</end></TimeSpan><styleUrl>#point</styleUrl><Point><altitudeMode>clampToGround</altitudeMode><coordinates>30.422858353704214,-28.540263371542096,1161.4100000000001</coordinates></Point></Placemark><Placemark><TimeSpan><begin>2023-04-08T07:45:29Z</begin><end>2023-04-08T07:45:35Z</end></TimeSpan><styleUrl>#point</styleUrl><Point><altitudeMode>clampToGround</altitudeMode><coordinates>30.423769131302834,-28.540926212444901,1169.5799999999999</coordinates></Point></Placemark><Placemark><TimeSpan><begin>2023-04-08T07:45:35Z</begin><end>2023-04-08T07:45:36Z</end></TimeSpan><styleUrl>#point</styleUrl><Point><altitudeMode>clampToGround</altitudeMode><coordinates>30.423919167369604,-28.540965523570776,1171.02</coordinates></Point></Placemark><Placemark><TimeSpan><begin>2023-04-08T07:45:36Z</begin><end>2023-04-08T07:45:37Z</end></TimeSpan><styleUrl>#point</styleUrl><Point><altitudeMode>clampToGround</altitudeMode><coordinates>30.424068113788962,-28.540977761149406,1171.98</coordinates></Point></Placemark><Placemark><TimeSpan><begin>2023-04-08T07:45:37Z</begin><end>2023-04-08T07:45:38Z</end></TimeSpan><styleUrl>#point</styleUrl><Point><altitudeMode>clampToGround</altitudeMode><coordinates>30.424218652769923,-28.54096376337111,1172.95</coordinates></Point></Placemark><Placemark><TimeSpan><begin>2023-04-08T07:45:38Z</begin><end>2023-04-08T07:45:39Z</end></TimeSpan><styleUrl>#point</styleUrl><Point><altitudeMode>clampToGround</altitudeMode><coordinates>30.424370616674423,-28.54092369787395,1174.3900000000001</coordinates></Point></Placemark><Placemark><TimeSpan><begin>2023-04-08T07:45:39Z</begin><end>2023-04-08T07:45:40Z</end></TimeSpan><styleUrl>#point</styleUrl><Point><altitudeMode>clampToGround</altitudeMode><coordinates>30.424528531730175,-28.540867120027542,1175.8299999999999</coordinates></Point></Placemark><Placemark><TimeSpan><begin>2023-04-08T07:45:40Z</begin><end>2023-04-08T07:45:41Z</end></TimeSpan><styleUrl>#point</styleUrl><Point><altitudeMode>clampToGround</altitudeMode><coordinates>30.424690805375576,-28.540801908820868,1176.79</coordinates></Point></Placemark><Placemark><TimeSpan><begin>2023-04-08T07:45:41Z</begin><end>2023-04-08T07:45:49Z</end></TimeSpan><styleUrl>#point</styleUrl><Point><altitudeMode>clampToGround</altitudeMode><coordinates>30.426073987036943,-28.540228251367807,1187.8499999999999</coordinates></Point></Placemark><Placemark><TimeSpan><begin>2023-04-08T07:45:49Z</begin><end>2023-04-08T07:45:50Z</end></TimeSpan><styleUrl>#point</styleUrl><Point><altitudeMode>clampToGround</altitudeMode><coordinates>30.426191333681345,-28.540134290233254,1189.29</coordinates></Point></Placemark><Placemark><TimeSpan><begin>2023-04-08T07:45:50Z</begin><end>2023-04-08T07:45:51Z</end></TimeSpan><styleUrl>#point</styleUrl><Point><altitudeMode>clampToGround</altitudeMode><coordinates>30.426289821043611,-28.540023062378168,1190.25</coordinates></Point></Placemark><Placemark><TimeSpan><begin>2023-04-08T07:45:51Z</begin><end>2023-04-08T07:45:52Z</end></TimeSpan><styleUrl>#point</styleUrl><Point><altitudeMode>clampToGround</altitudeMode><coordinates>30.426364419981837,-28.53989515453577,1191.6900000000001</coordinates></Point></Placemark><Placemark><TimeSpan><begin>2023-04-08T07:45:52Z</begin><end>2023-04-08T07:45:53Z</end></TimeSpan><styleUrl>#point</styleUrl><Point><altitudeMode>clampToGround</altitudeMode><coordinates>30.426410436630249,-28.539754925295711,1192.6500000000001</coordinates></Point></Placemark><Placemark><TimeSpan><begin>2023-04-08T07:45:53Z</begin><end>2023-04-08T07:45:54Z</end></TimeSpan><styleUrl>#point</styleUrl><Point><altitudeMode>clampToGround</altitudeMode><coordinates>30.426431559026241,-28.539603380486369,1194.0899999999999</coordinates></Point></Placemark><Placemark><TimeSpan><begin>2023-04-08T07:45:54Z</begin><end>2023-04-08T07:45:55Z</end></TimeSpan><styleUrl>#point</styleUrl><Point><altitudeMode>clampToGround</altitudeMode><coordinates>30.426435163244605,-28.539441106840968,1195.54</coordinates></Point></Placemark><Placemark><TimeSpan><begin>2023-04-08T07:45:55Z</begin><end>2023-04-08T07:45:56Z</end></TimeSpan><styleUrl>#point</styleUrl><Point><altitudeMode>clampToGround</altitudeMode><coordinates>30.426428792998195,-28.539274977520108,1196.98</coordinates></Point></Placemark><Placemark><TimeSpan><begin>2023-04-08T07:45:56Z</begin><end>2023-04-08T07:45:57Z</end></TimeSpan><styleUrl>#point</styleUrl><Point><altitudeMode>clampToGround</altitudeMode><coordinates>30.426408844068646,-28.539109686389565,1197.9400000000001</coordinates></Point></Placemark><Placemark><TimeSpan><begin>2023-04-08T07:45:57Z</begin><end>2023-04-08T07:45:58Z</end></TimeSpan><styleUrl>#point</styleUrl><Point><altitudeMode>clampToGround</altitudeMode><coordinates>30.426361318677664,-28.53894623927772,1199.3800000000001</coordinates></Point></Placemark><Placemark><TimeSpan><begin>2023-04-08T07:45:58Z</begin><end>2023-04-08T07:45:59Z</end></TimeSpan><styleUrl>#point</styleUrl><Point><altitudeMode>clampToGround</altitudeMode><coordinates>30.426287138834596,-28.538783881813288,1200.3399999999999</coordinates></Point></Placemark><Placemark><TimeSpan><begin>2023-04-08T07:45:59Z</begin><end>2023-04-08T07:46:06Z</end></TimeSpan><styleUrl>#point</styleUrl><Point><altitudeMode>clampToGround</altitudeMode><coordinates>30.425503682345152,-28.53745543397963,1207.0699999999999</coordinates></Point></Placemark><Placemark><TimeSpan><begin>2023-04-08T07:46:06Z</begin><end>2023-04-08T07:46:14Z</end></TimeSpan><styleUrl>#point</styleUrl><Point><altitudeMode>clampToGround</altitudeMode><coordinates>30.42449165135622,-28.535781735554338,1214.76</coordinates></Point></Placemark><Placemark><TimeSpan><begin>2023-04-08T07:46:14Z</begin><end>2023-04-08T07:46:20Z</end></TimeSpan><styleUrl>#point</styleUrl><Point><altitudeMode>clampToGround</altitudeMode><coordinates>30.423943139612675,-28.535138675943017,1219.0899999999999</coordinates></Point></Placemark><Placemark><TimeSpan><begin>2023-04-08T07:46:20Z</begin><end>2023-04-08T07:46:29Z</end></TimeSpan><styleUrl>#point</styleUrl><Point><altitudeMode>clampToGround</altitudeMode><coordinates>30.423204191029072,-28.534282715991139,1223.4200000000001</coordinates></Point></Placemark><Placemark><TimeSpan><begin>2023-04-08T07:46:29Z</begin><end>2023-04-08T07:46:37Z</end></TimeSpan><styleUrl>#point</styleUrl><Point><altitudeMode>clampToGround</altitudeMode><coordinates>30.422093169763684,-28.533155936747789,1232.0699999999999</coordinates></Point></Placemark><Placemark><TimeSpan><begin>2023-04-08T07:46:37Z</begin><end>2023-04-08T07:46:44Z</end></TimeSpan><styleUrl>#point</styleUrl><Point><altitudeMode>clampToGround</altitudeMode><coordinates>30.420946273952723,-28.532142648473382,1238.3199999999999</coordinates></Point></Placemark><Placemark><TimeSpan><begin>2023-04-08T07:46:44Z</begin><end>2023-04-08T07:46:45Z</end></TimeSpan><styleUrl>#point</styleUrl><Point><altitudeMode>clampToGround</altitudeMode><coordinates>30.420748712494969,-28.532041227445006,1238.8</coordinates></Point></Placemark><Placemark><TimeSpan><begin>2023-04-08T07:46:45Z</begin><end>2023-04-08T07:46:46Z</end></TimeSpan><styleUrl>#point</styleUrl><Point><altitudeMode>clampToGround</altitudeMode><coordinates>30.420535393059254,-28.53195782750845,1239.28</coordinates></Point></Placemark><Placemark><TimeSpan><begin>2023-04-08T07:46:46Z</begin><end>2023-04-08T07:46:47Z</end></TimeSpan><styleUrl>#point</styleUrl><Point><altitudeMode>clampToGround</altitudeMode><coordinates>30.420311093330383,-28.531889179721475,1239.76</coordinates></Point></Placemark><Placemark><TimeSpan><begin>2023-04-08T07:46:47Z</begin><end>2023-04-08T07:46:48Z</end></TimeSpan><styleUrl>#point</styleUrl><Point><altitudeMode>clampToGround</altitudeMode><coordinates>30.420083105564117,-28.531829500570893,1240.24</coordinates></Point></Placemark><Placemark><TimeSpan><begin>2023-04-08T07:46:48Z</begin><end>2023-04-08T07:47:01Z</end></TimeSpan><styleUrl>#point</styleUrl><Point><altitudeMode>clampToGround</altitudeMode><coordinates>30.417302157729864,-28.531137071549892,1249.3699999999999</coordinates></Point></Placemark><Placemark><TimeSpan><begin>2023-04-08T07:47:01Z</begin><end>2023-04-08T07:47:11Z</end></TimeSpan><styleUrl>#point</styleUrl><Point><altitudeMode>clampToGround</altitudeMode><coordinates>30.415249764919281,-28.530590487644076,1255.1400000000001</coordinates></Point></Placemark><Placemark><TimeSpan><begin>2023-04-08T07:47:11Z</begin><end>2023-04-08T07:47:17Z</end></TimeSpan><styleUrl>#point</styleUrl><Point><altitudeMode>clampToGround</altitudeMode><coordinates>30.414577536284924,-28.530371552333236,1257.0599999999999</coordinates></Point></Placemark><Placemark><TimeSpan><begin>2023-04-08T07:47:17Z</begin><end>2023-04-08T07:47:23Z</end></TimeSpan><styleUrl>#point</styleUrl><Point><altitudeMode>clampToGround</altitudeMode><coordinates>30.41363381780684,-28.529982967302203,1258.5</coordinates></Point></Placemark><Placemark><TimeSpan><begin>2023-04-08T07:47:23Z</begin><end>2023-04-08T07:47:30Z</end></TimeSpan><styleUrl>#point</styleUrl><Point><altitudeMode>clampToGround</altitudeMode><coordinates>30.412098839879036,-28.529166569933295,1259.9400000000001</coordinates></Point></Placemark><Placemark><TimeSpan><begin>2023-04-08T07:47:30Z</begin><end>2023-04-08T07:47:39Z</end></TimeSpan><styleUrl>#point</styleUrl><Point><altitudeMode>clampToGround</altitudeMode><coordinates>30.410160860046744,-28.528138780966401,1263.79</coordinates></Point></Placemark><Placemark><TimeSpan><begin>2023-04-08T07:47:39Z</begin><end>2023-04-08T07:47:41Z</end></TimeSpan><styleUrl>#point</styleUrl><Point><altitudeMode>clampToGround</altitudeMode><coordinates>30.409832624718547,-28.527870811522007,1263.79</coordinates></Point></Placemark><Placemark><TimeSpan><begin>2023-04-08T07:47:41Z</begin><end>2023-04-08T07:47:42Z</end></TimeSpan><styleUrl>#point</styleUrl><Point><altitudeMode>clampToGround</altitudeMode><coordinates>30.409687198698521,-28.527713399380445,1263.79</coordinates></Point></Placemark><Placemark><TimeSpan><begin>2023-04-08T07:47:42Z</begin><end>2023-04-08T07:47:43Z</end></TimeSpan><styleUrl>#point</styleUrl><Point><altitudeMode>clampToGround</altitudeMode><coordinates>30.409566750749946,-28.527544420212507,1263.79</coordinates></Point></Placemark><Placemark><TimeSpan><begin>2023-04-08T07:47:43Z</begin><end>2023-04-08T07:47:44Z</end></TimeSpan><styleUrl>#point</styleUrl><Point><altitudeMode>clampToGround</altitudeMode><coordinates>30.409471783787012,-28.527357336133718,1263.79</coordinates></Point></Placemark><Placemark><TimeSpan><begin>2023-04-08T07:47:44Z</begin><end>2023-04-08T07:47:45Z</end></TimeSpan><styleUrl>#point</styleUrl><Point><altitudeMode>clampToGround</altitudeMode><coordinates>30.409402130171657,-28.527157595381141,1263.79</coordinates></Point></Placemark><Placemark><TimeSpan><begin>2023-04-08T07:47:45Z</begin><end>2023-04-08T07:47:46Z</end></TimeSpan><styleUrl>#point</styleUrl><Point><altitudeMode>clampToGround</altitudeMode><coordinates>30.409362986683846,-28.526960033923388,1263.79</coordinates></Point></Placemark><Placemark><TimeSpan><begin>2023-04-08T07:47:46Z</begin><end>2023-04-08T07:47:47Z</end></TimeSpan><styleUrl>#point</styleUrl><Point><altitudeMode>clampToGround</altitudeMode><coordinates>30.409355359151959,-28.526759706437588,1264.27</coordinates></Point></Placemark><Placemark><TimeSpan><begin>2023-04-08T07:47:47Z</begin><end>2023-04-08T07:47:48Z</end></TimeSpan><styleUrl>#point</styleUrl><Point><altitudeMode>clampToGround</altitudeMode><coordinates>30.409380672499537,-28.526565665379167,1264.27</coordinates></Point></Placemark><Placemark><TimeSpan><begin>2023-04-08T07:47:48Z</begin><end>2023-04-08T07:47:49Z</end></TimeSpan><styleUrl>#point</styleUrl><Point><altitudeMode>clampToGround</altitudeMode><coordinates>30.409444374963641,-28.526379000395536,1264.75</coordinates></Point></Placemark><Placemark><TimeSpan><begin>2023-04-08T07:47:49Z</begin><end>2023-04-08T07:47:50Z</end></TimeSpan><styleUrl>#point</styleUrl><Point><altitudeMode>clampToGround</altitudeMode><coordinates>30.409543197602034,-28.526207339018583,1265.23</coordinates></Point></Placemark><Placemark><TimeSpan><begin>2023-04-08T07:47:50Z</begin><end>2023-04-08T07:47:51Z</end></TimeSpan><styleUrl>#point</styleUrl><Point><altitudeMode>clampToGround</altitudeMode><coordinates>30.409675966948271,-28.526045065373182,1266.1900000000001</coordinates></Point></Placemark><Placemark><TimeSpan><begin>2023-04-08T07:47:51Z</begin><end>2023-04-08T07:47:52Z</end></TimeSpan><styleUrl>#point</styleUrl><Point><altitudeMode>clampToGround</altitudeMode><coordinates>30.409825164824724,-28.525887820869684,1266.6700000000001</coordinates></Point></Placemark><Placemark><TimeSpan><begin>2023-04-08T07:47:52Z</begin><end>2023-04-08T07:47:54Z</end></TimeSpan><styleUrl>#point</styleUrl><Point><altitudeMode>clampToGround</altitudeMode><coordinates>30.410083662718534,-28.525572828948498,1269.0799999999999</coordinates></Point></Placemark><Placemark><TimeSpan><begin>2023-04-08T07:47:54Z</begin><end>2023-04-08T07:47:55Z</end></TimeSpan><styleUrl>#point</styleUrl><Point><altitudeMode>clampToGround</altitudeMode><coordinates>30.410175360739231,-28.525406867265701,1270.04</coordinates></Point></Placemark><Placemark><TimeSpan><begin>2023-04-08T07:47:55Z</begin><end>2023-04-08T07:47:56Z</end></TimeSpan><styleUrl>#point</styleUrl><Point><altitudeMode>clampToGround</altitudeMode><coordinates>30.410246523097157,-28.525224644690752,1271</coordinates></Point></Placemark><Placemark><TimeSpan><begin>2023-04-08T07:47:56Z</begin><end>2023-04-08T07:47:57Z</end></TimeSpan><styleUrl>#point</styleUrl><Point><altitudeMode>clampToGround</altitudeMode><coordinates>30.410291869193316,-28.525043595582247,1272.4400000000001</coordinates></Point></Placemark><Placemark><TimeSpan><begin>2023-04-08T07:47:57Z</begin><end>2023-04-08T07:47:58Z</end></TimeSpan><styleUrl>#point</styleUrl><Point><altitudeMode>clampToGround</altitudeMode><coordinates>30.410312991589308,-28.524856427684426,1273.8800000000001</coordinates></Point></Placemark><Placemark><TimeSpan><begin>2023-04-08T07:47:58Z</begin><end>2023-04-08T07:47:59Z</end></TimeSpan><styleUrl>#point</styleUrl><Point><altitudeMode>clampToGround</altitudeMode><coordinates>30.410304190590978,-28.524667080491781,1275.3299999999999</coordinates></Point></Placemark><Placemark><TimeSpan><begin>2023-04-08T07:47:59Z</begin><end>2023-04-08T07:48:00Z</end></TimeSpan><styleUrl>#point</styleUrl><Point><altitudeMode>clampToGround</altitudeMode><coordinates>30.410271333530545,-28.524472704157233,1276.29</coordinates></Point></Placemark><Placemark><TimeSpan><begin>2023-04-08T07:48:00Z</begin><end>2023-04-08T07:48:01Z</end></TimeSpan><styleUrl>#point</styleUrl><Point><altitudeMode>clampToGround</altitudeMode><coordinates>30.410227412357926,-28.524276567623019,1277.73</coordinates></Point></Placemark><Placemark><TimeSpan><begin>2023-04-08T07:48:01Z</begin><end>2023-04-08T07:48:08Z</end></TimeSpan><styleUrl>#point</styleUrl><Point><altitudeMode>clampToGround</altitudeMode><coordinates>30.410109981894493,-28.522779811173677,1288.3</coordinates></Point></Placemark><Placemark><TimeSpan><begin>2023-04-08T07:48:08Z</begin><end>2023-04-08T07:48:17Z</end></TimeSpan><styleUrl>#point</styleUrl><Point><altitudeMode>clampToGround</altitudeMode><coordinates>30.410513738170266,-28.520671091973782,1303.6900000000001</coordinates></Point></Placemark><Placemark><TimeSpan><begin>2023-04-08T07:48:17Z</begin><end>2023-04-08T07:48:25Z</end></TimeSpan><styleUrl>#point</styleUrl><Point><altitudeMode>clampToGround</altitudeMode><coordinates>30.410554558038712,-28.518963363021612,1316.1800000000001</coordinates></Point></Placemark><Placemark><TimeSpan><begin>2023-04-08T07:48:25Z</begin><end>2023-04-08T07:48:27Z</end></TimeSpan><styleUrl>#point</styleUrl><Point><altitudeMode>clampToGround</altitudeMode><coordinates>30.410522036254406,-28.518556840717793,1319.55</coordinates></Point></Placemark><Placemark><TimeSpan><begin>2023-04-08T07:48:27Z</begin><end>2023-04-08T07:48:28Z</end></TimeSpan><styleUrl>#point</styleUrl><Point><altitudeMode>clampToGround</altitudeMode><coordinates>30.410545254126191,-28.518373612314463,1320.99</coordinates></Point></Placemark><Placemark><TimeSpan><begin>2023-04-08T07:48:28Z</begin><end>2023-04-08T07:48:29Z</end></TimeSpan><styleUrl>#point</styleUrl><Point><altitudeMode>clampToGround</altitudeMode><coordinates>30.410605687648058,-28.518201531842351,1322.4300000000001</coordinates></Point></Placemark><Placemark><TimeSpan><begin>2023-04-08T07:48:29Z</begin><end>2023-04-08T07:48:30Z</end></TimeSpan><styleUrl>#point</styleUrl><Point><altitudeMode>clampToGround</altitudeMode><coordinates>30.410701157525182,-28.518043616786599,1323.8699999999999</coordinates></Point></Placemark><Placemark><TimeSpan><begin>2023-04-08T07:48:30Z</begin><end>2023-04-08T07:48:31Z</end></TimeSpan><styleUrl>#point</styleUrl><Point><altitudeMode>clampToGround</altitudeMode><coordinates>30.410825209692121,-28.517896346747875,1325.3099999999999</coordinates></Point></Placemark><Placemark><TimeSpan><begin>2023-04-08T07:48:31Z</begin><end>2023-04-08T07:48:32Z</end></TimeSpan><styleUrl>#point</styleUrl><Point><altitudeMode>clampToGround</altitudeMode><coordinates>30.410963008180261,-28.517750920727849,1326.76</coordinates></Point></Placemark><Placemark><TimeSpan><begin>2023-04-08T07:48:32Z</begin><end>2023-04-08T07:48:34Z</end></TimeSpan><styleUrl>#point</styleUrl><Point><altitudeMode>clampToGround</altitudeMode><coordinates>30.411220164969563,-28.517434587702155,1330.1199999999999</coordinates></Point></Placemark><Placemark><TimeSpan><begin>2023-04-08T07:48:34Z</begin><end>2023-04-08T07:48:35Z</end></TimeSpan><styleUrl>#point</styleUrl><Point><altitudeMode>clampToGround</altitudeMode><coordinates>30.411320747807622,-28.517270302399993,1331.0799999999999</coordinates></Point></Placemark><Placemark><TimeSpan><begin>2023-04-08T07:48:35Z</begin><end>2023-04-08T07:48:36Z</end></TimeSpan><styleUrl>#point</styleUrl><Point><altitudeMode>clampToGround</altitudeMode><coordinates>30.411400627344847,-28.517113979905844,1332.52</coordinates></Point></Placemark><Placemark><TimeSpan><begin>2023-04-08T07:48:36Z</begin><end>2023-04-08T07:48:39Z</end></TimeSpan><styleUrl>#point</styleUrl><Point><altitudeMode>clampToGround</altitudeMode><coordinates>30.411598440259695,-28.516712570562959,1336.3699999999999</coordinates></Point></Placemark><Placemark><TimeSpan><begin>2023-04-08T07:48:39Z</begin><end>2023-04-08T07:48:40Z</end></TimeSpan><styleUrl>#point</styleUrl><Point><altitudeMode>clampToGround</altitudeMode><coordinates>30.41169005446136,-28.516605701297522,1337.8099999999999</coordinates></Point></Placemark><Placemark><TimeSpan><begin>2023-04-08T07:48:40Z</begin><end>2023-04-08T07:48:41Z</end></TimeSpan><styleUrl>#point</styleUrl><Point><altitudeMode>clampToGround</altitudeMode><coordinates>30.411792732775211,-28.516525905579329,1338.77</coordinates></Point></Placemark><Placemark><TimeSpan><begin>2023-04-08T07:48:41Z</begin><end>2023-04-08T07:48:42Z</end></TimeSpan><styleUrl>#point</styleUrl><Point><altitudeMode>clampToGround</altitudeMode><coordinates>30.411920305341482,-28.516455497592688,1339.73</coordinates></Point></Placemark><Placemark><TimeSpan><begin>2023-04-08T07:48:42Z</begin><end>2023-04-08T07:48:43Z</end></TimeSpan><styleUrl>#point</styleUrl><Point><altitudeMode>clampToGround</altitudeMode><coordinates>30.412065060809255,-28.516401182860136,1340.7</coordinates></Point></Placemark><Placemark><TimeSpan><begin>2023-04-08T07:48:43Z</begin><end>2023-04-08T07:48:44Z</end></TimeSpan><styleUrl>#point</styleUrl><Point><altitudeMode>clampToGround</altitudeMode><coordinates>30.412229681387544,-28.516365140676498,1341.6600000000001</coordinates></Point></Placemark><Placemark><TimeSpan><begin>2023-04-08T07:48:44Z</begin><end>2023-04-08T07:48:45Z</end></TimeSpan><styleUrl>#point</styleUrl><Point><altitudeMode>clampToGround</altitudeMode><coordinates>30.412400336936116,-28.516353573650122,1342.6199999999999</coordinates></Point></Placemark><Placemark><TimeSpan><begin>2023-04-08T07:48:45Z</begin><end>2023-04-08T07:48:46Z</end></TimeSpan><styleUrl>#point</styleUrl><Point><altitudeMode>clampToGround</altitudeMode><coordinates>30.412583984434605,-28.516360195353627,1343.0999999999999</coordinates></Point></Placemark><Placemark><TimeSpan><begin>2023-04-08T07:48:46Z</begin><end>2023-04-08T07:48:47Z</end></TimeSpan><styleUrl>#point</styleUrl><Point><altitudeMode>clampToGround</altitudeMode><coordinates>30.412771571427584,-28.51636765524745,1344.0599999999999</coordinates></Point></Placemark><Placemark><TimeSpan><begin>2023-04-08T07:48:47Z</begin><end>2023-04-08T07:48:48Z</end></TimeSpan><styleUrl>#point</styleUrl><Point><altitudeMode>clampToGround</altitudeMode><coordinates>30.412957817316055,-28.516362877562642,1344.54</coordinates></Point></Placemark><Placemark><TimeSpan><begin>2023-04-08T07:48:48Z</begin><end>2023-04-08T07:48:49Z</end></TimeSpan><styleUrl>#point</styleUrl><Point><altitudeMode>clampToGround</altitudeMode><coordinates>30.413139034062624,-28.516336809843779,1345.5</coordinates></Point></Placemark><Placemark><TimeSpan><begin>2023-04-08T07:48:49Z</begin><end>2023-04-08T07:48:50Z</end></TimeSpan><styleUrl>#point</styleUrl><Point><altitudeMode>clampToGround</altitudeMode><coordinates>30.413315976038575,-28.516290793195367,1346.46</coordinates></Point></Placemark><Placemark><TimeSpan><begin>2023-04-08T07:48:50Z</begin><end>2023-04-08T07:48:51Z</end></TimeSpan><styleUrl>#point</styleUrl><Point><altitudeMode>clampToGround</altitudeMode><coordinates>30.413490738719702,-28.516226168721914,1347.4300000000001</coordinates></Point></Placemark><Placemark><TimeSpan><begin>2023-04-08T07:48:51Z</begin><end>2023-04-08T07:48:52Z</end></TimeSpan><styleUrl>#point</styleUrl><Point><altitudeMode>clampToGround</altitudeMode><coordinates>30.413662232458591,-28.516146205365658,1347.9100000000001</coordinates></Point></Placemark><Placemark><TimeSpan><begin>2023-04-08T07:48:52Z</begin><end>2023-04-08T07:48:53Z</end></TimeSpan><styleUrl>#point</styleUrl><Point><altitudeMode>clampToGround</altitudeMode><coordinates>30.413830876350403,-28.516060458496213,1348.8699999999999</coordinates></Point></Placemark><Placemark><TimeSpan><begin>2023-04-08T07:48:53Z</begin><end>2023-04-08T07:48:54Z</end></TimeSpan><styleUrl>#point</styleUrl><Point><altitudeMode>clampToGround</altitudeMode><coordinates>30.414001531898975,-28.515987368300557,1349.8299999999999</coordinates></Point></Placemark><Placemark><TimeSpan><begin>2023-04-08T07:48:54Z</begin><end>2023-04-08T07:48:55Z</end></TimeSpan><styleUrl>#point</styleUrl><Point><altitudeMode>clampToGround</altitudeMode><coordinates>30.414177048951387,-28.515942357480526,1350.79</coordinates></Point></Placemark><Placemark><TimeSpan><begin>2023-04-08T07:48:55Z</begin><end>2023-04-08T07:48:56Z</end></TimeSpan><styleUrl>#point</styleUrl><Point><altitudeMode>clampToGround</altitudeMode><coordinates>30.414360109716654,-28.51592886261642,1352.23</coordinates></Point></Placemark><Placemark><TimeSpan><begin>2023-04-08T07:48:56Z</begin><end>2023-04-08T07:48:57Z</end></TimeSpan><styleUrl>#point</styleUrl><Point><altitudeMode>clampToGround</altitudeMode><coordinates>30.414550881832838,-28.515937998890877,1353.1900000000001</coordinates></Point></Placemark><Placemark><TimeSpan><begin>2023-04-08T07:48:57Z</begin><end>2023-04-08T07:48:58Z</end></TimeSpan><styleUrl>#point</styleUrl><Point><altitudeMode>clampToGround</altitudeMode><coordinates>30.414748527109623,-28.515956522896886,1354.6300000000001</coordinates></Point></Placemark><Placemark><TimeSpan><begin>2023-04-08T07:48:58Z</begin><end>2023-04-08T07:49:07Z</end></TimeSpan><styleUrl>#point</styleUrl><Point><altitudeMode>clampToGround</altitudeMode><coordinates>30.416519623249769,-28.516032127663493,1366.6500000000001</coordinates></Point></Placemark><Placemark><TimeSpan><begin>2023-04-08T07:49:07Z</begin><end>2023-04-08T07:49:08Z</end></TimeSpan><styleUrl>#point</styleUrl><Point><altitudeMode>clampToGround</altitudeMode><coordinates>30.416709557175636,-28.5160041321069,1368.0899999999999</coordinates></Point></Placemark><Placemark><TimeSpan><begin>2023-04-08T07:49:08Z</begin><end>2023-04-08T07:49:11Z</end></TimeSpan><styleUrl>#point</styleUrl><Point><altitudeMode>clampToGround</altitudeMode><coordinates>30.417280532419682,-28.515869686380029,1371.9400000000001</coordinates></Point></Placemark><Placemark><TimeSpan><begin>2023-04-08T07:49:11Z</begin><end>2023-04-08T07:49:12Z</end></TimeSpan><styleUrl>#point</styleUrl><Point><altitudeMode>clampToGround</altitudeMode><coordinates>30.417451439425349,-28.515802379697561,1372.9000000000001</coordinates></Point></Placemark><Placemark><TimeSpan><begin>2023-04-08T07:49:12Z</begin><end>2023-04-08T07:49:13Z</end></TimeSpan><styleUrl>#point</styleUrl><Point><altitudeMode>clampToGround</altitudeMode><coordinates>30.417611449956894,-28.515720572322607,1374.3399999999999</coordinates></Point></Placemark><Placemark><TimeSpan><begin>2023-04-08T07:49:13Z</begin><end>2023-04-08T07:49:14Z</end></TimeSpan><styleUrl>#point</styleUrl><Point><altitudeMode>clampToGround</altitudeMode><coordinates>30.417766934260726,-28.515625856816769,1375.78</coordinates></Point></Placemark><Placemark><TimeSpan><begin>2023-04-08T07:49:14Z</begin><end>2023-04-08T07:49:15Z</end></TimeSpan><styleUrl>#point</styleUrl><Point><altitudeMode>clampToGround</altitudeMode><coordinates>30.417918814346194,-28.51552133448422,1377.23</coordinates></Point></Placemark><Placemark><TimeSpan><begin>2023-04-08T07:49:15Z</begin><end>2023-04-08T07:49:16Z</end></TimeSpan><styleUrl>#point</styleUrl><Point><altitudeMode>clampToGround</altitudeMode><coordinates>30.418062815442681,-28.515409687533975,1378.1900000000001</coordinates></Point></Placemark><Placemark><TimeSpan><begin>2023-04-08T07:49:16Z</begin><end>2023-04-08T07:49:17Z</end></TimeSpan><styleUrl>#point</styleUrl><Point><altitudeMode>clampToGround</altitudeMode><coordinates>30.418193824589252,-28.515293598175049,1379.6300000000001</coordinates></Point></Placemark><Placemark><TimeSpan><begin>2023-04-08T07:49:17Z</begin><end>2023-04-08T07:49:18Z</end></TimeSpan><styleUrl>#point</styleUrl><Point><altitudeMode>clampToGround</altitudeMode><coordinates>30.418309746310115,-28.515174239873886,1381.0699999999999</coordinates></Point></Placemark><Placemark><TimeSpan><begin>2023-04-08T07:49:18Z</begin><end>2023-04-08T07:49:19Z</end></TimeSpan><styleUrl>#point</styleUrl><Point><altitudeMode>clampToGround</altitudeMode><coordinates>30.418411083519459,-28.515047170221806,1382.51</coordinates></Point></Placemark><Placemark><TimeSpan><begin>2023-04-08T07:49:19Z</begin><end>2023-04-08T07:49:20Z</end></TimeSpan><styleUrl>#point</styleUrl><Point><altitudeMode>clampToGround</altitudeMode><coordinates>30.41850152425468,-28.514906857162714,1383.47</coordinates></Point></Placemark><Placemark><TimeSpan><begin>2023-04-08T07:49:20Z</begin><end>2023-04-08T07:49:21Z</end></TimeSpan><styleUrl>#point</styleUrl><Point><altitudeMode>clampToGround</altitudeMode><coordinates>30.418584086000919,-28.514756569638848,1384.4400000000001</coordinates></Point></Placemark><Placemark><TimeSpan><begin>2023-04-08T07:49:21Z</begin><end>2023-04-08T07:49:25Z</end></TimeSpan><styleUrl>#point</styleUrl><Point><altitudeMode>clampToGround</altitudeMode><coordinates>30.41885825805366,-28.514136811718345,1389.24</coordinates></Point></Placemark><Placemark><TimeSpan><begin>2023-04-08T07:49:25Z</begin><end>2023-04-08T07:49:26Z</end></TimeSpan><styleUrl>#point</styleUrl><Point><altitudeMode>clampToGround</altitudeMode><coordinates>30.418893629685044,-28.513980489224195,1389.72</coordinates></Point></Placemark><Placemark><TimeSpan><begin>2023-04-08T07:49:26Z</begin><end>2023-04-08T07:49:27Z</end></TimeSpan><styleUrl>#point</styleUrl><Point><altitudeMode>clampToGround</altitudeMode><coordinates>30.418917182832956,-28.513817964121699,1391.1700000000001</coordinates></Point></Placemark><Placemark><TimeSpan><begin>2023-04-08T07:49:27Z</begin><end>2023-04-08T07:49:28Z</end></TimeSpan><styleUrl>#point</styleUrl><Point><altitudeMode>clampToGround</altitudeMode><coordinates>30.41892715729773,-28.513647224754095,1392.1300000000001</coordinates></Point></Placemark><Placemark><TimeSpan><begin>2023-04-08T07:49:28Z</begin><end>2023-04-08T07:49:29Z</end></TimeSpan><styleUrl>#point</styleUrl><Point><altitudeMode>clampToGround</altitudeMode><coordinates>30.418918859213591,-28.513467600569129,1393.0899999999999</coordinates></Point></Placemark><Placemark><TimeSpan><begin>2023-04-08T07:49:29Z</begin><end>2023-04-08T07:49:30Z</end></TimeSpan><styleUrl>#point</styleUrl><Point><altitudeMode>clampToGround</altitudeMode><coordinates>30.418892707675695,-28.513282025232911,1394.05</coordinates></Point></Placemark><Placemark><TimeSpan><begin>2023-04-08T07:49:30Z</begin><end>2023-04-08T07:49:31Z</end></TimeSpan><styleUrl>#point</styleUrl><Point><altitudeMode>clampToGround</altitudeMode><coordinates>30.418852306902409,-28.513090666383505,1395.49</coordinates></Point></Placemark><Placemark><TimeSpan><begin>2023-04-08T07:49:31Z</begin><end>2023-04-08T07:49:39Z</end></TimeSpan><styleUrl>#point</styleUrl><Point><altitudeMode>clampToGround</altitudeMode><coordinates>30.418378142639995,-28.511530458927155,1406.0699999999999</coordinates></Point></Placemark><Placemark><TimeSpan><begin>2023-04-08T07:49:39Z</begin><end>2023-04-08T07:49:47Z</end></TimeSpan><styleUrl>#point</styleUrl><Point><altitudeMode>clampToGround</altitudeMode><coordinates>30.41763131506741,-28.510047197341919,1410.3900000000001</coordinates></Point></Placemark><Placemark><TimeSpan><begin>2023-04-08T07:49:47Z</begin><end>2023-04-08T07:49:54Z</end></TimeSpan><styleUrl>#point</styleUrl><Point><altitudeMode>clampToGround</altitudeMode><coordinates>30.416882643476129,-28.508873814716935,1412.79</coordinates></Point></Placemark><Placemark><TimeSpan><begin>2023-04-08T07:49:54Z</begin><end>2023-04-08T07:49:55Z</end></TimeSpan><styleUrl>#point</styleUrl><Point><altitudeMode>clampToGround</altitudeMode><coordinates>30.416740402579308,-28.508749594911933,1413.28</coordinates></Point></Placemark><Placemark><TimeSpan><begin>2023-04-08T07:49:55Z</begin><end>2023-04-08T07:49:56Z</end></TimeSpan><styleUrl>#point</styleUrl><Point><altitudeMode>clampToGround</altitudeMode><coordinates>30.416578883305192,-28.508634762838483,1413.76</coordinates></Point></Placemark><Placemark><TimeSpan><begin>2023-04-08T07:49:56Z</begin><end>2023-04-08T07:49:57Z</end></TimeSpan><styleUrl>#point</styleUrl><Point><altitudeMode>clampToGround</altitudeMode><coordinates>30.416400851681828,-28.508530324324965,1414.24</coordinates></Point></Placemark><Placemark><TimeSpan><begin>2023-04-08T07:49:57Z</begin><end>2023-04-08T07:49:58Z</end></TimeSpan><styleUrl>#point</styleUrl><Point><altitudeMode>clampToGround</altitudeMode><coordinates>30.416214019060135,-28.508427394554019,1414.24</coordinates></Point></Placemark><Placemark><TimeSpan><begin>2023-04-08T07:49:58Z</begin><end>2023-04-08T07:50:01Z</end></TimeSpan><styleUrl>#point</styleUrl><Point><altitudeMode>clampToGround</altitudeMode><coordinates>30.415742117911577,-28.508102428168058,1416.1600000000001</coordinates></Point></Placemark><Placemark><TimeSpan><begin>2023-04-08T07:50:01Z</begin><end>2023-04-08T07:50:02Z</end></TimeSpan><styleUrl>#point</styleUrl><Point><altitudeMode>clampToGround</altitudeMode><coordinates>30.415624184533954,-28.507977873086929,1416.6400000000001</coordinates></Point></Placemark><Placemark><TimeSpan><begin>2023-04-08T07:50:02Z</begin><end>2023-04-08T07:50:03Z</end></TimeSpan><styleUrl>#point</styleUrl><Point><altitudeMode>clampToGround</altitudeMode><coordinates>30.415529636666179,-28.507838901132345,1417.5999999999999</coordinates></Point></Placemark><Placemark><TimeSpan><begin>2023-04-08T07:50:03Z</begin><end>2023-04-08T07:50:04Z</end></TimeSpan><styleUrl>#point</styleUrl><Point><altitudeMode>clampToGround</altitudeMode><coordinates>30.415453277528286,-28.507685512304306,1418.0799999999999</coordinates></Point></Placemark><Placemark><TimeSpan><begin>2023-04-08T07:50:04Z</begin><end>2023-04-08T07:50:05Z</end></TimeSpan><styleUrl>#point</styleUrl><Point><altitudeMode>clampToGround</altitudeMode><coordinates>30.415384545922279,-28.507520388811827,1419.04</coordinates></Point></Placemark><Placemark><TimeSpan><begin>2023-04-08T07:50:05Z</begin><end>2023-04-08T07:50:10Z</end></TimeSpan><styleUrl>#point</styleUrl><Point><altitudeMode>clampToGround</altitudeMode><coordinates>30.415130741894245,-28.506660908460617,1423.3699999999999</coordinates></Point></Placemark><Placemark><TimeSpan><begin>2023-04-08T07:50:10Z</begin><end>2023-04-08T07:50:11Z</end></TimeSpan><styleUrl>#point</styleUrl><Point><altitudeMode>clampToGround</altitudeMode><coordinates>30.415134597569704,-28.506510704755783,1423.8499999999999</coordinates></Point></Placemark><Placemark><TimeSpan><begin>2023-04-08T07:50:11Z</begin><end>2023-04-08T07:50:12Z</end></TimeSpan><styleUrl>#point</styleUrl><Point><altitudeMode>clampToGround</altitudeMode><coordinates>30.415166616439819,-28.506364021450281,1424.8099999999999</coordinates></Point></Placemark><Placemark><TimeSpan><begin>2023-04-08T07:50:12Z</begin><end>2023-04-08T07:50:13Z</end></TimeSpan><styleUrl>#point</styleUrl><Point><altitudeMode>clampToGround</altitudeMode><coordinates>30.415229061618447,-28.506221110001206,1425.29</coordinates></Point></Placemark><Placemark><TimeSpan><begin>2023-04-08T07:50:13Z</begin><end>2023-04-08T07:50:14Z</end></TimeSpan><styleUrl>#point</styleUrl><Point><altitudeMode>clampToGround</altitudeMode><coordinates>30.415316987782717,-28.506081299856305,1426.25</coordinates></Point></Placemark><Placemark><TimeSpan><begin>2023-04-08T07:50:14Z</begin><end>2023-04-08T07:50:15Z</end></TimeSpan><styleUrl>#point</styleUrl><Point><altitudeMode>clampToGround</altitudeMode><coordinates>30.415427461266518,-28.505939729511738,1426.73</coordinates></Point></Placemark><Placemark><TimeSpan><begin>2023-04-08T07:50:15Z</begin><end>2023-04-08T07:50:22Z</end></TimeSpan><styleUrl>#point</styleUrl><Point><altitudeMode>clampToGround</altitudeMode><coordinates>30.416205050423741,-28.504643049091101,1426.73</coordinates></Point></Placemark><Placemark><TimeSpan><begin>2023-04-08T07:50:22Z</begin><end>2023-04-08T07:50:28Z</end></TimeSpan><styleUrl>#point</styleUrl><Point><altitudeMode>clampToGround</altitudeMode><coordinates>30.416610231623054,-28.503446113318205,1425.77</coordinates></Point></Placemark><Placemark><TimeSpan><begin>2023-04-08T07:50:28Z</begin><end>2023-04-08T07:50:29Z</end></TimeSpan><styleUrl>#point</styleUrl><Point><altitudeMode>clampToGround</altitudeMode><coordinates>30.416629510000348,-28.503284929320216,1426.25</coordinates></Point></Placemark><Placemark><TimeSpan><begin>2023-04-08T07:50:29Z</begin><end>2023-04-08T07:50:30Z</end></TimeSpan><styleUrl>#point</styleUrl><Point><altitudeMode>clampToGround</altitudeMode><coordinates>30.416626073420048,-28.503133887425065,1426.25</coordinates></Point></Placemark><Placemark><TimeSpan><begin>2023-04-08T07:50:30Z</begin><end>2023-04-08T07:50:31Z</end></TimeSpan><styleUrl>#point</styleUrl><Point><altitudeMode>clampToGround</altitudeMode><coordinates>30.416596904397011,-28.502993239089847,1426.73</coordinates></Point></Placemark><Placemark><TimeSpan><begin>2023-04-08T07:50:31Z</begin><end>2023-04-08T07:50:32Z</end></TimeSpan><styleUrl>#point</styleUrl><Point><altitudeMode>clampToGround</altitudeMode><coordinates>30.416542757302523,-28.502866420894861,1427.21</coordinates></Point></Placemark><Placemark><TimeSpan><begin>2023-04-08T07:50:32Z</begin><end>2023-04-08T07:50:33Z</end></TimeSpan><styleUrl>#point</styleUrl><Point><altitudeMode>clampToGround</altitudeMode><coordinates>30.416474360972643,-28.502751924097538,1427.7</coordinates></Point></Placemark><Placemark><TimeSpan><begin>2023-04-08T07:50:33Z</begin><end>2023-04-08T07:50:34Z</end></TimeSpan><styleUrl>#point</styleUrl><Point><altitudeMode>clampToGround</altitudeMode><coordinates>30.416398756206036,-28.502638936042786,1428.1800000000001</coordinates></Point></Placemark><Placemark><TimeSpan><begin>2023-04-08T07:50:34Z</begin><end>2023-04-08T07:50:41Z</end></TimeSpan><styleUrl>#point</styleUrl><Point><altitudeMode>clampToGround</altitudeMode><coordinates>30.415715044364333,-28.501601256430149,1431.0599999999999</coordinates></Point></Placemark><Placemark><TimeSpan><begin>2023-04-08T07:50:41Z</begin><end>2023-04-08T07:50:49Z</end></TimeSpan><styleUrl>#point</styleUrl><Point><altitudeMode>clampToGround</altitudeMode><coordinates>30.414671916514635,-28.499953793361783,1436.8299999999999</coordinates></Point></Placemark><Placemark><TimeSpan><begin>2023-04-08T07:50:49Z</begin><end>2023-04-08T07:50:56Z</end></TimeSpan><styleUrl>#point</styleUrl><Point><altitudeMode>clampToGround</altitudeMode><coordinates>30.413916120305657,-28.498396603390574,1446.4400000000001</coordinates></Point></Placemark><Placemark><TimeSpan><begin>2023-04-08T07:50:56Z</begin><end>2023-04-08T07:51:04Z</end></TimeSpan><styleUrl>#point</styleUrl><Point><altitudeMode>clampToGround</altitudeMode><coordinates>30.413548657670617,-28.49677805788815,1462.3</coordinates></Point></Placemark><Placemark><TimeSpan><begin>2023-04-08T07:51:04Z</begin><end>2023-04-08T07:51:09Z</end></TimeSpan><styleUrl>#point</styleUrl><Point><altitudeMode>clampToGround</altitudeMode><coordinates>30.413305247202516,-28.49609493277967,1469.03</coordinates></Point></Placemark><Placemark><TimeSpan><begin>2023-04-08T07:51:09Z</begin><end>2023-04-08T07:51:10Z</end></TimeSpan><styleUrl>#point</styleUrl><Point><altitudeMode>clampToGround</altitudeMode><coordinates>30.413216566666961,-28.495965432375669,1469.99</coordinates></Point></Placemark><Placemark><TimeSpan><begin>2023-04-08T07:51:10Z</begin><end>2023-04-08T07:51:11Z</end></TimeSpan><styleUrl>#point</styleUrl><Point><altitudeMode>clampToGround</altitudeMode><coordinates>30.413103997707367,-28.495839284732938,1471.4400000000001</coordinates></Point></Placemark><Placemark><TimeSpan><begin>2023-04-08T07:51:11Z</begin><end>2023-04-08T07:51:12Z</end></TimeSpan><styleUrl>#point</styleUrl><Point><altitudeMode>clampToGround</altitudeMode><coordinates>30.412974413484335,-28.495726129040122,1472.4000000000001</coordinates></Point></Placemark><Placemark><TimeSpan><begin>2023-04-08T07:51:12Z</begin><end>2023-04-08T07:51:13Z</end></TimeSpan><styleUrl>#point</styleUrl><Point><altitudeMode>clampToGround</altitudeMode><coordinates>30.412823874503374,-28.495619259774685,1473.3599999999999</coordinates></Point></Placemark><Placemark><TimeSpan><begin>2023-04-08T07:51:13Z</begin><end>2023-04-08T07:51:14Z</end></TimeSpan><styleUrl>#point</styleUrl><Point><altitudeMode>clampToGround</altitudeMode><coordinates>30.412656320258975,-28.495514318346977,1474.3199999999999</coordinates></Point></Placemark><Placemark><TimeSpan><begin>2023-04-08T07:51:14Z</begin><end>2023-04-08T07:51:22Z</end></TimeSpan><styleUrl>#point</styleUrl><Point><altitudeMode>clampToGround</altitudeMode><coordinates>30.411334661766887,-28.494700435549021,1483.9300000000001</coordinates></Point></Placemark><Placemark><TimeSpan><begin>2023-04-08T07:51:22Z</begin><end>2023-04-08T07:51:25Z</end></TimeSpan><styleUrl>#point</styleUrl><Point><altitudeMode>clampToGround</altitudeMode><coordinates>30.410987650975585,-28.494454259052873,1487.3</coordinates></Point></Placemark><Placemark><TimeSpan><begin>2023-04-08T07:51:25Z</begin><end>2023-04-08T07:51:26Z</end></TimeSpan><styleUrl>#point</styleUrl><Point><altitudeMode>clampToGround</altitudeMode><coordinates>30.410881955176592,-28.494349736720324,1488.26</coordinates></Point></Placemark><Placemark><TimeSpan><begin>2023-04-08T07:51:26Z</begin><end>2023-04-08T07:51:27Z</end></TimeSpan><styleUrl>#point</styleUrl><Point><altitudeMode>clampToGround</altitudeMode><coordinates>30.410786066204309,-28.494227025657892,1488.74</coordinates></Point></Placemark><Placemark><TimeSpan><begin>2023-04-08T07:51:27Z</begin><end>2023-04-08T07:51:28Z</end></TimeSpan><styleUrl>#point</styleUrl><Point><altitudeMode>clampToGround</altitudeMode><coordinates>30.410704929381609,-28.494091490283608,1489.7</coordinates></Point></Placemark><Placemark><TimeSpan><begin>2023-04-08T07:51:28Z</begin><end>2023-04-08T07:51:29Z</end></TimeSpan><styleUrl>#point</styleUrl><Point><altitudeMode>clampToGround</altitudeMode><coordinates>30.410636281594634,-28.493943465873599,1490.6600000000001</coordinates></Point></Placemark><Placemark><TimeSpan><begin>2023-04-08T07:51:29Z</begin><end>2023-04-08T07:51:30Z</end></TimeSpan><styleUrl>#point</styleUrl><Point><altitudeMode>clampToGround</altitudeMode><coordinates>30.41057844646275,-28.493793932721019,1492.0999999999999</coordinates></Point></Placemark><Placemark><TimeSpan><begin>2023-04-08T07:51:30Z</begin><end>2023-04-08T07:51:33Z</end></TimeSpan><styleUrl>#point</styleUrl><Point><altitudeMode>clampToGround</altitudeMode><coordinates>30.410475768148899,-28.493400905281305,1494.51</coordinates></Point></Placemark><Placemark><TimeSpan><begin>2023-04-08T07:51:33Z</begin><end>2023-04-08T07:51:34Z</end></TimeSpan><styleUrl>#point</styleUrl><Point><altitudeMode>clampToGround</altitudeMode><coordinates>30.410476103425026,-28.49327358417213,1495.47</coordinates></Point></Placemark><Placemark><TimeSpan><begin>2023-04-08T07:51:34Z</begin><end>2023-04-08T07:51:35Z</end></TimeSpan><styleUrl>#point</styleUrl><Point><altitudeMode>clampToGround</altitudeMode><coordinates>30.410499069839716,-28.493150537833571,1495.95</coordinates></Point></Placemark><Placemark><TimeSpan><begin>2023-04-08T07:51:35Z</begin><end>2023-04-08T07:51:36Z</end></TimeSpan><styleUrl>#point</styleUrl><Point><altitudeMode>clampToGround</altitudeMode><coordinates>30.410548355430365,-28.49303025752306,1496.9100000000001</coordinates></Point></Placemark><Placemark><TimeSpan><begin>2023-04-08T07:51:36Z</begin><end>2023-04-08T07:51:37Z</end></TimeSpan><styleUrl>#point</styleUrl><Point><altitudeMode>clampToGround</altitudeMode><coordinates>30.410626055672765,-28.492914503440261,1497.3900000000001</coordinates></Point></Placemark><Placemark><TimeSpan><begin>2023-04-08T07:51:37Z</begin><end>2023-04-08T07:51:38Z</end></TimeSpan><styleUrl>#point</styleUrl><Point><altitudeMode>clampToGround</altitudeMode><coordinates>30.410728231072426,-28.492812663316727,1498.3499999999999</coordinates></Point></Placemark><Placemark><TimeSpan><begin>2023-04-08T07:51:38Z</begin><end>2023-04-08T07:51:39Z</end></TimeSpan><styleUrl>#point</styleUrl><Point><altitudeMode>clampToGround</altitudeMode><coordinates>30.410855384543538,-28.492720881476998,1499.3099999999999</coordinates></Point></Placemark><Placemark><TimeSpan><begin>2023-04-08T07:51:39Z</begin><end>2023-04-08T07:51:40Z</end></TimeSpan><styleUrl>#point</styleUrl><Point><altitudeMode>clampToGround</altitudeMode><coordinates>30.411000307649374,-28.492641169577837,1500.27</coordinates></Point></Placemark><Placemark><TimeSpan><begin>2023-04-08T07:51:40Z</begin><end>2023-04-08T07:51:41Z</end></TimeSpan><styleUrl>#point</styleUrl><Point><altitudeMode>clampToGround</altitudeMode><coordinates>30.411154786124825,-28.492578137665987,1500.76</coordinates></Point></Placemark><Placemark><TimeSpan><begin>2023-04-08T07:51:41Z</begin><end>2023-04-08T07:51:42Z</end></TimeSpan><styleUrl>#point</styleUrl><Point><altitudeMode>clampToGround</altitudeMode><coordinates>30.411322927102447,-28.492535473778844,1502.2</coordinates></Point></Placemark><Placemark><TimeSpan><begin>2023-04-08T07:51:42Z</begin><end>2023-04-08T07:51:43Z</end></TimeSpan><styleUrl>#point</styleUrl><Point><altitudeMode>clampToGround</altitudeMode><coordinates>30.411502802744508,-28.492519212886691,1503.1600000000001</coordinates></Point></Placemark><Placemark><TimeSpan><begin>2023-04-08T07:51:43Z</begin><end>2023-04-08T07:51:44Z</end></TimeSpan><styleUrl>#point</styleUrl><Point><altitudeMode>clampToGround</altitudeMode><coordinates>30.411685109138489,-28.492528852075338,1504.1199999999999</coordinates></Point></Placemark><Placemark><TimeSpan><begin>2023-04-08T07:51:44Z</begin><end>2023-04-08T07:51:45Z</end></TimeSpan><styleUrl>#point</styleUrl><Point><altitudeMode>clampToGround</altitudeMode><coordinates>30.411872947588563,-28.492559781298041,1505.5599999999999</coordinates></Point></Placemark><Placemark><TimeSpan><begin>2023-04-08T07:51:45Z</begin><end>2023-04-08T07:51:46Z</end></TimeSpan><styleUrl>#point</styleUrl><Point><altitudeMode>clampToGround</altitudeMode><coordinates>30.41205994784832,-28.492603786289692,1506.52</coordinates></Point></Placemark><Placemark><TimeSpan><begin>2023-04-08T07:51:46Z</begin><end>2023-04-08T07:51:47Z</end></TimeSpan><styleUrl>#point</styleUrl><Point><altitudeMode>clampToGround</altitudeMode><coordinates>30.412233453243971,-28.492649886757135,1507.97</coordinates></Point></Placemark><Placemark><TimeSpan><begin>2023-04-08T07:51:47Z</begin><end>2023-04-08T07:51:49Z</end></TimeSpan><styleUrl>#point</styleUrl><Point><altitudeMode>clampToGround</altitudeMode><coordinates>30.412554815411568,-28.492719959467649,1510.3699999999999</coordinates></Point></Placemark><Placemark><TimeSpan><begin>2023-04-08T07:51:49Z</begin><end>2023-04-08T07:51:50Z</end></TimeSpan><styleUrl>#point</styleUrl><Point><altitudeMode>clampToGround</altitudeMode><coordinates>30.412696972489357,-28.492727000266314,1511.8099999999999</coordinates></Point></Placemark><Placemark><TimeSpan><begin>2023-04-08T07:51:50Z</begin><end>2023-04-08T07:51:51Z</end></TimeSpan><styleUrl>#point</styleUrl><Point><altitudeMode>clampToGround</altitudeMode><coordinates>30.412840973585844,-28.492712248116732,1512.77</coordinates></Point></Placemark><Placemark><TimeSpan><begin>2023-04-08T07:51:51Z</begin><end>2023-04-08T07:51:52Z</end></TimeSpan><styleUrl>#point</styleUrl><Point><altitudeMode>clampToGround</altitudeMode><coordinates>30.412989500910044,-28.492678217589855,1513.73</coordinates></Point></Placemark><Placemark><TimeSpan><begin>2023-04-08T07:51:52Z</begin><end>2023-04-08T07:51:53Z</end></TimeSpan><styleUrl>#point</styleUrl><Point><altitudeMode>clampToGround</altitudeMode><coordinates>30.41313442401588,-28.492625746876001,1514.6900000000001</coordinates></Point></Placemark><Placemark><TimeSpan><begin>2023-04-08T07:51:53Z</begin><end>2023-04-08T07:51:54Z</end></TimeSpan><styleUrl>#point</styleUrl><Point><altitudeMode>clampToGround</altitudeMode><coordinates>30.413276832550764,-28.492552656680346,1515.6600000000001</coordinates></Point></Placemark><Placemark><TimeSpan><begin>2023-04-08T07:51:54Z</begin><end>2023-04-08T07:51:55Z</end></TimeSpan><styleUrl>#point</styleUrl><Point><altitudeMode>clampToGround</altitudeMode><coordinates>30.413403986021876,-28.492458779364824,1516.6199999999999</coordinates></Point></Placemark><Placemark><TimeSpan><begin>2023-04-08T07:51:55Z</begin><end>2023-04-08T07:51:56Z</end></TimeSpan><styleUrl>#point</styleUrl><Point><altitudeMode>clampToGround</altitudeMode><coordinates>30.413503898307681,-28.492349395528436,1517.5799999999999</coordinates></Point></Placemark><Placemark><TimeSpan><begin>2023-04-08T07:51:56Z</begin><end>2023-04-08T07:51:57Z</end></TimeSpan><styleUrl>#point</styleUrl><Point><altitudeMode>clampToGround</altitudeMode><coordinates>30.413582604378462,-28.492229534313083,1518.54</coordinates></Point></Placemark><Placemark><TimeSpan><begin>2023-04-08T07:51:57Z</begin><end>2023-04-08T07:51:58Z</end></TimeSpan><styleUrl>#point</styleUrl><Point><altitudeMode>clampToGround</altitudeMode><coordinates>30.413651252165437,-28.492110846564174,1519.5</coordinates></Point></Placemark><Placemark><TimeSpan><begin>2023-04-08T07:51:58Z</begin><end>2023-04-08T07:52:08Z</end></TimeSpan><styleUrl>#point</styleUrl><Point><altitudeMode>clampToGround</altitudeMode><coordinates>30.414434624835849,-28.490800587460399,1530.0799999999999</coordinates></Point></Placemark><Placemark><TimeSpan><begin>2023-04-08T07:52:08Z</begin><end>2023-04-08T07:52:15Z</end></TimeSpan><styleUrl>#point</styleUrl><Point><altitudeMode>clampToGround</altitudeMode><coordinates>30.414966121315956,-28.489786460995674,1536.3199999999999</coordinates></Point></Placemark><Placemark><TimeSpan><begin>2023-04-08T07:52:15Z</begin><end>2023-04-08T07:52:25Z</end></TimeSpan><styleUrl>#point</styleUrl><Point><altitudeMode>clampToGround</altitudeMode><coordinates>30.415723090991378,-28.487783102318645,1545.9400000000001</coordinates></Point></Placemark><Placemark><TimeSpan><begin>2023-04-08T07:52:25Z</begin><end>2023-04-08T07:52:37Z</end></TimeSpan><styleUrl>#point</styleUrl><Point><altitudeMode>clampToGround</altitudeMode><coordinates>30.41677619330585,-28.485350087285042,1552.6700000000001</coordinates></Point></Placemark><Placemark><TimeSpan><begin>2023-04-08T07:52:37Z</begin><end>2023-04-08T07:52:43Z</end></TimeSpan><styleUrl>#point</styleUrl><Point><altitudeMode>clampToGround</altitudeMode><coordinates>30.417287824675441,-28.48446755670011,1554.5899999999999</coordinates></Point></Placemark><Placemark><TimeSpan><begin>2023-04-08T07:52:43Z</begin><end>2023-04-08T07:52:45Z</end></TimeSpan><styleUrl>#point</styleUrl><Point><altitudeMode>clampToGround</altitudeMode><coordinates>30.417395615950227,-28.484323555603623,1555.0699999999999</coordinates></Point></Placemark><Placemark><TimeSpan><begin>2023-04-08T07:52:45Z</begin><end>2023-04-08T07:52:46Z</end></TimeSpan><styleUrl>#point</styleUrl><Point><altitudeMode>clampToGround</altitudeMode><coordinates>30.417450936511159,-28.484286339953542,1555.0699999999999</coordinates></Point></Placemark><Placemark><TimeSpan><begin>2023-04-08T07:52:46Z</begin><end>2023-04-08T07:52:47Z</end></TimeSpan><styleUrl>#point</styleUrl><Point><altitudeMode>clampToGround</altitudeMode><coordinates>30.417512627318501,-28.484264044091105,1555.0699999999999</coordinates></Point></Placemark></Folder><Placemark><name>[347] Helpmekaar Pass (North)</name><Style><LineStyle><color>ff00ff00</color><width>4</width></LineStyle></Style><MultiGeometry><LineString><coordinates>30.418182676658034,-28.544843327254057,1123.4400000000001 30.418432205915451,-28.543552681803703,1128.24 30.418823305517435,-28.541431473568082,1134.49 30.419145002961159,-28.540028342977166,1135.9400000000001 30.419235024601221,-28.539871517568827,1136.4200000000001 30.419351533055305,-28.539725337177515,1136.9000000000001 30.419488241896033,-28.539588963612914,1137.3800000000001 30.419642804190516,-28.539460888132453,1138.3399999999999 30.419811196625233,-28.539341362193227,1139.78 30.41998403146863,-28.539238683879375,1140.74 30.420171786099672,-28.539149919524789,1142.1800000000001 30.420368257910013,-28.539077751338482,1143.6300000000001 30.420562718063593,-28.539025951176882,1145.0699999999999 30.420745611190796,-28.538996363058686,1146.03 30.420918446034193,-28.538994770497084,1146.99 30.421070326119661,-28.539022598415613,1147.95 30.421215500682592,-28.539078002795577,1148.9100000000001 30.421350449323654,-28.539151092991233,1149.8699999999999 30.42147827334702,-28.539235666394234,1150.8399999999999 30.421611377969384,-28.539325436577201,1151.8 30.422858353704214,-28.540263371542096,1161.4100000000001 30.423769131302834,-28.540926212444901,1169.5799999999999 30.423919167369604,-28.540965523570776,1171.02 30.424068113788962,-28.540977761149406,1171.98 30.424218652769923,-28.54096376337111,1172.95 30.424370616674423,-28.54092369787395,1174.3900000000001 30.424528531730175,-28.540867120027542,1175.8299999999999 30.424690805375576,-28.540801908820868,1176.79 30.426073987036943,-28.540228251367807,1187.8499999999999 30.426191333681345,-28.540134290233254,1189.29 30.426289821043611,-28.540023062378168,1190.25 30.426364419981837,-28.53989515453577,1191.6900000000001 30.426410436630249,-28.539754925295711,1192.6500000000001 30.426431559026241,-28.539603380486369,1194.0899999999999 30.426435163244605,-28.539441106840968,1195.54 30.426428792998195,-28.539274977520108,1196.98 30.426408844068646,-28.539109686389565,1197.9400000000001 30.426361318677664,-28.53894623927772,1199.3800000000001 30.426287138834596,-28.538783881813288,1200.3399999999999 30.425503682345152,-28.53745543397963,1207.0699999999999 30.42449165135622,-28.535781735554338,1214.76 30.423943139612675,-28.535138675943017,1219.0899999999999 30.423204191029072,-28.534282715991139,1223.4200000000001 30.422093169763684,-28.533155936747789,1232.0699999999999 30.420946273952723,-28.532142648473382,1238.3199999999999 30.420748712494969,-28.532041227445006,1238.8 30.420535393059254,-28.53195782750845,1239.28 30.420311093330383,-28.531889179721475,1239.76 30.420083105564117,-28.531829500570893,1240.24 30.417302157729864,-28.531137071549892,1249.3699999999999 30.415249764919281,-28.530590487644076,1255.1400000000001 30.414577536284924,-28.530371552333236,1257.0599999999999 30.41363381780684,-28.529982967302203,1258.5 30.412098839879036,-28.529166569933295,1259.9400000000001 30.410160860046744,-28.528138780966401,1263.79 30.409832624718547,-28.527870811522007,1263.79 30.409687198698521,-28.527713399380445,1263.79 30.409566750749946,-28.527544420212507,1263.79 30.409471783787012,-28.527357336133718,1263.79 30.409402130171657,-28.527157595381141,1263.79 30.409362986683846,-28.526960033923388,1263.79 30.409355359151959,-28.526759706437588,1264.27 30.409380672499537,-28.526565665379167,1264.27 30.409444374963641,-28.526379000395536,1264.75 30.409543197602034,-28.526207339018583,1265.23 30.409675966948271,-28.526045065373182,1266.1900000000001 30.409825164824724,-28.525887820869684,1266.6700000000001 30.410083662718534,-28.525572828948498,1269.0799999999999 30.410175360739231,-28.525406867265701,1270.04 30.410246523097157,-28.525224644690752,1271 30.410291869193316,-28.525043595582247,1272.4400000000001 30.410312991589308,-28.524856427684426,1273.8800000000001 30.410304190590978,-28.524667080491781,1275.3299999999999 30.410271333530545,-28.524472704157233,1276.29 30.410227412357926,-28.524276567623019,1277.73 30.410109981894493,-28.522779811173677,1288.3 30.410513738170266,-28.520671091973782,1303.6900000000001 30.410554558038712,-28.518963363021612,1316.1800000000001 30.410522036254406,-28.518556840717793,1319.55 30.410545254126191,-28.518373612314463,1320.99 30.410605687648058,-28.518201531842351,1322.4300000000001 30.410701157525182,-28.518043616786599,1323.8699999999999 30.410825209692121,-28.517896346747875,1325.3099999999999 30.410963008180261,-28.517750920727849,1326.76 30.411220164969563,-28.517434587702155,1330.1199999999999 30.411320747807622,-28.517270302399993,1331.0799999999999 30.411400627344847,-28.517113979905844,1332.52 30.411598440259695,-28.516712570562959,1336.3699999999999 30.41169005446136,-28.516605701297522,1337.8099999999999 30.411792732775211,-28.516525905579329,1338.77 30.411920305341482,-28.516455497592688,1339.73 30.412065060809255,-28.516401182860136,1340.7 30.412229681387544,-28.516365140676498,1341.6600000000001 30.412400336936116,-28.516353573650122,1342.6199999999999 30.412583984434605,-28.516360195353627,1343.0999999999999 30.412771571427584,-28.51636765524745,1344.0599999999999 30.412957817316055,-28.516362877562642,1344.54 30.413139034062624,-28.516336809843779,1345.5 30.413315976038575,-28.516290793195367,1346.46 30.413490738719702,-28.516226168721914,1347.4300000000001 30.413662232458591,-28.516146205365658,1347.9100000000001 30.413830876350403,-28.516060458496213,1348.8699999999999 30.414001531898975,-28.515987368300557,1349.8299999999999 30.414177048951387,-28.515942357480526,1350.79 30.414360109716654,-28.51592886261642,1352.23 30.414550881832838,-28.515937998890877,1353.1900000000001 30.414748527109623,-28.515956522896886,1354.6300000000001 30.416519623249769,-28.516032127663493,1366.6500000000001 30.416709557175636,-28.5160041321069,1368.0899999999999 30.417280532419682,-28.515869686380029,1371.9400000000001 30.417451439425349,-28.515802379697561,1372.9000000000001 30.417611449956894,-28.515720572322607,1374.3399999999999 30.417766934260726,-28.515625856816769,1375.78 30.417918814346194,-28.51552133448422,1377.23 30.418062815442681,-28.515409687533975,1378.1900000000001 30.418193824589252,-28.515293598175049,1379.6300000000001 30.418309746310115,-28.515174239873886,1381.0699999999999 30.418411083519459,-28.515047170221806,1382.51 30.41850152425468,-28.514906857162714,1383.47 30.418584086000919,-28.514756569638848,1384.4400000000001 30.41885825805366,-28.514136811718345,1389.24 30.418893629685044,-28.513980489224195,1389.72 30.418917182832956,-28.513817964121699,1391.1700000000001 30.41892715729773,-28.513647224754095,1392.1300000000001 30.418918859213591,-28.513467600569129,1393.0899999999999 30.418892707675695,-28.513282025232911,1394.05 30.418852306902409,-28.513090666383505,1395.49 30.418378142639995,-28.511530458927155,1406.0699999999999 30.41763131506741,-28.510047197341919,1410.3900000000001 30.416882643476129,-28.508873814716935,1412.79 30.416740402579308,-28.508749594911933,1413.28 30.416578883305192,-28.508634762838483,1413.76 30.416400851681828,-28.508530324324965,1414.24 30.416214019060135,-28.508427394554019,1414.24 30.415742117911577,-28.508102428168058,1416.1600000000001 30.415624184533954,-28.507977873086929,1416.6400000000001 30.415529636666179,-28.507838901132345,1417.5999999999999 30.415453277528286,-28.507685512304306,1418.0799999999999 30.415384545922279,-28.507520388811827,1419.04 30.415130741894245,-28.506660908460617,1423.3699999999999 30.415134597569704,-28.506510704755783,1423.8499999999999 30.415166616439819,-28.506364021450281,1424.8099999999999 30.415229061618447,-28.506221110001206,1425.29 30.415316987782717,-28.506081299856305,1426.25 30.415427461266518,-28.505939729511738,1426.73 30.416205050423741,-28.504643049091101,1426.73 30.416610231623054,-28.503446113318205,1425.77 30.416629510000348,-28.503284929320216,1426.25 30.416626073420048,-28.503133887425065,1426.25 30.416596904397011,-28.502993239089847,1426.73 30.416542757302523,-28.502866420894861,1427.21 30.416474360972643,-28.502751924097538,1427.7 30.416398756206036,-28.502638936042786,1428.1800000000001 30.415715044364333,-28.501601256430149,1431.0599999999999 30.414671916514635,-28.499953793361783,1436.8299999999999 30.413916120305657,-28.498396603390574,1446.4400000000001 30.413548657670617,-28.49677805788815,1462.3 30.413305247202516,-28.49609493277967,1469.03 30.413216566666961,-28.495965432375669,1469.99 30.413103997707367,-28.495839284732938,1471.4400000000001 30.412974413484335,-28.495726129040122,1472.4000000000001 30.412823874503374,-28.495619259774685,1473.3599999999999 30.412656320258975,-28.495514318346977,1474.3199999999999 30.411334661766887,-28.494700435549021,1483.9300000000001 30.410987650975585,-28.494454259052873,1487.3 30.410881955176592,-28.494349736720324,1488.26 30.410786066204309,-28.494227025657892,1488.74 30.410704929381609,-28.494091490283608,1489.7 30.410636281594634,-28.493943465873599,1490.6600000000001 30.41057844646275,-28.493793932721019,1492.0999999999999 30.410475768148899,-28.493400905281305,1494.51 30.410476103425026,-28.49327358417213,1495.47 30.410499069839716,-28.493150537833571,1495.95 30.410548355430365,-28.49303025752306,1496.9100000000001 30.410626055672765,-28.492914503440261,1497.3900000000001 30.410728231072426,-28.492812663316727,1498.3499999999999 30.410855384543538,-28.492720881476998,1499.3099999999999 30.411000307649374,-28.492641169577837,1500.27 30.411154786124825,-28.492578137665987,1500.76 30.411322927102447,-28.492535473778844,1502.2 30.411502802744508,-28.492519212886691,1503.1600000000001 30.411685109138489,-28.492528852075338,1504.1199999999999 30.411872947588563,-28.492559781298041,1505.5599999999999 30.41205994784832,-28.492603786289692,1506.52 30.412233453243971,-28.492649886757135,1507.97 30.412554815411568,-28.492719959467649,1510.3699999999999 30.412696972489357,-28.492727000266314,1511.8099999999999 30.412840973585844,-28.492712248116732,1512.77 30.412989500910044,-28.492678217589855,1513.73 30.41313442401588,-28.492625746876001,1514.6900000000001 30.413276832550764,-28.492552656680346,1515.6600000000001 30.413403986021876,-28.492458779364824,1516.6199999999999 30.413503898307681,-28.492349395528436,1517.5799999999999 30.413582604378462,-28.492229534313083,1518.54 30.413651252165437,-28.492110846564174,1519.5 30.414434624835849,-28.490800587460399,1530.0799999999999 30.414966121315956,-28.489786460995674,1536.3199999999999 30.415723090991378,-28.487783102318645,1545.9400000000001 30.41677619330585,-28.485350087285042,1552.6700000000001 30.417287824675441,-28.48446755670011,1554.5899999999999 30.417395615950227,-28.484323555603623,1555.0699999999999 30.417450936511159,-28.484286339953542,1555.0699999999999 30.417512627318501,-28.484264044091105,1555.0699999999999 </coordinates></LineString></MultiGeometry></Placemark></Folder></Folder></Document></kml>