<?xml version="1.0" encoding="utf-8"?><kml xmlns="http://www.opengis.net/kml/2.2" xmlns:xsi="http://www.w3.org/2001/XMLSchema-instance" xmlns:kmlx="http://www.google.com/kml/ext/2.2" xmlns:atom="http://www.w3.org/2005/Atom" xmlns:gpxx="http://www.garmin.com/xmlschemas/GpxExtensions/v3"><Document><Style id="point"><IconStyle><scale>0.9</scale><Icon><href>http://maps.google.com/mapfiles/kml/shapes/placemark_circle.png</href></Icon></IconStyle></Style><Folder><name>Tracks</name><Folder><name>[348] Mayaba Pass (South)</name><Folder><name>Points</name><Style><ListStyle><listItemType>checkHideChildren</listItemType></ListStyle></Style><Placemark><TimeSpan><begin>2023-04-08T06:56:53Z</begin><end>2023-04-08T06:56:53Z</end></TimeSpan><Style><IconStyle><scale>0.9</scale><Icon><href>http://connect.garmin.com/image/main/icons/kml/grn-play.png</href></Icon></IconStyle></Style><Point><altitudeMode>clampToGround</altitudeMode><coordinates>30.443831132724881,-28.759417366236448,553.86000000000001</coordinates></Point></Placemark><Placemark><TimeSpan><begin>2023-04-08T06:56:53Z</begin><end>2023-04-08T06:56:54Z</end></TimeSpan><styleUrl>#point</styleUrl><Point><altitudeMode>clampToGround</altitudeMode><coordinates>30.443915287032723,-28.759592548012733,553.86000000000001</coordinates></Point></Placemark><Placemark><TimeSpan><begin>2023-04-08T06:56:54Z</begin><end>2023-04-08T06:57:01Z</end></TimeSpan><styleUrl>#point</styleUrl><Point><altitudeMode>clampToGround</altitudeMode><coordinates>30.44427864253521,-28.76061899587512,555.29999999999995</coordinates></Point></Placemark><Placemark><TimeSpan><begin>2023-04-08T06:57:01Z</begin><end>2023-04-08T06:57:05Z</end></TimeSpan><styleUrl>#point</styleUrl><Point><altitudeMode>clampToGround</altitudeMode><coordinates>30.444415686652064,-28.761153928935528,557.22000000000003</coordinates></Point></Placemark><Placemark><TimeSpan><begin>2023-04-08T06:57:05Z</begin><end>2023-04-08T06:57:06Z</end></TimeSpan><styleUrl>#point</styleUrl><Point><altitudeMode>clampToGround</altitudeMode><coordinates>30.444486429914832,-28.761302120983601,557.70000000000005</coordinates></Point></Placemark><Placemark><TimeSpan><begin>2023-04-08T06:57:06Z</begin><end>2023-04-08T06:57:14Z</end></TimeSpan><styleUrl>#point</styleUrl><Point><altitudeMode>clampToGround</altitudeMode><coordinates>30.445342473685741,-28.762649092823267,563.47000000000003</coordinates></Point></Placemark><Placemark><TimeSpan><begin>2023-04-08T06:57:14Z</begin><end>2023-04-08T06:57:22Z</end></TimeSpan><styleUrl>#point</styleUrl><Point><altitudeMode>clampToGround</altitudeMode><coordinates>30.445982264354825,-28.763602618128061,567.79999999999995</coordinates></Point></Placemark><Placemark><TimeSpan><begin>2023-04-08T06:57:22Z</begin><end>2023-04-08T06:57:30Z</end></TimeSpan><styleUrl>#point</styleUrl><Point><altitudeMode>clampToGround</altitudeMode><coordinates>30.446732193231583,-28.764822436496615,575.00999999999999</coordinates></Point></Placemark><Placemark><TimeSpan><begin>2023-04-08T06:57:30Z</begin><end>2023-04-08T06:57:39Z</end></TimeSpan><styleUrl>#point</styleUrl><Point><altitudeMode>clampToGround</altitudeMode><coordinates>30.447555547580123,-28.766444502398372,592.78999999999996</coordinates></Point></Placemark><Placemark><TimeSpan><begin>2023-04-08T06:57:39Z</begin><end>2023-04-08T06:57:40Z</end></TimeSpan><styleUrl>#point</styleUrl><Point><altitudeMode>clampToGround</altitudeMode><coordinates>30.447590500116348,-28.766615744680166,594.71000000000004</coordinates></Point></Placemark><Placemark><TimeSpan><begin>2023-04-08T06:57:40Z</begin><end>2023-04-08T06:57:41Z</end></TimeSpan><styleUrl>#point</styleUrl><Point><altitudeMode>clampToGround</altitudeMode><coordinates>30.447601731866598,-28.766789585351944,596.63999999999999</coordinates></Point></Placemark><Placemark><TimeSpan><begin>2023-04-08T06:57:41Z</begin><end>2023-04-08T06:57:42Z</end></TimeSpan><styleUrl>#point</styleUrl><Point><altitudeMode>clampToGround</altitudeMode><coordinates>30.447593349963427,-28.766967449337244,599.03999999999996</coordinates></Point></Placemark><Placemark><TimeSpan><begin>2023-04-08T06:57:42Z</begin><end>2023-04-08T06:57:43Z</end></TimeSpan><styleUrl>#point</styleUrl><Point><altitudeMode>clampToGround</altitudeMode><coordinates>30.447563929483294,-28.767144894227386,600.96000000000004</coordinates></Point></Placemark><Placemark><TimeSpan><begin>2023-04-08T06:57:43Z</begin><end>2023-04-08T06:57:44Z</end></TimeSpan><styleUrl>#point</styleUrl><Point><altitudeMode>clampToGround</altitudeMode><coordinates>30.447504501789808,-28.767324686050415,602.88</coordinates></Point></Placemark><Placemark><TimeSpan><begin>2023-04-08T06:57:44Z</begin><end>2023-04-08T06:57:45Z</end></TimeSpan><styleUrl>#point</styleUrl><Point><altitudeMode>clampToGround</altitudeMode><coordinates>30.447412384673953,-28.767501879483461,605.28999999999996</coordinates></Point></Placemark><Placemark><TimeSpan><begin>2023-04-08T06:57:45Z</begin><end>2023-04-08T06:57:46Z</end></TimeSpan><styleUrl>#point</styleUrl><Point><altitudeMode>clampToGround</altitudeMode><coordinates>30.447303419932723,-28.767651244997978,607.21000000000004</coordinates></Point></Placemark><Placemark><TimeSpan><begin>2023-04-08T06:57:46Z</begin><end>2023-04-08T06:57:47Z</end></TimeSpan><styleUrl>#point</styleUrl><Point><altitudeMode>clampToGround</altitudeMode><coordinates>30.44716939330101,-28.767799520865083,609.13</coordinates></Point></Placemark><Placemark><TimeSpan><begin>2023-04-08T06:57:47Z</begin><end>2023-04-08T06:57:48Z</end></TimeSpan><styleUrl>#point</styleUrl><Point><altitudeMode>clampToGround</altitudeMode><coordinates>30.447010975331068,-28.767949640750885,611.05999999999995</coordinates></Point></Placemark><Placemark><TimeSpan><begin>2023-04-08T06:57:48Z</begin><end>2023-04-08T06:57:56Z</end></TimeSpan><styleUrl>#point</styleUrl><Point><altitudeMode>clampToGround</altitudeMode><coordinates>30.446167001500726,-28.768908195197582,623.54999999999995</coordinates></Point></Placemark><Placemark><TimeSpan><begin>2023-04-08T06:57:56Z</begin><end>2023-04-08T06:57:59Z</end></TimeSpan><styleUrl>#point</styleUrl><Point><altitudeMode>clampToGround</altitudeMode><coordinates>30.445950413122773,-28.769353358075023,627.39999999999998</coordinates></Point></Placemark><Placemark><TimeSpan><begin>2023-04-08T06:57:59Z</begin><end>2023-04-08T06:58:00Z</end></TimeSpan><styleUrl>#point</styleUrl><Point><altitudeMode>clampToGround</altitudeMode><coordinates>30.445917472243309,-28.769516050815582,628.36000000000001</coordinates></Point></Placemark><Placemark><TimeSpan><begin>2023-04-08T06:58:00Z</begin><end>2023-04-08T06:58:01Z</end></TimeSpan><styleUrl>#point</styleUrl><Point><altitudeMode>clampToGround</altitudeMode><coordinates>30.445909509435296,-28.769683437421918,629.79999999999995</coordinates></Point></Placemark><Placemark><TimeSpan><begin>2023-04-08T06:58:01Z</begin><end>2023-04-08T06:58:02Z</end></TimeSpan><styleUrl>#point</styleUrl><Point><altitudeMode>clampToGround</altitudeMode><coordinates>30.445922501385212,-28.769856691360474,630.75999999999999</coordinates></Point></Placemark><Placemark><TimeSpan><begin>2023-04-08T06:58:02Z</begin><end>2023-04-08T06:58:03Z</end></TimeSpan><styleUrl>#point</styleUrl><Point><altitudeMode>clampToGround</altitudeMode><coordinates>30.445946641266346,-28.770037824288011,632.20000000000005</coordinates></Point></Placemark><Placemark><TimeSpan><begin>2023-04-08T06:58:03Z</begin><end>2023-04-08T06:58:10Z</end></TimeSpan><styleUrl>#point</styleUrl><Point><altitudeMode>clampToGround</altitudeMode><coordinates>30.446294322609901,-28.771221181377769,640.86000000000001</coordinates></Point></Placemark><Placemark><TimeSpan><begin>2023-04-08T06:58:10Z</begin><end>2023-04-08T06:58:17Z</end></TimeSpan><styleUrl>#point</styleUrl><Point><altitudeMode>clampToGround</altitudeMode><coordinates>30.446943836286664,-28.772263219580054,650.47000000000003</coordinates></Point></Placemark><Placemark><TimeSpan><begin>2023-04-08T06:58:17Z</begin><end>2023-04-08T06:58:19Z</end></TimeSpan><styleUrl>#point</styleUrl><Point><altitudeMode>clampToGround</altitudeMode><coordinates>30.447180708870292,-28.772586509585381,652.38999999999999</coordinates></Point></Placemark><Placemark><TimeSpan><begin>2023-04-08T06:58:19Z</begin><end>2023-04-08T06:58:26Z</end></TimeSpan><styleUrl>#point</styleUrl><Point><altitudeMode>clampToGround</altitudeMode><coordinates>30.447885794565082,-28.773575909435749,660.55999999999995</coordinates></Point></Placemark><Placemark><TimeSpan><begin>2023-04-08T06:58:26Z</begin><end>2023-04-08T06:58:33Z</end></TimeSpan><styleUrl>#point</styleUrl><Point><altitudeMode>clampToGround</altitudeMode><coordinates>30.448427516967058,-28.774838978424668,664.88999999999999</coordinates></Point></Placemark><Placemark><TimeSpan><begin>2023-04-08T06:58:33Z</begin><end>2023-04-08T06:58:41Z</end></TimeSpan><styleUrl>#point</styleUrl><Point><altitudeMode>clampToGround</altitudeMode><coordinates>30.44916981831193,-28.776498008519411,671.62</coordinates></Point></Placemark><Placemark><TimeSpan><begin>2023-04-08T06:58:41Z</begin><end>2023-04-08T06:58:49Z</end></TimeSpan><styleUrl>#point</styleUrl><Point><altitudeMode>clampToGround</altitudeMode><coordinates>30.449857469648123,-28.777789073064923,680.75</coordinates></Point></Placemark><Placemark><TimeSpan><begin>2023-04-08T06:58:49Z</begin><end>2023-04-08T06:58:56Z</end></TimeSpan><styleUrl>#point</styleUrl><Point><altitudeMode>clampToGround</altitudeMode><coordinates>30.450284695252776,-28.779020542278886,692.76999999999998</coordinates></Point></Placemark><Placemark><TimeSpan><begin>2023-04-08T06:58:56Z</begin><end>2023-04-08T06:59:02Z</end></TimeSpan><styleUrl>#point</styleUrl><Point><altitudeMode>clampToGround</altitudeMode><coordinates>30.450382847338915,-28.780241869390011,703.82000000000005</coordinates></Point></Placemark><Placemark><TimeSpan><begin>2023-04-08T06:59:02Z</begin><end>2023-04-08T06:59:09Z</end></TimeSpan><styleUrl>#point</styleUrl><Point><altitudeMode>clampToGround</altitudeMode><coordinates>30.450183022767305,-28.781752120703459,719.67999999999995</coordinates></Point></Placemark><Placemark><TimeSpan><begin>2023-04-08T06:59:09Z</begin><end>2023-04-08T06:59:10Z</end></TimeSpan><styleUrl>#point</styleUrl><Point><altitudeMode>clampToGround</altitudeMode><coordinates>30.450188471004367,-28.781957728788257,721.61000000000001</coordinates></Point></Placemark><Placemark><TimeSpan><begin>2023-04-08T06:59:10Z</begin><end>2023-04-08T06:59:11Z</end></TimeSpan><styleUrl>#point</styleUrl><Point><altitudeMode>clampToGround</altitudeMode><coordinates>30.450213029980659,-28.782183537259698,724.00999999999999</coordinates></Point></Placemark><Placemark><TimeSpan><begin>2023-04-08T06:59:11Z</begin><end>2023-04-08T06:59:20Z</end></TimeSpan><styleUrl>#point</styleUrl><Point><altitudeMode>clampToGround</altitudeMode><coordinates>30.450629694387317,-28.784201145172119,742.27999999999997</coordinates></Point></Placemark><Placemark><TimeSpan><begin>2023-04-08T06:59:20Z</begin><end>2023-04-08T06:59:31Z</end></TimeSpan><styleUrl>#point</styleUrl><Point><altitudeMode>clampToGround</altitudeMode><coordinates>30.451280800625682,-28.786845216527581,771.11000000000001</coordinates></Point></Placemark><Placemark><TimeSpan><begin>2023-04-08T06:59:31Z</begin><end>2023-04-08T06:59:37Z</end></TimeSpan><styleUrl>#point</styleUrl><Point><altitudeMode>clampToGround</altitudeMode><coordinates>30.451626973226666,-28.787963781505823,785.52999999999997</coordinates></Point></Placemark><Placemark><TimeSpan><begin>2023-04-08T06:59:37Z</begin><end>2023-04-08T06:59:38Z</end></TimeSpan><styleUrl>#point</styleUrl><Point><altitudeMode>clampToGround</altitudeMode><coordinates>30.451712384819984,-28.788108620792627,787.46000000000004</coordinates></Point></Placemark><Placemark><TimeSpan><begin>2023-04-08T06:59:38Z</begin><end>2023-04-08T06:59:39Z</end></TimeSpan><styleUrl>#point</styleUrl><Point><altitudeMode>clampToGround</altitudeMode><coordinates>30.451810704544187,-28.788234181702137,788.89999999999998</coordinates></Point></Placemark><Placemark><TimeSpan><begin>2023-04-08T06:59:39Z</begin><end>2023-04-08T06:59:40Z</end></TimeSpan><styleUrl>#point</styleUrl><Point><altitudeMode>clampToGround</altitudeMode><coordinates>30.451930314302444,-28.788339793682098,791.29999999999995</coordinates></Point></Placemark><Placemark><TimeSpan><begin>2023-04-08T06:59:40Z</begin><end>2023-04-08T06:59:41Z</end></TimeSpan><styleUrl>#point</styleUrl><Point><altitudeMode>clampToGround</altitudeMode><coordinates>30.452049672603607,-28.788405759260058,792.74000000000001</coordinates></Point></Placemark><Placemark><TimeSpan><begin>2023-04-08T06:59:41Z</begin><end>2023-04-08T06:59:42Z</end></TimeSpan><styleUrl>#point</styleUrl><Point><altitudeMode>clampToGround</altitudeMode><coordinates>30.452197277918458,-28.788452865555882,794.19000000000005</coordinates></Point></Placemark><Placemark><TimeSpan><begin>2023-04-08T06:59:42Z</begin><end>2023-04-08T06:59:43Z</end></TimeSpan><styleUrl>#point</styleUrl><Point><altitudeMode>clampToGround</altitudeMode><coordinates>30.452360808849335,-28.788477424532175,795.14999999999998</coordinates></Point></Placemark><Placemark><TimeSpan><begin>2023-04-08T06:59:43Z</begin><end>2023-04-08T06:59:44Z</end></TimeSpan><styleUrl>#point</styleUrl><Point><altitudeMode>clampToGround</altitudeMode><coordinates>30.45253649353981,-28.788490919396281,795.63</coordinates></Point></Placemark><Placemark><TimeSpan><begin>2023-04-08T06:59:44Z</begin><end>2023-04-08T06:59:51Z</end></TimeSpan><styleUrl>#point</styleUrl><Point><altitudeMode>clampToGround</altitudeMode><coordinates>30.453877095133066,-28.78879819996655,795.14999999999998</coordinates></Point></Placemark><Placemark><TimeSpan><begin>2023-04-08T06:59:51Z</begin><end>2023-04-08T06:59:58Z</end></TimeSpan><styleUrl>#point</styleUrl><Point><altitudeMode>clampToGround</altitudeMode><coordinates>30.455250721424818,-28.789611244574189,802.36000000000001</coordinates></Point></Placemark><Placemark><TimeSpan><begin>2023-04-08T06:59:58Z</begin><end>2023-04-08T07:00:02Z</end></TimeSpan><styleUrl>#point</styleUrl><Point><altitudeMode>clampToGround</altitudeMode><coordinates>30.455956058576703,-28.790017096325755,809.09000000000003</coordinates></Point></Placemark><Placemark><TimeSpan><begin>2023-04-08T07:00:02Z</begin><end>2023-04-08T07:00:03Z</end></TimeSpan><styleUrl>#point</styleUrl><Point><altitudeMode>clampToGround</altitudeMode><coordinates>30.456078853458166,-28.790131760761142,810.52999999999997</coordinates></Point></Placemark><Placemark><TimeSpan><begin>2023-04-08T07:00:03Z</begin><end>2023-04-08T07:00:04Z</end></TimeSpan><styleUrl>#point</styleUrl><Point><altitudeMode>clampToGround</altitudeMode><coordinates>30.456174574792385,-28.790262518450618,811.49000000000001</coordinates></Point></Placemark><Placemark><TimeSpan><begin>2023-04-08T07:00:04Z</begin><end>2023-04-08T07:00:05Z</end></TimeSpan><styleUrl>#point</styleUrl><Point><altitudeMode>clampToGround</altitudeMode><coordinates>30.456243054941297,-28.790404843166471,812.92999999999995</coordinates></Point></Placemark><Placemark><TimeSpan><begin>2023-04-08T07:00:05Z</begin><end>2023-04-08T07:00:06Z</end></TimeSpan><styleUrl>#point</styleUrl><Point><altitudeMode>clampToGround</altitudeMode><coordinates>30.45629502274096,-28.790561333298683,814.37</coordinates></Point></Placemark><Placemark><TimeSpan><begin>2023-04-08T07:00:06Z</begin><end>2023-04-08T07:00:07Z</end></TimeSpan><styleUrl>#point</styleUrl><Point><altitudeMode>clampToGround</altitudeMode><coordinates>30.456341626122594,-28.790748501196504,815.82000000000005</coordinates></Point></Placemark><Placemark><TimeSpan><begin>2023-04-08T07:00:07Z</begin><end>2023-04-08T07:00:15Z</end></TimeSpan><styleUrl>#point</styleUrl><Point><altitudeMode>clampToGround</altitudeMode><coordinates>30.456838924437761,-28.792223799973726,830.24000000000001</coordinates></Point></Placemark><Placemark><TimeSpan><begin>2023-04-08T07:00:15Z</begin><end>2023-04-08T07:00:22Z</end></TimeSpan><styleUrl>#point</styleUrl><Point><altitudeMode>clampToGround</altitudeMode><coordinates>30.457102032378316,-28.793773865327239,846.10000000000002</coordinates></Point></Placemark><Placemark><TimeSpan><begin>2023-04-08T07:00:22Z</begin><end>2023-04-08T07:00:27Z</end></TimeSpan><styleUrl>#point</styleUrl><Point><altitudeMode>clampToGround</altitudeMode><coordinates>30.457186102867126,-28.794866697862744,860.03999999999996</coordinates></Point></Placemark><Placemark><TimeSpan><begin>2023-04-08T07:00:27Z</begin><end>2023-04-08T07:00:28Z</end></TimeSpan><styleUrl>#point</styleUrl><Point><altitudeMode>clampToGround</altitudeMode><coordinates>30.457173781469464,-28.795069791376591,862.44000000000005</coordinates></Point></Placemark><Placemark><TimeSpan><begin>2023-04-08T07:00:28Z</begin><end>2023-04-08T07:00:29Z</end></TimeSpan><styleUrl>#point</styleUrl><Point><altitudeMode>clampToGround</altitudeMode><coordinates>30.457139667123556,-28.795273555442691,865.32000000000005</coordinates></Point></Placemark><Placemark><TimeSpan><begin>2023-04-08T07:00:29Z</begin><end>2023-04-08T07:00:37Z</end></TimeSpan><styleUrl>#point</styleUrl><Point><altitudeMode>clampToGround</altitudeMode><coordinates>30.456546144559979,-28.79697298631072,888.39999999999998</coordinates></Point></Placemark><Placemark><TimeSpan><begin>2023-04-08T07:00:37Z</begin><end>2023-04-08T07:00:44Z</end></TimeSpan><styleUrl>#point</styleUrl><Point><altitudeMode>clampToGround</altitudeMode><coordinates>30.455760508775711,-28.798362873494625,910.02999999999997</coordinates></Point></Placemark><Placemark><TimeSpan><begin>2023-04-08T07:00:44Z</begin><end>2023-04-08T07:00:45Z</end></TimeSpan><styleUrl>#point</styleUrl><Point><altitudeMode>clampToGround</altitudeMode><coordinates>30.455641653388739,-28.798489272594452,912.42999999999995</coordinates></Point></Placemark><Placemark><TimeSpan><begin>2023-04-08T07:00:45Z</begin><end>2023-04-08T07:00:47Z</end></TimeSpan><styleUrl>#point</styleUrl><Point><altitudeMode>clampToGround</altitudeMode><coordinates>30.455416180193424,-28.798698652535677,917.24000000000001</coordinates></Point></Placemark><Placemark><TimeSpan><begin>2023-04-08T07:00:47Z</begin><end>2023-04-08T07:00:48Z</end></TimeSpan><styleUrl>#point</styleUrl><Point><altitudeMode>clampToGround</altitudeMode><coordinates>30.455350046977401,-28.798793451860547,919.15999999999997</coordinates></Point></Placemark><Placemark><TimeSpan><begin>2023-04-08T07:00:48Z</begin><end>2023-04-08T07:00:49Z</end></TimeSpan><styleUrl>#point</styleUrl><Point><altitudeMode>clampToGround</altitudeMode><coordinates>30.455321716144681,-28.798894621431828,921.55999999999995</coordinates></Point></Placemark><Placemark><TimeSpan><begin>2023-04-08T07:00:49Z</begin><end>2023-04-08T07:00:50Z</end></TimeSpan><styleUrl>#point</styleUrl><Point><altitudeMode>clampToGround</altitudeMode><coordinates>30.455335881561041,-28.79900224506855,923.48000000000002</coordinates></Point></Placemark><Placemark><TimeSpan><begin>2023-04-08T07:00:50Z</begin><end>2023-04-08T07:00:51Z</end></TimeSpan><styleUrl>#point</styleUrl><Point><altitudeMode>clampToGround</altitudeMode><coordinates>30.4553881008178,-28.799104671925306,925.40999999999997</coordinates></Point></Placemark><Placemark><TimeSpan><begin>2023-04-08T07:00:51Z</begin><end>2023-04-08T07:00:52Z</end></TimeSpan><styleUrl>#point</styleUrl><Point><altitudeMode>clampToGround</altitudeMode><coordinates>30.45547560788691,-28.79920014180243,927.33000000000004</coordinates></Point></Placemark><Placemark><TimeSpan><begin>2023-04-08T07:00:52Z</begin><end>2023-04-08T07:00:53Z</end></TimeSpan><styleUrl>#point</styleUrl><Point><altitudeMode>clampToGround</altitudeMode><coordinates>30.455586081370711,-28.7992949411273,929.25</coordinates></Point></Placemark><Placemark><TimeSpan><begin>2023-04-08T07:00:53Z</begin><end>2023-04-08T07:00:54Z</end></TimeSpan><styleUrl>#point</styleUrl><Point><altitudeMode>clampToGround</altitudeMode><coordinates>30.455700242891908,-28.799402732402086,931.16999999999996</coordinates></Point></Placemark><Placemark><TimeSpan><begin>2023-04-08T07:00:54Z</begin><end>2023-04-08T07:00:55Z</end></TimeSpan><styleUrl>#point</styleUrl><Point><altitudeMode>clampToGround</altitudeMode><coordinates>30.455799736082554,-28.799532568082213,932.62</coordinates></Point></Placemark><Placemark><TimeSpan><begin>2023-04-08T07:00:55Z</begin><end>2023-04-08T07:00:56Z</end></TimeSpan><styleUrl>#point</styleUrl><Point><altitudeMode>clampToGround</altitudeMode><coordinates>30.455883136019111,-28.799680676311255,934.05999999999995</coordinates></Point></Placemark><Placemark><TimeSpan><begin>2023-04-08T07:00:56Z</begin><end>2023-04-08T07:00:57Z</end></TimeSpan><styleUrl>#point</styleUrl><Point><altitudeMode>clampToGround</altitudeMode><coordinates>30.45594859868288,-28.799841105937958,935.98000000000002</coordinates></Point></Placemark><Placemark><TimeSpan><begin>2023-04-08T07:00:57Z</begin><end>2023-04-08T07:00:58Z</end></TimeSpan><styleUrl>#point</styleUrl><Point><altitudeMode>clampToGround</altitudeMode><coordinates>30.456006517633796,-28.800014946609735,937.89999999999998</coordinates></Point></Placemark><Placemark><TimeSpan><begin>2023-04-08T07:00:58Z</begin><end>2023-04-08T07:01:01Z</end></TimeSpan><styleUrl>#point</styleUrl><Point><altitudeMode>clampToGround</altitudeMode><coordinates>30.456229308620095,-28.800540743395686,943.66999999999996</coordinates></Point></Placemark><Placemark><TimeSpan><begin>2023-04-08T07:01:01Z</begin><end>2023-04-08T07:01:02Z</end></TimeSpan><styleUrl>#point</styleUrl><Point><altitudeMode>clampToGround</altitudeMode><coordinates>30.456338608637452,-28.800714248791337,945.59000000000003</coordinates></Point></Placemark><Placemark><TimeSpan><begin>2023-04-08T07:01:02Z</begin><end>2023-04-08T07:01:06Z</end></TimeSpan><styleUrl>#point</styleUrl><Point><altitudeMode>clampToGround</altitudeMode><coordinates>30.456794500350952,-28.801456550136209,954.25</coordinates></Point></Placemark><Placemark><TimeSpan><begin>2023-04-08T07:01:06Z</begin><end>2023-04-08T07:01:09Z</end></TimeSpan><styleUrl>#point</styleUrl><Point><altitudeMode>clampToGround</altitudeMode><coordinates>30.457192724570632,-28.802029872313142,960.49000000000001</coordinates></Point></Placemark><Placemark><TimeSpan><begin>2023-04-08T07:01:09Z</begin><end>2023-04-08T07:01:14Z</end></TimeSpan><styleUrl>#point</styleUrl><Point><altitudeMode>clampToGround</altitudeMode><coordinates>30.4575708322227,-28.802770832553506,971.54999999999995</coordinates></Point></Placemark><Placemark><TimeSpan><begin>2023-04-08T07:01:14Z</begin><end>2023-04-08T07:01:15Z</end></TimeSpan><styleUrl>#point</styleUrl><Point><altitudeMode>clampToGround</altitudeMode><coordinates>30.457660686224699,-28.802859932184219,973.47000000000003</coordinates></Point></Placemark><Placemark><TimeSpan><begin>2023-04-08T07:01:15Z</begin><end>2023-04-08T07:01:16Z</end></TimeSpan><styleUrl>#point</styleUrl><Point><altitudeMode>clampToGround</altitudeMode><coordinates>30.457777949050069,-28.802922964096069,975.38999999999999</coordinates></Point></Placemark><Placemark><TimeSpan><begin>2023-04-08T07:01:16Z</begin><end>2023-04-08T07:01:17Z</end></TimeSpan><styleUrl>#point</styleUrl><Point><altitudeMode>clampToGround</altitudeMode><coordinates>30.457914909347892,-28.802957413718104,977.32000000000005</coordinates></Point></Placemark><Placemark><TimeSpan><begin>2023-04-08T07:01:17Z</begin><end>2023-04-08T07:01:18Z</end></TimeSpan><styleUrl>#point</styleUrl><Point><altitudeMode>clampToGround</altitudeMode><coordinates>30.458076512441039,-28.802977111190557,978.75999999999999</coordinates></Point></Placemark><Placemark><TimeSpan><begin>2023-04-08T07:01:18Z</begin><end>2023-04-08T07:01:19Z</end></TimeSpan><styleUrl>#point</styleUrl><Point><altitudeMode>clampToGround</altitudeMode><coordinates>30.458256723359227,-28.802990019321442,980.20000000000005</coordinates></Point></Placemark><Placemark><TimeSpan><begin>2023-04-08T07:01:19Z</begin><end>2023-04-08T07:01:26Z</end></TimeSpan><styleUrl>#point</styleUrl><Point><altitudeMode>clampToGround</altitudeMode><coordinates>30.459835371002555,-28.803210044279695,988.85000000000002</coordinates></Point></Placemark><Placemark><TimeSpan><begin>2023-04-08T07:01:26Z</begin><end>2023-04-08T07:01:32Z</end></TimeSpan><styleUrl>#point</styleUrl><Point><altitudeMode>clampToGround</altitudeMode><coordinates>30.46152968890965,-28.803259832784534,996.05999999999995</coordinates></Point></Placemark><Placemark><TimeSpan><begin>2023-04-08T07:01:32Z</begin><end>2023-04-08T07:01:34Z</end></TimeSpan><styleUrl>#point</styleUrl><Point><altitudeMode>clampToGround</altitudeMode><coordinates>30.462128492072225,-28.803267879411578,997.99000000000001</coordinates></Point></Placemark><Placemark><TimeSpan><begin>2023-04-08T07:01:34Z</begin><end>2023-04-08T07:01:35Z</end></TimeSpan><styleUrl>#point</styleUrl><Point><altitudeMode>clampToGround</altitudeMode><coordinates>30.46240727417171,-28.80324156023562,998.95000000000005</coordinates></Point></Placemark><Placemark><TimeSpan><begin>2023-04-08T07:01:35Z</begin><end>2023-04-08T07:01:36Z</end></TimeSpan><styleUrl>#point</styleUrl><Point><altitudeMode>clampToGround</altitudeMode><coordinates>30.462673986330628,-28.803215492516756,999.90999999999997</coordinates></Point></Placemark><Placemark><TimeSpan><begin>2023-04-08T07:01:36Z</begin><end>2023-04-08T07:01:37Z</end></TimeSpan><styleUrl>#point</styleUrl><Point><altitudeMode>clampToGround</altitudeMode><coordinates>30.462941871955991,-28.803211804479361,1001.35</coordinates></Point></Placemark><Placemark><TimeSpan><begin>2023-04-08T07:01:37Z</begin><end>2023-04-08T07:01:38Z</end></TimeSpan><styleUrl>#point</styleUrl><Point><altitudeMode>clampToGround</altitudeMode><coordinates>30.463203638792038,-28.803236531093717,1002.3099999999999</coordinates></Point></Placemark><Placemark><TimeSpan><begin>2023-04-08T07:01:38Z</begin><end>2023-04-08T07:01:39Z</end></TimeSpan><styleUrl>#point</styleUrl><Point><altitudeMode>clampToGround</altitudeMode><coordinates>30.463460460305214,-28.803285900503397,1003.75</coordinates></Point></Placemark><Placemark><TimeSpan><begin>2023-04-08T07:01:39Z</begin><end>2023-04-08T07:01:40Z</end></TimeSpan><styleUrl>#point</styleUrl><Point><altitudeMode>clampToGround</altitudeMode><coordinates>30.463712839409709,-28.803348680958152,1005.2</coordinates></Point></Placemark><Placemark><TimeSpan><begin>2023-04-08T07:01:40Z</begin><end>2023-04-08T07:01:42Z</end></TimeSpan><styleUrl>#point</styleUrl><Point><altitudeMode>clampToGround</altitudeMode><coordinates>30.464222794398665,-28.803443647921085,1008.08</coordinates></Point></Placemark><Placemark><TimeSpan><begin>2023-04-08T07:01:42Z</begin><end>2023-04-08T07:01:44Z</end></TimeSpan><styleUrl>#point</styleUrl><Point><altitudeMode>clampToGround</altitudeMode><coordinates>30.464717578142881,-28.803507434204221,1010.96</coordinates></Point></Placemark><Placemark><TimeSpan><begin>2023-04-08T07:01:44Z</begin><end>2023-04-08T07:01:45Z</end></TimeSpan><styleUrl>#point</styleUrl><Point><altitudeMode>clampToGround</altitudeMode><coordinates>30.464957132935524,-28.803570885211229,1012.41</coordinates></Point></Placemark><Placemark><TimeSpan><begin>2023-04-08T07:01:45Z</begin><end>2023-04-08T07:01:50Z</end></TimeSpan><styleUrl>#point</styleUrl><Point><altitudeMode>clampToGround</altitudeMode><coordinates>30.465978551656008,-28.804000960662961,1020.1</coordinates></Point></Placemark><Placemark><TimeSpan><begin>2023-04-08T07:01:50Z</begin><end>2023-04-08T07:01:51Z</end></TimeSpan><styleUrl>#point</styleUrl><Point><altitudeMode>clampToGround</altitudeMode><coordinates>30.466158175840974,-28.804051084443927,1021.54</coordinates></Point></Placemark><Placemark><TimeSpan><begin>2023-04-08T07:01:51Z</begin><end>2023-04-08T07:01:52Z</end></TimeSpan><styleUrl>#point</styleUrl><Point><altitudeMode>clampToGround</altitudeMode><coordinates>30.466341571882367,-28.804069356992841,1022.98</coordinates></Point></Placemark><Placemark><TimeSpan><begin>2023-04-08T07:01:52Z</begin><end>2023-04-08T07:01:53Z</end></TimeSpan><styleUrl>#point</styleUrl><Point><altitudeMode>clampToGround</altitudeMode><coordinates>30.466528823599219,-28.804053766652942,1024.4200000000001</coordinates></Point></Placemark><Placemark><TimeSpan><begin>2023-04-08T07:01:53Z</begin><end>2023-04-08T07:01:54Z</end></TimeSpan><styleUrl>#point</styleUrl><Point><altitudeMode>clampToGround</altitudeMode><coordinates>30.466723451390862,-28.804010599851608,1025.3800000000001</coordinates></Point></Placemark><Placemark><TimeSpan><begin>2023-04-08T07:01:54Z</begin><end>2023-04-08T07:01:55Z</end></TimeSpan><styleUrl>#point</styleUrl><Point><altitudeMode>clampToGround</altitudeMode><coordinates>30.46691975556314,-28.803960392251611,1026.8299999999999</coordinates></Point></Placemark><Placemark><TimeSpan><begin>2023-04-08T07:01:55Z</begin><end>2023-04-08T07:01:56Z</end></TimeSpan><styleUrl>#point</styleUrl><Point><altitudeMode>clampToGround</altitudeMode><coordinates>30.467134164646268,-28.803919488564134,1027.79</coordinates></Point></Placemark><Placemark><TimeSpan><begin>2023-04-08T07:01:56Z</begin><end>2023-04-08T07:01:57Z</end></TimeSpan><styleUrl>#point</styleUrl><Point><altitudeMode>clampToGround</altitudeMode><coordinates>30.467363577336073,-28.803894342854619,1029.23</coordinates></Point></Placemark><Placemark><TimeSpan><begin>2023-04-08T07:01:57Z</begin><end>2023-04-08T07:02:04Z</end></TimeSpan><styleUrl>#point</styleUrl><Point><altitudeMode>clampToGround</altitudeMode><coordinates>30.469134338200092,-28.80374095402658,1037.4000000000001</coordinates></Point></Placemark><Placemark><TimeSpan><begin>2023-04-08T07:02:04Z</begin><end>2023-04-08T07:02:05Z</end></TimeSpan><styleUrl>#point</styleUrl><Point><altitudeMode>clampToGround</altitudeMode><coordinates>30.469361823052168,-28.803667025640607,1038.3599999999999</coordinates></Point></Placemark><Placemark><TimeSpan><begin>2023-04-08T07:02:05Z</begin><end>2023-04-08T07:02:12Z</end></TimeSpan><styleUrl>#point</styleUrl><Point><altitudeMode>clampToGround</altitudeMode><coordinates>30.47096025198698,-28.803097978234291,1045.5699999999999</coordinates></Point></Placemark><Placemark><TimeSpan><begin>2023-04-08T07:02:12Z</begin><end>2023-04-08T07:02:13Z</end></TimeSpan><styleUrl>#point</styleUrl><Point><altitudeMode>clampToGround</altitudeMode><coordinates>30.471147168427706,-28.803050369024277,1046.53</coordinates></Point></Placemark><Placemark><TimeSpan><begin>2023-04-08T07:02:13Z</begin><end>2023-04-08T07:02:14Z</end></TimeSpan><styleUrl>#point</styleUrl><Point><altitudeMode>clampToGround</altitudeMode><coordinates>30.471323020756245,-28.803026983514428,1047.49</coordinates></Point></Placemark><Placemark><TimeSpan><begin>2023-04-08T07:02:14Z</begin><end>2023-04-08T07:02:15Z</end></TimeSpan><styleUrl>#point</styleUrl><Point><altitudeMode>clampToGround</altitudeMode><coordinates>30.471486384049058,-28.803026648238301,1048.45</coordinates></Point></Placemark><Placemark><TimeSpan><begin>2023-04-08T07:02:15Z</begin><end>2023-04-08T07:02:16Z</end></TimeSpan><styleUrl>#point</styleUrl><Point><altitudeMode>clampToGround</altitudeMode><coordinates>30.471634827554226,-28.803043831139803,1049.4200000000001</coordinates></Point></Placemark><Placemark><TimeSpan><begin>2023-04-08T07:02:16Z</begin><end>2023-04-08T07:02:17Z</end></TimeSpan><styleUrl>#point</styleUrl><Point><altitudeMode>clampToGround</altitudeMode><coordinates>30.471765920519829,-28.803072916343808,1050.3800000000001</coordinates></Point></Placemark><Placemark><TimeSpan><begin>2023-04-08T07:02:17Z</begin><end>2023-04-08T07:02:18Z</end></TimeSpan><styleUrl>#point</styleUrl><Point><altitudeMode>clampToGround</altitudeMode><coordinates>30.471877316012979,-28.803112395107746,1050.8599999999999</coordinates></Point></Placemark><Placemark><TimeSpan><begin>2023-04-08T07:02:18Z</begin><end>2023-04-08T07:02:19Z</end></TimeSpan><styleUrl>#point</styleUrl><Point><altitudeMode>clampToGround</altitudeMode><coordinates>30.4719711933285,-28.803156735375524,1051.3399999999999</coordinates></Point></Placemark><Placemark><TimeSpan><begin>2023-04-08T07:02:19Z</begin><end>2023-04-08T07:02:20Z</end></TimeSpan><styleUrl>#point</styleUrl><Point><altitudeMode>clampToGround</altitudeMode><coordinates>30.472048977389932,-28.80320250056684,1051.8199999999999</coordinates></Point></Placemark><Placemark><TimeSpan><begin>2023-04-08T07:02:20Z</begin><end>2023-04-08T07:02:21Z</end></TimeSpan><styleUrl>#point</styleUrl><Point><altitudeMode>clampToGround</altitudeMode><coordinates>30.472114020958543,-28.80324549973011,1051.8199999999999</coordinates></Point></Placemark><Placemark><TimeSpan><begin>2023-04-08T07:02:21Z</begin><end>2023-04-08T07:02:24Z</end></TimeSpan><styleUrl>#point</styleUrl><Point><altitudeMode>clampToGround</altitudeMode><coordinates>30.47224385663867,-28.803351446986198,1052.78</coordinates></Point></Placemark><Placemark><TimeSpan><begin>2023-04-08T07:02:24Z</begin><end>2023-04-08T07:02:30Z</end></TimeSpan><styleUrl>#point</styleUrl><Point><altitudeMode>clampToGround</altitudeMode><coordinates>30.472566056996584,-28.803688064217567,1053.74</coordinates></Point></Placemark><Placemark><TimeSpan><begin>2023-04-08T07:02:30Z</begin><end>2023-04-08T07:02:31Z</end></TimeSpan><styleUrl>#point</styleUrl><Point><altitudeMode>clampToGround</altitudeMode><coordinates>30.47261324711144,-28.803767524659634,1053.74</coordinates></Point></Placemark><Placemark><TimeSpan><begin>2023-04-08T07:02:31Z</begin><end>2023-04-08T07:02:32Z</end></TimeSpan><styleUrl>#point</styleUrl><Point><altitudeMode>clampToGround</altitudeMode><coordinates>30.472653899341822,-28.803862659260631,1053.26</coordinates></Point></Placemark><Placemark><TimeSpan><begin>2023-04-08T07:02:32Z</begin><end>2023-04-08T07:02:38Z</end></TimeSpan><styleUrl>#point</styleUrl><Point><altitudeMode>clampToGround</altitudeMode><coordinates>30.472942655906081,-28.804650893434882,1048.9400000000001</coordinates></Point></Placemark><Placemark><TimeSpan><begin>2023-04-08T07:02:38Z</begin><end>2023-04-08T07:02:39Z</end></TimeSpan><styleUrl>#point</styleUrl><Point><altitudeMode>clampToGround</altitudeMode><coordinates>30.472953217104077,-28.804805874824524,1047.49</coordinates></Point></Placemark><Placemark><TimeSpan><begin>2023-04-08T07:02:39Z</begin><end>2023-04-08T07:02:40Z</end></TimeSpan><styleUrl>#point</styleUrl><Point><altitudeMode>clampToGround</altitudeMode><coordinates>30.472937542945147,-28.80495666526258,1046.05</coordinates></Point></Placemark><Placemark><TimeSpan><begin>2023-04-08T07:02:40Z</begin><end>2023-04-08T07:02:43Z</end></TimeSpan><styleUrl>#point</styleUrl><Point><altitudeMode>clampToGround</altitudeMode><coordinates>30.472878869622946,-28.80538372322917,1041.73</coordinates></Point></Placemark><Placemark><TimeSpan><begin>2023-04-08T07:02:43Z</begin><end>2023-04-08T07:02:44Z</end></TimeSpan><styleUrl>#point</styleUrl><Point><altitudeMode>clampToGround</altitudeMode><coordinates>30.472896806895733,-28.80551666021347,1039.8</coordinates></Point></Placemark><Placemark><TimeSpan><begin>2023-04-08T07:02:44Z</begin><end>2023-04-08T07:02:45Z</end></TimeSpan><styleUrl>#point</styleUrl><Point><altitudeMode>clampToGround</altitudeMode><coordinates>30.472943661734462,-28.805643226951361,1038.3599999999999</coordinates></Point></Placemark><Placemark><TimeSpan><begin>2023-04-08T07:02:45Z</begin><end>2023-04-08T07:02:46Z</end></TimeSpan><styleUrl>#point</styleUrl><Point><altitudeMode>clampToGround</altitudeMode><coordinates>30.473017925396562,-28.805759232491255,1036.4400000000001</coordinates></Point></Placemark><Placemark><TimeSpan><begin>2023-04-08T07:02:46Z</begin><end>2023-04-08T07:02:47Z</end></TimeSpan><styleUrl>#point</styleUrl><Point><altitudeMode>clampToGround</altitudeMode><coordinates>30.473122280091047,-28.805866437032819,1035</coordinates></Point></Placemark><Placemark><TimeSpan><begin>2023-04-08T07:02:47Z</begin><end>2023-04-08T07:02:48Z</end></TimeSpan><styleUrl>#point</styleUrl><Point><altitudeMode>clampToGround</altitudeMode><coordinates>30.473259659484029,-28.805962661281228,1032.5899999999999</coordinates></Point></Placemark><Placemark><TimeSpan><begin>2023-04-08T07:02:48Z</begin><end>2023-04-08T07:02:49Z</end></TimeSpan><styleUrl>#point</styleUrl><Point><altitudeMode>clampToGround</altitudeMode><coordinates>30.473424950614572,-28.806035416200757,1030.1900000000001</coordinates></Point></Placemark><Placemark><TimeSpan><begin>2023-04-08T07:02:49Z</begin><end>2023-04-08T07:02:50Z</end></TimeSpan><styleUrl>#point</styleUrl><Point><altitudeMode>clampToGround</altitudeMode><coordinates>30.473612369969487,-28.806079505011439,1027.79</coordinates></Point></Placemark><Placemark><TimeSpan><begin>2023-04-08T07:02:50Z</begin><end>2023-04-08T07:02:51Z</end></TimeSpan><styleUrl>#point</styleUrl><Point><altitudeMode>clampToGround</altitudeMode><coordinates>30.473815212026238,-28.806097945198417,1025.8599999999999</coordinates></Point></Placemark><Placemark><TimeSpan><begin>2023-04-08T07:02:51Z</begin><end>2023-04-08T07:02:52Z</end></TimeSpan><styleUrl>#point</styleUrl><Point><altitudeMode>clampToGround</altitudeMode><coordinates>30.474030375480652,-28.806108087301254,1023.46</coordinates></Point></Placemark><Placemark><TimeSpan><begin>2023-04-08T07:02:52Z</begin><end>2023-04-08T07:02:53Z</end></TimeSpan><styleUrl>#point</styleUrl><Point><altitudeMode>clampToGround</altitudeMode><coordinates>30.474259788170457,-28.806133819743991,1021.54</coordinates></Point></Placemark><Placemark><TimeSpan><begin>2023-04-08T07:02:53Z</begin><end>2023-04-08T07:02:54Z</end></TimeSpan><styleUrl>#point</styleUrl><Point><altitudeMode>clampToGround</altitudeMode><coordinates>30.474484842270613,-28.806184781715274,1019.13</coordinates></Point></Placemark><Placemark><TimeSpan><begin>2023-04-08T07:02:54Z</begin><end>2023-04-08T07:02:55Z</end></TimeSpan><styleUrl>#point</styleUrl><Point><altitudeMode>clampToGround</altitudeMode><coordinates>30.47468357719481,-28.806249490007758,1017.21</coordinates></Point></Placemark><Placemark><TimeSpan><begin>2023-04-08T07:02:55Z</begin><end>2023-04-08T07:03:03Z</end></TimeSpan><styleUrl>#point</styleUrl><Point><altitudeMode>clampToGround</altitudeMode><coordinates>30.476315533742309,-28.806915432214737,1004.23</coordinates></Point></Placemark><Placemark><TimeSpan><begin>2023-04-08T07:03:03Z</begin><end>2023-04-08T07:03:04Z</end></TimeSpan><styleUrl>#point</styleUrl><Point><altitudeMode>clampToGround</altitudeMode><coordinates>30.476476466283202,-28.807020457461476,1002.79</coordinates></Point></Placemark><Placemark><TimeSpan><begin>2023-04-08T07:03:04Z</begin><end>2023-04-08T07:03:09Z</end></TimeSpan><styleUrl>#point</styleUrl><Point><altitudeMode>clampToGround</altitudeMode><coordinates>30.477182809263468,-28.807642981410027,996.05999999999995</coordinates></Point></Placemark><Placemark><TimeSpan><begin>2023-04-08T07:03:09Z</begin><end>2023-04-08T07:03:10Z</end></TimeSpan><styleUrl>#point</styleUrl><Point><altitudeMode>clampToGround</altitudeMode><coordinates>30.47728062607348,-28.807789999991655,994.62</coordinates></Point></Placemark><Placemark><TimeSpan><begin>2023-04-08T07:03:10Z</begin><end>2023-04-08T07:03:11Z</end></TimeSpan><styleUrl>#point</styleUrl><Point><altitudeMode>clampToGround</altitudeMode><coordinates>30.477357571944594,-28.807948417961597,993.65999999999997</coordinates></Point></Placemark><Placemark><TimeSpan><begin>2023-04-08T07:03:11Z</begin><end>2023-04-08T07:03:12Z</end></TimeSpan><styleUrl>#point</styleUrl><Point><altitudeMode>clampToGround</altitudeMode><coordinates>30.477416161447763,-28.808115217834711,992.22000000000003</coordinates></Point></Placemark><Placemark><TimeSpan><begin>2023-04-08T07:03:12Z</begin><end>2023-04-08T07:03:13Z</end></TimeSpan><styleUrl>#point</styleUrl><Point><altitudeMode>clampToGround</altitudeMode><coordinates>30.47745605930686,-28.808290315791965,990.77999999999997</coordinates></Point></Placemark><Placemark><TimeSpan><begin>2023-04-08T07:03:13Z</begin><end>2023-04-08T07:03:14Z</end></TimeSpan><styleUrl>#point</styleUrl><Point><altitudeMode>clampToGround</altitudeMode><coordinates>30.477474331855774,-28.808470359072089,989.33000000000004</coordinates></Point></Placemark><Placemark><TimeSpan><begin>2023-04-08T07:03:14Z</begin><end>2023-04-08T07:03:15Z</end></TimeSpan><styleUrl>#point</styleUrl><Point><altitudeMode>clampToGround</altitudeMode><coordinates>30.477466033771634,-28.80865316838026,987.40999999999997</coordinates></Point></Placemark><Placemark><TimeSpan><begin>2023-04-08T07:03:15Z</begin><end>2023-04-08T07:03:16Z</end></TimeSpan><styleUrl>#point</styleUrl><Point><altitudeMode>clampToGround</altitudeMode><coordinates>30.477429321035743,-28.808836815878749,985.97000000000003</coordinates></Point></Placemark><Placemark><TimeSpan><begin>2023-04-08T07:03:16Z</begin><end>2023-04-08T07:03:17Z</end></TimeSpan><styleUrl>#point</styleUrl><Point><altitudeMode>clampToGround</altitudeMode><coordinates>30.477369474247098,-28.809019792824984,984.04999999999995</coordinates></Point></Placemark><Placemark><TimeSpan><begin>2023-04-08T07:03:17Z</begin><end>2023-04-08T07:03:18Z</end></TimeSpan><styleUrl>#point</styleUrl><Point><altitudeMode>clampToGround</altitudeMode><coordinates>30.477295126765966,-28.809200590476394,983.09000000000003</coordinates></Point></Placemark><Placemark><TimeSpan><begin>2023-04-08T07:03:18Z</begin><end>2023-04-08T07:03:22Z</end></TimeSpan><styleUrl>#point</styleUrl><Point><altitudeMode>clampToGround</altitudeMode><coordinates>30.477028414607048,-28.809844991192222,978.75999999999999</coordinates></Point></Placemark><Placemark><TimeSpan><begin>2023-04-08T07:03:22Z</begin><end>2023-04-08T07:03:23Z</end></TimeSpan><styleUrl>#point</styleUrl><Point><altitudeMode>clampToGround</altitudeMode><coordinates>30.477013662457466,-28.809994859620929,978.27999999999997</coordinates></Point></Placemark><Placemark><TimeSpan><begin>2023-04-08T07:03:23Z</begin><end>2023-04-08T07:03:24Z</end></TimeSpan><styleUrl>#point</styleUrl><Point><altitudeMode>clampToGround</altitudeMode><coordinates>30.477033108472824,-28.810146236792207,977.32000000000005</coordinates></Point></Placemark><Placemark><TimeSpan><begin>2023-04-08T07:03:24Z</begin><end>2023-04-08T07:03:25Z</end></TimeSpan><styleUrl>#point</styleUrl><Point><altitudeMode>clampToGround</altitudeMode><coordinates>30.477084154263139,-28.810297278687358,976.36000000000001</coordinates></Point></Placemark><Placemark><TimeSpan><begin>2023-04-08T07:03:25Z</begin><end>2023-04-08T07:03:26Z</end></TimeSpan><styleUrl>#point</styleUrl><Point><altitudeMode>clampToGround</altitudeMode><coordinates>30.477167135104537,-28.810445638373494,975.38999999999999</coordinates></Point></Placemark><Placemark><TimeSpan><begin>2023-04-08T07:03:26Z</begin><end>2023-04-08T07:03:27Z</end></TimeSpan><styleUrl>#point</styleUrl><Point><altitudeMode>clampToGround</altitudeMode><coordinates>30.477276099845767,-28.810587879270315,974.42999999999995</coordinates></Point></Placemark><Placemark><TimeSpan><begin>2023-04-08T07:03:27Z</begin><end>2023-04-08T07:03:28Z</end></TimeSpan><styleUrl>#point</styleUrl><Point><altitudeMode>clampToGround</altitudeMode><coordinates>30.477402918040752,-28.810717631131411,972.99000000000001</coordinates></Point></Placemark><Placemark><TimeSpan><begin>2023-04-08T07:03:28Z</begin><end>2023-04-08T07:03:29Z</end></TimeSpan><styleUrl>#point</styleUrl><Point><altitudeMode>clampToGround</altitudeMode><coordinates>30.477548092603683,-28.810830367729068,972.02999999999997</coordinates></Point></Placemark><Placemark><TimeSpan><begin>2023-04-08T07:03:29Z</begin><end>2023-04-08T07:03:30Z</end></TimeSpan><styleUrl>#point</styleUrl><Point><altitudeMode>clampToGround</altitudeMode><coordinates>30.477715479210019,-28.810920808464289,970.59000000000003</coordinates></Point></Placemark><Placemark><TimeSpan><begin>2023-04-08T07:03:30Z</begin><end>2023-04-08T07:03:31Z</end></TimeSpan><styleUrl>#point</styleUrl><Point><altitudeMode>clampToGround</altitudeMode><coordinates>30.477901808917522,-28.810990126803517,969.14999999999998</coordinates></Point></Placemark><Placemark><TimeSpan><begin>2023-04-08T07:03:31Z</begin><end>2023-04-08T07:03:32Z</end></TimeSpan><styleUrl>#point</styleUrl><Point><altitudeMode>clampToGround</altitudeMode><coordinates>30.478097777813673,-28.811052571982145,967.70000000000005</coordinates></Point></Placemark><Placemark><TimeSpan><begin>2023-04-08T07:03:32Z</begin><end>2023-04-08T07:03:36Z</end></TimeSpan><styleUrl>#point</styleUrl><Point><altitudeMode>clampToGround</altitudeMode><coordinates>30.478813424706459,-28.811410311609507,960.49000000000001</coordinates></Point></Placemark><Placemark><TimeSpan><begin>2023-04-08T07:03:36Z</begin><end>2023-04-08T07:03:37Z</end></TimeSpan><styleUrl>#point</styleUrl><Point><altitudeMode>clampToGround</altitudeMode><coordinates>30.478970082476735,-28.811542997136712,958.57000000000005</coordinates></Point></Placemark><Placemark><TimeSpan><begin>2023-04-08T07:03:37Z</begin><end>2023-04-08T07:03:38Z</end></TimeSpan><styleUrl>#point</styleUrl><Point><altitudeMode>clampToGround</altitudeMode><coordinates>30.479120789095759,-28.811699990183115,956.64999999999998</coordinates></Point></Placemark><Placemark><TimeSpan><begin>2023-04-08T07:03:38Z</begin><end>2023-04-08T07:03:46Z</end></TimeSpan><styleUrl>#point</styleUrl><Point><altitudeMode>clampToGround</altitudeMode><coordinates>30.480204150080681,-28.813213929533958,937.89999999999998</coordinates></Point></Placemark><Placemark><TimeSpan><begin>2023-04-08T07:03:46Z</begin><end>2023-04-08T07:03:52Z</end></TimeSpan><styleUrl>#point</styleUrl><Point><altitudeMode>clampToGround</altitudeMode><coordinates>30.480603128671646,-28.814436178654432,926.85000000000002</coordinates></Point></Placemark><Placemark><TimeSpan><begin>2023-04-08T07:03:52Z</begin><end>2023-04-08T07:03:55Z</end></TimeSpan><styleUrl>#point</styleUrl><Point><altitudeMode>clampToGround</altitudeMode><coordinates>30.480775460600853,-28.814961723983288,923</coordinates></Point></Placemark><Placemark><TimeSpan><begin>2023-04-08T07:03:55Z</begin><end>2023-04-08T07:03:56Z</end></TimeSpan><styleUrl>#point</styleUrl><Point><altitudeMode>clampToGround</altitudeMode><coordinates>30.480874367058277,-28.815124751999974,921.55999999999995</coordinates></Point></Placemark><Placemark><TimeSpan><begin>2023-04-08T07:03:56Z</begin><end>2023-04-08T07:03:57Z</end></TimeSpan><styleUrl>#point</styleUrl><Point><altitudeMode>clampToGround</altitudeMode><coordinates>30.48099766485393,-28.815280236303806,920.12</coordinates></Point></Placemark><Placemark><TimeSpan><begin>2023-04-08T07:03:57Z</begin><end>2023-04-08T07:03:58Z</end></TimeSpan><styleUrl>#point</styleUrl><Point><altitudeMode>clampToGround</altitudeMode><coordinates>30.481140408664942,-28.81542943418026,918.67999999999995</coordinates></Point></Placemark><Placemark><TimeSpan><begin>2023-04-08T07:03:58Z</begin><end>2023-04-08T07:03:59Z</end></TimeSpan><styleUrl>#point</styleUrl><Point><altitudeMode>clampToGround</altitudeMode><coordinates>30.481292875483632,-28.815575782209635,917.24000000000001</coordinates></Point></Placemark><Placemark><TimeSpan><begin>2023-04-08T07:03:59Z</begin><end>2023-04-08T07:04:01Z</end></TimeSpan><styleUrl>#point</styleUrl><Point><altitudeMode>clampToGround</altitudeMode><coordinates>30.481563024222851,-28.815873758867383,914.35000000000002</coordinates></Point></Placemark><Placemark><TimeSpan><begin>2023-04-08T07:04:01Z</begin><end>2023-04-08T07:04:02Z</end></TimeSpan><styleUrl>#point</styleUrl><Point><altitudeMode>clampToGround</altitudeMode><coordinates>30.481673749163747,-28.816041816025972,913.38999999999999</coordinates></Point></Placemark><Placemark><TimeSpan><begin>2023-04-08T07:04:02Z</begin><end>2023-04-08T07:04:03Z</end></TimeSpan><styleUrl>#point</styleUrl><Point><altitudeMode>clampToGround</altitudeMode><coordinates>30.481765363365412,-28.816216578707099,912.42999999999995</coordinates></Point></Placemark><Placemark><TimeSpan><begin>2023-04-08T07:04:03Z</begin><end>2023-04-08T07:04:04Z</end></TimeSpan><styleUrl>#point</styleUrl><Point><altitudeMode>clampToGround</altitudeMode><coordinates>30.481848428025842,-28.816407853737473,910.99000000000001</coordinates></Point></Placemark><Placemark><TimeSpan><begin>2023-04-08T07:04:04Z</begin><end>2023-04-08T07:04:05Z</end></TimeSpan><styleUrl>#point</styleUrl><Point><altitudeMode>clampToGround</altitudeMode><coordinates>30.481922775506973,-28.816609103232622,910.02999999999997</coordinates></Point></Placemark><Placemark><TimeSpan><begin>2023-04-08T07:04:05Z</begin><end>2023-04-08T07:04:14Z</end></TimeSpan><styleUrl>#point</styleUrl><Point><altitudeMode>clampToGround</altitudeMode><coordinates>30.482611265033484,-28.818267043679953,901.85000000000002</coordinates></Point></Placemark><Placemark><TimeSpan><begin>2023-04-08T07:04:14Z</begin><end>2023-04-08T07:04:21Z</end></TimeSpan><styleUrl>#point</styleUrl><Point><altitudeMode>clampToGround</altitudeMode><coordinates>30.48314955085516,-28.819647459313273,891.27999999999997</coordinates></Point></Placemark><Placemark><TimeSpan><begin>2023-04-08T07:04:21Z</begin><end>2023-04-08T07:04:25Z</end></TimeSpan><styleUrl>#point</styleUrl><Point><altitudeMode>clampToGround</altitudeMode><coordinates>30.483463453128934,-28.82047014310956,885.02999999999997</coordinates></Point></Placemark><Placemark><TimeSpan><begin>2023-04-08T07:04:25Z</begin><end>2023-04-08T07:04:26Z</end></TimeSpan><styleUrl>#point</styleUrl><Point><altitudeMode>clampToGround</altitudeMode><coordinates>30.48350184224546,-28.820678349584341,883.59000000000003</coordinates></Point></Placemark><Placemark><TimeSpan><begin>2023-04-08T07:04:26Z</begin><end>2023-04-08T07:04:33Z</end></TimeSpan><styleUrl>#point</styleUrl><Point><altitudeMode>clampToGround</altitudeMode><coordinates>30.48383217304945,-28.8221016805619,872.04999999999995</coordinates></Point></Placemark><Placemark><TimeSpan><begin>2023-04-08T07:04:33Z</begin><end>2023-04-08T07:04:41Z</end></TimeSpan><styleUrl>#point</styleUrl><Point><altitudeMode>clampToGround</altitudeMode><coordinates>30.484751081094146,-28.823500871658325,860.03999999999996</coordinates></Point></Placemark><Placemark><TimeSpan><begin>2023-04-08T07:04:41Z</begin><end>2023-04-08T07:04:53Z</end></TimeSpan><styleUrl>#point</styleUrl><Point><altitudeMode>clampToGround</altitudeMode><coordinates>30.486207269132137,-28.825502470135689,844.17999999999995</coordinates></Point></Placemark><Placemark><TimeSpan><begin>2023-04-08T07:04:53Z</begin><end>2023-04-08T07:04:58Z</end></TimeSpan><styleUrl>#point</styleUrl><Point><altitudeMode>clampToGround</altitudeMode><coordinates>30.48681671731174,-28.82626723498106,839.37</coordinates></Point></Placemark><Placemark><TimeSpan><begin>2023-04-08T07:04:58Z</begin><end>2023-04-08T07:04:59Z</end></TimeSpan><styleUrl>#point</styleUrl><Point><altitudeMode>clampToGround</altitudeMode><coordinates>30.486967926844954,-28.826384833082557,838.88999999999999</coordinates></Point></Placemark><Placemark><TimeSpan><begin>2023-04-08T07:04:59Z</begin><end>2023-04-08T07:05:00Z</end></TimeSpan><styleUrl>#point</styleUrl><Point><altitudeMode>clampToGround</altitudeMode><coordinates>30.487142438068986,-28.826484493911266,837.92999999999995</coordinates></Point></Placemark><Placemark><TimeSpan><begin>2023-04-08T07:05:00Z</begin><end>2023-04-08T07:05:01Z</end></TimeSpan><styleUrl>#point</styleUrl><Point><altitudeMode>clampToGround</altitudeMode><coordinates>30.487339664250612,-28.826567055657506,837.45000000000005</coordinates></Point></Placemark><Placemark><TimeSpan><begin>2023-04-08T07:05:01Z</begin><end>2023-04-08T07:05:02Z</end></TimeSpan><styleUrl>#point</styleUrl><Point><altitudeMode>clampToGround</altitudeMode><coordinates>30.487557929009199,-28.826636457815766,836.48000000000002</coordinates></Point></Placemark><Placemark><TimeSpan><begin>2023-04-08T07:05:02Z</begin><end>2023-04-08T07:05:03Z</end></TimeSpan><styleUrl>#point</styleUrl><Point><altitudeMode>clampToGround</altitudeMode><coordinates>30.487798154354095,-28.826693706214428,835.03999999999996</coordinates></Point></Placemark><Placemark><TimeSpan><begin>2023-04-08T07:05:03Z</begin><end>2023-04-08T07:05:04Z</end></TimeSpan><styleUrl>#point</styleUrl><Point><altitudeMode>clampToGround</altitudeMode><coordinates>30.488062854856253,-28.826745674014091,834.08000000000004</coordinates></Point></Placemark><Placemark><TimeSpan><begin>2023-04-08T07:05:04Z</begin><end>2023-04-08T07:05:11Z</end></TimeSpan><styleUrl>#point</styleUrl><Point><altitudeMode>clampToGround</altitudeMode><coordinates>30.490177609026432,-28.827236518263817,825.90999999999997</coordinates></Point></Placemark><Placemark><TimeSpan><begin>2023-04-08T07:05:11Z</begin><end>2023-04-08T07:05:17Z</end></TimeSpan><styleUrl>#point</styleUrl><Point><altitudeMode>clampToGround</altitudeMode><coordinates>30.491746449843049,-28.827811935916543,826.87</coordinates></Point></Placemark><Placemark><TimeSpan><begin>2023-04-08T07:05:17Z</begin><end>2023-04-08T07:05:22Z</end></TimeSpan><styleUrl>#point</styleUrl><Point><altitudeMode>clampToGround</altitudeMode><coordinates>30.492701064795256,-28.828513920307159,828.30999999999995</coordinates></Point></Placemark><Placemark><TimeSpan><begin>2023-04-08T07:05:22Z</begin><end>2023-04-08T07:05:23Z</end></TimeSpan><styleUrl>#point</styleUrl><Point><altitudeMode>clampToGround</altitudeMode><coordinates>30.492837186902761,-28.828671500086784,828.30999999999995</coordinates></Point></Placemark><Placemark><TimeSpan><begin>2023-04-08T07:05:23Z</begin><end>2023-04-08T07:05:24Z</end></TimeSpan><styleUrl>#point</styleUrl><Point><altitudeMode>clampToGround</altitudeMode><coordinates>30.492942715063691,-28.828841736540198,827.83000000000004</coordinates></Point></Placemark><Placemark><TimeSpan><begin>2023-04-08T07:05:24Z</begin><end>2023-04-08T07:05:25Z</end></TimeSpan><styleUrl>#point</styleUrl><Point><altitudeMode>clampToGround</altitudeMode><coordinates>30.493017649278045,-28.829020690172911,827.83000000000004</coordinates></Point></Placemark><Placemark><TimeSpan><begin>2023-04-08T07:05:25Z</begin><end>2023-04-08T07:05:26Z</end></TimeSpan><styleUrl>#point</styleUrl><Point><altitudeMode>clampToGround</altitudeMode><coordinates>30.493072383105755,-28.829207941889763,827.83000000000004</coordinates></Point></Placemark><Placemark><TimeSpan><begin>2023-04-08T07:05:26Z</begin><end>2023-04-08T07:05:27Z</end></TimeSpan><styleUrl>#point</styleUrl><Point><altitudeMode>clampToGround</altitudeMode><coordinates>30.493122087791562,-28.829393265768886,827.35000000000002</coordinates></Point></Placemark><Placemark><TimeSpan><begin>2023-04-08T07:05:27Z</begin><end>2023-04-08T07:05:33Z</end></TimeSpan><styleUrl>#point</styleUrl><Point><altitudeMode>clampToGround</altitudeMode><coordinates>30.493362816050649,-28.830181835219264,827.35000000000002</coordinates></Point></Placemark><Placemark><TimeSpan><begin>2023-04-08T07:05:33Z</begin><end>2023-04-08T07:05:34Z</end></TimeSpan><styleUrl>#point</styleUrl><Point><altitudeMode>clampToGround</altitudeMode><coordinates>30.493392152711749,-28.830233383923769,827.35000000000002</coordinates></Point></Placemark><Placemark><TimeSpan><begin>2023-04-08T07:05:34Z</begin><end>2023-04-08T07:05:35Z</end></TimeSpan><styleUrl>#point</styleUrl><Point><altitudeMode>clampToGround</altitudeMode><coordinates>30.493415370583534,-28.83025836199522,827.35000000000002</coordinates></Point></Placemark><Placemark><TimeSpan><begin>2023-04-08T07:05:35Z</begin><end>2023-04-08T07:05:36Z</end></TimeSpan><styleUrl>#point</styleUrl><Point><altitudeMode>clampToGround</altitudeMode><coordinates>30.49343322403729,-28.830278813838959,827.35000000000002</coordinates></Point></Placemark><Placemark><TimeSpan><begin>2023-04-08T07:05:36Z</begin><end>2023-04-08T07:05:37Z</end></TimeSpan><styleUrl>#point</styleUrl><Point><altitudeMode>clampToGround</altitudeMode><coordinates>30.493436576798558,-28.830295577645302,827.35000000000002</coordinates></Point></Placemark><Placemark><TimeSpan><begin>2023-04-08T07:05:37Z</begin><end>2023-04-08T07:05:38Z</end></TimeSpan><styleUrl>#point</styleUrl><Point><altitudeMode>clampToGround</altitudeMode><coordinates>30.493433643132448,-28.830310916528106,827.83000000000004</coordinates></Point></Placemark><Placemark><TimeSpan><begin>2023-04-08T07:05:38Z</begin><end>2023-04-08T07:05:40Z</end></TimeSpan><styleUrl>#point</styleUrl><Point><altitudeMode>clampToGround</altitudeMode><coordinates>30.493424087762833,-28.830322818830609,827.83000000000004</coordinates></Point></Placemark></Folder><Placemark><name>[348] Mayaba Pass (South)</name><Style><LineStyle><color>ff00ff00</color><width>4</width></LineStyle></Style><MultiGeometry><LineString><coordinates>30.443831132724881,-28.759417366236448,553.86000000000001 30.443915287032723,-28.759592548012733,553.86000000000001 30.44427864253521,-28.76061899587512,555.29999999999995 30.444415686652064,-28.761153928935528,557.22000000000003 30.444486429914832,-28.761302120983601,557.70000000000005 30.445342473685741,-28.762649092823267,563.47000000000003 30.445982264354825,-28.763602618128061,567.79999999999995 30.446732193231583,-28.764822436496615,575.00999999999999 30.447555547580123,-28.766444502398372,592.78999999999996 30.447590500116348,-28.766615744680166,594.71000000000004 30.447601731866598,-28.766789585351944,596.63999999999999 30.447593349963427,-28.766967449337244,599.03999999999996 30.447563929483294,-28.767144894227386,600.96000000000004 30.447504501789808,-28.767324686050415,602.88 30.447412384673953,-28.767501879483461,605.28999999999996 30.447303419932723,-28.767651244997978,607.21000000000004 30.44716939330101,-28.767799520865083,609.13 30.447010975331068,-28.767949640750885,611.05999999999995 30.446167001500726,-28.768908195197582,623.54999999999995 30.445950413122773,-28.769353358075023,627.39999999999998 30.445917472243309,-28.769516050815582,628.36000000000001 30.445909509435296,-28.769683437421918,629.79999999999995 30.445922501385212,-28.769856691360474,630.75999999999999 30.445946641266346,-28.770037824288011,632.20000000000005 30.446294322609901,-28.771221181377769,640.86000000000001 30.446943836286664,-28.772263219580054,650.47000000000003 30.447180708870292,-28.772586509585381,652.38999999999999 30.447885794565082,-28.773575909435749,660.55999999999995 30.448427516967058,-28.774838978424668,664.88999999999999 30.44916981831193,-28.776498008519411,671.62 30.449857469648123,-28.777789073064923,680.75 30.450284695252776,-28.779020542278886,692.76999999999998 30.450382847338915,-28.780241869390011,703.82000000000005 30.450183022767305,-28.781752120703459,719.67999999999995 30.450188471004367,-28.781957728788257,721.61000000000001 30.450213029980659,-28.782183537259698,724.00999999999999 30.450629694387317,-28.784201145172119,742.27999999999997 30.451280800625682,-28.786845216527581,771.11000000000001 30.451626973226666,-28.787963781505823,785.52999999999997 30.451712384819984,-28.788108620792627,787.46000000000004 30.451810704544187,-28.788234181702137,788.89999999999998 30.451930314302444,-28.788339793682098,791.29999999999995 30.452049672603607,-28.788405759260058,792.74000000000001 30.452197277918458,-28.788452865555882,794.19000000000005 30.452360808849335,-28.788477424532175,795.14999999999998 30.45253649353981,-28.788490919396281,795.63 30.453877095133066,-28.78879819996655,795.14999999999998 30.455250721424818,-28.789611244574189,802.36000000000001 30.455956058576703,-28.790017096325755,809.09000000000003 30.456078853458166,-28.790131760761142,810.52999999999997 30.456174574792385,-28.790262518450618,811.49000000000001 30.456243054941297,-28.790404843166471,812.92999999999995 30.45629502274096,-28.790561333298683,814.37 30.456341626122594,-28.790748501196504,815.82000000000005 30.456838924437761,-28.792223799973726,830.24000000000001 30.457102032378316,-28.793773865327239,846.10000000000002 30.457186102867126,-28.794866697862744,860.03999999999996 30.457173781469464,-28.795069791376591,862.44000000000005 30.457139667123556,-28.795273555442691,865.32000000000005 30.456546144559979,-28.79697298631072,888.39999999999998 30.455760508775711,-28.798362873494625,910.02999999999997 30.455641653388739,-28.798489272594452,912.42999999999995 30.455416180193424,-28.798698652535677,917.24000000000001 30.455350046977401,-28.798793451860547,919.15999999999997 30.455321716144681,-28.798894621431828,921.55999999999995 30.455335881561041,-28.79900224506855,923.48000000000002 30.4553881008178,-28.799104671925306,925.40999999999997 30.45547560788691,-28.79920014180243,927.33000000000004 30.455586081370711,-28.7992949411273,929.25 30.455700242891908,-28.799402732402086,931.16999999999996 30.455799736082554,-28.799532568082213,932.62 30.455883136019111,-28.799680676311255,934.05999999999995 30.45594859868288,-28.799841105937958,935.98000000000002 30.456006517633796,-28.800014946609735,937.89999999999998 30.456229308620095,-28.800540743395686,943.66999999999996 30.456338608637452,-28.800714248791337,945.59000000000003 30.456794500350952,-28.801456550136209,954.25 30.457192724570632,-28.802029872313142,960.49000000000001 30.4575708322227,-28.802770832553506,971.54999999999995 30.457660686224699,-28.802859932184219,973.47000000000003 30.457777949050069,-28.802922964096069,975.38999999999999 30.457914909347892,-28.802957413718104,977.32000000000005 30.458076512441039,-28.802977111190557,978.75999999999999 30.458256723359227,-28.802990019321442,980.20000000000005 30.459835371002555,-28.803210044279695,988.85000000000002 30.46152968890965,-28.803259832784534,996.05999999999995 30.462128492072225,-28.803267879411578,997.99000000000001 30.46240727417171,-28.80324156023562,998.95000000000005 30.462673986330628,-28.803215492516756,999.90999999999997 30.462941871955991,-28.803211804479361,1001.35 30.463203638792038,-28.803236531093717,1002.3099999999999 30.463460460305214,-28.803285900503397,1003.75 30.463712839409709,-28.803348680958152,1005.2 30.464222794398665,-28.803443647921085,1008.08 30.464717578142881,-28.803507434204221,1010.96 30.464957132935524,-28.803570885211229,1012.41 30.465978551656008,-28.804000960662961,1020.1 30.466158175840974,-28.804051084443927,1021.54 30.466341571882367,-28.804069356992841,1022.98 30.466528823599219,-28.804053766652942,1024.4200000000001 30.466723451390862,-28.804010599851608,1025.3800000000001 30.46691975556314,-28.803960392251611,1026.8299999999999 30.467134164646268,-28.803919488564134,1027.79 30.467363577336073,-28.803894342854619,1029.23 30.469134338200092,-28.80374095402658,1037.4000000000001 30.469361823052168,-28.803667025640607,1038.3599999999999 30.47096025198698,-28.803097978234291,1045.5699999999999 30.471147168427706,-28.803050369024277,1046.53 30.471323020756245,-28.803026983514428,1047.49 30.471486384049058,-28.803026648238301,1048.45 30.471634827554226,-28.803043831139803,1049.4200000000001 30.471765920519829,-28.803072916343808,1050.3800000000001 30.471877316012979,-28.803112395107746,1050.8599999999999 30.4719711933285,-28.803156735375524,1051.3399999999999 30.472048977389932,-28.80320250056684,1051.8199999999999 30.472114020958543,-28.80324549973011,1051.8199999999999 30.47224385663867,-28.803351446986198,1052.78 30.472566056996584,-28.803688064217567,1053.74 30.47261324711144,-28.803767524659634,1053.74 30.472653899341822,-28.803862659260631,1053.26 30.472942655906081,-28.804650893434882,1048.9400000000001 30.472953217104077,-28.804805874824524,1047.49 30.472937542945147,-28.80495666526258,1046.05 30.472878869622946,-28.80538372322917,1041.73 30.472896806895733,-28.80551666021347,1039.8 30.472943661734462,-28.805643226951361,1038.3599999999999 30.473017925396562,-28.805759232491255,1036.4400000000001 30.473122280091047,-28.805866437032819,1035 30.473259659484029,-28.805962661281228,1032.5899999999999 30.473424950614572,-28.806035416200757,1030.1900000000001 30.473612369969487,-28.806079505011439,1027.79 30.473815212026238,-28.806097945198417,1025.8599999999999 30.474030375480652,-28.806108087301254,1023.46 30.474259788170457,-28.806133819743991,1021.54 30.474484842270613,-28.806184781715274,1019.13 30.47468357719481,-28.806249490007758,1017.21 30.476315533742309,-28.806915432214737,1004.23 30.476476466283202,-28.807020457461476,1002.79 30.477182809263468,-28.807642981410027,996.05999999999995 30.47728062607348,-28.807789999991655,994.62 30.477357571944594,-28.807948417961597,993.65999999999997 30.477416161447763,-28.808115217834711,992.22000000000003 30.47745605930686,-28.808290315791965,990.77999999999997 30.477474331855774,-28.808470359072089,989.33000000000004 30.477466033771634,-28.80865316838026,987.40999999999997 30.477429321035743,-28.808836815878749,985.97000000000003 30.477369474247098,-28.809019792824984,984.04999999999995 30.477295126765966,-28.809200590476394,983.09000000000003 30.477028414607048,-28.809844991192222,978.75999999999999 30.477013662457466,-28.809994859620929,978.27999999999997 30.477033108472824,-28.810146236792207,977.32000000000005 30.477084154263139,-28.810297278687358,976.36000000000001 30.477167135104537,-28.810445638373494,975.38999999999999 30.477276099845767,-28.810587879270315,974.42999999999995 30.477402918040752,-28.810717631131411,972.99000000000001 30.477548092603683,-28.810830367729068,972.02999999999997 30.477715479210019,-28.810920808464289,970.59000000000003 30.477901808917522,-28.810990126803517,969.14999999999998 30.478097777813673,-28.811052571982145,967.70000000000005 30.478813424706459,-28.811410311609507,960.49000000000001 30.478970082476735,-28.811542997136712,958.57000000000005 30.479120789095759,-28.811699990183115,956.64999999999998 30.480204150080681,-28.813213929533958,937.89999999999998 30.480603128671646,-28.814436178654432,926.85000000000002 30.480775460600853,-28.814961723983288,923 30.480874367058277,-28.815124751999974,921.55999999999995 30.48099766485393,-28.815280236303806,920.12 30.481140408664942,-28.81542943418026,918.67999999999995 30.481292875483632,-28.815575782209635,917.24000000000001 30.481563024222851,-28.815873758867383,914.35000000000002 30.481673749163747,-28.816041816025972,913.38999999999999 30.481765363365412,-28.816216578707099,912.42999999999995 30.481848428025842,-28.816407853737473,910.99000000000001 30.481922775506973,-28.816609103232622,910.02999999999997 30.482611265033484,-28.818267043679953,901.85000000000002 30.48314955085516,-28.819647459313273,891.27999999999997 30.483463453128934,-28.82047014310956,885.02999999999997 30.48350184224546,-28.820678349584341,883.59000000000003 30.48383217304945,-28.8221016805619,872.04999999999995 30.484751081094146,-28.823500871658325,860.03999999999996 30.486207269132137,-28.825502470135689,844.17999999999995 30.48681671731174,-28.82626723498106,839.37 30.486967926844954,-28.826384833082557,838.88999999999999 30.487142438068986,-28.826484493911266,837.92999999999995 30.487339664250612,-28.826567055657506,837.45000000000005 30.487557929009199,-28.826636457815766,836.48000000000002 30.487798154354095,-28.826693706214428,835.03999999999996 30.488062854856253,-28.826745674014091,834.08000000000004 30.490177609026432,-28.827236518263817,825.90999999999997 30.491746449843049,-28.827811935916543,826.87 30.492701064795256,-28.828513920307159,828.30999999999995 30.492837186902761,-28.828671500086784,828.30999999999995 30.492942715063691,-28.828841736540198,827.83000000000004 30.493017649278045,-28.829020690172911,827.83000000000004 30.493072383105755,-28.829207941889763,827.83000000000004 30.493122087791562,-28.829393265768886,827.35000000000002 30.493362816050649,-28.830181835219264,827.35000000000002 30.493392152711749,-28.830233383923769,827.35000000000002 30.493415370583534,-28.83025836199522,827.35000000000002 30.49343322403729,-28.830278813838959,827.35000000000002 30.493436576798558,-28.830295577645302,827.35000000000002 30.493433643132448,-28.830310916528106,827.83000000000004 30.493424087762833,-28.830322818830609,827.83000000000004 </coordinates></LineString></MultiGeometry></Placemark></Folder></Folder></Document></kml>