<?xml version="1.0" encoding="utf-8"?><kml xmlns="http://www.opengis.net/kml/2.2" xmlns:xsi="http://www.w3.org/2001/XMLSchema-instance" xmlns:kmlx="http://www.google.com/kml/ext/2.2" xmlns:atom="http://www.w3.org/2005/Atom" xmlns:gpxx="http://www.garmin.com/xmlschemas/GpxExtensions/v3"><Document><Style id="point"><IconStyle><scale>0.9</scale><Icon><href>http://maps.google.com/mapfiles/kml/shapes/placemark_circle.png</href></Icon></IconStyle></Style><Folder><name>Tracks</name><Folder><name>[353] Endoumeni Pass (Wenkommando Pass)</name><Folder><name>Points</name><Style><ListStyle><listItemType>checkHideChildren</listItemType></ListStyle></Style><Placemark><TimeSpan><begin>2023-04-08T10:47:32Z</begin><end>2023-04-08T10:47:32Z</end></TimeSpan><Style><IconStyle><scale>0.9</scale><Icon><href>http://connect.garmin.com/image/main/icons/kml/grn-play.png</href></Icon></IconStyle></Style><Point><altitudeMode>clampToGround</altitudeMode><coordinates>30.17933489754796,-28.263674480840564,1117.1900000000001</coordinates></Point></Placemark><Placemark><TimeSpan><begin>2023-04-08T10:47:32Z</begin><end>2023-04-08T10:47:40Z</end></TimeSpan><styleUrl>#point</styleUrl><Point><altitudeMode>clampToGround</altitudeMode><coordinates>30.179770505055785,-28.261876730248332,1110.9400000000001</coordinates></Point></Placemark><Placemark><TimeSpan><begin>2023-04-08T10:47:40Z</begin><end>2023-04-08T10:47:47Z</end></TimeSpan><styleUrl>#point</styleUrl><Point><altitudeMode>clampToGround</altitudeMode><coordinates>30.180619843304157,-28.260450381785631,1116.23</coordinates></Point></Placemark><Placemark><TimeSpan><begin>2023-04-08T10:47:47Z</begin><end>2023-04-08T10:47:55Z</end></TimeSpan><styleUrl>#point</styleUrl><Point><altitudeMode>clampToGround</altitudeMode><coordinates>30.182334864512086,-28.259025458246469,1120.0699999999999</coordinates></Point></Placemark><Placemark><TimeSpan><begin>2023-04-08T10:47:55Z</begin><end>2023-04-08T10:48:13Z</end></TimeSpan><styleUrl>#point</styleUrl><Point><altitudeMode>clampToGround</altitudeMode><coordinates>30.186543921008706,-28.255622824653983,1136.4200000000001</coordinates></Point></Placemark><Placemark><TimeSpan><begin>2023-04-08T10:48:13Z</begin><end>2023-04-08T10:48:24Z</end></TimeSpan><styleUrl>#point</styleUrl><Point><altitudeMode>clampToGround</altitudeMode><coordinates>30.188860343769193,-28.253783835098147,1146.99</coordinates></Point></Placemark><Placemark><TimeSpan><begin>2023-04-08T10:48:24Z</begin><end>2023-04-08T10:48:30Z</end></TimeSpan><styleUrl>#point</styleUrl><Point><altitudeMode>clampToGround</altitudeMode><coordinates>30.189746059477329,-28.253017058596015,1150.3499999999999</coordinates></Point></Placemark><Placemark><TimeSpan><begin>2023-04-08T10:48:30Z</begin><end>2023-04-08T10:48:31Z</end></TimeSpan><styleUrl>#point</styleUrl><Point><altitudeMode>clampToGround</altitudeMode><coordinates>30.189859634265304,-28.252865765243769,1150.8399999999999</coordinates></Point></Placemark><Placemark><TimeSpan><begin>2023-04-08T10:48:31Z</begin><end>2023-04-08T10:48:32Z</end></TimeSpan><styleUrl>#point</styleUrl><Point><altitudeMode>clampToGround</altitudeMode><coordinates>30.189954182133079,-28.252705335617065,1151.8</coordinates></Point></Placemark><Placemark><TimeSpan><begin>2023-04-08T10:48:32Z</begin><end>2023-04-08T10:48:33Z</end></TimeSpan><styleUrl>#point</styleUrl><Point><altitudeMode>clampToGround</altitudeMode><coordinates>30.190020734444261,-28.252537362277508,1152.28</coordinates></Point></Placemark><Placemark><TimeSpan><begin>2023-04-08T10:48:33Z</begin><end>2023-04-08T10:48:34Z</end></TimeSpan><styleUrl>#point</styleUrl><Point><altitudeMode>clampToGround</altitudeMode><coordinates>30.190054262056947,-28.252363353967667,1152.76</coordinates></Point></Placemark><Placemark><TimeSpan><begin>2023-04-08T10:48:34Z</begin><end>2023-04-08T10:48:35Z</end></TimeSpan><styleUrl>#point</styleUrl><Point><altitudeMode>clampToGround</altitudeMode><coordinates>30.190056692808867,-28.252185909077525,1153.72</coordinates></Point></Placemark><Placemark><TimeSpan><begin>2023-04-08T10:48:35Z</begin><end>2023-04-08T10:48:36Z</end></TimeSpan><styleUrl>#point</styleUrl><Point><altitudeMode>clampToGround</altitudeMode><coordinates>30.19002459011972,-28.252007542178035,1154.6800000000001</coordinates></Point></Placemark><Placemark><TimeSpan><begin>2023-04-08T10:48:36Z</begin><end>2023-04-08T10:48:37Z</end></TimeSpan><styleUrl>#point</styleUrl><Point><altitudeMode>clampToGround</altitudeMode><coordinates>30.18995963037014,-28.251835126429796,1155.6400000000001</coordinates></Point></Placemark><Placemark><TimeSpan><begin>2023-04-08T10:48:37Z</begin><end>2023-04-08T10:48:38Z</end></TimeSpan><styleUrl>#point</styleUrl><Point><altitudeMode>clampToGround</altitudeMode><coordinates>30.189867010340095,-28.251668410375714,1156.5999999999999</coordinates></Point></Placemark><Placemark><TimeSpan><begin>2023-04-08T10:48:38Z</begin><end>2023-04-08T10:48:39Z</end></TimeSpan><styleUrl>#point</styleUrl><Point><altitudeMode>clampToGround</altitudeMode><coordinates>30.189750334247947,-28.251509154215455,1157.5599999999999</coordinates></Point></Placemark><Placemark><TimeSpan><begin>2023-04-08T10:48:39Z</begin><end>2023-04-08T10:48:40Z</end></TimeSpan><styleUrl>#point</styleUrl><Point><altitudeMode>clampToGround</altitudeMode><coordinates>30.189609182998538,-28.251360543072224,1158.53</coordinates></Point></Placemark><Placemark><TimeSpan><begin>2023-04-08T10:48:40Z</begin><end>2023-04-08T10:48:41Z</end></TimeSpan><styleUrl>#point</styleUrl><Point><altitudeMode>clampToGround</altitudeMode><coordinates>30.189448082819581,-28.251220649108291,1159.97</coordinates></Point></Placemark><Placemark><TimeSpan><begin>2023-04-08T10:48:41Z</begin><end>2023-04-08T10:48:42Z</end></TimeSpan><styleUrl>#point</styleUrl><Point><altitudeMode>clampToGround</altitudeMode><coordinates>30.18927508033812,-28.251082515344024,1160.9300000000001</coordinates></Point></Placemark><Placemark><TimeSpan><begin>2023-04-08T10:48:42Z</begin><end>2023-04-08T10:48:50Z</end></TimeSpan><styleUrl>#point</styleUrl><Point><altitudeMode>clampToGround</altitudeMode><coordinates>30.187896927818656,-28.249953305348754,1171.02</coordinates></Point></Placemark><Placemark><TimeSpan><begin>2023-04-08T10:48:50Z</begin><end>2023-04-08T10:48:52Z</end></TimeSpan><styleUrl>#point</styleUrl><Point><altitudeMode>clampToGround</altitudeMode><coordinates>30.187687631696463,-28.249638732522726,1173.4300000000001</coordinates></Point></Placemark><Placemark><TimeSpan><begin>2023-04-08T10:48:52Z</begin><end>2023-04-08T10:48:53Z</end></TimeSpan><styleUrl>#point</styleUrl><Point><altitudeMode>clampToGround</altitudeMode><coordinates>30.187617978081107,-28.249474782496691,1174.8699999999999</coordinates></Point></Placemark><Placemark><TimeSpan><begin>2023-04-08T10:48:53Z</begin><end>2023-04-08T10:48:54Z</end></TimeSpan><styleUrl>#point</styleUrl><Point><altitudeMode>clampToGround</altitudeMode><coordinates>30.187577493488789,-28.249305300414562,1175.8299999999999</coordinates></Point></Placemark><Placemark><TimeSpan><begin>2023-04-08T10:48:54Z</begin><end>2023-04-08T10:48:55Z</end></TimeSpan><styleUrl>#point</styleUrl><Point><altitudeMode>clampToGround</altitudeMode><coordinates>30.187567854300141,-28.249130537733436,1177.27</coordinates></Point></Placemark><Placemark><TimeSpan><begin>2023-04-08T10:48:55Z</begin><end>2023-04-08T10:48:56Z</end></TimeSpan><styleUrl>#point</styleUrl><Point><altitudeMode>clampToGround</altitudeMode><coordinates>30.187590150162578,-28.248954098671675,1178.23</coordinates></Point></Placemark><Placemark><TimeSpan><begin>2023-04-08T10:48:56Z</begin><end>2023-04-08T10:48:57Z</end></TimeSpan><styleUrl>#point</styleUrl><Point><altitudeMode>clampToGround</altitudeMode><coordinates>30.187644381076097,-28.248780677095056,1179.6700000000001</coordinates></Point></Placemark><Placemark><TimeSpan><begin>2023-04-08T10:48:57Z</begin><end>2023-04-08T10:48:58Z</end></TimeSpan><styleUrl>#point</styleUrl><Point><altitudeMode>clampToGround</altitudeMode><coordinates>30.187730211764574,-28.24861329048872,1180.6400000000001</coordinates></Point></Placemark><Placemark><TimeSpan><begin>2023-04-08T10:48:58Z</begin><end>2023-04-08T10:48:59Z</end></TimeSpan><styleUrl>#point</styleUrl><Point><altitudeMode>clampToGround</altitudeMode><coordinates>30.187842948362231,-28.248456884175539,1182.0799999999999</coordinates></Point></Placemark><Placemark><TimeSpan><begin>2023-04-08T10:48:59Z</begin><end>2023-04-08T10:49:00Z</end></TimeSpan><styleUrl>#point</styleUrl><Point><altitudeMode>clampToGround</altitudeMode><coordinates>30.187979154288769,-28.248314308002591,1183.52</coordinates></Point></Placemark><Placemark><TimeSpan><begin>2023-04-08T10:49:00Z</begin><end>2023-04-08T10:49:01Z</end></TimeSpan><styleUrl>#point</styleUrl><Point><altitudeMode>clampToGround</altitudeMode><coordinates>30.188139667734504,-28.248189417645335,1184.96</coordinates></Point></Placemark><Placemark><TimeSpan><begin>2023-04-08T10:49:01Z</begin><end>2023-04-08T10:49:02Z</end></TimeSpan><styleUrl>#point</styleUrl><Point><altitudeMode>clampToGround</altitudeMode><coordinates>30.188320633023977,-28.248082967475057,1186.4000000000001</coordinates></Point></Placemark><Placemark><TimeSpan><begin>2023-04-08T10:49:02Z</begin><end>2023-04-08T10:49:03Z</end></TimeSpan><styleUrl>#point</styleUrl><Point><altitudeMode>clampToGround</altitudeMode><coordinates>30.188515763729811,-28.247989593073726,1188.3299999999999</coordinates></Point></Placemark><Placemark><TimeSpan><begin>2023-04-08T10:49:03Z</begin><end>2023-04-08T10:49:04Z</end></TimeSpan><styleUrl>#point</styleUrl><Point><altitudeMode>clampToGround</altitudeMode><coordinates>30.188721790909767,-28.247906696051359,1189.77</coordinates></Point></Placemark><Placemark><TimeSpan><begin>2023-04-08T10:49:04Z</begin><end>2023-04-08T10:49:05Z</end></TimeSpan><styleUrl>#point</styleUrl><Point><altitudeMode>clampToGround</altitudeMode><coordinates>30.188937205821276,-28.247833019122481,1191.21</coordinates></Point></Placemark><Placemark><TimeSpan><begin>2023-04-08T10:49:05Z</begin><end>2023-04-08T10:49:06Z</end></TimeSpan><styleUrl>#point</styleUrl><Point><altitudeMode>clampToGround</altitudeMode><coordinates>30.1891621761024,-28.247766885906458,1192.6500000000001</coordinates></Point></Placemark><Placemark><TimeSpan><begin>2023-04-08T10:49:06Z</begin><end>2023-04-08T10:49:15Z</end></TimeSpan><styleUrl>#point</styleUrl><Point><altitudeMode>clampToGround</altitudeMode><coordinates>30.191296208649874,-28.247063308954239,1205.1500000000001</coordinates></Point></Placemark><Placemark><TimeSpan><begin>2023-04-08T10:49:15Z</begin><end>2023-04-08T10:49:16Z</end></TimeSpan><styleUrl>#point</styleUrl><Point><altitudeMode>clampToGround</altitudeMode><coordinates>30.191508857533336,-28.246919391676784,1206.5899999999999</coordinates></Point></Placemark><Placemark><TimeSpan><begin>2023-04-08T10:49:16Z</begin><end>2023-04-08T10:49:17Z</end></TimeSpan><styleUrl>#point</styleUrl><Point><altitudeMode>clampToGround</altitudeMode><coordinates>30.191703317686915,-28.246761057525873,1207.55</coordinates></Point></Placemark><Placemark><TimeSpan><begin>2023-04-08T10:49:17Z</begin><end>2023-04-08T10:49:18Z</end></TimeSpan><styleUrl>#point</styleUrl><Point><altitudeMode>clampToGround</altitudeMode><coordinates>30.191893838346004,-28.24658302590251,1209.48</coordinates></Point></Placemark><Placemark><TimeSpan><begin>2023-04-08T10:49:18Z</begin><end>2023-04-08T10:49:19Z</end></TimeSpan><styleUrl>#point</styleUrl><Point><altitudeMode>clampToGround</altitudeMode><coordinates>30.192067846655846,-28.246398204937577,1210.9200000000001</coordinates></Point></Placemark><Placemark><TimeSpan><begin>2023-04-08T10:49:19Z</begin><end>2023-04-08T10:49:32Z</end></TimeSpan><styleUrl>#point</styleUrl><Point><altitudeMode>clampToGround</altitudeMode><coordinates>30.19432844594121,-28.243889836594462,1234.95</coordinates></Point></Placemark><Placemark><TimeSpan><begin>2023-04-08T10:49:32Z</begin><end>2023-04-08T10:49:43Z</end></TimeSpan><styleUrl>#point</styleUrl><Point><altitudeMode>clampToGround</altitudeMode><coordinates>30.196109684184194,-28.241830738261342,1241.6800000000001</coordinates></Point></Placemark><Placemark><TimeSpan><begin>2023-04-08T10:49:43Z</begin><end>2023-04-08T10:49:44Z</end></TimeSpan><styleUrl>#point</styleUrl><Point><altitudeMode>clampToGround</altitudeMode><coordinates>30.196203729137778,-28.241623034700751,1241.2</coordinates></Point></Placemark><Placemark><TimeSpan><begin>2023-04-08T10:49:44Z</begin><end>2023-04-08T10:49:45Z</end></TimeSpan><styleUrl>#point</styleUrl><Point><altitudeMode>clampToGround</altitudeMode><coordinates>30.19626634195447,-28.241404183208942,1240.72</coordinates></Point></Placemark><Placemark><TimeSpan><begin>2023-04-08T10:49:45Z</begin><end>2023-04-08T10:49:46Z</end></TimeSpan><styleUrl>#point</styleUrl><Point><altitudeMode>clampToGround</altitudeMode><coordinates>30.196297187358141,-28.241174351423979,1239.76</coordinates></Point></Placemark><Placemark><TimeSpan><begin>2023-04-08T10:49:46Z</begin><end>2023-04-08T10:49:47Z</end></TimeSpan><styleUrl>#point</styleUrl><Point><altitudeMode>clampToGround</altitudeMode><coordinates>30.196295259520411,-28.24094426818192,1239.28</coordinates></Point></Placemark><Placemark><TimeSpan><begin>2023-04-08T10:49:47Z</begin><end>2023-04-08T10:49:48Z</end></TimeSpan><styleUrl>#point</styleUrl><Point><altitudeMode>clampToGround</altitudeMode><coordinates>30.196258127689362,-28.24070630595088,1239.28</coordinates></Point></Placemark><Placemark><TimeSpan><begin>2023-04-08T10:49:48Z</begin><end>2023-04-08T10:49:49Z</end></TimeSpan><styleUrl>#point</styleUrl><Point><altitudeMode>clampToGround</altitudeMode><coordinates>30.19618721678853,-28.24048058129847,1239.28</coordinates></Point></Placemark><Placemark><TimeSpan><begin>2023-04-08T10:49:49Z</begin><end>2023-04-08T10:49:50Z</end></TimeSpan><styleUrl>#point</styleUrl><Point><altitudeMode>clampToGround</altitudeMode><coordinates>30.196078000590205,-28.240254689007998,1239.76</coordinates></Point></Placemark><Placemark><TimeSpan><begin>2023-04-08T10:49:50Z</begin><end>2023-04-08T10:49:51Z</end></TimeSpan><styleUrl>#point</styleUrl><Point><altitudeMode>clampToGround</altitudeMode><coordinates>30.195940705016255,-28.240047404542565,1240.72</coordinates></Point></Placemark><Placemark><TimeSpan><begin>2023-04-08T10:49:51Z</begin><end>2023-04-08T10:49:52Z</end></TimeSpan><styleUrl>#point</styleUrl><Point><altitudeMode>clampToGround</altitudeMode><coordinates>30.195775497704744,-28.239848501980305,1242.1600000000001</coordinates></Point></Placemark><Placemark><TimeSpan><begin>2023-04-08T10:49:52Z</begin><end>2023-04-08T10:49:53Z</end></TimeSpan><styleUrl>#point</styleUrl><Point><altitudeMode>clampToGround</altitudeMode><coordinates>30.195596544072032,-28.239655466750264,1243.5999999999999</coordinates></Point></Placemark><Placemark><TimeSpan><begin>2023-04-08T10:49:53Z</begin><end>2023-04-08T10:49:58Z</end></TimeSpan><styleUrl>#point</styleUrl><Point><altitudeMode>clampToGround</altitudeMode><coordinates>30.194918615743518,-28.238743348047137,1252.74</coordinates></Point></Placemark><Placemark><TimeSpan><begin>2023-04-08T10:49:58Z</begin><end>2023-04-08T10:49:59Z</end></TimeSpan><styleUrl>#point</styleUrl><Point><altitudeMode>clampToGround</altitudeMode><coordinates>30.194839658215642,-28.238541008904576,1254.1800000000001</coordinates></Point></Placemark><Placemark><TimeSpan><begin>2023-04-08T10:49:59Z</begin><end>2023-04-08T10:50:00Z</end></TimeSpan><styleUrl>#point</styleUrl><Point><altitudeMode>clampToGround</altitudeMode><coordinates>30.194786014035344,-28.238339340314269,1255.6199999999999</coordinates></Point></Placemark><Placemark><TimeSpan><begin>2023-04-08T10:50:00Z</begin><end>2023-04-08T10:50:01Z</end></TimeSpan><styleUrl>#point</styleUrl><Point><altitudeMode>clampToGround</altitudeMode><coordinates>30.194753827527165,-28.238125769421458,1257.0599999999999</coordinates></Point></Placemark><Placemark><TimeSpan><begin>2023-04-08T10:50:01Z</begin><end>2023-04-08T10:50:02Z</end></TimeSpan><styleUrl>#point</styleUrl><Point><altitudeMode>clampToGround</altitudeMode><coordinates>30.194744607433677,-28.237902894616127,1258.5</coordinates></Point></Placemark><Placemark><TimeSpan><begin>2023-04-08T10:50:02Z</begin><end>2023-04-08T10:50:03Z</end></TimeSpan><styleUrl>#point</styleUrl><Point><altitudeMode>clampToGround</altitudeMode><coordinates>30.194757096469402,-28.237672643736005,1259.9400000000001</coordinates></Point></Placemark><Placemark><TimeSpan><begin>2023-04-08T10:50:03Z</begin><end>2023-04-08T10:50:04Z</end></TimeSpan><styleUrl>#point</styleUrl><Point><altitudeMode>clampToGround</altitudeMode><coordinates>30.194785930216312,-28.237436022609472,1260.9100000000001</coordinates></Point></Placemark><Placemark><TimeSpan><begin>2023-04-08T10:50:04Z</begin><end>2023-04-08T10:50:14Z</end></TimeSpan><styleUrl>#point</styleUrl><Point><altitudeMode>clampToGround</altitudeMode><coordinates>30.195169905200601,-28.234823551028967,1272.9200000000001</coordinates></Point></Placemark><Placemark><TimeSpan><begin>2023-04-08T10:50:14Z</begin><end>2023-04-08T10:50:28Z</end></TimeSpan><styleUrl>#point</styleUrl><Point><altitudeMode>clampToGround</altitudeMode><coordinates>30.19565898925066,-28.2312454842031,1297.4400000000001</coordinates></Point></Placemark><Placemark><TimeSpan><begin>2023-04-08T10:50:28Z</begin><end>2023-04-08T10:50:34Z</end></TimeSpan><styleUrl>#point</styleUrl><Point><altitudeMode>clampToGround</altitudeMode><coordinates>30.195476012304425,-28.229889627546072,1309.45</coordinates></Point></Placemark><Placemark><TimeSpan><begin>2023-04-08T10:50:34Z</begin><end>2023-04-08T10:50:40Z</end></TimeSpan><styleUrl>#point</styleUrl><Point><altitudeMode>clampToGround</altitudeMode><coordinates>30.1947105769068,-28.228685315698385,1320.03</coordinates></Point></Placemark><Placemark><TimeSpan><begin>2023-04-08T10:50:40Z</begin><end>2023-04-08T10:50:46Z</end></TimeSpan><styleUrl>#point</styleUrl><Point><altitudeMode>clampToGround</altitudeMode><coordinates>30.19352026283741,-28.227835139259696,1328.6800000000001</coordinates></Point></Placemark><Placemark><TimeSpan><begin>2023-04-08T10:50:46Z</begin><end>2023-04-08T10:50:52Z</end></TimeSpan><styleUrl>#point</styleUrl><Point><altitudeMode>clampToGround</altitudeMode><coordinates>30.192044042050838,-28.227430628612638,1335.8900000000001</coordinates></Point></Placemark><Placemark><TimeSpan><begin>2023-04-08T10:50:52Z</begin><end>2023-04-08T10:50:59Z</end></TimeSpan><styleUrl>#point</styleUrl><Point><altitudeMode>clampToGround</altitudeMode><coordinates>30.190391717478633,-28.227276569232345,1344.54</coordinates></Point></Placemark><Placemark><TimeSpan><begin>2023-04-08T10:50:59Z</begin><end>2023-04-08T10:51:05Z</end></TimeSpan><styleUrl>#point</styleUrl><Point><altitudeMode>clampToGround</altitudeMode><coordinates>30.189192434772849,-28.22673249989748,1352.23</coordinates></Point></Placemark><Placemark><TimeSpan><begin>2023-04-08T10:51:05Z</begin><end>2023-04-08T10:51:11Z</end></TimeSpan><styleUrl>#point</styleUrl><Point><altitudeMode>clampToGround</altitudeMode><coordinates>30.18833446316421,-28.225698508322239,1360.8800000000001</coordinates></Point></Placemark><Placemark><TimeSpan><begin>2023-04-08T10:51:11Z</begin><end>2023-04-08T10:51:17Z</end></TimeSpan><styleUrl>#point</styleUrl><Point><altitudeMode>clampToGround</altitudeMode><coordinates>30.188067248091102,-28.224442647770047,1370.02</coordinates></Point></Placemark><Placemark><TimeSpan><begin>2023-04-08T10:51:17Z</begin><end>2023-04-08T10:51:28Z</end></TimeSpan><styleUrl>#point</styleUrl><Point><altitudeMode>clampToGround</altitudeMode><coordinates>30.187996421009302,-28.222348177805543,1370.98</coordinates></Point></Placemark><Placemark><TimeSpan><begin>2023-04-08T10:51:28Z</begin><end>2023-04-08T10:51:29Z</end></TimeSpan><styleUrl>#point</styleUrl><Point><altitudeMode>clampToGround</altitudeMode><coordinates>30.188013771548867,-28.222154220566154,1370.02</coordinates></Point></Placemark><Placemark><TimeSpan><begin>2023-04-08T10:51:29Z</begin><end>2023-04-08T10:51:30Z</end></TimeSpan><styleUrl>#point</styleUrl><Point><altitudeMode>clampToGround</altitudeMode><coordinates>30.1880535017699,-28.221956994384527,1368.5699999999999</coordinates></Point></Placemark><Placemark><TimeSpan><begin>2023-04-08T10:51:30Z</begin><end>2023-04-08T10:51:31Z</end></TimeSpan><styleUrl>#point</styleUrl><Point><altitudeMode>clampToGround</altitudeMode><coordinates>30.188113264739513,-28.22175532579422,1367.1300000000001</coordinates></Point></Placemark><Placemark><TimeSpan><begin>2023-04-08T10:51:31Z</begin><end>2023-04-08T10:51:32Z</end></TimeSpan><styleUrl>#point</styleUrl><Point><altitudeMode>clampToGround</altitudeMode><coordinates>30.188195323571563,-28.221554830670357,1365.6900000000001</coordinates></Point></Placemark><Placemark><TimeSpan><begin>2023-04-08T10:51:32Z</begin><end>2023-04-08T10:51:33Z</end></TimeSpan><styleUrl>#point</styleUrl><Point><altitudeMode>clampToGround</altitudeMode><coordinates>30.188300348818302,-28.221359280869365,1363.77</coordinates></Point></Placemark><Placemark><TimeSpan><begin>2023-04-08T10:51:33Z</begin><end>2023-04-08T10:51:34Z</end></TimeSpan><styleUrl>#point</styleUrl><Point><altitudeMode>clampToGround</altitudeMode><coordinates>30.188429849222302,-28.221167586743832,1362.3299999999999</coordinates></Point></Placemark><Placemark><TimeSpan><begin>2023-04-08T10:51:34Z</begin><end>2023-04-08T10:51:35Z</end></TimeSpan><styleUrl>#point</styleUrl><Point><altitudeMode>clampToGround</altitudeMode><coordinates>30.188583070412278,-28.220978826284409,1360.4000000000001</coordinates></Point></Placemark><Placemark><TimeSpan><begin>2023-04-08T10:51:35Z</begin><end>2023-04-08T10:51:36Z</end></TimeSpan><styleUrl>#point</styleUrl><Point><altitudeMode>clampToGround</altitudeMode><coordinates>30.188756324350834,-28.220790904015303,1358.48</coordinates></Point></Placemark><Placemark><TimeSpan><begin>2023-04-08T10:51:36Z</begin><end>2023-04-08T10:51:43Z</end></TimeSpan><styleUrl>#point</styleUrl><Point><altitudeMode>clampToGround</altitudeMode><coordinates>30.189857538789511,-28.219346534460783,1344.54</coordinates></Point></Placemark><Placemark><TimeSpan><begin>2023-04-08T10:51:43Z</begin><end>2023-04-08T10:51:48Z</end></TimeSpan><styleUrl>#point</styleUrl><Point><altitudeMode>clampToGround</altitudeMode><coordinates>30.190127771347761,-28.218094278126955,1335.8900000000001</coordinates></Point></Placemark><Placemark><TimeSpan><begin>2023-04-08T10:51:48Z</begin><end>2023-04-08T10:51:54Z</end></TimeSpan><styleUrl>#point</styleUrl><Point><altitudeMode>clampToGround</altitudeMode><coordinates>30.189862316474319,-28.216460729017854,1327.72</coordinates></Point></Placemark><Placemark><TimeSpan><begin>2023-04-08T10:51:54Z</begin><end>2023-04-08T10:52:04Z</end></TimeSpan><styleUrl>#point</styleUrl><Point><altitudeMode>clampToGround</altitudeMode><coordinates>30.189394019544125,-28.213879521936178,1316.1800000000001</coordinates></Point></Placemark><Placemark><TimeSpan><begin>2023-04-08T10:52:04Z</begin><end>2023-04-08T10:52:05Z</end></TimeSpan><styleUrl>#point</styleUrl><Point><altitudeMode>clampToGround</altitudeMode><coordinates>30.189412040635943,-28.213626807555556,1315.22</coordinates></Point></Placemark><Placemark><TimeSpan><begin>2023-04-08T10:52:05Z</begin><end>2023-04-08T10:52:06Z</end></TimeSpan><styleUrl>#point</styleUrl><Point><altitudeMode>clampToGround</altitudeMode><coordinates>30.189457889646292,-28.213373674079776,1314.26</coordinates></Point></Placemark><Placemark><TimeSpan><begin>2023-04-08T10:52:06Z</begin><end>2023-04-08T10:52:07Z</end></TimeSpan><styleUrl>#point</styleUrl><Point><altitudeMode>clampToGround</altitudeMode><coordinates>30.189527543261647,-28.213128335773945,1313.3</coordinates></Point></Placemark><Placemark><TimeSpan><begin>2023-04-08T10:52:07Z</begin><end>2023-04-08T10:52:08Z</end></TimeSpan><styleUrl>#point</styleUrl><Point><altitudeMode>clampToGround</altitudeMode><coordinates>30.189626784995198,-28.212884506210685,1312.3399999999999</coordinates></Point></Placemark><Placemark><TimeSpan><begin>2023-04-08T10:52:08Z</begin><end>2023-04-08T10:52:09Z</end></TimeSpan><styleUrl>#point</styleUrl><Point><altitudeMode>clampToGround</altitudeMode><coordinates>30.1897475682199,-28.212650818750262,1311.3800000000001</coordinates></Point></Placemark><Placemark><TimeSpan><begin>2023-04-08T10:52:09Z</begin><end>2023-04-08T10:52:10Z</end></TimeSpan><styleUrl>#point</styleUrl><Point><altitudeMode>clampToGround</altitudeMode><coordinates>30.189894000068307,-28.212412353605032,1310.4100000000001</coordinates></Point></Placemark><Placemark><TimeSpan><begin>2023-04-08T10:52:10Z</begin><end>2023-04-08T10:52:11Z</end></TimeSpan><styleUrl>#point</styleUrl><Point><altitudeMode>clampToGround</altitudeMode><coordinates>30.190047221258283,-28.212186209857464,1309.45</coordinates></Point></Placemark><Placemark><TimeSpan><begin>2023-04-08T10:52:11Z</begin><end>2023-04-08T10:52:24Z</end></TimeSpan><styleUrl>#point</styleUrl><Point><altitudeMode>clampToGround</altitudeMode><coordinates>30.192214194685221,-28.209001924842596,1298.4000000000001</coordinates></Point></Placemark><Placemark><TimeSpan><begin>2023-04-08T10:52:24Z</begin><end>2023-04-08T10:52:42Z</end></TimeSpan><styleUrl>#point</styleUrl><Point><altitudeMode>clampToGround</altitudeMode><coordinates>30.195233272388577,-28.204600252211094,1281.5699999999999</coordinates></Point></Placemark><Placemark><TimeSpan><begin>2023-04-08T10:52:42Z</begin><end>2023-04-08T10:52:57Z</end></TimeSpan><styleUrl>#point</styleUrl><Point><altitudeMode>clampToGround</altitudeMode><coordinates>30.197662599384785,-28.201124360784888,1287.8199999999999</coordinates></Point></Placemark></Folder><Placemark><name>[353] Endoumeni Pass (Wenkommando Pass)</name><Style><LineStyle><color>ff00ff00</color><width>4</width></LineStyle></Style><MultiGeometry><LineString><coordinates>30.17933489754796,-28.263674480840564,1117.1900000000001 30.179770505055785,-28.261876730248332,1110.9400000000001 30.180619843304157,-28.260450381785631,1116.23 30.182334864512086,-28.259025458246469,1120.0699999999999 30.186543921008706,-28.255622824653983,1136.4200000000001 30.188860343769193,-28.253783835098147,1146.99 30.189746059477329,-28.253017058596015,1150.3499999999999 30.189859634265304,-28.252865765243769,1150.8399999999999 30.189954182133079,-28.252705335617065,1151.8 30.190020734444261,-28.252537362277508,1152.28 30.190054262056947,-28.252363353967667,1152.76 30.190056692808867,-28.252185909077525,1153.72 30.19002459011972,-28.252007542178035,1154.6800000000001 30.18995963037014,-28.251835126429796,1155.6400000000001 30.189867010340095,-28.251668410375714,1156.5999999999999 30.189750334247947,-28.251509154215455,1157.5599999999999 30.189609182998538,-28.251360543072224,1158.53 30.189448082819581,-28.251220649108291,1159.97 30.18927508033812,-28.251082515344024,1160.9300000000001 30.187896927818656,-28.249953305348754,1171.02 30.187687631696463,-28.249638732522726,1173.4300000000001 30.187617978081107,-28.249474782496691,1174.8699999999999 30.187577493488789,-28.249305300414562,1175.8299999999999 30.187567854300141,-28.249130537733436,1177.27 30.187590150162578,-28.248954098671675,1178.23 30.187644381076097,-28.248780677095056,1179.6700000000001 30.187730211764574,-28.24861329048872,1180.6400000000001 30.187842948362231,-28.248456884175539,1182.0799999999999 30.187979154288769,-28.248314308002591,1183.52 30.188139667734504,-28.248189417645335,1184.96 30.188320633023977,-28.248082967475057,1186.4000000000001 30.188515763729811,-28.247989593073726,1188.3299999999999 30.188721790909767,-28.247906696051359,1189.77 30.188937205821276,-28.247833019122481,1191.21 30.1891621761024,-28.247766885906458,1192.6500000000001 30.191296208649874,-28.247063308954239,1205.1500000000001 30.191508857533336,-28.246919391676784,1206.5899999999999 30.191703317686915,-28.246761057525873,1207.55 30.191893838346004,-28.24658302590251,1209.48 30.192067846655846,-28.246398204937577,1210.9200000000001 30.19432844594121,-28.243889836594462,1234.95 30.196109684184194,-28.241830738261342,1241.6800000000001 30.196203729137778,-28.241623034700751,1241.2 30.19626634195447,-28.241404183208942,1240.72 30.196297187358141,-28.241174351423979,1239.76 30.196295259520411,-28.24094426818192,1239.28 30.196258127689362,-28.24070630595088,1239.28 30.19618721678853,-28.24048058129847,1239.28 30.196078000590205,-28.240254689007998,1239.76 30.195940705016255,-28.240047404542565,1240.72 30.195775497704744,-28.239848501980305,1242.1600000000001 30.195596544072032,-28.239655466750264,1243.5999999999999 30.194918615743518,-28.238743348047137,1252.74 30.194839658215642,-28.238541008904576,1254.1800000000001 30.194786014035344,-28.238339340314269,1255.6199999999999 30.194753827527165,-28.238125769421458,1257.0599999999999 30.194744607433677,-28.237902894616127,1258.5 30.194757096469402,-28.237672643736005,1259.9400000000001 30.194785930216312,-28.237436022609472,1260.9100000000001 30.195169905200601,-28.234823551028967,1272.9200000000001 30.19565898925066,-28.2312454842031,1297.4400000000001 30.195476012304425,-28.229889627546072,1309.45 30.1947105769068,-28.228685315698385,1320.03 30.19352026283741,-28.227835139259696,1328.6800000000001 30.192044042050838,-28.227430628612638,1335.8900000000001 30.190391717478633,-28.227276569232345,1344.54 30.189192434772849,-28.22673249989748,1352.23 30.18833446316421,-28.225698508322239,1360.8800000000001 30.188067248091102,-28.224442647770047,1370.02 30.187996421009302,-28.222348177805543,1370.98 30.188013771548867,-28.222154220566154,1370.02 30.1880535017699,-28.221956994384527,1368.5699999999999 30.188113264739513,-28.22175532579422,1367.1300000000001 30.188195323571563,-28.221554830670357,1365.6900000000001 30.188300348818302,-28.221359280869365,1363.77 30.188429849222302,-28.221167586743832,1362.3299999999999 30.188583070412278,-28.220978826284409,1360.4000000000001 30.188756324350834,-28.220790904015303,1358.48 30.189857538789511,-28.219346534460783,1344.54 30.190127771347761,-28.218094278126955,1335.8900000000001 30.189862316474319,-28.216460729017854,1327.72 30.189394019544125,-28.213879521936178,1316.1800000000001 30.189412040635943,-28.213626807555556,1315.22 30.189457889646292,-28.213373674079776,1314.26 30.189527543261647,-28.213128335773945,1313.3 30.189626784995198,-28.212884506210685,1312.3399999999999 30.1897475682199,-28.212650818750262,1311.3800000000001 30.189894000068307,-28.212412353605032,1310.4100000000001 30.190047221258283,-28.212186209857464,1309.45 30.192214194685221,-28.209001924842596,1298.4000000000001 30.195233272388577,-28.204600252211094,1281.5699999999999 30.197662599384785,-28.201124360784888,1287.8199999999999 </coordinates></LineString></MultiGeometry></Placemark></Folder></Folder></Document></kml>