<?xml version="1.0" encoding="utf-8"?><kml xmlns="http://www.opengis.net/kml/2.2" xmlns:xsi="http://www.w3.org/2001/XMLSchema-instance" xmlns:kmlx="http://www.google.com/kml/ext/2.2" xmlns:atom="http://www.w3.org/2005/Atom" xmlns:gpxx="http://www.garmin.com/xmlschemas/GpxExtensions/v3"><Document><Style id="point"><IconStyle><scale>0.9</scale><Icon><href>http://maps.google.com/mapfiles/kml/shapes/placemark_circle.png</href></Icon></IconStyle></Style><Folder><name>Tracks</name><Folder><name>[354] Mpate Mountain Pass (Ascend)</name><Folder><name>Points</name><Style><ListStyle><listItemType>checkHideChildren</listItemType></ListStyle></Style><Placemark><TimeSpan><begin>2023-04-09T05:07:16Z</begin><end>2023-04-09T05:07:16Z</end></TimeSpan><Style><IconStyle><scale>0.9</scale><Icon><href>http://connect.garmin.com/image/main/icons/kml/grn-play.png</href></Icon></IconStyle></Style><Point><altitudeMode>clampToGround</altitudeMode><coordinates>30.191816976293921,-28.145383279770613,1296.48</coordinates></Point></Placemark><Placemark><TimeSpan><begin>2023-04-09T05:07:16Z</begin><end>2023-04-09T05:07:17Z</end></TimeSpan><styleUrl>#point</styleUrl><Point><altitudeMode>clampToGround</altitudeMode><coordinates>30.191823933273554,-28.145333658903837,1297.4400000000001</coordinates></Point></Placemark><Placemark><TimeSpan><begin>2023-04-09T05:07:17Z</begin><end>2023-04-09T05:07:18Z</end></TimeSpan><styleUrl>#point</styleUrl><Point><altitudeMode>clampToGround</altitudeMode><coordinates>30.191834578290582,-28.145277416333556,1297.9200000000001</coordinates></Point></Placemark><Placemark><TimeSpan><begin>2023-04-09T05:07:18Z</begin><end>2023-04-09T05:07:20Z</end></TimeSpan><styleUrl>#point</styleUrl><Point><altitudeMode>clampToGround</altitudeMode><coordinates>30.191845390945673,-28.145145233720541,1298.4000000000001</coordinates></Point></Placemark><Placemark><TimeSpan><begin>2023-04-09T05:07:20Z</begin><end>2023-04-09T05:07:28Z</end></TimeSpan><styleUrl>#point</styleUrl><Point><altitudeMode>clampToGround</altitudeMode><coordinates>30.191688230261207,-28.144300673156977,1302.24</coordinates></Point></Placemark><Placemark><TimeSpan><begin>2023-04-09T05:07:28Z</begin><end>2023-04-09T05:07:40Z</end></TimeSpan><styleUrl>#point</styleUrl><Point><altitudeMode>clampToGround</altitudeMode><coordinates>30.19147876650095,-28.143081860616803,1303.2</coordinates></Point></Placemark><Placemark><TimeSpan><begin>2023-04-09T05:07:40Z</begin><end>2023-04-09T05:07:48Z</end></TimeSpan><styleUrl>#point</styleUrl><Point><altitudeMode>clampToGround</altitudeMode><coordinates>30.191507181152701,-28.142495546489954,1300.8</coordinates></Point></Placemark><Placemark><TimeSpan><begin>2023-04-09T05:07:48Z</begin><end>2023-04-09T05:07:49Z</end></TimeSpan><styleUrl>#point</styleUrl><Point><altitudeMode>clampToGround</altitudeMode><coordinates>30.191531404852867,-28.142425054684281,1300.3199999999999</coordinates></Point></Placemark><Placemark><TimeSpan><begin>2023-04-09T05:07:49Z</begin><end>2023-04-09T05:07:50Z</end></TimeSpan><styleUrl>#point</styleUrl><Point><altitudeMode>clampToGround</altitudeMode><coordinates>30.191562166437507,-28.142358167096972,1299.8399999999999</coordinates></Point></Placemark><Placemark><TimeSpan><begin>2023-04-09T05:07:50Z</begin><end>2023-04-09T05:07:51Z</end></TimeSpan><styleUrl>#point</styleUrl><Point><altitudeMode>clampToGround</altitudeMode><coordinates>30.191597370430827,-28.142294632270932,1299.3599999999999</coordinates></Point></Placemark><Placemark><TimeSpan><begin>2023-04-09T05:07:51Z</begin><end>2023-04-09T05:07:52Z</end></TimeSpan><styleUrl>#point</styleUrl><Point><altitudeMode>clampToGround</altitudeMode><coordinates>30.191635256633162,-28.142231684178114,1298.8800000000001</coordinates></Point></Placemark><Placemark><TimeSpan><begin>2023-04-09T05:07:52Z</begin><end>2023-04-09T05:08:06Z</end></TimeSpan><styleUrl>#point</styleUrl><Point><altitudeMode>clampToGround</altitudeMode><coordinates>30.19220681861043,-28.141444539651275,1287.8199999999999</coordinates></Point></Placemark><Placemark><TimeSpan><begin>2023-04-09T05:08:06Z</begin><end>2023-04-09T05:08:10Z</end></TimeSpan><styleUrl>#point</styleUrl><Point><altitudeMode>clampToGround</altitudeMode><coordinates>30.192345790565014,-28.14121856354177,1288.3</coordinates></Point></Placemark><Placemark><TimeSpan><begin>2023-04-09T05:08:10Z</begin><end>2023-04-09T05:08:11Z</end></TimeSpan><styleUrl>#point</styleUrl><Point><altitudeMode>clampToGround</altitudeMode><coordinates>30.192361883819103,-28.141161650419235,1288.78</coordinates></Point></Placemark><Placemark><TimeSpan><begin>2023-04-09T05:08:11Z</begin><end>2023-04-09T05:08:23Z</end></TimeSpan><styleUrl>#point</styleUrl><Point><altitudeMode>clampToGround</altitudeMode><coordinates>30.192427849397063,-28.140344582498074,1293.5899999999999</coordinates></Point></Placemark><Placemark><TimeSpan><begin>2023-04-09T05:08:23Z</begin><end>2023-04-09T05:08:34Z</end></TimeSpan><styleUrl>#point</styleUrl><Point><altitudeMode>clampToGround</altitudeMode><coordinates>30.192800927907228,-28.139411173760891,1297.9200000000001</coordinates></Point></Placemark><Placemark><TimeSpan><begin>2023-04-09T05:08:34Z</begin><end>2023-04-09T05:08:48Z</end></TimeSpan><styleUrl>#point</styleUrl><Point><altitudeMode>clampToGround</altitudeMode><coordinates>30.193163864314556,-28.13834834843874,1306.5699999999999</coordinates></Point></Placemark><Placemark><TimeSpan><begin>2023-04-09T05:08:48Z</begin><end>2023-04-09T05:09:04Z</end></TimeSpan><styleUrl>#point</styleUrl><Point><altitudeMode>clampToGround</altitudeMode><coordinates>30.193464355543256,-28.137191729620099,1316.1800000000001</coordinates></Point></Placemark><Placemark><TimeSpan><begin>2023-04-09T05:09:04Z</begin><end>2023-04-09T05:09:10Z</end></TimeSpan><styleUrl>#point</styleUrl><Point><altitudeMode>clampToGround</altitudeMode><coordinates>30.193558232858777,-28.13684438355267,1320.99</coordinates></Point></Placemark><Placemark><TimeSpan><begin>2023-04-09T05:09:10Z</begin><end>2023-04-09T05:09:21Z</end></TimeSpan><styleUrl>#point</styleUrl><Point><altitudeMode>clampToGround</altitudeMode><coordinates>30.193795440718532,-28.136002253741026,1331.5599999999999</coordinates></Point></Placemark><Placemark><TimeSpan><begin>2023-04-09T05:09:21Z</begin><end>2023-04-09T05:09:29Z</end></TimeSpan><styleUrl>#point</styleUrl><Point><altitudeMode>clampToGround</altitudeMode><coordinates>30.193729978054762,-28.135192980989814,1340.7</coordinates></Point></Placemark><Placemark><TimeSpan><begin>2023-04-09T05:09:29Z</begin><end>2023-04-09T05:09:34Z</end></TimeSpan><styleUrl>#point</styleUrl><Point><altitudeMode>clampToGround</altitudeMode><coordinates>30.193678177893162,-28.134546736255288,1347.9100000000001</coordinates></Point></Placemark><Placemark><TimeSpan><begin>2023-04-09T05:09:34Z</begin><end>2023-04-09T05:09:35Z</end></TimeSpan><styleUrl>#point</styleUrl><Point><altitudeMode>clampToGround</altitudeMode><coordinates>30.193685553967953,-28.134450931102037,1349.3499999999999</coordinates></Point></Placemark><Placemark><TimeSpan><begin>2023-04-09T05:09:35Z</begin><end>2023-04-09T05:09:36Z</end></TimeSpan><styleUrl>#point</styleUrl><Point><altitudeMode>clampToGround</altitudeMode><coordinates>30.193697288632393,-28.134368285536766,1350.79</coordinates></Point></Placemark><Placemark><TimeSpan><begin>2023-04-09T05:09:36Z</begin><end>2023-04-09T05:09:37Z</end></TimeSpan><styleUrl>#point</styleUrl><Point><altitudeMode>clampToGround</altitudeMode><coordinates>30.193715142086148,-28.134295949712396,1352.23</coordinates></Point></Placemark><Placemark><TimeSpan><begin>2023-04-09T05:09:37Z</begin><end>2023-04-09T05:09:38Z</end></TimeSpan><styleUrl>#point</styleUrl><Point><altitudeMode>clampToGround</altitudeMode><coordinates>30.193742299452424,-28.134221602231264,1353.1900000000001</coordinates></Point></Placemark><Placemark><TimeSpan><begin>2023-04-09T05:09:38Z</begin><end>2023-04-09T05:09:39Z</end></TimeSpan><styleUrl>#point</styleUrl><Point><altitudeMode>clampToGround</altitudeMode><coordinates>30.193779682740569,-28.134140213951468,1354.1500000000001</coordinates></Point></Placemark><Placemark><TimeSpan><begin>2023-04-09T05:09:39Z</begin><end>2023-04-09T05:09:40Z</end></TimeSpan><styleUrl>#point</styleUrl><Point><altitudeMode>clampToGround</altitudeMode><coordinates>30.193822933360934,-28.134051198139787,1355.5999999999999</coordinates></Point></Placemark><Placemark><TimeSpan><begin>2023-04-09T05:09:40Z</begin><end>2023-04-09T05:09:45Z</end></TimeSpan><styleUrl>#point</styleUrl><Point><altitudeMode>clampToGround</altitudeMode><coordinates>30.194076821208,-28.133576530963182,1361.8399999999999</coordinates></Point></Placemark><Placemark><TimeSpan><begin>2023-04-09T05:09:45Z</begin><end>2023-04-09T05:09:46Z</end></TimeSpan><styleUrl>#point</styleUrl><Point><altitudeMode>clampToGround</altitudeMode><coordinates>30.19414471462369,-28.133506625890732,1363.29</coordinates></Point></Placemark><Placemark><TimeSpan><begin>2023-04-09T05:09:46Z</begin><end>2023-04-09T05:09:47Z</end></TimeSpan><styleUrl>#point</styleUrl><Point><altitudeMode>clampToGround</altitudeMode><coordinates>30.194221576675773,-28.133447784930468,1364.25</coordinates></Point></Placemark><Placemark><TimeSpan><begin>2023-04-09T05:09:47Z</begin><end>2023-04-09T05:09:48Z</end></TimeSpan><styleUrl>#point</styleUrl><Point><altitudeMode>clampToGround</altitudeMode><coordinates>30.194312017410994,-28.133398834615946,1365.21</coordinates></Point></Placemark><Placemark><TimeSpan><begin>2023-04-09T05:09:48Z</begin><end>2023-04-09T05:09:49Z</end></TimeSpan><styleUrl>#point</styleUrl><Point><altitudeMode>clampToGround</altitudeMode><coordinates>30.194415617734194,-28.133364217355847,1366.6500000000001</coordinates></Point></Placemark><Placemark><TimeSpan><begin>2023-04-09T05:09:49Z</begin><end>2023-04-09T05:09:50Z</end></TimeSpan><styleUrl>#point</styleUrl><Point><altitudeMode>clampToGround</altitudeMode><coordinates>30.194530365988612,-28.133348627015948,1367.6099999999999</coordinates></Point></Placemark><Placemark><TimeSpan><begin>2023-04-09T05:09:50Z</begin><end>2023-04-09T05:09:51Z</end></TimeSpan><styleUrl>#point</styleUrl><Point><altitudeMode>clampToGround</altitudeMode><coordinates>30.194653496146202,-28.133351560682058,1369.05</coordinates></Point></Placemark><Placemark><TimeSpan><begin>2023-04-09T05:09:51Z</begin><end>2023-04-09T05:09:52Z</end></TimeSpan><styleUrl>#point</styleUrl><Point><altitudeMode>clampToGround</altitudeMode><coordinates>30.1947814039886,-28.133368827402592,1370.02</coordinates></Point></Placemark><Placemark><TimeSpan><begin>2023-04-09T05:09:52Z</begin><end>2023-04-09T05:09:53Z</end></TimeSpan><styleUrl>#point</styleUrl><Point><altitudeMode>clampToGround</altitudeMode><coordinates>30.19491576589644,-28.133395230397582,1371.46</coordinates></Point></Placemark><Placemark><TimeSpan><begin>2023-04-09T05:09:53Z</begin><end>2023-04-09T05:09:58Z</end></TimeSpan><styleUrl>#point</styleUrl><Point><altitudeMode>clampToGround</altitudeMode><coordinates>30.195576762780547,-28.13347477465868,1375.3</coordinates></Point></Placemark><Placemark><TimeSpan><begin>2023-04-09T05:09:58Z</begin><end>2023-04-09T05:10:02Z</end></TimeSpan><styleUrl>#point</styleUrl><Point><altitudeMode>clampToGround</altitudeMode><coordinates>30.196001389995217,-28.133537052199244,1378.1900000000001</coordinates></Point></Placemark><Placemark><TimeSpan><begin>2023-04-09T05:10:02Z</begin><end>2023-04-09T05:10:03Z</end></TimeSpan><styleUrl>#point</styleUrl><Point><altitudeMode>clampToGround</altitudeMode><coordinates>30.196089316159487,-28.133529257029295,1378.1900000000001</coordinates></Point></Placemark><Placemark><TimeSpan><begin>2023-04-09T05:10:03Z</begin><end>2023-04-09T05:10:04Z</end></TimeSpan><styleUrl>#point</styleUrl><Point><altitudeMode>clampToGround</altitudeMode><coordinates>30.196175230666995,-28.133506374433637,1378.6700000000001</coordinates></Point></Placemark><Placemark><TimeSpan><begin>2023-04-09T05:10:04Z</begin><end>2023-04-09T05:10:05Z</end></TimeSpan><styleUrl>#point</styleUrl><Point><altitudeMode>clampToGround</altitudeMode><coordinates>30.196264581754804,-28.133467398583889,1378.6700000000001</coordinates></Point></Placemark><Placemark><TimeSpan><begin>2023-04-09T05:10:05Z</begin><end>2023-04-09T05:10:06Z</end></TimeSpan><styleUrl>#point</styleUrl><Point><altitudeMode>clampToGround</altitudeMode><coordinates>30.196357872337103,-28.13341811299324,1378.6700000000001</coordinates></Point></Placemark><Placemark><TimeSpan><begin>2023-04-09T05:10:06Z</begin><end>2023-04-09T05:10:14Z</end></TimeSpan><styleUrl>#point</styleUrl><Point><altitudeMode>clampToGround</altitudeMode><coordinates>30.197223555296659,-28.132855771109462,1384.4400000000001</coordinates></Point></Placemark><Placemark><TimeSpan><begin>2023-04-09T05:10:14Z</begin><end>2023-04-09T05:10:26Z</end></TimeSpan><styleUrl>#point</styleUrl><Point><altitudeMode>clampToGround</altitudeMode><coordinates>30.198353603482246,-28.131871316581964,1399.3399999999999</coordinates></Point></Placemark><Placemark><TimeSpan><begin>2023-04-09T05:10:26Z</begin><end>2023-04-09T05:10:34Z</end></TimeSpan><styleUrl>#point</styleUrl><Point><altitudeMode>clampToGround</altitudeMode><coordinates>30.199135551229119,-28.131167320534587,1410.3900000000001</coordinates></Point></Placemark><Placemark><TimeSpan><begin>2023-04-09T05:10:34Z</begin><end>2023-04-09T05:10:35Z</end></TimeSpan><styleUrl>#point</styleUrl><Point><altitudeMode>clampToGround</altitudeMode><coordinates>30.199212161824107,-28.131083585321903,1411.8299999999999</coordinates></Point></Placemark><Placemark><TimeSpan><begin>2023-04-09T05:10:35Z</begin><end>2023-04-09T05:10:36Z</end></TimeSpan><styleUrl>#point</styleUrl><Point><altitudeMode>clampToGround</altitudeMode><coordinates>30.199277875944972,-28.130988869816065,1413.28</coordinates></Point></Placemark><Placemark><TimeSpan><begin>2023-04-09T05:10:36Z</begin><end>2023-04-09T05:10:44Z</end></TimeSpan><styleUrl>#point</styleUrl><Point><altitudeMode>clampToGround</altitudeMode><coordinates>30.199774755164981,-28.130298620089889,1422.4100000000001</coordinates></Point></Placemark><Placemark><TimeSpan><begin>2023-04-09T05:10:44Z</begin><end>2023-04-09T05:10:45Z</end></TimeSpan><styleUrl>#point</styleUrl><Point><altitudeMode>clampToGround</altitudeMode><coordinates>30.199799900874496,-28.130231397226453,1423.3699999999999</coordinates></Point></Placemark><Placemark><TimeSpan><begin>2023-04-09T05:10:45Z</begin><end>2023-04-09T05:10:49Z</end></TimeSpan><styleUrl>#point</styleUrl><Point><altitudeMode>clampToGround</altitudeMode><coordinates>30.199947170913219,-28.129856139421463,1426.25</coordinates></Point></Placemark><Placemark><TimeSpan><begin>2023-04-09T05:10:49Z</begin><end>2023-04-09T05:10:50Z</end></TimeSpan><styleUrl>#point</styleUrl><Point><altitudeMode>clampToGround</altitudeMode><coordinates>30.20001464523375,-28.129746839404106,1427.21</coordinates></Point></Placemark><Placemark><TimeSpan><begin>2023-04-09T05:10:50Z</begin><end>2023-04-09T05:10:51Z</end></TimeSpan><styleUrl>#point</styleUrl><Point><altitudeMode>clampToGround</altitudeMode><coordinates>30.200096536427736,-28.129636868834496,1428.1800000000001</coordinates></Point></Placemark><Placemark><TimeSpan><begin>2023-04-09T05:10:51Z</begin><end>2023-04-09T05:10:57Z</end></TimeSpan><styleUrl>#point</styleUrl><Point><altitudeMode>clampToGround</altitudeMode><coordinates>30.200489815324545,-28.129195980727673,1434.4200000000001</coordinates></Point></Placemark><Placemark><TimeSpan><begin>2023-04-09T05:10:57Z</begin><end>2023-04-09T05:11:03Z</end></TimeSpan><styleUrl>#point</styleUrl><Point><altitudeMode>clampToGround</altitudeMode><coordinates>30.20064789801836,-28.129059188067913,1437.79</coordinates></Point></Placemark><Placemark><TimeSpan><begin>2023-04-09T05:11:03Z</begin><end>2023-04-09T05:11:04Z</end></TimeSpan><styleUrl>#point</styleUrl><Point><altitudeMode>clampToGround</altitudeMode><coordinates>30.200682347640395,-28.129027253016829,1438.27</coordinates></Point></Placemark><Placemark><TimeSpan><begin>2023-04-09T05:11:04Z</begin><end>2023-04-09T05:11:05Z</end></TimeSpan><styleUrl>#point</styleUrl><Point><altitudeMode>clampToGround</altitudeMode><coordinates>30.2007304597646,-28.128997413441539,1438.75</coordinates></Point></Placemark><Placemark><TimeSpan><begin>2023-04-09T05:11:05Z</begin><end>2023-04-09T05:11:06Z</end></TimeSpan><styleUrl>#point</styleUrl><Point><altitudeMode>clampToGround</altitudeMode><coordinates>30.200799107551575,-28.128968831151724,1439.23</coordinates></Point></Placemark><Placemark><TimeSpan><begin>2023-04-09T05:11:06Z</begin><end>2023-04-09T05:11:07Z</end></TimeSpan><styleUrl>#point</styleUrl><Point><altitudeMode>clampToGround</altitudeMode><coordinates>30.200884686782956,-28.128943685442209,1439.71</coordinates></Point></Placemark><Placemark><TimeSpan><begin>2023-04-09T05:11:07Z</begin><end>2023-04-09T05:11:08Z</end></TimeSpan><styleUrl>#point</styleUrl><Point><altitudeMode>clampToGround</altitudeMode><coordinates>30.200981916859746,-28.128926251083612,1440.6700000000001</coordinates></Point></Placemark><Placemark><TimeSpan><begin>2023-04-09T05:11:08Z</begin><end>2023-04-09T05:11:09Z</end></TimeSpan><styleUrl>#point</styleUrl><Point><altitudeMode>clampToGround</altitudeMode><coordinates>30.201099263504148,-28.128916276618838,1441.1500000000001</coordinates></Point></Placemark><Placemark><TimeSpan><begin>2023-04-09T05:11:09Z</begin><end>2023-04-09T05:11:10Z</end></TimeSpan><styleUrl>#point</styleUrl><Point><altitudeMode>clampToGround</altitudeMode><coordinates>30.201219376176596,-28.128914432600141,1442.1099999999999</coordinates></Point></Placemark><Placemark><TimeSpan><begin>2023-04-09T05:11:10Z</begin><end>2023-04-09T05:11:11Z</end></TimeSpan><styleUrl>#point</styleUrl><Point><altitudeMode>clampToGround</altitudeMode><coordinates>30.201327921822667,-28.128913007676601,1443.0799999999999</coordinates></Point></Placemark><Placemark><TimeSpan><begin>2023-04-09T05:11:11Z</begin><end>2023-04-09T05:11:12Z</end></TimeSpan><styleUrl>#point</styleUrl><Point><altitudeMode>clampToGround</altitudeMode><coordinates>30.201429091393948,-28.128907140344381,1444.52</coordinates></Point></Placemark><Placemark><TimeSpan><begin>2023-04-09T05:11:12Z</begin><end>2023-04-09T05:11:13Z</end></TimeSpan><styleUrl>#point</styleUrl><Point><altitudeMode>clampToGround</altitudeMode><coordinates>30.201528500765562,-28.128894316032529,1445.48</coordinates></Point></Placemark><Placemark><TimeSpan><begin>2023-04-09T05:11:13Z</begin><end>2023-04-09T05:11:14Z</end></TimeSpan><styleUrl>#point</styleUrl><Point><altitudeMode>clampToGround</altitudeMode><coordinates>30.201628832146525,-28.128870176151395,1446.9200000000001</coordinates></Point></Placemark><Placemark><TimeSpan><begin>2023-04-09T05:11:14Z</begin><end>2023-04-09T05:11:15Z</end></TimeSpan><styleUrl>#point</styleUrl><Point><altitudeMode>clampToGround</altitudeMode><coordinates>30.201736623421311,-28.12883916310966,1447.8800000000001</coordinates></Point></Placemark><Placemark><TimeSpan><begin>2023-04-09T05:11:15Z</begin><end>2023-04-09T05:11:21Z</end></TimeSpan><styleUrl>#point</styleUrl><Point><altitudeMode>clampToGround</altitudeMode><coordinates>30.20246216095984,-28.128688456490636,1455.5699999999999</coordinates></Point></Placemark><Placemark><TimeSpan><begin>2023-04-09T05:11:21Z</begin><end>2023-04-09T05:11:22Z</end></TimeSpan><styleUrl>#point</styleUrl><Point><altitudeMode>clampToGround</altitudeMode><coordinates>30.2025764901191,-28.128652833402157,1457.02</coordinates></Point></Placemark><Placemark><TimeSpan><begin>2023-04-09T05:11:22Z</begin><end>2023-04-09T05:11:23Z</end></TimeSpan><styleUrl>#point</styleUrl><Point><altitudeMode>clampToGround</altitudeMode><coordinates>30.202685790136456,-28.128609750419855,1458.46</coordinates></Point></Placemark><Placemark><TimeSpan><begin>2023-04-09T05:11:23Z</begin><end>2023-04-09T05:11:25Z</end></TimeSpan><styleUrl>#point</styleUrl><Point><altitudeMode>clampToGround</altitudeMode><coordinates>30.202897097915411,-28.12852936796844,1461.3399999999999</coordinates></Point></Placemark><Placemark><TimeSpan><begin>2023-04-09T05:11:25Z</begin><end>2023-04-09T05:11:26Z</end></TimeSpan><styleUrl>#point</styleUrl><Point><altitudeMode>clampToGround</altitudeMode><coordinates>30.203007319942117,-28.128503216430545,1462.78</coordinates></Point></Placemark><Placemark><TimeSpan><begin>2023-04-09T05:11:26Z</begin><end>2023-04-09T05:11:27Z</end></TimeSpan><styleUrl>#point</styleUrl><Point><altitudeMode>clampToGround</altitudeMode><coordinates>30.203126762062311,-28.128488212823868,1463.74</coordinates></Point></Placemark><Placemark><TimeSpan><begin>2023-04-09T05:11:27Z</begin><end>2023-04-09T05:11:35Z</end></TimeSpan><styleUrl>#point</styleUrl><Point><altitudeMode>clampToGround</altitudeMode><coordinates>30.204081041738391,-28.128341697156429,1472.8800000000001</coordinates></Point></Placemark><Placemark><TimeSpan><begin>2023-04-09T05:11:35Z</begin><end>2023-04-09T05:11:37Z</end></TimeSpan><styleUrl>#point</styleUrl><Point><altitudeMode>clampToGround</altitudeMode><coordinates>30.204226216301322,-28.128272630274296,1474.8</coordinates></Point></Placemark><Placemark><TimeSpan><begin>2023-04-09T05:11:37Z</begin><end>2023-04-09T05:11:38Z</end></TimeSpan><styleUrl>#point</styleUrl><Point><altitudeMode>clampToGround</altitudeMode><coordinates>30.204294780269265,-28.128224350512028,1476.24</coordinates></Point></Placemark><Placemark><TimeSpan><begin>2023-04-09T05:11:38Z</begin><end>2023-04-09T05:11:39Z</end></TimeSpan><styleUrl>#point</styleUrl><Point><altitudeMode>clampToGround</altitudeMode><coordinates>30.20436535589397,-28.128165258094668,1476.72</coordinates></Point></Placemark><Placemark><TimeSpan><begin>2023-04-09T05:11:39Z</begin><end>2023-04-09T05:11:40Z</end></TimeSpan><styleUrl>#point</styleUrl><Point><altitudeMode>clampToGround</altitudeMode><coordinates>30.204442888498306,-28.128092335537076,1477.6800000000001</coordinates></Point></Placemark><Placemark><TimeSpan><begin>2023-04-09T05:11:40Z</begin><end>2023-04-09T05:11:41Z</end></TimeSpan><styleUrl>#point</styleUrl><Point><altitudeMode>clampToGround</altitudeMode><coordinates>30.204528048634529,-28.128010528162122,1478.6500000000001</coordinates></Point></Placemark><Placemark><TimeSpan><begin>2023-04-09T05:11:41Z</begin><end>2023-04-09T05:11:49Z</end></TimeSpan><styleUrl>#point</styleUrl><Point><altitudeMode>clampToGround</altitudeMode><coordinates>30.205368166789412,-28.12742899172008,1485.8499999999999</coordinates></Point></Placemark><Placemark><TimeSpan><begin>2023-04-09T05:11:49Z</begin><end>2023-04-09T05:11:58Z</end></TimeSpan><styleUrl>#point</styleUrl><Point><altitudeMode>clampToGround</altitudeMode><coordinates>30.206167213618755,-28.126809317618608,1488.74</coordinates></Point></Placemark><Placemark><TimeSpan><begin>2023-04-09T05:11:58Z</begin><end>2023-04-09T05:12:00Z</end></TimeSpan><styleUrl>#point</styleUrl><Point><altitudeMode>clampToGround</altitudeMode><coordinates>30.206333007663488,-28.12671166844666,1488.74</coordinates></Point></Placemark><Placemark><TimeSpan><begin>2023-04-09T05:12:00Z</begin><end>2023-04-09T05:12:01Z</end></TimeSpan><styleUrl>#point</styleUrl><Point><altitudeMode>clampToGround</altitudeMode><coordinates>30.206416910514235,-28.126675626263022,1489.22</coordinates></Point></Placemark><Placemark><TimeSpan><begin>2023-04-09T05:12:01Z</begin><end>2023-04-09T05:12:02Z</end></TimeSpan><styleUrl>#point</styleUrl><Point><altitudeMode>clampToGround</altitudeMode><coordinates>30.206508105620742,-28.1266457028687,1489.22</coordinates></Point></Placemark><Placemark><TimeSpan><begin>2023-04-09T05:12:02Z</begin><end>2023-04-09T05:12:03Z</end></TimeSpan><styleUrl>#point</styleUrl><Point><altitudeMode>clampToGround</altitudeMode><coordinates>30.206607431173325,-28.126625251024961,1489.22</coordinates></Point></Placemark><Placemark><TimeSpan><begin>2023-04-09T05:12:03Z</begin><end>2023-04-09T05:12:04Z</end></TimeSpan><styleUrl>#point</styleUrl><Point><altitudeMode>clampToGround</altitudeMode><coordinates>30.206715893000364,-28.126615695655346,1489.7</coordinates></Point></Placemark><Placemark><TimeSpan><begin>2023-04-09T05:12:04Z</begin><end>2023-04-09T05:12:05Z</end></TimeSpan><styleUrl>#point</styleUrl><Point><altitudeMode>clampToGround</altitudeMode><coordinates>30.206832569092512,-28.126612761989236,1489.7</coordinates></Point></Placemark><Placemark><TimeSpan><begin>2023-04-09T05:12:05Z</begin><end>2023-04-09T05:12:12Z</end></TimeSpan><styleUrl>#point</styleUrl><Point><altitudeMode>clampToGround</altitudeMode><coordinates>30.207719122990966,-28.126631621271372,1494.51</coordinates></Point></Placemark><Placemark><TimeSpan><begin>2023-04-09T05:12:12Z</begin><end>2023-04-09T05:12:16Z</end></TimeSpan><styleUrl>#point</styleUrl><Point><altitudeMode>clampToGround</altitudeMode><coordinates>30.208076108247042,-28.126610666513443,1497.8699999999999</coordinates></Point></Placemark><Placemark><TimeSpan><begin>2023-04-09T05:12:16Z</begin><end>2023-04-09T05:12:17Z</end></TimeSpan><styleUrl>#point</styleUrl><Point><altitudeMode>clampToGround</altitudeMode><coordinates>30.208122963085771,-28.126594657078385,1498.3499999999999</coordinates></Point></Placemark><Placemark><TimeSpan><begin>2023-04-09T05:12:17Z</begin><end>2023-04-09T05:12:18Z</end></TimeSpan><styleUrl>#point</styleUrl><Point><altitudeMode>clampToGround</altitudeMode><coordinates>30.208162609487772,-28.126574540510774,1498.8299999999999</coordinates></Point></Placemark><Placemark><TimeSpan><begin>2023-04-09T05:12:18Z</begin><end>2023-04-09T05:12:19Z</end></TimeSpan><styleUrl>#point</styleUrl><Point><altitudeMode>clampToGround</altitudeMode><coordinates>30.208204938098788,-28.126548808068037,1499.79</coordinates></Point></Placemark><Placemark><TimeSpan><begin>2023-04-09T05:12:19Z</begin><end>2023-04-09T05:12:20Z</end></TimeSpan><styleUrl>#point</styleUrl><Point><altitudeMode>clampToGround</altitudeMode><coordinates>30.20824852399528,-28.126516034826636,1500.27</coordinates></Point></Placemark><Placemark><TimeSpan><begin>2023-04-09T05:12:20Z</begin><end>2023-04-09T05:12:21Z</end></TimeSpan><styleUrl>#point</styleUrl><Point><altitudeMode>clampToGround</altitudeMode><coordinates>30.208299905061722,-28.126474795863032,1501.24</coordinates></Point></Placemark><Placemark><TimeSpan><begin>2023-04-09T05:12:21Z</begin><end>2023-04-09T05:12:23Z</end></TimeSpan><styleUrl>#point</styleUrl><Point><altitudeMode>clampToGround</altitudeMode><coordinates>30.2084253821522,-28.126375889405608,1502.2</coordinates></Point></Placemark><Placemark><TimeSpan><begin>2023-04-09T05:12:23Z</begin><end>2023-04-09T05:12:24Z</end></TimeSpan><styleUrl>#point</styleUrl><Point><altitudeMode>clampToGround</altitudeMode><coordinates>30.2085030823946,-28.126326687633991,1502.6800000000001</coordinates></Point></Placemark><Placemark><TimeSpan><begin>2023-04-09T05:12:24Z</begin><end>2023-04-09T05:12:25Z</end></TimeSpan><styleUrl>#point</styleUrl><Point><altitudeMode>clampToGround</altitudeMode><coordinates>30.208592433482409,-28.12627924606204,1503.6400000000001</coordinates></Point></Placemark><Placemark><TimeSpan><begin>2023-04-09T05:12:25Z</begin><end>2023-04-09T05:12:26Z</end></TimeSpan><styleUrl>#point</styleUrl><Point><altitudeMode>clampToGround</altitudeMode><coordinates>30.208696620538831,-28.126234821975231,1504.1199999999999</coordinates></Point></Placemark><Placemark><TimeSpan><begin>2023-04-09T05:12:26Z</begin><end>2023-04-09T05:12:27Z</end></TimeSpan><styleUrl>#point</styleUrl><Point><altitudeMode>clampToGround</altitudeMode><coordinates>30.208811033517122,-28.126196432858706,1505.0799999999999</coordinates></Point></Placemark><Placemark><TimeSpan><begin>2023-04-09T05:12:27Z</begin><end>2023-04-09T05:12:31Z</end></TimeSpan><styleUrl>#point</styleUrl><Point><altitudeMode>clampToGround</altitudeMode><coordinates>30.20923750475049,-28.126099705696106,1508.9300000000001</coordinates></Point></Placemark><Placemark><TimeSpan><begin>2023-04-09T05:12:31Z</begin><end>2023-04-09T05:12:32Z</end></TimeSpan><styleUrl>#point</styleUrl><Point><altitudeMode>clampToGround</altitudeMode><coordinates>30.209346804767847,-28.126094341278076,1509.8900000000001</coordinates></Point></Placemark><Placemark><TimeSpan><begin>2023-04-09T05:12:32Z</begin><end>2023-04-09T05:12:33Z</end></TimeSpan><styleUrl>#point</styleUrl><Point><altitudeMode>clampToGround</altitudeMode><coordinates>30.209452081471682,-28.126101633533835,1510.8499999999999</coordinates></Point></Placemark><Placemark><TimeSpan><begin>2023-04-09T05:12:33Z</begin><end>2023-04-09T05:12:34Z</end></TimeSpan><styleUrl>#point</styleUrl><Point><altitudeMode>clampToGround</altitudeMode><coordinates>30.209546461701393,-28.126120576635003,1512.29</coordinates></Point></Placemark><Placemark><TimeSpan><begin>2023-04-09T05:12:34Z</begin><end>2023-04-09T05:12:35Z</end></TimeSpan><styleUrl>#point</styleUrl><Point><altitudeMode>clampToGround</altitudeMode><coordinates>30.209629274904728,-28.126151757314801,1513.25</coordinates></Point></Placemark><Placemark><TimeSpan><begin>2023-04-09T05:12:35Z</begin><end>2023-04-09T05:12:36Z</end></TimeSpan><styleUrl>#point</styleUrl><Point><altitudeMode>clampToGround</altitudeMode><coordinates>30.209697503596544,-28.12618930824101,1514.6900000000001</coordinates></Point></Placemark><Placemark><TimeSpan><begin>2023-04-09T05:12:36Z</begin><end>2023-04-09T05:12:37Z</end></TimeSpan><styleUrl>#point</styleUrl><Point><altitudeMode>clampToGround</altitudeMode><coordinates>30.209752907976508,-28.126220321282744,1516.1400000000001</coordinates></Point></Placemark><Placemark><TimeSpan><begin>2023-04-09T05:12:37Z</begin><end>2023-04-09T05:12:38Z</end></TimeSpan><styleUrl>#point</styleUrl><Point><altitudeMode>clampToGround</altitudeMode><coordinates>30.209800517186522,-28.126236498355865,1517.5799999999999</coordinates></Point></Placemark><Placemark><TimeSpan><begin>2023-04-09T05:12:38Z</begin><end>2023-04-09T05:12:39Z</end></TimeSpan><styleUrl>#point</styleUrl><Point><altitudeMode>clampToGround</altitudeMode><coordinates>30.209845695644617,-28.126237755641341,1518.54</coordinates></Point></Placemark><Placemark><TimeSpan><begin>2023-04-09T05:12:39Z</begin><end>2023-04-09T05:12:40Z</end></TimeSpan><styleUrl>#point</styleUrl><Point><altitudeMode>clampToGround</altitudeMode><coordinates>30.209888946264982,-28.126229792833328,1519.02</coordinates></Point></Placemark><Placemark><TimeSpan><begin>2023-04-09T05:12:40Z</begin><end>2023-04-09T05:12:41Z</end></TimeSpan><styleUrl>#point</styleUrl><Point><altitudeMode>clampToGround</altitudeMode><coordinates>30.209924653172493,-28.126210262998939,1519.98</coordinates></Point></Placemark><Placemark><TimeSpan><begin>2023-04-09T05:12:41Z</begin><end>2023-04-09T05:12:42Z</end></TimeSpan><styleUrl>#point</styleUrl><Point><altitudeMode>clampToGround</altitudeMode><coordinates>30.209952984005213,-28.126176567748189,1520.46</coordinates></Point></Placemark><Placemark><TimeSpan><begin>2023-04-09T05:12:42Z</begin><end>2023-04-09T05:12:43Z</end></TimeSpan><styleUrl>#point</styleUrl><Point><altitudeMode>clampToGround</altitudeMode><coordinates>30.20997972227633,-28.126128204166889,1520.46</coordinates></Point></Placemark><Placemark><TimeSpan><begin>2023-04-09T05:12:43Z</begin><end>2023-04-09T05:12:44Z</end></TimeSpan><styleUrl>#point</styleUrl><Point><altitudeMode>clampToGround</altitudeMode><coordinates>30.210009980946779,-28.126069866120815,1520.9400000000001</coordinates></Point></Placemark><Placemark><TimeSpan><begin>2023-04-09T05:12:44Z</begin><end>2023-04-09T05:12:45Z</end></TimeSpan><styleUrl>#point</styleUrl><Point><altitudeMode>clampToGround</altitudeMode><coordinates>30.210047028958797,-28.126009097322822,1521.4200000000001</coordinates></Point></Placemark><Placemark><TimeSpan><begin>2023-04-09T05:12:45Z</begin><end>2023-04-09T05:12:46Z</end></TimeSpan><styleUrl>#point</styleUrl><Point><altitudeMode>clampToGround</altitudeMode><coordinates>30.210097571834922,-28.12595235183835,1522.3900000000001</coordinates></Point></Placemark><Placemark><TimeSpan><begin>2023-04-09T05:12:46Z</begin><end>2023-04-09T05:12:47Z</end></TimeSpan><styleUrl>#point</styleUrl><Point><altitudeMode>clampToGround</altitudeMode><coordinates>30.210158340632915,-28.125906251370907,1522.3900000000001</coordinates></Point></Placemark><Placemark><TimeSpan><begin>2023-04-09T05:12:47Z</begin><end>2023-04-09T05:12:48Z</end></TimeSpan><styleUrl>#point</styleUrl><Point><altitudeMode>clampToGround</altitudeMode><coordinates>30.210228664800525,-28.125865263864398,1523.3499999999999</coordinates></Point></Placemark><Placemark><TimeSpan><begin>2023-04-09T05:12:48Z</begin><end>2023-04-09T05:12:49Z</end></TimeSpan><styleUrl>#point</styleUrl><Point><altitudeMode>clampToGround</altitudeMode><coordinates>30.210308041423559,-28.12583458609879,1524.3099999999999</coordinates></Point></Placemark><Placemark><TimeSpan><begin>2023-04-09T05:12:49Z</begin><end>2023-04-09T05:12:50Z</end></TimeSpan><styleUrl>#point</styleUrl><Point><altitudeMode>clampToGround</altitudeMode><coordinates>30.210391189903021,-28.125820169225335,1524.79</coordinates></Point></Placemark><Placemark><TimeSpan><begin>2023-04-09T05:12:50Z</begin><end>2023-04-09T05:12:51Z</end></TimeSpan><styleUrl>#point</styleUrl><Point><altitudeMode>clampToGround</altitudeMode><coordinates>30.210479199886322,-28.125823270529509,1525.75</coordinates></Point></Placemark><Placemark><TimeSpan><begin>2023-04-09T05:12:51Z</begin><end>2023-04-09T05:12:52Z</end></TimeSpan><styleUrl>#point</styleUrl><Point><altitudeMode>clampToGround</altitudeMode><coordinates>30.21057634614408,-28.12584288418293,1526.23</coordinates></Point></Placemark><Placemark><TimeSpan><begin>2023-04-09T05:12:52Z</begin><end>2023-04-09T05:12:53Z</end></TimeSpan><styleUrl>#point</styleUrl><Point><altitudeMode>clampToGround</altitudeMode><coordinates>30.210677180439234,-28.125873226672411,1526.71</coordinates></Point></Placemark><Placemark><TimeSpan><begin>2023-04-09T05:12:53Z</begin><end>2023-04-09T05:12:54Z</end></TimeSpan><styleUrl>#point</styleUrl><Point><altitudeMode>clampToGround</altitudeMode><coordinates>30.210787318646908,-28.125912873074412,1528.1500000000001</coordinates></Point></Placemark><Placemark><TimeSpan><begin>2023-04-09T05:12:54Z</begin><end>2023-04-09T05:12:55Z</end></TimeSpan><styleUrl>#point</styleUrl><Point><altitudeMode>clampToGround</altitudeMode><coordinates>30.210892595350742,-28.125957045704126,1529.1099999999999</coordinates></Point></Placemark><Placemark><TimeSpan><begin>2023-04-09T05:12:55Z</begin><end>2023-04-09T05:12:57Z</end></TimeSpan><styleUrl>#point</styleUrl><Point><altitudeMode>clampToGround</altitudeMode><coordinates>30.211085798218846,-28.126053353771567,1531.52</coordinates></Point></Placemark><Placemark><TimeSpan><begin>2023-04-09T05:12:57Z</begin><end>2023-04-09T05:13:06Z</end></TimeSpan><styleUrl>#point</styleUrl><Point><altitudeMode>clampToGround</altitudeMode><coordinates>30.212010992690921,-28.126664729788899,1545.9400000000001</coordinates></Point></Placemark><Placemark><TimeSpan><begin>2023-04-09T05:13:06Z</begin><end>2023-04-09T05:13:10Z</end></TimeSpan><styleUrl>#point</styleUrl><Point><altitudeMode>clampToGround</altitudeMode><coordinates>30.212357081472874,-28.126916857436299,1551.71</coordinates></Point></Placemark><Placemark><TimeSpan><begin>2023-04-09T05:13:10Z</begin><end>2023-04-09T05:13:11Z</end></TimeSpan><styleUrl>#point</styleUrl><Point><altitudeMode>clampToGround</altitudeMode><coordinates>30.212425477802753,-28.126946948468685,1553.1500000000001</coordinates></Point></Placemark><Placemark><TimeSpan><begin>2023-04-09T05:13:11Z</begin><end>2023-04-09T05:13:12Z</end></TimeSpan><styleUrl>#point</styleUrl><Point><altitudeMode>clampToGround</altitudeMode><coordinates>30.212492113932967,-28.126958096399903,1554.1099999999999</coordinates></Point></Placemark><Placemark><TimeSpan><begin>2023-04-09T05:13:12Z</begin><end>2023-04-09T05:13:13Z</end></TimeSpan><styleUrl>#point</styleUrl><Point><altitudeMode>clampToGround</altitudeMode><coordinates>30.212562019005418,-28.126953989267349,1555.55</coordinates></Point></Placemark><Placemark><TimeSpan><begin>2023-04-09T05:13:13Z</begin><end>2023-04-09T05:13:14Z</end></TimeSpan><styleUrl>#point</styleUrl><Point><altitudeMode>clampToGround</altitudeMode><coordinates>30.212636450305581,-28.126936974003911,1556.03</coordinates></Point></Placemark><Placemark><TimeSpan><begin>2023-04-09T05:13:14Z</begin><end>2023-04-09T05:13:15Z</end></TimeSpan><styleUrl>#point</styleUrl><Point><altitudeMode>clampToGround</altitudeMode><coordinates>30.212712893262506,-28.126907804980874,1556.99</coordinates></Point></Placemark><Placemark><TimeSpan><begin>2023-04-09T05:13:15Z</begin><end>2023-04-09T05:13:16Z</end></TimeSpan><styleUrl>#point</styleUrl><Point><altitudeMode>clampToGround</altitudeMode><coordinates>30.212786821648479,-28.126864805817604,1557.95</coordinates></Point></Placemark><Placemark><TimeSpan><begin>2023-04-09T05:13:16Z</begin><end>2023-04-09T05:13:17Z</end></TimeSpan><styleUrl>#point</styleUrl><Point><altitudeMode>clampToGround</altitudeMode><coordinates>30.212854295969009,-28.12680839560926,1558.9200000000001</coordinates></Point></Placemark><Placemark><TimeSpan><begin>2023-04-09T05:13:17Z</begin><end>2023-04-09T05:13:18Z</end></TimeSpan><styleUrl>#point</styleUrl><Point><altitudeMode>clampToGround</altitudeMode><coordinates>30.212914058938622,-28.126738741993904,1559.4000000000001</coordinates></Point></Placemark><Placemark><TimeSpan><begin>2023-04-09T05:13:18Z</begin><end>2023-04-09T05:13:19Z</end></TimeSpan><styleUrl>#point</styleUrl><Point><altitudeMode>clampToGround</altitudeMode><coordinates>30.21296426653862,-28.126658275723457,1559.8800000000001</coordinates></Point></Placemark><Placemark><TimeSpan><begin>2023-04-09T05:13:19Z</begin><end>2023-04-09T05:13:20Z</end></TimeSpan><styleUrl>#point</styleUrl><Point><altitudeMode>clampToGround</altitudeMode><coordinates>30.213011791929603,-28.126571271568537,1560.3599999999999</coordinates></Point></Placemark><Placemark><TimeSpan><begin>2023-04-09T05:13:20Z</begin><end>2023-04-09T05:13:21Z</end></TimeSpan><styleUrl>#point</styleUrl><Point><altitudeMode>clampToGround</altitudeMode><coordinates>30.213061245158315,-28.126493068411946,1560.8399999999999</coordinates></Point></Placemark><Placemark><TimeSpan><begin>2023-04-09T05:13:21Z</begin><end>2023-04-09T05:13:22Z</end></TimeSpan><styleUrl>#point</styleUrl><Point><altitudeMode>clampToGround</altitudeMode><coordinates>30.21312452852726,-28.126418804749846,1561.3199999999999</coordinates></Point></Placemark><Placemark><TimeSpan><begin>2023-04-09T05:13:22Z</begin><end>2023-04-09T05:13:23Z</end></TimeSpan><styleUrl>#point</styleUrl><Point><altitudeMode>clampToGround</altitudeMode><coordinates>30.213203318417072,-28.126354347914457,1561.3199999999999</coordinates></Point></Placemark></Folder><Placemark><name>[354] Mpate Mountain Pass (Ascend)</name><Style><LineStyle><color>ff00ff00</color><width>4</width></LineStyle></Style><MultiGeometry><LineString><coordinates>30.191816976293921,-28.145383279770613,1296.48 30.191823933273554,-28.145333658903837,1297.4400000000001 30.191834578290582,-28.145277416333556,1297.9200000000001 30.191845390945673,-28.145145233720541,1298.4000000000001 30.191688230261207,-28.144300673156977,1302.24 30.19147876650095,-28.143081860616803,1303.2 30.191507181152701,-28.142495546489954,1300.8 30.191531404852867,-28.142425054684281,1300.3199999999999 30.191562166437507,-28.142358167096972,1299.8399999999999 30.191597370430827,-28.142294632270932,1299.3599999999999 30.191635256633162,-28.142231684178114,1298.8800000000001 30.19220681861043,-28.141444539651275,1287.8199999999999 30.192345790565014,-28.14121856354177,1288.3 30.192361883819103,-28.141161650419235,1288.78 30.192427849397063,-28.140344582498074,1293.5899999999999 30.192800927907228,-28.139411173760891,1297.9200000000001 30.193163864314556,-28.13834834843874,1306.5699999999999 30.193464355543256,-28.137191729620099,1316.1800000000001 30.193558232858777,-28.13684438355267,1320.99 30.193795440718532,-28.136002253741026,1331.5599999999999 30.193729978054762,-28.135192980989814,1340.7 30.193678177893162,-28.134546736255288,1347.9100000000001 30.193685553967953,-28.134450931102037,1349.3499999999999 30.193697288632393,-28.134368285536766,1350.79 30.193715142086148,-28.134295949712396,1352.23 30.193742299452424,-28.134221602231264,1353.1900000000001 30.193779682740569,-28.134140213951468,1354.1500000000001 30.193822933360934,-28.134051198139787,1355.5999999999999 30.194076821208,-28.133576530963182,1361.8399999999999 30.19414471462369,-28.133506625890732,1363.29 30.194221576675773,-28.133447784930468,1364.25 30.194312017410994,-28.133398834615946,1365.21 30.194415617734194,-28.133364217355847,1366.6500000000001 30.194530365988612,-28.133348627015948,1367.6099999999999 30.194653496146202,-28.133351560682058,1369.05 30.1947814039886,-28.133368827402592,1370.02 30.19491576589644,-28.133395230397582,1371.46 30.195576762780547,-28.13347477465868,1375.3 30.196001389995217,-28.133537052199244,1378.1900000000001 30.196089316159487,-28.133529257029295,1378.1900000000001 30.196175230666995,-28.133506374433637,1378.6700000000001 30.196264581754804,-28.133467398583889,1378.6700000000001 30.196357872337103,-28.13341811299324,1378.6700000000001 30.197223555296659,-28.132855771109462,1384.4400000000001 30.198353603482246,-28.131871316581964,1399.3399999999999 30.199135551229119,-28.131167320534587,1410.3900000000001 30.199212161824107,-28.131083585321903,1411.8299999999999 30.199277875944972,-28.130988869816065,1413.28 30.199774755164981,-28.130298620089889,1422.4100000000001 30.199799900874496,-28.130231397226453,1423.3699999999999 30.199947170913219,-28.129856139421463,1426.25 30.20001464523375,-28.129746839404106,1427.21 30.200096536427736,-28.129636868834496,1428.1800000000001 30.200489815324545,-28.129195980727673,1434.4200000000001 30.20064789801836,-28.129059188067913,1437.79 30.200682347640395,-28.129027253016829,1438.27 30.2007304597646,-28.128997413441539,1438.75 30.200799107551575,-28.128968831151724,1439.23 30.200884686782956,-28.128943685442209,1439.71 30.200981916859746,-28.128926251083612,1440.6700000000001 30.201099263504148,-28.128916276618838,1441.1500000000001 30.201219376176596,-28.128914432600141,1442.1099999999999 30.201327921822667,-28.128913007676601,1443.0799999999999 30.201429091393948,-28.128907140344381,1444.52 30.201528500765562,-28.128894316032529,1445.48 30.201628832146525,-28.128870176151395,1446.9200000000001 30.201736623421311,-28.12883916310966,1447.8800000000001 30.20246216095984,-28.128688456490636,1455.5699999999999 30.2025764901191,-28.128652833402157,1457.02 30.202685790136456,-28.128609750419855,1458.46 30.202897097915411,-28.12852936796844,1461.3399999999999 30.203007319942117,-28.128503216430545,1462.78 30.203126762062311,-28.128488212823868,1463.74 30.204081041738391,-28.128341697156429,1472.8800000000001 30.204226216301322,-28.128272630274296,1474.8 30.204294780269265,-28.128224350512028,1476.24 30.20436535589397,-28.128165258094668,1476.72 30.204442888498306,-28.128092335537076,1477.6800000000001 30.204528048634529,-28.128010528162122,1478.6500000000001 30.205368166789412,-28.12742899172008,1485.8499999999999 30.206167213618755,-28.126809317618608,1488.74 30.206333007663488,-28.12671166844666,1488.74 30.206416910514235,-28.126675626263022,1489.22 30.206508105620742,-28.1266457028687,1489.22 30.206607431173325,-28.126625251024961,1489.22 30.206715893000364,-28.126615695655346,1489.7 30.206832569092512,-28.126612761989236,1489.7 30.207719122990966,-28.126631621271372,1494.51 30.208076108247042,-28.126610666513443,1497.8699999999999 30.208122963085771,-28.126594657078385,1498.3499999999999 30.208162609487772,-28.126574540510774,1498.8299999999999 30.208204938098788,-28.126548808068037,1499.79 30.20824852399528,-28.126516034826636,1500.27 30.208299905061722,-28.126474795863032,1501.24 30.2084253821522,-28.126375889405608,1502.2 30.2085030823946,-28.126326687633991,1502.6800000000001 30.208592433482409,-28.12627924606204,1503.6400000000001 30.208696620538831,-28.126234821975231,1504.1199999999999 30.208811033517122,-28.126196432858706,1505.0799999999999 30.20923750475049,-28.126099705696106,1508.9300000000001 30.209346804767847,-28.126094341278076,1509.8900000000001 30.209452081471682,-28.126101633533835,1510.8499999999999 30.209546461701393,-28.126120576635003,1512.29 30.209629274904728,-28.126151757314801,1513.25 30.209697503596544,-28.12618930824101,1514.6900000000001 30.209752907976508,-28.126220321282744,1516.1400000000001 30.209800517186522,-28.126236498355865,1517.5799999999999 30.209845695644617,-28.126237755641341,1518.54 30.209888946264982,-28.126229792833328,1519.02 30.209924653172493,-28.126210262998939,1519.98 30.209952984005213,-28.126176567748189,1520.46 30.20997972227633,-28.126128204166889,1520.46 30.210009980946779,-28.126069866120815,1520.9400000000001 30.210047028958797,-28.126009097322822,1521.4200000000001 30.210097571834922,-28.12595235183835,1522.3900000000001 30.210158340632915,-28.125906251370907,1522.3900000000001 30.210228664800525,-28.125865263864398,1523.3499999999999 30.210308041423559,-28.12583458609879,1524.3099999999999 30.210391189903021,-28.125820169225335,1524.79 30.210479199886322,-28.125823270529509,1525.75 30.21057634614408,-28.12584288418293,1526.23 30.210677180439234,-28.125873226672411,1526.71 30.210787318646908,-28.125912873074412,1528.1500000000001 30.210892595350742,-28.125957045704126,1529.1099999999999 30.211085798218846,-28.126053353771567,1531.52 30.212010992690921,-28.126664729788899,1545.9400000000001 30.212357081472874,-28.126916857436299,1551.71 30.212425477802753,-28.126946948468685,1553.1500000000001 30.212492113932967,-28.126958096399903,1554.1099999999999 30.212562019005418,-28.126953989267349,1555.55 30.212636450305581,-28.126936974003911,1556.03 30.212712893262506,-28.126907804980874,1556.99 30.212786821648479,-28.126864805817604,1557.95 30.212854295969009,-28.12680839560926,1558.9200000000001 30.212914058938622,-28.126738741993904,1559.4000000000001 30.21296426653862,-28.126658275723457,1559.8800000000001 30.213011791929603,-28.126571271568537,1560.3599999999999 30.213061245158315,-28.126493068411946,1560.8399999999999 30.21312452852726,-28.126418804749846,1561.3199999999999 30.213203318417072,-28.126354347914457,1561.3199999999999 </coordinates></LineString></MultiGeometry></Placemark></Folder></Folder></Document></kml>