<?xml version="1.0" encoding="utf-8"?><kml xmlns="http://www.opengis.net/kml/2.2" xmlns:xsi="http://www.w3.org/2001/XMLSchema-instance" xmlns:kmlx="http://www.google.com/kml/ext/2.2" xmlns:atom="http://www.w3.org/2005/Atom" xmlns:gpxx="http://www.garmin.com/xmlschemas/GpxExtensions/v3"><Document><Style id="point"><IconStyle><scale>0.9</scale><Icon><href>http://maps.google.com/mapfiles/kml/shapes/placemark_circle.png</href></Icon></IconStyle></Style><Folder><name>Tracks</name><Folder><name>[360] Kastrolnek Pass  (East)</name><Folder><name>Points</name><Style><ListStyle><listItemType>checkHideChildren</listItemType></ListStyle></Style><Placemark><TimeSpan><begin>2023-04-09T10:26:10Z</begin><end>2023-04-09T10:26:10Z</end></TimeSpan><Style><IconStyle><scale>0.9</scale><Icon><href>http://connect.garmin.com/image/main/icons/kml/grn-play.png</href></Icon></IconStyle></Style><Point><altitudeMode>clampToGround</altitudeMode><coordinates>30.226677898317575,-27.31613527983427,1804.53</coordinates></Point></Placemark><Placemark><TimeSpan><begin>2023-04-09T10:26:10Z</begin><end>2023-04-09T10:26:18Z</end></TimeSpan><styleUrl>#point</styleUrl><Point><altitudeMode>clampToGround</altitudeMode><coordinates>30.228305160999298,-27.314521260559559,1811.26</coordinates></Point></Placemark><Placemark><TimeSpan><begin>2023-04-09T10:26:18Z</begin><end>2023-04-09T10:26:30Z</end></TimeSpan><styleUrl>#point</styleUrl><Point><altitudeMode>clampToGround</altitudeMode><coordinates>30.230552516877651,-27.311982130631804,1811.74</coordinates></Point></Placemark><Placemark><TimeSpan><begin>2023-04-09T10:26:30Z</begin><end>2023-04-09T10:26:38Z</end></TimeSpan><styleUrl>#point</styleUrl><Point><altitudeMode>clampToGround</altitudeMode><coordinates>30.231539653614163,-27.309931749477983,1807.9000000000001</coordinates></Point></Placemark><Placemark><TimeSpan><begin>2023-04-09T10:26:38Z</begin><end>2023-04-09T10:26:47Z</end></TimeSpan><styleUrl>#point</styleUrl><Point><altitudeMode>clampToGround</altitudeMode><coordinates>30.232719238847494,-27.307756980881095,1812.7</coordinates></Point></Placemark><Placemark><TimeSpan><begin>2023-04-09T10:26:47Z</begin><end>2023-04-09T10:26:53Z</end></TimeSpan><styleUrl>#point</styleUrl><Point><altitudeMode>clampToGround</altitudeMode><coordinates>30.233940482139587,-27.306536994874477,1823.28</coordinates></Point></Placemark><Placemark><TimeSpan><begin>2023-04-09T10:26:53Z</begin><end>2023-04-09T10:26:59Z</end></TimeSpan><styleUrl>#point</styleUrl><Point><altitudeMode>clampToGround</altitudeMode><coordinates>30.235570427030325,-27.305703163146973,1835.29</coordinates></Point></Placemark><Placemark><TimeSpan><begin>2023-04-09T10:26:59Z</begin><end>2023-04-09T10:27:05Z</end></TimeSpan><styleUrl>#point</styleUrl><Point><altitudeMode>clampToGround</altitudeMode><coordinates>30.237393407151103,-27.30533704161644,1846.3499999999999</coordinates></Point></Placemark><Placemark><TimeSpan><begin>2023-04-09T10:27:05Z</begin><end>2023-04-09T10:27:20Z</end></TimeSpan><styleUrl>#point</styleUrl><Point><altitudeMode>clampToGround</altitudeMode><coordinates>30.242176204919815,-27.304930770769715,1872.79</coordinates></Point></Placemark><Placemark><TimeSpan><begin>2023-04-09T10:27:20Z</begin><end>2023-04-09T10:27:31Z</end></TimeSpan><styleUrl>#point</styleUrl><Point><altitudeMode>clampToGround</altitudeMode><coordinates>30.245657041668892,-27.305065048858523,1890.0899999999999</coordinates></Point></Placemark><Placemark><TimeSpan><begin>2023-04-09T10:27:31Z</begin><end>2023-04-09T10:27:37Z</end></TimeSpan><styleUrl>#point</styleUrl><Point><altitudeMode>clampToGround</altitudeMode><coordinates>30.247241975739598,-27.305102096870542,1891.53</coordinates></Point></Placemark><Placemark><TimeSpan><begin>2023-04-09T10:27:37Z</begin><end>2023-04-09T10:27:38Z</end></TimeSpan><styleUrl>#point</styleUrl><Point><altitudeMode>clampToGround</altitudeMode><coordinates>30.247502317652106,-27.305072760209441,1891.53</coordinates></Point></Placemark><Placemark><TimeSpan><begin>2023-04-09T10:27:38Z</begin><end>2023-04-09T10:27:39Z</end></TimeSpan><styleUrl>#point</styleUrl><Point><altitudeMode>clampToGround</altitudeMode><coordinates>30.247747991234064,-27.305024983361363,1891.53</coordinates></Point></Placemark><Placemark><TimeSpan><begin>2023-04-09T10:27:39Z</begin><end>2023-04-09T10:27:40Z</end></TimeSpan><styleUrl>#point</styleUrl><Point><altitudeMode>clampToGround</altitudeMode><coordinates>30.247995844110847,-27.30495541356504,1890.5699999999999</coordinates></Point></Placemark><Placemark><TimeSpan><begin>2023-04-09T10:27:40Z</begin><end>2023-04-09T10:27:41Z</end></TimeSpan><styleUrl>#point</styleUrl><Point><altitudeMode>clampToGround</altitudeMode><coordinates>30.248219640925527,-27.304872767999768,1890.0899999999999</coordinates></Point></Placemark><Placemark><TimeSpan><begin>2023-04-09T10:27:41Z</begin><end>2023-04-09T10:27:42Z</end></TimeSpan><styleUrl>#point</styleUrl><Point><altitudeMode>clampToGround</altitudeMode><coordinates>30.248447963967919,-27.304767575114965,1889.1300000000001</coordinates></Point></Placemark><Placemark><TimeSpan><begin>2023-04-09T10:27:42Z</begin><end>2023-04-09T10:27:43Z</end></TimeSpan><styleUrl>#point</styleUrl><Point><altitudeMode>clampToGround</altitudeMode><coordinates>30.24866153486073,-27.304651821032166,1888.6500000000001</coordinates></Point></Placemark><Placemark><TimeSpan><begin>2023-04-09T10:27:43Z</begin><end>2023-04-09T10:27:44Z</end></TimeSpan><styleUrl>#point</styleUrl><Point><altitudeMode>clampToGround</altitudeMode><coordinates>30.248882146552205,-27.304516118019819,1888.1700000000001</coordinates></Point></Placemark><Placemark><TimeSpan><begin>2023-04-09T10:27:44Z</begin><end>2023-04-09T10:27:45Z</end></TimeSpan><styleUrl>#point</styleUrl><Point><altitudeMode>clampToGround</altitudeMode><coordinates>30.249083312228322,-27.304368847981095,1888.1700000000001</coordinates></Point></Placemark><Placemark><TimeSpan><begin>2023-04-09T10:27:45Z</begin><end>2023-04-09T10:27:46Z</end></TimeSpan><styleUrl>#point</styleUrl><Point><altitudeMode>clampToGround</altitudeMode><coordinates>30.249282885342836,-27.304195091128349,1887.6900000000001</coordinates></Point></Placemark><Placemark><TimeSpan><begin>2023-04-09T10:27:46Z</begin><end>2023-04-09T10:27:47Z</end></TimeSpan><styleUrl>#point</styleUrl><Point><altitudeMode>clampToGround</altitudeMode><coordinates>30.249461252242327,-27.304010605439544,1887.6900000000001</coordinates></Point></Placemark><Placemark><TimeSpan><begin>2023-04-09T10:27:47Z</begin><end>2023-04-09T10:27:48Z</end></TimeSpan><styleUrl>#point</styleUrl><Point><altitudeMode>clampToGround</altitudeMode><coordinates>30.249622436240315,-27.303813798353076,1888.1700000000001</coordinates></Point></Placemark><Placemark><TimeSpan><begin>2023-04-09T10:27:48Z</begin><end>2023-04-09T10:27:49Z</end></TimeSpan><styleUrl>#point</styleUrl><Point><altitudeMode>clampToGround</altitudeMode><coordinates>30.249772556126118,-27.303598886355758,1888.6500000000001</coordinates></Point></Placemark><Placemark><TimeSpan><begin>2023-04-09T10:27:49Z</begin><end>2023-04-09T10:27:50Z</end></TimeSpan><styleUrl>#point</styleUrl><Point><altitudeMode>clampToGround</altitudeMode><coordinates>30.249893087893724,-27.30338548310101,1890.0899999999999</coordinates></Point></Placemark><Placemark><TimeSpan><begin>2023-04-09T10:27:50Z</begin><end>2023-04-09T10:27:51Z</end></TimeSpan><styleUrl>#point</styleUrl><Point><altitudeMode>clampToGround</altitudeMode><coordinates>30.249993000179529,-27.30315481312573,1891.05</coordinates></Point></Placemark><Placemark><TimeSpan><begin>2023-04-09T10:27:51Z</begin><end>2023-04-09T10:27:52Z</end></TimeSpan><styleUrl>#point</styleUrl><Point><altitudeMode>clampToGround</altitudeMode><coordinates>30.250065671280026,-27.302928753197193,1892.49</coordinates></Point></Placemark><Placemark><TimeSpan><begin>2023-04-09T10:27:52Z</begin><end>2023-04-09T10:27:53Z</end></TimeSpan><styleUrl>#point</styleUrl><Point><altitudeMode>clampToGround</altitudeMode><coordinates>30.250120908021927,-27.302689114585519,1894.4200000000001</coordinates></Point></Placemark><Placemark><TimeSpan><begin>2023-04-09T10:27:53Z</begin><end>2023-04-09T10:27:54Z</end></TimeSpan><styleUrl>#point</styleUrl><Point><altitudeMode>clampToGround</altitudeMode><coordinates>30.250154100358486,-27.302459953352809,1895.8599999999999</coordinates></Point></Placemark><Placemark><TimeSpan><begin>2023-04-09T10:27:54Z</begin><end>2023-04-09T10:27:55Z</end></TimeSpan><styleUrl>#point</styleUrl><Point><altitudeMode>clampToGround</altitudeMode><coordinates>30.250173043459654,-27.302215369418263,1897.78</coordinates></Point></Placemark><Placemark><TimeSpan><begin>2023-04-09T10:27:55Z</begin><end>2023-04-09T10:28:04Z</end></TimeSpan><styleUrl>#point</styleUrl><Point><altitudeMode>clampToGround</altitudeMode><coordinates>30.250401617959142,-27.300045043230057,1912.6800000000001</coordinates></Point></Placemark><Placemark><TimeSpan><begin>2023-04-09T10:28:04Z</begin><end>2023-04-09T10:28:10Z</end></TimeSpan><styleUrl>#point</styleUrl><Point><altitudeMode>clampToGround</altitudeMode><coordinates>30.251189013943076,-27.298697819933295,1922.29</coordinates></Point></Placemark><Placemark><TimeSpan><begin>2023-04-09T10:28:10Z</begin><end>2023-04-09T10:28:17Z</end></TimeSpan><styleUrl>#point</styleUrl><Point><altitudeMode>clampToGround</altitudeMode><coordinates>30.252540428191423,-27.297509768977761,1933.3499999999999</coordinates></Point></Placemark><Placemark><TimeSpan><begin>2023-04-09T10:28:17Z</begin><end>2023-04-09T10:28:24Z</end></TimeSpan><styleUrl>#point</styleUrl><Point><altitudeMode>clampToGround</altitudeMode><coordinates>30.254323342815042,-27.296720445156097,1944.8800000000001</coordinates></Point></Placemark><Placemark><TimeSpan><begin>2023-04-09T10:28:24Z</begin><end>2023-04-09T10:28:30Z</end></TimeSpan><styleUrl>#point</styleUrl><Point><altitudeMode>clampToGround</altitudeMode><coordinates>30.256065689027309,-27.296475609764457,1954.5</coordinates></Point></Placemark><Placemark><TimeSpan><begin>2023-04-09T10:28:30Z</begin><end>2023-04-09T10:28:41Z</end></TimeSpan><styleUrl>#point</styleUrl><Point><altitudeMode>clampToGround</altitudeMode><coordinates>30.259505957365036,-27.29661013931036,1974.6900000000001</coordinates></Point></Placemark><Placemark><TimeSpan><begin>2023-04-09T10:28:41Z</begin><end>2023-04-09T10:28:50Z</end></TimeSpan><styleUrl>#point</styleUrl><Point><altitudeMode>clampToGround</altitudeMode><coordinates>30.262150699272752,-27.296736873686314,1988.1400000000001</coordinates></Point></Placemark><Placemark><TimeSpan><begin>2023-04-09T10:28:50Z</begin><end>2023-04-09T10:29:00Z</end></TimeSpan><styleUrl>#point</styleUrl><Point><altitudeMode>clampToGround</altitudeMode><coordinates>30.265363398939371,-27.296811975538731,2002.5599999999999</coordinates></Point></Placemark><Placemark><TimeSpan><begin>2023-04-09T10:29:00Z</begin><end>2023-04-09T10:29:14Z</end></TimeSpan><styleUrl>#point</styleUrl><Point><altitudeMode>clampToGround</altitudeMode><coordinates>30.270084757357836,-27.296994784846902,2004.49</coordinates></Point></Placemark><Placemark><TimeSpan><begin>2023-04-09T10:29:14Z</begin><end>2023-04-09T10:29:24Z</end></TimeSpan><styleUrl>#point</styleUrl><Point><altitudeMode>clampToGround</altitudeMode><coordinates>30.272989002987742,-27.297099558636546,1987.1800000000001</coordinates></Point></Placemark><Placemark><TimeSpan><begin>2023-04-09T10:29:24Z</begin><end>2023-04-09T10:29:33Z</end></TimeSpan><styleUrl>#point</styleUrl><Point><altitudeMode>clampToGround</altitudeMode><coordinates>30.27523317374289,-27.297181868925691,1970.3599999999999</coordinates></Point></Placemark><Placemark><TimeSpan><begin>2023-04-09T10:29:33Z</begin><end>2023-04-09T10:29:41Z</end></TimeSpan><styleUrl>#point</styleUrl><Point><altitudeMode>clampToGround</altitudeMode><coordinates>30.277631571516395,-27.297416813671589,1952.5699999999999</coordinates></Point></Placemark><Placemark><TimeSpan><begin>2023-04-09T10:29:41Z</begin><end>2023-04-09T10:29:49Z</end></TimeSpan><styleUrl>#point</styleUrl><Point><altitudeMode>clampToGround</altitudeMode><coordinates>30.280110854655504,-27.298111757263541,1934.79</coordinates></Point></Placemark><Placemark><TimeSpan><begin>2023-04-09T10:29:49Z</begin><end>2023-04-09T10:29:57Z</end></TimeSpan><styleUrl>#point</styleUrl><Point><altitudeMode>clampToGround</altitudeMode><coordinates>30.282596927136183,-27.298886245116591,1920.8499999999999</coordinates></Point></Placemark><Placemark><TimeSpan><begin>2023-04-09T10:29:57Z</begin><end>2023-04-09T10:29:58Z</end></TimeSpan><styleUrl>#point</styleUrl><Point><altitudeMode>clampToGround</altitudeMode><coordinates>30.282875206321478,-27.299033515155315,1919.4100000000001</coordinates></Point></Placemark><Placemark><TimeSpan><begin>2023-04-09T10:29:58Z</begin><end>2023-04-09T10:29:59Z</end></TimeSpan><styleUrl>#point</styleUrl><Point><altitudeMode>clampToGround</altitudeMode><coordinates>30.283100763335824,-27.299177600070834,1918.9300000000001</coordinates></Point></Placemark><Placemark><TimeSpan><begin>2023-04-09T10:29:59Z</begin><end>2023-04-09T10:30:00Z</end></TimeSpan><styleUrl>#point</styleUrl><Point><altitudeMode>clampToGround</altitudeMode><coordinates>30.283347526565194,-27.299359822645783,1917.49</coordinates></Point></Placemark><Placemark><TimeSpan><begin>2023-04-09T10:30:00Z</begin><end>2023-04-09T10:30:01Z</end></TimeSpan><styleUrl>#point</styleUrl><Point><altitudeMode>clampToGround</altitudeMode><coordinates>30.283546345308423,-27.299526622518897,1916.53</coordinates></Point></Placemark><Placemark><TimeSpan><begin>2023-04-09T10:30:01Z</begin><end>2023-04-09T10:30:02Z</end></TimeSpan><styleUrl>#point</styleUrl><Point><altitudeMode>clampToGround</altitudeMode><coordinates>30.283760922029614,-27.29973248206079,1915.5599999999999</coordinates></Point></Placemark><Placemark><TimeSpan><begin>2023-04-09T10:30:02Z</begin><end>2023-04-09T10:30:03Z</end></TimeSpan><styleUrl>#point</styleUrl><Point><altitudeMode>clampToGround</altitudeMode><coordinates>30.283925291150808,-27.299917386844754,1914.1199999999999</coordinates></Point></Placemark><Placemark><TimeSpan><begin>2023-04-09T10:30:03Z</begin><end>2023-04-09T10:30:04Z</end></TimeSpan><styleUrl>#point</styleUrl><Point><altitudeMode>clampToGround</altitudeMode><coordinates>30.284091755747795,-27.300129951909184,1913.1600000000001</coordinates></Point></Placemark><Placemark><TimeSpan><begin>2023-04-09T10:30:04Z</begin><end>2023-04-09T10:30:11Z</end></TimeSpan><styleUrl>#point</styleUrl><Point><altitudeMode>clampToGround</altitudeMode><coordinates>30.285047711804509,-27.301421770825982,1902.1099999999999</coordinates></Point></Placemark><Placemark><TimeSpan><begin>2023-04-09T10:30:11Z</begin><end>2023-04-09T10:30:18Z</end></TimeSpan><styleUrl>#point</styleUrl><Point><altitudeMode>clampToGround</altitudeMode><coordinates>30.28625956736505,-27.302325256168842,1891.05</coordinates></Point></Placemark><Placemark><TimeSpan><begin>2023-04-09T10:30:18Z</begin><end>2023-04-09T10:30:27Z</end></TimeSpan><styleUrl>#point</styleUrl><Point><altitudeMode>clampToGround</altitudeMode><coordinates>30.288335764780641,-27.303465530276299,1878.55</coordinates></Point></Placemark><Placemark><TimeSpan><begin>2023-04-09T10:30:27Z</begin><end>2023-04-09T10:30:40Z</end></TimeSpan><styleUrl>#point</styleUrl><Point><altitudeMode>clampToGround</altitudeMode><coordinates>30.291440924629569,-27.305042250081897,1884.3199999999999</coordinates></Point></Placemark><Placemark><TimeSpan><begin>2023-04-09T10:30:40Z</begin><end>2023-04-09T10:30:46Z</end></TimeSpan><styleUrl>#point</styleUrl><Point><altitudeMode>clampToGround</altitudeMode><coordinates>30.292966933920979,-27.305406276136637,1888.6500000000001</coordinates></Point></Placemark><Placemark><TimeSpan><begin>2023-04-09T10:30:46Z</begin><end>2023-04-09T10:30:53Z</end></TimeSpan><styleUrl>#point</styleUrl><Point><altitudeMode>clampToGround</altitudeMode><coordinates>30.294791255146265,-27.305453130975366,1891.53</coordinates></Point></Placemark><Placemark><TimeSpan><begin>2023-04-09T10:30:53Z</begin><end>2023-04-09T10:31:01Z</end></TimeSpan><styleUrl>#point</styleUrl><Point><altitudeMode>clampToGround</altitudeMode><coordinates>30.296941129490733,-27.305138474330306,1890.0899999999999</coordinates></Point></Placemark><Placemark><TimeSpan><begin>2023-04-09T10:31:01Z</begin><end>2023-04-09T10:31:13Z</end></TimeSpan><styleUrl>#point</styleUrl><Point><altitudeMode>clampToGround</altitudeMode><coordinates>30.30072882771492,-27.304558530449867,1880.48</coordinates></Point></Placemark><Placemark><TimeSpan><begin>2023-04-09T10:31:13Z</begin><end>2023-04-09T10:31:25Z</end></TimeSpan><styleUrl>#point</styleUrl><Point><altitudeMode>clampToGround</altitudeMode><coordinates>30.30444972217083,-27.303833328187466,1860.77</coordinates></Point></Placemark><Placemark><TimeSpan><begin>2023-04-09T10:31:25Z</begin><end>2023-04-09T10:31:30Z</end></TimeSpan><styleUrl>#point</styleUrl><Point><altitudeMode>clampToGround</altitudeMode><coordinates>30.305438786745071,-27.303626714274287,1858.3699999999999</coordinates></Point></Placemark><Placemark><TimeSpan><begin>2023-04-09T10:31:30Z</begin><end>2023-04-09T10:31:35Z</end></TimeSpan><styleUrl>#point</styleUrl><Point><altitudeMode>clampToGround</altitudeMode><coordinates>30.305894343182445,-27.303530825302005,1857.8900000000001</coordinates></Point></Placemark><Placemark><TimeSpan><begin>2023-04-09T10:31:35Z</begin><end>2023-04-09T10:31:38Z</end></TimeSpan><styleUrl>#point</styleUrl><Point><altitudeMode>clampToGround</altitudeMode><coordinates>30.305999284610152,-27.303518671542406,1857.8900000000001</coordinates></Point></Placemark><Placemark><TimeSpan><begin>2023-04-09T10:31:38Z</begin><end>2023-04-09T10:31:43Z</end></TimeSpan><styleUrl>#point</styleUrl><Point><altitudeMode>clampToGround</altitudeMode><coordinates>30.305955028161407,-27.303562508895993,1857.8900000000001</coordinates></Point></Placemark><Placemark><TimeSpan><begin>2023-04-09T10:31:43Z</begin><end>2023-04-09T10:31:44Z</end></TimeSpan><styleUrl>#point</styleUrl><Point><altitudeMode>clampToGround</altitudeMode><coordinates>30.305900797247887,-27.303567035123706,1857.8900000000001</coordinates></Point></Placemark></Folder><Placemark><name>[360] Kastrolnek Pass  (East)</name><Style><LineStyle><color>ff00ff00</color><width>4</width></LineStyle></Style><MultiGeometry><LineString><coordinates>30.226677898317575,-27.31613527983427,1804.53 30.228305160999298,-27.314521260559559,1811.26 30.230552516877651,-27.311982130631804,1811.74 30.231539653614163,-27.309931749477983,1807.9000000000001 30.232719238847494,-27.307756980881095,1812.7 30.233940482139587,-27.306536994874477,1823.28 30.235570427030325,-27.305703163146973,1835.29 30.237393407151103,-27.30533704161644,1846.3499999999999 30.242176204919815,-27.304930770769715,1872.79 30.245657041668892,-27.305065048858523,1890.0899999999999 30.247241975739598,-27.305102096870542,1891.53 30.247502317652106,-27.305072760209441,1891.53 30.247747991234064,-27.305024983361363,1891.53 30.247995844110847,-27.30495541356504,1890.5699999999999 30.248219640925527,-27.304872767999768,1890.0899999999999 30.248447963967919,-27.304767575114965,1889.1300000000001 30.24866153486073,-27.304651821032166,1888.6500000000001 30.248882146552205,-27.304516118019819,1888.1700000000001 30.249083312228322,-27.304368847981095,1888.1700000000001 30.249282885342836,-27.304195091128349,1887.6900000000001 30.249461252242327,-27.304010605439544,1887.6900000000001 30.249622436240315,-27.303813798353076,1888.1700000000001 30.249772556126118,-27.303598886355758,1888.6500000000001 30.249893087893724,-27.30338548310101,1890.0899999999999 30.249993000179529,-27.30315481312573,1891.05 30.250065671280026,-27.302928753197193,1892.49 30.250120908021927,-27.302689114585519,1894.4200000000001 30.250154100358486,-27.302459953352809,1895.8599999999999 30.250173043459654,-27.302215369418263,1897.78 30.250401617959142,-27.300045043230057,1912.6800000000001 30.251189013943076,-27.298697819933295,1922.29 30.252540428191423,-27.297509768977761,1933.3499999999999 30.254323342815042,-27.296720445156097,1944.8800000000001 30.256065689027309,-27.296475609764457,1954.5 30.259505957365036,-27.29661013931036,1974.6900000000001 30.262150699272752,-27.296736873686314,1988.1400000000001 30.265363398939371,-27.296811975538731,2002.5599999999999 30.270084757357836,-27.296994784846902,2004.49 30.272989002987742,-27.297099558636546,1987.1800000000001 30.27523317374289,-27.297181868925691,1970.3599999999999 30.277631571516395,-27.297416813671589,1952.5699999999999 30.280110854655504,-27.298111757263541,1934.79 30.282596927136183,-27.298886245116591,1920.8499999999999 30.282875206321478,-27.299033515155315,1919.4100000000001 30.283100763335824,-27.299177600070834,1918.9300000000001 30.283347526565194,-27.299359822645783,1917.49 30.283546345308423,-27.299526622518897,1916.53 30.283760922029614,-27.29973248206079,1915.5599999999999 30.283925291150808,-27.299917386844754,1914.1199999999999 30.284091755747795,-27.300129951909184,1913.1600000000001 30.285047711804509,-27.301421770825982,1902.1099999999999 30.28625956736505,-27.302325256168842,1891.05 30.288335764780641,-27.303465530276299,1878.55 30.291440924629569,-27.305042250081897,1884.3199999999999 30.292966933920979,-27.305406276136637,1888.6500000000001 30.294791255146265,-27.305453130975366,1891.53 30.296941129490733,-27.305138474330306,1890.0899999999999 30.30072882771492,-27.304558530449867,1880.48 30.30444972217083,-27.303833328187466,1860.77 30.305438786745071,-27.303626714274287,1858.3699999999999 30.305894343182445,-27.303530825302005,1857.8900000000001 30.305999284610152,-27.303518671542406,1857.8900000000001 30.305955028161407,-27.303562508895993,1857.8900000000001 30.305900797247887,-27.303567035123706,1857.8900000000001 </coordinates></LineString></MultiGeometry></Placemark></Folder></Folder></Document></kml>