<?xml version="1.0" encoding="utf-8"?><kml xmlns="http://www.opengis.net/kml/2.2" xmlns:xsi="http://www.w3.org/2001/XMLSchema-instance" xmlns:kmlx="http://www.google.com/kml/ext/2.2" xmlns:atom="http://www.w3.org/2005/Atom" xmlns:gpxx="http://www.garmin.com/xmlschemas/GpxExtensions/v3"><Document><Style id="point"><IconStyle><scale>0.9</scale><Icon><href>http://maps.google.com/mapfiles/kml/shapes/placemark_circle.png</href></Icon></IconStyle></Style><Folder><name>Tracks</name><Folder><name>[360] Kastrolnek Pass (West)</name><Folder><name>Points</name><Style><ListStyle><listItemType>checkHideChildren</listItemType></ListStyle></Style><Placemark><TimeSpan><begin>2023-04-09T10:31:44Z</begin><end>2023-04-09T10:31:44Z</end></TimeSpan><Style><IconStyle><scale>0.9</scale><Icon><href>http://connect.garmin.com/image/main/icons/kml/grn-play.png</href></Icon></IconStyle></Style><Point><altitudeMode>clampToGround</altitudeMode><coordinates>30.305900797247887,-27.303567035123706,1857.8900000000001</coordinates></Point></Placemark><Placemark><TimeSpan><begin>2023-04-09T10:31:44Z</begin><end>2023-04-09T10:31:45Z</end></TimeSpan><styleUrl>#point</styleUrl><Point><altitudeMode>clampToGround</altitudeMode><coordinates>30.30585452914238,-27.303575752303004,1857.8900000000001</coordinates></Point></Placemark><Placemark><TimeSpan><begin>2023-04-09T10:31:45Z</begin><end>2023-04-09T10:31:46Z</end></TimeSpan><styleUrl>#point</styleUrl><Point><altitudeMode>clampToGround</altitudeMode><coordinates>30.305770458653569,-27.303595198318362,1857.8900000000001</coordinates></Point></Placemark><Placemark><TimeSpan><begin>2023-04-09T10:31:46Z</begin><end>2023-04-09T10:31:52Z</end></TimeSpan><styleUrl>#point</styleUrl><Point><altitudeMode>clampToGround</altitudeMode><coordinates>30.304950289428234,-27.303761830553412,1858.8499999999999</coordinates></Point></Placemark><Placemark><TimeSpan><begin>2023-04-09T10:31:52Z</begin><end>2023-04-09T10:32:01Z</end></TimeSpan><styleUrl>#point</styleUrl><Point><altitudeMode>clampToGround</altitudeMode><coordinates>30.303146587684751,-27.304128287360072,1864.6099999999999</coordinates></Point></Placemark><Placemark><TimeSpan><begin>2023-04-09T10:32:01Z</begin><end>2023-04-09T10:32:11Z</end></TimeSpan><styleUrl>#point</styleUrl><Point><altitudeMode>clampToGround</altitudeMode><coordinates>30.300663784146309,-27.304596584290266,1877.5899999999999</coordinates></Point></Placemark><Placemark><TimeSpan><begin>2023-04-09T10:32:11Z</begin><end>2023-04-09T10:32:24Z</end></TimeSpan><styleUrl>#point</styleUrl><Point><altitudeMode>clampToGround</altitudeMode><coordinates>30.29696736484766,-27.30516747571528,1892.01</coordinates></Point></Placemark><Placemark><TimeSpan><begin>2023-04-09T10:32:24Z</begin><end>2023-04-09T10:32:33Z</end></TimeSpan><styleUrl>#point</styleUrl><Point><altitudeMode>clampToGround</altitudeMode><coordinates>30.294433180242777,-27.305511636659503,1892.97</coordinates></Point></Placemark><Placemark><TimeSpan><begin>2023-04-09T10:32:33Z</begin><end>2023-04-09T10:32:42Z</end></TimeSpan><styleUrl>#point</styleUrl><Point><altitudeMode>clampToGround</altitudeMode><coordinates>30.292233601212502,-27.305309716612101,1890.0899999999999</coordinates></Point></Placemark><Placemark><TimeSpan><begin>2023-04-09T10:32:42Z</begin><end>2023-04-09T10:32:50Z</end></TimeSpan><styleUrl>#point</styleUrl><Point><altitudeMode>clampToGround</altitudeMode><coordinates>30.290254717692733,-27.304567079991102,1883.8399999999999</coordinates></Point></Placemark><Placemark><TimeSpan><begin>2023-04-09T10:32:50Z</begin><end>2023-04-09T10:33:01Z</end></TimeSpan><styleUrl>#point</styleUrl><Point><altitudeMode>clampToGround</altitudeMode><coordinates>30.287668565288186,-27.303117094561458,1879.51</coordinates></Point></Placemark><Placemark><TimeSpan><begin>2023-04-09T10:33:01Z</begin><end>2023-04-09T10:33:09Z</end></TimeSpan><styleUrl>#point</styleUrl><Point><altitudeMode>clampToGround</altitudeMode><coordinates>30.285836365073919,-27.302109589800239,1889.1300000000001</coordinates></Point></Placemark><Placemark><TimeSpan><begin>2023-04-09T10:33:09Z</begin><end>2023-04-09T10:33:15Z</end></TimeSpan><styleUrl>#point</styleUrl><Point><altitudeMode>clampToGround</altitudeMode><coordinates>30.284812599420547,-27.301191603764892,1898.74</coordinates></Point></Placemark><Placemark><TimeSpan><begin>2023-04-09T10:33:15Z</begin><end>2023-04-09T10:33:24Z</end></TimeSpan><styleUrl>#point</styleUrl><Point><altitudeMode>clampToGround</altitudeMode><coordinates>30.283478368073702,-27.299481779336929,1914.5999999999999</coordinates></Point></Placemark><Placemark><TimeSpan><begin>2023-04-09T10:33:24Z</begin><end>2023-04-09T10:33:26Z</end></TimeSpan><styleUrl>#point</styleUrl><Point><altitudeMode>clampToGround</altitudeMode><coordinates>30.28307125903666,-27.29916812852025,1917.01</coordinates></Point></Placemark><Placemark><TimeSpan><begin>2023-04-09T10:33:26Z</begin><end>2023-04-09T10:33:27Z</end></TimeSpan><styleUrl>#point</styleUrl><Point><altitudeMode>clampToGround</altitudeMode><coordinates>30.282851485535502,-27.299035526812077,1917.97</coordinates></Point></Placemark><Placemark><TimeSpan><begin>2023-04-09T10:33:27Z</begin><end>2023-04-09T10:33:28Z</end></TimeSpan><styleUrl>#point</styleUrl><Point><altitudeMode>clampToGround</altitudeMode><coordinates>30.28261779807508,-27.298913151025772,1919.4100000000001</coordinates></Point></Placemark><Placemark><TimeSpan><begin>2023-04-09T10:33:28Z</begin><end>2023-04-09T10:33:29Z</end></TimeSpan><styleUrl>#point</styleUrl><Point><altitudeMode>clampToGround</altitudeMode><coordinates>30.282377237454057,-27.298807455226779,1920.3699999999999</coordinates></Point></Placemark><Placemark><TimeSpan><begin>2023-04-09T10:33:29Z</begin><end>2023-04-09T10:33:30Z</end></TimeSpan><styleUrl>#point</styleUrl><Point><altitudeMode>clampToGround</altitudeMode><coordinates>30.282116392627358,-27.298715589568019,1921.3299999999999</coordinates></Point></Placemark><Placemark><TimeSpan><begin>2023-04-09T10:33:30Z</begin><end>2023-04-09T10:33:31Z</end></TimeSpan><styleUrl>#point</styleUrl><Point><altitudeMode>clampToGround</altitudeMode><coordinates>30.281854709610343,-27.298641158267856,1922.29</coordinates></Point></Placemark><Placemark><TimeSpan><begin>2023-04-09T10:33:31Z</begin><end>2023-04-09T10:33:32Z</end></TimeSpan><styleUrl>#point</styleUrl><Point><altitudeMode>clampToGround</altitudeMode><coordinates>30.281577184796333,-27.298571337014437,1923.25</coordinates></Point></Placemark><Placemark><TimeSpan><begin>2023-04-09T10:33:32Z</begin><end>2023-04-09T10:33:43Z</end></TimeSpan><styleUrl>#point</styleUrl><Point><altitudeMode>clampToGround</altitudeMode><coordinates>30.278510497882962,-27.297661229968071,1939.1199999999999</coordinates></Point></Placemark><Placemark><TimeSpan><begin>2023-04-09T10:33:43Z</begin><end>2023-04-09T10:33:49Z</end></TimeSpan><styleUrl>#point</styleUrl><Point><altitudeMode>clampToGround</altitudeMode><coordinates>30.277073001489043,-27.297335844486952,1949.6900000000001</coordinates></Point></Placemark><Placemark><TimeSpan><begin>2023-04-09T10:33:49Z</begin><end>2023-04-09T10:33:59Z</end></TimeSpan><styleUrl>#point</styleUrl><Point><altitudeMode>clampToGround</altitudeMode><coordinates>30.274624899029732,-27.297177091240883,1967.96</coordinates></Point></Placemark><Placemark><TimeSpan><begin>2023-04-09T10:33:59Z</begin><end>2023-04-09T10:34:11Z</end></TimeSpan><styleUrl>#point</styleUrl><Point><altitudeMode>clampToGround</altitudeMode><coordinates>30.271338019520044,-27.297069970518351,1992.47</coordinates></Point></Placemark><Placemark><TimeSpan><begin>2023-04-09T10:34:11Z</begin><end>2023-04-09T10:34:26Z</end></TimeSpan><styleUrl>#point</styleUrl><Point><altitudeMode>clampToGround</altitudeMode><coordinates>30.266999714076519,-27.296898392960429,2009.29</coordinates></Point></Placemark><Placemark><TimeSpan><begin>2023-04-09T10:34:26Z</begin><end>2023-04-09T10:34:38Z</end></TimeSpan><styleUrl>#point</styleUrl><Point><altitudeMode>clampToGround</altitudeMode><coordinates>30.263470178470016,-27.296774089336395,1994.3900000000001</coordinates></Point></Placemark><Placemark><TimeSpan><begin>2023-04-09T10:34:38Z</begin><end>2023-04-09T10:34:47Z</end></TimeSpan><styleUrl>#point</styleUrl><Point><altitudeMode>clampToGround</altitudeMode><coordinates>30.26100573129952,-27.29669127613306,1983.8199999999999</coordinates></Point></Placemark><Placemark><TimeSpan><begin>2023-04-09T10:34:47Z</begin><end>2023-04-09T10:35:01Z</end></TimeSpan><styleUrl>#point</styleUrl><Point><altitudeMode>clampToGround</altitudeMode><coordinates>30.256799440830946,-27.296521458774805,1960.27</coordinates></Point></Placemark><Placemark><TimeSpan><begin>2023-04-09T10:35:01Z</begin><end>2023-04-09T10:35:09Z</end></TimeSpan><styleUrl>#point</styleUrl><Point><altitudeMode>clampToGround</altitudeMode><coordinates>30.25459055788815,-27.296678032726049,1946.8099999999999</coordinates></Point></Placemark><Placemark><TimeSpan><begin>2023-04-09T10:35:09Z</begin><end>2023-04-09T10:35:15Z</end></TimeSpan><styleUrl>#point</styleUrl><Point><altitudeMode>clampToGround</altitudeMode><coordinates>30.25341248139739,-27.297083046287298,1939.1199999999999</coordinates></Point></Placemark><Placemark><TimeSpan><begin>2023-04-09T10:35:15Z</begin><end>2023-04-09T10:35:21Z</end></TimeSpan><styleUrl>#point</styleUrl><Point><altitudeMode>clampToGround</altitudeMode><coordinates>30.252061067149043,-27.297893827781081,1930.46</coordinates></Point></Placemark><Placemark><TimeSpan><begin>2023-04-09T10:35:21Z</begin><end>2023-04-09T10:35:27Z</end></TimeSpan><styleUrl>#point</styleUrl><Point><altitudeMode>clampToGround</altitudeMode><coordinates>30.250907298177481,-27.299110796302557,1920.8499999999999</coordinates></Point></Placemark><Placemark><TimeSpan><begin>2023-04-09T10:35:27Z</begin><end>2023-04-09T10:35:32Z</end></TimeSpan><styleUrl>#point</styleUrl><Point><altitudeMode>clampToGround</altitudeMode><coordinates>30.250340513885021,-27.30034620501101,1912.2</coordinates></Point></Placemark><Placemark><TimeSpan><begin>2023-04-09T10:35:32Z</begin><end>2023-04-09T10:35:37Z</end></TimeSpan><styleUrl>#point</styleUrl><Point><altitudeMode>clampToGround</altitudeMode><coordinates>30.250219982117414,-27.301570968702435,1903.55</coordinates></Point></Placemark><Placemark><TimeSpan><begin>2023-04-09T10:35:37Z</begin><end>2023-04-09T10:35:44Z</end></TimeSpan><styleUrl>#point</styleUrl><Point><altitudeMode>clampToGround</altitudeMode><coordinates>30.250086206942797,-27.302999747917056,1893.45</coordinates></Point></Placemark><Placemark><TimeSpan><begin>2023-04-09T10:35:44Z</begin><end>2023-04-09T10:35:45Z</end></TimeSpan><styleUrl>#point</styleUrl><Point><altitudeMode>clampToGround</altitudeMode><coordinates>30.250017140060663,-27.303191190585494,1892.01</coordinates></Point></Placemark><Placemark><TimeSpan><begin>2023-04-09T10:35:45Z</begin><end>2023-04-09T10:35:46Z</end></TimeSpan><styleUrl>#point</styleUrl><Point><altitudeMode>clampToGround</altitudeMode><coordinates>30.249930555000901,-27.303381208330393,1891.05</coordinates></Point></Placemark><Placemark><TimeSpan><begin>2023-04-09T10:35:46Z</begin><end>2023-04-09T10:35:47Z</end></TimeSpan><styleUrl>#point</styleUrl><Point><altitudeMode>clampToGround</altitudeMode><coordinates>30.249829133972526,-27.303571477532387,1889.6099999999999</coordinates></Point></Placemark><Placemark><TimeSpan><begin>2023-04-09T10:35:47Z</begin><end>2023-04-09T10:35:48Z</end></TimeSpan><styleUrl>#point</styleUrl><Point><altitudeMode>clampToGround</altitudeMode><coordinates>30.249710362404585,-27.303758813068271,1888.6500000000001</coordinates></Point></Placemark><Placemark><TimeSpan><begin>2023-04-09T10:35:48Z</begin><end>2023-04-09T10:35:49Z</end></TimeSpan><styleUrl>#point</styleUrl><Point><altitudeMode>clampToGround</altitudeMode><coordinates>30.249574575573206,-27.303940951824188,1887.6900000000001</coordinates></Point></Placemark><Placemark><TimeSpan><begin>2023-04-09T10:35:49Z</begin><end>2023-04-09T10:35:50Z</end></TimeSpan><styleUrl>#point</styleUrl><Point><altitudeMode>clampToGround</altitudeMode><coordinates>30.249423952773213,-27.304111272096634,1886.72</coordinates></Point></Placemark><Placemark><TimeSpan><begin>2023-04-09T10:35:50Z</begin><end>2023-04-09T10:35:51Z</end></TimeSpan><styleUrl>#point</styleUrl><Point><altitudeMode>clampToGround</altitudeMode><coordinates>30.249267127364874,-27.3042649962008,1886.24</coordinates></Point></Placemark><Placemark><TimeSpan><begin>2023-04-09T10:35:51Z</begin><end>2023-04-09T10:35:52Z</end></TimeSpan><styleUrl>#point</styleUrl><Point><altitudeMode>clampToGround</altitudeMode><coordinates>30.249115247279406,-27.304395921528339,1885.28</coordinates></Point></Placemark><Placemark><TimeSpan><begin>2023-04-09T10:35:52Z</begin><end>2023-04-09T10:35:53Z</end></TimeSpan><styleUrl>#point</styleUrl><Point><altitudeMode>clampToGround</altitudeMode><coordinates>30.248974766582251,-27.304502539336681,1884.8</coordinates></Point></Placemark><Placemark><TimeSpan><begin>2023-04-09T10:35:53Z</begin><end>2023-04-09T10:35:54Z</end></TimeSpan><styleUrl>#point</styleUrl><Point><altitudeMode>clampToGround</altitudeMode><coordinates>30.248846942558885,-27.304587112739682,1884.8</coordinates></Point></Placemark><Placemark><TimeSpan><begin>2023-04-09T10:35:54Z</begin><end>2023-04-09T10:35:55Z</end></TimeSpan><styleUrl>#point</styleUrl><Point><altitudeMode>clampToGround</altitudeMode><coordinates>30.248737055808306,-27.304651318117976,1884.3199999999999</coordinates></Point></Placemark><Placemark><TimeSpan><begin>2023-04-09T10:35:55Z</begin><end>2023-04-09T10:36:01Z</end></TimeSpan><styleUrl>#point</styleUrl><Point><altitudeMode>clampToGround</altitudeMode><coordinates>30.248188208788633,-27.304904703050852,1884.8</coordinates></Point></Placemark><Placemark><TimeSpan><begin>2023-04-09T10:36:01Z</begin><end>2023-04-09T10:36:07Z</end></TimeSpan><styleUrl>#point</styleUrl><Point><altitudeMode>clampToGround</altitudeMode><coordinates>30.247160838916898,-27.305111568421125,1887.6900000000001</coordinates></Point></Placemark><Placemark><TimeSpan><begin>2023-04-09T10:36:07Z</begin><end>2023-04-09T10:36:13Z</end></TimeSpan><styleUrl>#point</styleUrl><Point><altitudeMode>clampToGround</altitudeMode><coordinates>30.245643714442849,-27.305090529844165,1888.1700000000001</coordinates></Point></Placemark><Placemark><TimeSpan><begin>2023-04-09T10:36:13Z</begin><end>2023-04-09T10:36:22Z</end></TimeSpan><styleUrl>#point</styleUrl><Point><altitudeMode>clampToGround</altitudeMode><coordinates>30.243100645020604,-27.3049730155617,1878.0699999999999</coordinates></Point></Placemark><Placemark><TimeSpan><begin>2023-04-09T10:36:22Z</begin><end>2023-04-09T10:36:29Z</end></TimeSpan><styleUrl>#point</styleUrl><Point><altitudeMode>clampToGround</altitudeMode><coordinates>30.241371542215347,-27.305000508204103,1867.98</coordinates></Point></Placemark><Placemark><TimeSpan><begin>2023-04-09T10:36:29Z</begin><end>2023-04-09T10:36:46Z</end></TimeSpan><styleUrl>#point</styleUrl><Point><altitudeMode>clampToGround</altitudeMode><coordinates>30.236877668648958,-27.30541817843914,1843.95</coordinates></Point></Placemark><Placemark><TimeSpan><begin>2023-04-09T10:36:46Z</begin><end>2023-04-09T10:36:53Z</end></TimeSpan><styleUrl>#point</styleUrl><Point><altitudeMode>clampToGround</altitudeMode><coordinates>30.235209837555885,-27.305867280811071,1834.3299999999999</coordinates></Point></Placemark><Placemark><TimeSpan><begin>2023-04-09T10:36:53Z</begin><end>2023-04-09T10:36:59Z</end></TimeSpan><styleUrl>#point</styleUrl><Point><altitudeMode>clampToGround</altitudeMode><coordinates>30.233744597062469,-27.306720893830061,1824.24</coordinates></Point></Placemark><Placemark><TimeSpan><begin>2023-04-09T10:36:59Z</begin><end>2023-04-09T10:37:05Z</end></TimeSpan><styleUrl>#point</styleUrl><Point><altitudeMode>clampToGround</altitudeMode><coordinates>30.232458142563701,-27.308137267827988,1813.1800000000001</coordinates></Point></Placemark><Placemark><TimeSpan><begin>2023-04-09T10:37:05Z</begin><end>2023-04-09T10:37:11Z</end></TimeSpan><styleUrl>#point</styleUrl><Point><altitudeMode>clampToGround</altitudeMode><coordinates>30.231598913669586,-27.309859413653612,1805.97</coordinates></Point></Placemark><Placemark><TimeSpan><begin>2023-04-09T10:37:11Z</begin><end>2023-04-09T10:37:21Z</end></TimeSpan><styleUrl>#point</styleUrl><Point><altitudeMode>clampToGround</altitudeMode><coordinates>30.230213217437267,-27.312497952952981,1807.4200000000001</coordinates></Point></Placemark><Placemark><TimeSpan><begin>2023-04-09T10:37:21Z</begin><end>2023-04-09T10:37:29Z</end></TimeSpan><styleUrl>#point</styleUrl><Point><altitudeMode>clampToGround</altitudeMode><coordinates>30.228586960583925,-27.314257230609655,1811.74</coordinates></Point></Placemark><Placemark><TimeSpan><begin>2023-04-09T10:37:29Z</begin><end>2023-04-09T10:37:38Z</end></TimeSpan><styleUrl>#point</styleUrl><Point><altitudeMode>clampToGround</altitudeMode><coordinates>30.226803040131927,-27.316051879897714,1807.4200000000001</coordinates></Point></Placemark></Folder><Placemark><name>[360] Kastrolnek Pass (West)</name><Style><LineStyle><color>ff00ff00</color><width>4</width></LineStyle></Style><MultiGeometry><LineString><coordinates>30.305900797247887,-27.303567035123706,1857.8900000000001 30.30585452914238,-27.303575752303004,1857.8900000000001 30.305770458653569,-27.303595198318362,1857.8900000000001 30.304950289428234,-27.303761830553412,1858.8499999999999 30.303146587684751,-27.304128287360072,1864.6099999999999 30.300663784146309,-27.304596584290266,1877.5899999999999 30.29696736484766,-27.30516747571528,1892.01 30.294433180242777,-27.305511636659503,1892.97 30.292233601212502,-27.305309716612101,1890.0899999999999 30.290254717692733,-27.304567079991102,1883.8399999999999 30.287668565288186,-27.303117094561458,1879.51 30.285836365073919,-27.302109589800239,1889.1300000000001 30.284812599420547,-27.301191603764892,1898.74 30.283478368073702,-27.299481779336929,1914.5999999999999 30.28307125903666,-27.29916812852025,1917.01 30.282851485535502,-27.299035526812077,1917.97 30.28261779807508,-27.298913151025772,1919.4100000000001 30.282377237454057,-27.298807455226779,1920.3699999999999 30.282116392627358,-27.298715589568019,1921.3299999999999 30.281854709610343,-27.298641158267856,1922.29 30.281577184796333,-27.298571337014437,1923.25 30.278510497882962,-27.297661229968071,1939.1199999999999 30.277073001489043,-27.297335844486952,1949.6900000000001 30.274624899029732,-27.297177091240883,1967.96 30.271338019520044,-27.297069970518351,1992.47 30.266999714076519,-27.296898392960429,2009.29 30.263470178470016,-27.296774089336395,1994.3900000000001 30.26100573129952,-27.29669127613306,1983.8199999999999 30.256799440830946,-27.296521458774805,1960.27 30.25459055788815,-27.296678032726049,1946.8099999999999 30.25341248139739,-27.297083046287298,1939.1199999999999 30.252061067149043,-27.297893827781081,1930.46 30.250907298177481,-27.299110796302557,1920.8499999999999 30.250340513885021,-27.30034620501101,1912.2 30.250219982117414,-27.301570968702435,1903.55 30.250086206942797,-27.302999747917056,1893.45 30.250017140060663,-27.303191190585494,1892.01 30.249930555000901,-27.303381208330393,1891.05 30.249829133972526,-27.303571477532387,1889.6099999999999 30.249710362404585,-27.303758813068271,1888.6500000000001 30.249574575573206,-27.303940951824188,1887.6900000000001 30.249423952773213,-27.304111272096634,1886.72 30.249267127364874,-27.3042649962008,1886.24 30.249115247279406,-27.304395921528339,1885.28 30.248974766582251,-27.304502539336681,1884.8 30.248846942558885,-27.304587112739682,1884.8 30.248737055808306,-27.304651318117976,1884.3199999999999 30.248188208788633,-27.304904703050852,1884.8 30.247160838916898,-27.305111568421125,1887.6900000000001 30.245643714442849,-27.305090529844165,1888.1700000000001 30.243100645020604,-27.3049730155617,1878.0699999999999 30.241371542215347,-27.305000508204103,1867.98 30.236877668648958,-27.30541817843914,1843.95 30.235209837555885,-27.305867280811071,1834.3299999999999 30.233744597062469,-27.306720893830061,1824.24 30.232458142563701,-27.308137267827988,1813.1800000000001 30.231598913669586,-27.309859413653612,1805.97 30.230213217437267,-27.312497952952981,1807.4200000000001 30.228586960583925,-27.314257230609655,1811.74 30.226803040131927,-27.316051879897714,1807.4200000000001 </coordinates></LineString></MultiGeometry></Placemark></Folder></Folder></Document></kml>