<?xml version="1.0" encoding="utf-8"?><kml xmlns="http://www.opengis.net/kml/2.2" xmlns:xsi="http://www.w3.org/2001/XMLSchema-instance" xmlns:kmlx="http://www.google.com/kml/ext/2.2" xmlns:atom="http://www.w3.org/2005/Atom" xmlns:gpxx="http://www.garmin.com/xmlschemas/GpxExtensions/v3"><Document><Style id="point"><IconStyle><scale>0.9</scale><Icon><href>http://maps.google.com/mapfiles/kml/shapes/placemark_circle.png</href></Icon></IconStyle></Style><Folder><name>Tracks</name><Folder><name>[363] Latemanek Pass</name><Folder><name>Points</name><Style><ListStyle><listItemType>checkHideChildren</listItemType></ListStyle></Style><Placemark><TimeSpan><begin>2023-04-09T12:18:42Z</begin><end>2023-04-09T12:18:42Z</end></TimeSpan><Style><IconStyle><scale>0.9</scale><Icon><href>http://connect.garmin.com/image/main/icons/kml/grn-play.png</href></Icon></IconStyle></Style><Point><altitudeMode>clampToGround</altitudeMode><coordinates>30.088631557300687,-27.052832124754786,1704.0699999999999</coordinates></Point></Placemark><Placemark><TimeSpan><begin>2023-04-09T12:18:42Z</begin><end>2023-04-09T12:18:43Z</end></TimeSpan><styleUrl>#point</styleUrl><Point><altitudeMode>clampToGround</altitudeMode><coordinates>30.088600041344762,-27.052832543849945,1704.0699999999999</coordinates></Point></Placemark><Placemark><TimeSpan><begin>2023-04-09T12:18:43Z</begin><end>2023-04-09T12:18:44Z</end></TimeSpan><styleUrl>#point</styleUrl><Point><altitudeMode>clampToGround</altitudeMode><coordinates>30.088555281981826,-27.052838746458292,1704.0699999999999</coordinates></Point></Placemark><Placemark><TimeSpan><begin>2023-04-09T12:18:44Z</begin><end>2023-04-09T12:18:45Z</end></TimeSpan><styleUrl>#point</styleUrl><Point><altitudeMode>clampToGround</altitudeMode><coordinates>30.088511360809207,-27.052850313484669,1704.0699999999999</coordinates></Point></Placemark><Placemark><TimeSpan><begin>2023-04-09T12:18:45Z</begin><end>2023-04-09T12:18:46Z</end></TimeSpan><styleUrl>#point</styleUrl><Point><altitudeMode>clampToGround</altitudeMode><coordinates>30.088469786569476,-27.052868083119392,1704.55</coordinates></Point></Placemark><Placemark><TimeSpan><begin>2023-04-09T12:18:46Z</begin><end>2023-04-09T12:18:47Z</end></TimeSpan><styleUrl>#point</styleUrl><Point><altitudeMode>clampToGround</altitudeMode><coordinates>30.088423267006874,-27.052894067019224,1704.55</coordinates></Point></Placemark><Placemark><TimeSpan><begin>2023-04-09T12:18:47Z</begin><end>2023-04-09T12:18:48Z</end></TimeSpan><styleUrl>#point</styleUrl><Point><altitudeMode>clampToGround</altitudeMode><coordinates>30.088372891768813,-27.052922733128071,1704.55</coordinates></Point></Placemark><Placemark><TimeSpan><begin>2023-04-09T12:18:48Z</begin><end>2023-04-09T12:18:49Z</end></TimeSpan><styleUrl>#point</styleUrl><Point><altitudeMode>clampToGround</altitudeMode><coordinates>30.08832385763526,-27.052945867180824,1704.55</coordinates></Point></Placemark><Placemark><TimeSpan><begin>2023-04-09T12:18:49Z</begin><end>2023-04-09T12:18:50Z</end></TimeSpan><styleUrl>#point</styleUrl><Point><altitudeMode>clampToGround</altitudeMode><coordinates>30.088280355557799,-27.052963301539421,1705.04</coordinates></Point></Placemark><Placemark><TimeSpan><begin>2023-04-09T12:18:50Z</begin><end>2023-04-09T12:18:58Z</end></TimeSpan><styleUrl>#point</styleUrl><Point><altitudeMode>clampToGround</altitudeMode><coordinates>30.088218078017235,-27.052984675392509,1705.04</coordinates></Point></Placemark><Placemark><TimeSpan><begin>2023-04-09T12:18:58Z</begin><end>2023-04-09T12:19:25Z</end></TimeSpan><styleUrl>#point</styleUrl><Point><altitudeMode>clampToGround</altitudeMode><coordinates>30.088136186823249,-27.053013173863292,1704.55</coordinates></Point></Placemark><Placemark><TimeSpan><begin>2023-04-09T12:19:25Z</begin><end>2023-04-09T12:19:32Z</end></TimeSpan><styleUrl>#point</styleUrl><Point><altitudeMode>clampToGround</altitudeMode><coordinates>30.087457504123449,-27.053237473592162,1705.04</coordinates></Point></Placemark><Placemark><TimeSpan><begin>2023-04-09T12:19:32Z</begin><end>2023-04-09T12:19:44Z</end></TimeSpan><styleUrl>#point</styleUrl><Point><altitudeMode>clampToGround</altitudeMode><coordinates>30.085735861212015,-27.053774669766426,1706.96</coordinates></Point></Placemark><Placemark><TimeSpan><begin>2023-04-09T12:19:44Z</begin><end>2023-04-09T12:19:55Z</end></TimeSpan><styleUrl>#point</styleUrl><Point><altitudeMode>clampToGround</altitudeMode><coordinates>30.083535863086581,-27.054469278082252,1710.8</coordinates></Point></Placemark><Placemark><TimeSpan><begin>2023-04-09T12:19:55Z</begin><end>2023-04-09T12:20:09Z</end></TimeSpan><styleUrl>#point</styleUrl><Point><altitudeMode>clampToGround</altitudeMode><coordinates>30.080323163419962,-27.055457169190049,1719.9400000000001</coordinates></Point></Placemark><Placemark><TimeSpan><begin>2023-04-09T12:20:09Z</begin><end>2023-04-09T12:20:23Z</end></TimeSpan><styleUrl>#point</styleUrl><Point><altitudeMode>clampToGround</altitudeMode><coordinates>30.077268294990063,-27.056254623457789,1729.55</coordinates></Point></Placemark><Placemark><TimeSpan><begin>2023-04-09T12:20:23Z</begin><end>2023-04-09T12:20:36Z</end></TimeSpan><styleUrl>#point</styleUrl><Point><altitudeMode>clampToGround</altitudeMode><coordinates>30.074310572817922,-27.056979155167937,1739.1600000000001</coordinates></Point></Placemark><Placemark><TimeSpan><begin>2023-04-09T12:20:36Z</begin><end>2023-04-09T12:20:51Z</end></TimeSpan><styleUrl>#point</styleUrl><Point><altitudeMode>clampToGround</altitudeMode><coordinates>30.070780450478196,-27.057886747643352,1752.1400000000001</coordinates></Point></Placemark><Placemark><TimeSpan><begin>2023-04-09T12:20:51Z</begin><end>2023-04-09T12:21:00Z</end></TimeSpan><styleUrl>#point</styleUrl><Point><altitudeMode>clampToGround</altitudeMode><coordinates>30.069020921364427,-27.058407515287399,1755.02</coordinates></Point></Placemark><Placemark><TimeSpan><begin>2023-04-09T12:21:00Z</begin><end>2023-04-09T12:21:09Z</end></TimeSpan><styleUrl>#point</styleUrl><Point><altitudeMode>clampToGround</altitudeMode><coordinates>30.067029548808932,-27.058723596855998,1759.3499999999999</coordinates></Point></Placemark><Placemark><TimeSpan><begin>2023-04-09T12:21:09Z</begin><end>2023-04-09T12:21:18Z</end></TimeSpan><styleUrl>#point</styleUrl><Point><altitudeMode>clampToGround</altitudeMode><coordinates>30.06501579657197,-27.058692332357168,1769.9200000000001</coordinates></Point></Placemark><Placemark><TimeSpan><begin>2023-04-09T12:21:18Z</begin><end>2023-04-09T12:21:27Z</end></TimeSpan><styleUrl>#point</styleUrl><Point><altitudeMode>clampToGround</altitudeMode><coordinates>30.063514765352011,-27.059007408097386,1766.5599999999999</coordinates></Point></Placemark><Placemark><TimeSpan><begin>2023-04-09T12:21:27Z</begin><end>2023-04-09T12:21:35Z</end></TimeSpan><styleUrl>#point</styleUrl><Point><altitudeMode>clampToGround</altitudeMode><coordinates>30.062386393547058,-27.059628339484334,1757.9100000000001</coordinates></Point></Placemark><Placemark><TimeSpan><begin>2023-04-09T12:21:35Z</begin><end>2023-04-09T12:21:49Z</end></TimeSpan><styleUrl>#point</styleUrl><Point><altitudeMode>clampToGround</altitudeMode><coordinates>30.060014482587576,-27.061142614111304,1749.74</coordinates></Point></Placemark><Placemark><TimeSpan><begin>2023-04-09T12:21:49Z</begin><end>2023-04-09T12:21:58Z</end></TimeSpan><styleUrl>#point</styleUrl><Point><altitudeMode>clampToGround</altitudeMode><coordinates>30.058658374473453,-27.06218708306551,1749.26</coordinates></Point></Placemark><Placemark><TimeSpan><begin>2023-04-09T12:21:58Z</begin><end>2023-04-09T12:22:14Z</end></TimeSpan><styleUrl>#point</styleUrl><Point><altitudeMode>clampToGround</altitudeMode><coordinates>30.056137097999454,-27.064140820875764,1728.1099999999999</coordinates></Point></Placemark><Placemark><TimeSpan><begin>2023-04-09T12:22:14Z</begin><end>2023-04-09T12:22:27Z</end></TimeSpan><styleUrl>#point</styleUrl><Point><altitudeMode>clampToGround</altitudeMode><coordinates>30.054122926667333,-27.065689042210579,1713.6900000000001</coordinates></Point></Placemark><Placemark><TimeSpan><begin>2023-04-09T12:22:27Z</begin><end>2023-04-09T12:22:36Z</end></TimeSpan><styleUrl>#point</styleUrl><Point><altitudeMode>clampToGround</altitudeMode><coordinates>30.053016431629658,-27.06647434271872,1706</coordinates></Point></Placemark><Placemark><TimeSpan><begin>2023-04-09T12:22:36Z</begin><end>2023-04-09T12:22:48Z</end></TimeSpan><styleUrl>#point</styleUrl><Point><altitudeMode>clampToGround</altitudeMode><coordinates>30.0508953910321,-27.067432310432196,1704.0699999999999</coordinates></Point></Placemark><Placemark><TimeSpan><begin>2023-04-09T12:22:48Z</begin><end>2023-04-09T12:22:58Z</end></TimeSpan><styleUrl>#point</styleUrl><Point><altitudeMode>clampToGround</altitudeMode><coordinates>30.049077440053225,-27.068396480754018,1717.05</coordinates></Point></Placemark><Placemark><TimeSpan><begin>2023-04-09T12:22:58Z</begin><end>2023-04-09T12:23:05Z</end></TimeSpan><styleUrl>#point</styleUrl><Point><altitudeMode>clampToGround</altitudeMode><coordinates>30.048035485669971,-27.069089915603399,1726.6700000000001</coordinates></Point></Placemark><Placemark><TimeSpan><begin>2023-04-09T12:23:05Z</begin><end>2023-04-09T12:23:15Z</end></TimeSpan><styleUrl>#point</styleUrl><Point><altitudeMode>clampToGround</altitudeMode><coordinates>30.046510733664036,-27.070092977955937,1741.5699999999999</coordinates></Point></Placemark><Placemark><TimeSpan><begin>2023-04-09T12:23:15Z</begin><end>2023-04-09T12:23:26Z</end></TimeSpan><styleUrl>#point</styleUrl><Point><altitudeMode>clampToGround</altitudeMode><coordinates>30.044958740472794,-27.071089753881097,1743.97</coordinates></Point></Placemark></Folder><Placemark><name>[363] Latemanek Pass</name><Style><LineStyle><color>ff0000ff</color><width>4</width></LineStyle></Style><MultiGeometry><LineString><coordinates>30.088631557300687,-27.052832124754786,1704.0699999999999 30.088600041344762,-27.052832543849945,1704.0699999999999 30.088555281981826,-27.052838746458292,1704.0699999999999 30.088511360809207,-27.052850313484669,1704.0699999999999 30.088469786569476,-27.052868083119392,1704.55 30.088423267006874,-27.052894067019224,1704.55 30.088372891768813,-27.052922733128071,1704.55 30.08832385763526,-27.052945867180824,1704.55 30.088280355557799,-27.052963301539421,1705.04 30.088218078017235,-27.052984675392509,1705.04 30.088136186823249,-27.053013173863292,1704.55 30.087457504123449,-27.053237473592162,1705.04 30.085735861212015,-27.053774669766426,1706.96 30.083535863086581,-27.054469278082252,1710.8 30.080323163419962,-27.055457169190049,1719.9400000000001 30.077268294990063,-27.056254623457789,1729.55 30.074310572817922,-27.056979155167937,1739.1600000000001 30.070780450478196,-27.057886747643352,1752.1400000000001 30.069020921364427,-27.058407515287399,1755.02 30.067029548808932,-27.058723596855998,1759.3499999999999 30.06501579657197,-27.058692332357168,1769.9200000000001 30.063514765352011,-27.059007408097386,1766.5599999999999 30.062386393547058,-27.059628339484334,1757.9100000000001 30.060014482587576,-27.061142614111304,1749.74 30.058658374473453,-27.06218708306551,1749.26 30.056137097999454,-27.064140820875764,1728.1099999999999 30.054122926667333,-27.065689042210579,1713.6900000000001 30.053016431629658,-27.06647434271872,1706 30.0508953910321,-27.067432310432196,1704.0699999999999 30.049077440053225,-27.068396480754018,1717.05 30.048035485669971,-27.069089915603399,1726.6700000000001 30.046510733664036,-27.070092977955937,1741.5699999999999 30.044958740472794,-27.071089753881097,1743.97 </coordinates></LineString></MultiGeometry></Placemark></Folder></Folder></Document></kml>