<?xml version="1.0" encoding="utf-8"?><kml xmlns="http://www.opengis.net/kml/2.2" xmlns:xsi="http://www.w3.org/2001/XMLSchema-instance" xmlns:kmlx="http://www.google.com/kml/ext/2.2" xmlns:atom="http://www.w3.org/2005/Atom" xmlns:gpxx="http://www.garmin.com/xmlschemas/GpxExtensions/v3"><Document><Style id="point"><IconStyle><scale>0.9</scale><Icon><href>http://maps.google.com/mapfiles/kml/shapes/placemark_circle.png</href></Icon></IconStyle></Style><Folder><name>Tracks</name><Folder><name>[364] De Jagersnek Pass</name><Folder><name>Points</name><Style><ListStyle><listItemType>checkHideChildren</listItemType></ListStyle></Style><Placemark><TimeSpan><begin>2023-04-09T13:04:47Z</begin><end>2023-04-09T13:04:47Z</end></TimeSpan><Style><IconStyle><scale>0.9</scale><Icon><href>http://connect.garmin.com/image/main/icons/kml/grn-play.png</href></Icon></IconStyle></Style><Point><altitudeMode>clampToGround</altitudeMode><coordinates>29.976209029555321,-27.306850478053093,1811.26</coordinates></Point></Placemark><Placemark><TimeSpan><begin>2023-04-09T13:04:47Z</begin><end>2023-04-09T13:04:57Z</end></TimeSpan><styleUrl>#point</styleUrl><Point><altitudeMode>clampToGround</altitudeMode><coordinates>29.974214304238558,-27.306938990950584,1812.7</coordinates></Point></Placemark><Placemark><TimeSpan><begin>2023-04-09T13:04:57Z</begin><end>2023-04-09T13:05:07Z</end></TimeSpan><styleUrl>#point</styleUrl><Point><altitudeMode>clampToGround</altitudeMode><coordinates>29.97252618893981,-27.307278122752905,1802.1300000000001</coordinates></Point></Placemark><Placemark><TimeSpan><begin>2023-04-09T13:05:07Z</begin><end>2023-04-09T13:05:14Z</end></TimeSpan><styleUrl>#point</styleUrl><Point><altitudeMode>clampToGround</altitudeMode><coordinates>29.971103947609663,-27.307948088273406,1794.9200000000001</coordinates></Point></Placemark><Placemark><TimeSpan><begin>2023-04-09T13:05:14Z</begin><end>2023-04-09T13:05:23Z</end></TimeSpan><styleUrl>#point</styleUrl><Point><altitudeMode>clampToGround</altitudeMode><coordinates>29.969333941116929,-27.308792816475034,1808.8599999999999</coordinates></Point></Placemark><Placemark><TimeSpan><begin>2023-04-09T13:05:23Z</begin><end>2023-04-09T13:05:36Z</end></TimeSpan><styleUrl>#point</styleUrl><Point><altitudeMode>clampToGround</altitudeMode><coordinates>29.967161016538739,-27.309906771406531,1824.72</coordinates></Point></Placemark><Placemark><TimeSpan><begin>2023-04-09T13:05:36Z</begin><end>2023-04-09T13:05:49Z</end></TimeSpan><styleUrl>#point</styleUrl><Point><altitudeMode>clampToGround</altitudeMode><coordinates>29.964595064520836,-27.311148466542363,1838.6600000000001</coordinates></Point></Placemark><Placemark><TimeSpan><begin>2023-04-09T13:05:49Z</begin><end>2023-04-09T13:05:58Z</end></TimeSpan><styleUrl>#point</styleUrl><Point><altitudeMode>clampToGround</altitudeMode><coordinates>29.963086238130927,-27.31167552061379,1852.5999999999999</coordinates></Point></Placemark><Placemark><TimeSpan><begin>2023-04-09T13:05:58Z</begin><end>2023-04-09T13:06:08Z</end></TimeSpan><styleUrl>#point</styleUrl><Point><altitudeMode>clampToGround</altitudeMode><coordinates>29.961467441171408,-27.312248256057501,1863.6500000000001</coordinates></Point></Placemark><Placemark><TimeSpan><begin>2023-04-09T13:06:08Z</begin><end>2023-04-09T13:06:16Z</end></TimeSpan><styleUrl>#point</styleUrl><Point><altitudeMode>clampToGround</altitudeMode><coordinates>29.960014019161463,-27.312752092257142,1862.21</coordinates></Point></Placemark><Placemark><TimeSpan><begin>2023-04-09T13:06:16Z</begin><end>2023-04-09T13:06:24Z</end></TimeSpan><styleUrl>#point</styleUrl><Point><altitudeMode>clampToGround</altitudeMode><coordinates>29.958692193031311,-27.313187029212713,1855</coordinates></Point></Placemark><Placemark><TimeSpan><begin>2023-04-09T13:06:24Z</begin><end>2023-04-09T13:06:32Z</end></TimeSpan><styleUrl>#point</styleUrl><Point><altitudeMode>clampToGround</altitudeMode><coordinates>29.957358296960592,-27.313658092170954,1852.1199999999999</coordinates></Point></Placemark><Placemark><TimeSpan><begin>2023-04-09T13:06:32Z</begin><end>2023-04-09T13:06:41Z</end></TimeSpan><styleUrl>#point</styleUrl><Point><altitudeMode>clampToGround</altitudeMode><coordinates>29.955849135294557,-27.314215572550893,1858.8499999999999</coordinates></Point></Placemark><Placemark><TimeSpan><begin>2023-04-09T13:06:41Z</begin><end>2023-04-09T13:06:53Z</end></TimeSpan><styleUrl>#point</styleUrl><Point><altitudeMode>clampToGround</altitudeMode><coordinates>29.953631786629558,-27.315157111734152,1861.73</coordinates></Point></Placemark><Placemark><TimeSpan><begin>2023-04-09T13:06:53Z</begin><end>2023-04-09T13:07:07Z</end></TimeSpan><styleUrl>#point</styleUrl><Point><altitudeMode>clampToGround</altitudeMode><coordinates>29.950825776904821,-27.316348515450954,1865.5799999999999</coordinates></Point></Placemark><Placemark><TimeSpan><begin>2023-04-09T13:07:07Z</begin><end>2023-04-09T13:07:17Z</end></TimeSpan><styleUrl>#point</styleUrl><Point><altitudeMode>clampToGround</altitudeMode><coordinates>29.949216200038791,-27.317055026069283,1867.02</coordinates></Point></Placemark><Placemark><TimeSpan><begin>2023-04-09T13:07:17Z</begin><end>2023-04-09T13:07:26Z</end></TimeSpan><styleUrl>#point</styleUrl><Point><altitudeMode>clampToGround</altitudeMode><coordinates>29.948173742741346,-27.317858850583434,1864.1300000000001</coordinates></Point></Placemark><Placemark><TimeSpan><begin>2023-04-09T13:07:26Z</begin><end>2023-04-09T13:07:35Z</end></TimeSpan><styleUrl>#point</styleUrl><Point><altitudeMode>clampToGround</altitudeMode><coordinates>29.947695890441537,-27.318663345649838,1857.8900000000001</coordinates></Point></Placemark><Placemark><TimeSpan><begin>2023-04-09T13:07:35Z</begin><end>2023-04-09T13:07:47Z</end></TimeSpan><styleUrl>#point</styleUrl><Point><altitudeMode>clampToGround</altitudeMode><coordinates>29.94742582552135,-27.319931695237756,1845.3900000000001</coordinates></Point></Placemark><Placemark><TimeSpan><begin>2023-04-09T13:07:47Z</begin><end>2023-04-09T13:08:00Z</end></TimeSpan><styleUrl>#point</styleUrl><Point><altitudeMode>clampToGround</altitudeMode><coordinates>29.947315771132708,-27.32128981500864,1832.4100000000001</coordinates></Point></Placemark><Placemark><TimeSpan><begin>2023-04-09T13:08:00Z</begin><end>2023-04-09T13:08:16Z</end></TimeSpan><styleUrl>#point</styleUrl><Point><altitudeMode>clampToGround</altitudeMode><coordinates>29.946727193892002,-27.322890758514404,1816.0699999999999</coordinates></Point></Placemark><Placemark><TimeSpan><begin>2023-04-09T13:08:16Z</begin><end>2023-04-09T13:08:27Z</end></TimeSpan><styleUrl>#point</styleUrl><Point><altitudeMode>clampToGround</altitudeMode><coordinates>29.9463767465204,-27.32386046089232,1802.6099999999999</coordinates></Point></Placemark><Placemark><TimeSpan><begin>2023-04-09T13:08:27Z</begin><end>2023-04-09T13:08:42Z</end></TimeSpan><styleUrl>#point</styleUrl><Point><altitudeMode>clampToGround</altitudeMode><coordinates>29.945954801514745,-27.324972990900278,1788.6700000000001</coordinates></Point></Placemark><Placemark><TimeSpan><begin>2023-04-09T13:08:42Z</begin><end>2023-04-09T13:08:55Z</end></TimeSpan><styleUrl>#point</styleUrl><Point><altitudeMode>clampToGround</altitudeMode><coordinates>29.94553679600358,-27.326091639697552,1775.6900000000001</coordinates></Point></Placemark><Placemark><TimeSpan><begin>2023-04-09T13:08:55Z</begin><end>2023-04-09T13:09:06Z</end></TimeSpan><styleUrl>#point</styleUrl><Point><altitudeMode>clampToGround</altitudeMode><coordinates>29.945020135492086,-27.327460488304496,1766.5599999999999</coordinates></Point></Placemark><Placemark><TimeSpan><begin>2023-04-09T13:09:06Z</begin><end>2023-04-09T13:09:16Z</end></TimeSpan><styleUrl>#point</styleUrl><Point><altitudeMode>clampToGround</altitudeMode><coordinates>29.944468522444367,-27.328965961933136,1763.2</coordinates></Point></Placemark><Placemark><TimeSpan><begin>2023-04-09T13:09:16Z</begin><end>2023-04-09T13:09:24Z</end></TimeSpan><styleUrl>#point</styleUrl><Point><altitudeMode>clampToGround</altitudeMode><coordinates>29.943922022357583,-27.330445619300008,1759.8299999999999</coordinates></Point></Placemark><Placemark><TimeSpan><begin>2023-04-09T13:09:24Z</begin><end>2023-04-09T13:09:38Z</end></TimeSpan><styleUrl>#point</styleUrl><Point><altitudeMode>clampToGround</altitudeMode><coordinates>29.943166058510542,-27.332542520016432,1752.6199999999999</coordinates></Point></Placemark><Placemark><TimeSpan><begin>2023-04-09T13:09:38Z</begin><end>2023-04-09T13:09:53Z</end></TimeSpan><styleUrl>#point</styleUrl><Point><altitudeMode>clampToGround</altitudeMode><coordinates>29.942175149917603,-27.334558619186282,1745.4100000000001</coordinates></Point></Placemark><Placemark><TimeSpan><begin>2023-04-09T13:09:53Z</begin><end>2023-04-09T13:10:06Z</end></TimeSpan><styleUrl>#point</styleUrl><Point><altitudeMode>clampToGround</altitudeMode><coordinates>29.940788112580776,-27.336145229637623,1739.1600000000001</coordinates></Point></Placemark><Placemark><TimeSpan><begin>2023-04-09T13:10:06Z</begin><end>2023-04-09T13:10:18Z</end></TimeSpan><styleUrl>#point</styleUrl><Point><altitudeMode>clampToGround</altitudeMode><coordinates>29.939151126891375,-27.337306458503008,1731.47</coordinates></Point></Placemark><Placemark><TimeSpan><begin>2023-04-09T13:10:18Z</begin><end>2023-04-09T13:10:32Z</end></TimeSpan><styleUrl>#point</styleUrl><Point><altitudeMode>clampToGround</altitudeMode><coordinates>29.937092028558254,-27.338592661544681,1724.74</coordinates></Point></Placemark><Placemark><TimeSpan><begin>2023-04-09T13:10:32Z</begin><end>2023-04-09T13:10:44Z</end></TimeSpan><styleUrl>#point</styleUrl><Point><altitudeMode>clampToGround</altitudeMode><coordinates>29.935366194695234,-27.33970913104713,1723.3</coordinates></Point></Placemark><Placemark><TimeSpan><begin>2023-04-09T13:10:44Z</begin><end>2023-04-09T13:10:56Z</end></TimeSpan><styleUrl>#point</styleUrl><Point><altitudeMode>clampToGround</altitudeMode><coordinates>29.9335702881217,-27.340820655226707,1720.9000000000001</coordinates></Point></Placemark><Placemark><TimeSpan><begin>2023-04-09T13:10:56Z</begin><end>2023-04-09T13:11:06Z</end></TimeSpan><styleUrl>#point</styleUrl><Point><altitudeMode>clampToGround</altitudeMode><coordinates>29.932237397879362,-27.341434881091118,1717.53</coordinates></Point></Placemark></Folder><Placemark><name>[364] De Jagersnek Pass</name><Style><LineStyle><color>ff0000ff</color><width>4</width></LineStyle></Style><MultiGeometry><LineString><coordinates>29.976209029555321,-27.306850478053093,1811.26 29.974214304238558,-27.306938990950584,1812.7 29.97252618893981,-27.307278122752905,1802.1300000000001 29.971103947609663,-27.307948088273406,1794.9200000000001 29.969333941116929,-27.308792816475034,1808.8599999999999 29.967161016538739,-27.309906771406531,1824.72 29.964595064520836,-27.311148466542363,1838.6600000000001 29.963086238130927,-27.31167552061379,1852.5999999999999 29.961467441171408,-27.312248256057501,1863.6500000000001 29.960014019161463,-27.312752092257142,1862.21 29.958692193031311,-27.313187029212713,1855 29.957358296960592,-27.313658092170954,1852.1199999999999 29.955849135294557,-27.314215572550893,1858.8499999999999 29.953631786629558,-27.315157111734152,1861.73 29.950825776904821,-27.316348515450954,1865.5799999999999 29.949216200038791,-27.317055026069283,1867.02 29.948173742741346,-27.317858850583434,1864.1300000000001 29.947695890441537,-27.318663345649838,1857.8900000000001 29.94742582552135,-27.319931695237756,1845.3900000000001 29.947315771132708,-27.32128981500864,1832.4100000000001 29.946727193892002,-27.322890758514404,1816.0699999999999 29.9463767465204,-27.32386046089232,1802.6099999999999 29.945954801514745,-27.324972990900278,1788.6700000000001 29.94553679600358,-27.326091639697552,1775.6900000000001 29.945020135492086,-27.327460488304496,1766.5599999999999 29.944468522444367,-27.328965961933136,1763.2 29.943922022357583,-27.330445619300008,1759.8299999999999 29.943166058510542,-27.332542520016432,1752.6199999999999 29.942175149917603,-27.334558619186282,1745.4100000000001 29.940788112580776,-27.336145229637623,1739.1600000000001 29.939151126891375,-27.337306458503008,1731.47 29.937092028558254,-27.338592661544681,1724.74 29.935366194695234,-27.33970913104713,1723.3 29.9335702881217,-27.340820655226707,1720.9000000000001 29.932237397879362,-27.341434881091118,1717.53 </coordinates></LineString></MultiGeometry></Placemark></Folder></Folder></Document></kml>