<?xml version="1.0" encoding="utf-8"?><kml xmlns="http://www.opengis.net/kml/2.2" xmlns:xsi="http://www.w3.org/2001/XMLSchema-instance" xmlns:kmlx="http://www.google.com/kml/ext/2.2" xmlns:atom="http://www.w3.org/2005/Atom" xmlns:gpxx="http://www.garmin.com/xmlschemas/GpxExtensions/v3"><Document><Style id="point"><IconStyle><scale>0.9</scale><Icon><href>http://maps.google.com/mapfiles/kml/shapes/placemark_circle.png</href></Icon></IconStyle></Style><Folder><name>Tracks</name><Folder><name>[419] Sandrevierpoort - 2026-04-27</name><Folder><name>Points</name><Style><ListStyle><listItemType>checkHideChildren</listItemType></ListStyle></Style><Placemark><TimeSpan><begin>2026-04-27T07:27:16Z</begin><end>2026-04-27T07:27:16Z</end></TimeSpan><Style><IconStyle><scale>0.9</scale><Icon><href>http://connect.garmin.com/image/main/icons/kml/grn-play.png</href></Icon></IconStyle></Style><Point><altitudeMode>clampToGround</altitudeMode><coordinates>27.583202747628093,-24.579245410859585,1003.75</coordinates></Point></Placemark><Placemark><TimeSpan><begin>2026-04-27T07:27:16Z</begin><end>2026-04-27T07:27:21Z</end></TimeSpan><styleUrl>#point</styleUrl><Point><altitudeMode>clampToGround</altitudeMode><coordinates>27.583477171137929,-24.579850919544697,1003.27</coordinates></Point></Placemark><Placemark><TimeSpan><begin>2026-04-27T07:27:21Z</begin><end>2026-04-27T07:27:26Z</end></TimeSpan><styleUrl>#point</styleUrl><Point><altitudeMode>clampToGround</altitudeMode><coordinates>27.583796605467796,-24.580540917813778,1002.79</coordinates></Point></Placemark><Placemark><TimeSpan><begin>2026-04-27T07:27:26Z</begin><end>2026-04-27T07:27:31Z</end></TimeSpan><styleUrl>#point</styleUrl><Point><altitudeMode>clampToGround</altitudeMode><coordinates>27.58410606533289,-24.581212140619755,1002.3099999999999</coordinates></Point></Placemark><Placemark><TimeSpan><begin>2026-04-27T07:27:31Z</begin><end>2026-04-27T07:27:36Z</end></TimeSpan><styleUrl>#point</styleUrl><Point><altitudeMode>clampToGround</altitudeMode><coordinates>27.584419129416347,-24.581887554377317,1001.35</coordinates></Point></Placemark><Placemark><TimeSpan><begin>2026-04-27T07:27:36Z</begin><end>2026-04-27T07:27:41Z</end></TimeSpan><styleUrl>#point</styleUrl><Point><altitudeMode>clampToGround</altitudeMode><coordinates>27.584702856838703,-24.582512006163597,1000.87</coordinates></Point></Placemark><Placemark><TimeSpan><begin>2026-04-27T07:27:41Z</begin><end>2026-04-27T07:27:46Z</end></TimeSpan><styleUrl>#point</styleUrl><Point><altitudeMode>clampToGround</altitudeMode><coordinates>27.585001420229673,-24.58316252566874,1000.39</coordinates></Point></Placemark><Placemark><TimeSpan><begin>2026-04-27T07:27:46Z</begin><end>2026-04-27T07:27:51Z</end></TimeSpan><styleUrl>#point</styleUrl><Point><altitudeMode>clampToGround</altitudeMode><coordinates>27.585298642516136,-24.583826288580894,999.90999999999997</coordinates></Point></Placemark><Placemark><TimeSpan><begin>2026-04-27T07:27:51Z</begin><end>2026-04-27T07:27:56Z</end></TimeSpan><styleUrl>#point</styleUrl><Point><altitudeMode>clampToGround</altitudeMode><coordinates>27.585588153451681,-24.584482675418258,998.95000000000005</coordinates></Point></Placemark><Placemark><TimeSpan><begin>2026-04-27T07:27:56Z</begin><end>2026-04-27T07:28:01Z</end></TimeSpan><styleUrl>#point</styleUrl><Point><altitudeMode>clampToGround</altitudeMode><coordinates>27.585879256948829,-24.585129758343101,997.99000000000001</coordinates></Point></Placemark><Placemark><TimeSpan><begin>2026-04-27T07:28:01Z</begin><end>2026-04-27T07:28:06Z</end></TimeSpan><styleUrl>#point</styleUrl><Point><altitudeMode>clampToGround</altitudeMode><coordinates>27.58618326857686,-24.585784217342734,997.01999999999998</coordinates></Point></Placemark><Placemark><TimeSpan><begin>2026-04-27T07:28:06Z</begin><end>2026-04-27T07:28:11Z</end></TimeSpan><styleUrl>#point</styleUrl><Point><altitudeMode>clampToGround</altitudeMode><coordinates>27.586483508348465,-24.58642702549696,996.53999999999996</coordinates></Point></Placemark><Placemark><TimeSpan><begin>2026-04-27T07:28:11Z</begin><end>2026-04-27T07:28:16Z</end></TimeSpan><styleUrl>#point</styleUrl><Point><altitudeMode>clampToGround</altitudeMode><coordinates>27.58678374812007,-24.587066229432821,995.58000000000004</coordinates></Point></Placemark><Placemark><TimeSpan><begin>2026-04-27T07:28:16Z</begin><end>2026-04-27T07:28:21Z</end></TimeSpan><styleUrl>#point</styleUrl><Point><altitudeMode>clampToGround</altitudeMode><coordinates>27.587073761969805,-24.587713982909918,995.10000000000002</coordinates></Point></Placemark><Placemark><TimeSpan><begin>2026-04-27T07:28:21Z</begin><end>2026-04-27T07:28:26Z</end></TimeSpan><styleUrl>#point</styleUrl><Point><altitudeMode>clampToGround</altitudeMode><coordinates>27.587356315925717,-24.5883693639189,994.13999999999999</coordinates></Point></Placemark><Placemark><TimeSpan><begin>2026-04-27T07:28:26Z</begin><end>2026-04-27T07:28:31Z</end></TimeSpan><styleUrl>#point</styleUrl><Point><altitudeMode>clampToGround</altitudeMode><coordinates>27.587656304240227,-24.589018207043409,992.70000000000005</coordinates></Point></Placemark><Placemark><TimeSpan><begin>2026-04-27T07:28:31Z</begin><end>2026-04-27T07:28:36Z</end></TimeSpan><styleUrl>#point</styleUrl><Point><altitudeMode>clampToGround</altitudeMode><coordinates>27.587956544011831,-24.589661518111825,991.74000000000001</coordinates></Point></Placemark><Placemark><TimeSpan><begin>2026-04-27T07:28:36Z</begin><end>2026-04-27T07:28:41Z</end></TimeSpan><styleUrl>#point</styleUrl><Point><altitudeMode>clampToGround</altitudeMode><coordinates>27.588253263384104,-24.59031019359827,990.77999999999997</coordinates></Point></Placemark><Placemark><TimeSpan><begin>2026-04-27T07:28:41Z</begin><end>2026-04-27T07:28:46Z</end></TimeSpan><styleUrl>#point</styleUrl><Point><altitudeMode>clampToGround</altitudeMode><coordinates>27.588552832603455,-24.590965574607253,990.29999999999995</coordinates></Point></Placemark><Placemark><TimeSpan><begin>2026-04-27T07:28:46Z</begin><end>2026-04-27T07:28:51Z</end></TimeSpan><styleUrl>#point</styleUrl><Point><altitudeMode>clampToGround</altitudeMode><coordinates>27.588842259719968,-24.591608801856637,989.80999999999995</coordinates></Point></Placemark><Placemark><TimeSpan><begin>2026-04-27T07:28:51Z</begin><end>2026-04-27T07:28:56Z</end></TimeSpan><styleUrl>#point</styleUrl><Point><altitudeMode>clampToGround</altitudeMode><coordinates>27.589142918586731,-24.592258064076304,988.85000000000002</coordinates></Point></Placemark><Placemark><TimeSpan><begin>2026-04-27T07:28:56Z</begin><end>2026-04-27T07:29:01Z</end></TimeSpan><styleUrl>#point</styleUrl><Point><altitudeMode>clampToGround</altitudeMode><coordinates>27.589446762576699,-24.592909421771765,988.37</coordinates></Point></Placemark><Placemark><TimeSpan><begin>2026-04-27T07:29:01Z</begin><end>2026-04-27T07:29:06Z</end></TimeSpan><styleUrl>#point</styleUrl><Point><altitudeMode>clampToGround</altitudeMode><coordinates>27.589742476120591,-24.593554912135005,987.88999999999999</coordinates></Point></Placemark><Placemark><TimeSpan><begin>2026-04-27T07:29:06Z</begin><end>2026-04-27T07:29:11Z</end></TimeSpan><styleUrl>#point</styleUrl><Point><altitudeMode>clampToGround</altitudeMode><coordinates>27.590044224634767,-24.594199061393738,987.88999999999999</coordinates></Point></Placemark><Placemark><TimeSpan><begin>2026-04-27T07:29:11Z</begin><end>2026-04-27T07:29:16Z</end></TimeSpan><styleUrl>#point</styleUrl><Point><altitudeMode>clampToGround</altitudeMode><coordinates>27.590348152443767,-24.59484220482409,987.40999999999997</coordinates></Point></Placemark><Placemark><TimeSpan><begin>2026-04-27T07:29:16Z</begin><end>2026-04-27T07:29:21Z</end></TimeSpan><styleUrl>#point</styleUrl><Point><altitudeMode>clampToGround</altitudeMode><coordinates>27.590659791603684,-24.595500938594341,985.97000000000003</coordinates></Point></Placemark><Placemark><TimeSpan><begin>2026-04-27T07:29:21Z</begin><end>2026-04-27T07:29:26Z</end></TimeSpan><styleUrl>#point</styleUrl><Point><altitudeMode>clampToGround</altitudeMode><coordinates>27.590950056910515,-24.596156487241387,985.00999999999999</coordinates></Point></Placemark><Placemark><TimeSpan><begin>2026-04-27T07:29:26Z</begin><end>2026-04-27T07:29:31Z</end></TimeSpan><styleUrl>#point</styleUrl><Point><altitudeMode>clampToGround</altitudeMode><coordinates>27.591245602816343,-24.596803821623325,984.52999999999997</coordinates></Point></Placemark><Placemark><TimeSpan><begin>2026-04-27T07:29:31Z</begin><end>2026-04-27T07:29:36Z</end></TimeSpan><styleUrl>#point</styleUrl><Point><altitudeMode>clampToGround</altitudeMode><coordinates>27.591532515361905,-24.597462052479386,983.57000000000005</coordinates></Point></Placemark><Placemark><TimeSpan><begin>2026-04-27T07:29:36Z</begin><end>2026-04-27T07:29:41Z</end></TimeSpan><styleUrl>#point</styleUrl><Point><altitudeMode>clampToGround</altitudeMode><coordinates>27.591834934428334,-24.598114583641291,983.09000000000003</coordinates></Point></Placemark><Placemark><TimeSpan><begin>2026-04-27T07:29:41Z</begin><end>2026-04-27T07:29:46Z</end></TimeSpan><styleUrl>#point</styleUrl><Point><altitudeMode>clampToGround</altitudeMode><coordinates>27.592127546668053,-24.59877273067832,982.12</coordinates></Point></Placemark><Placemark><TimeSpan><begin>2026-04-27T07:29:46Z</begin><end>2026-04-27T07:29:51Z</end></TimeSpan><styleUrl>#point</styleUrl><Point><altitudeMode>clampToGround</altitudeMode><coordinates>27.592425690963864,-24.599427105858922,981.15999999999997</coordinates></Point></Placemark><Placemark><TimeSpan><begin>2026-04-27T07:29:51Z</begin><end>2026-04-27T07:29:56Z</end></TimeSpan><styleUrl>#point</styleUrl><Point><altitudeMode>clampToGround</altitudeMode><coordinates>27.592718889936805,-24.600075948983431,979.72000000000003</coordinates></Point></Placemark><Placemark><TimeSpan><begin>2026-04-27T07:29:56Z</begin><end>2026-04-27T07:30:01Z</end></TimeSpan><styleUrl>#point</styleUrl><Point><altitudeMode>clampToGround</altitudeMode><coordinates>27.593010915443301,-24.600712722167373,978.75999999999999</coordinates></Point></Placemark><Placemark><TimeSpan><begin>2026-04-27T07:30:01Z</begin><end>2026-04-27T07:30:06Z</end></TimeSpan><styleUrl>#point</styleUrl><Point><altitudeMode>clampToGround</altitudeMode><coordinates>27.59330696426332,-24.601344633847475,978.27999999999997</coordinates></Point></Placemark><Placemark><TimeSpan><begin>2026-04-27T07:30:06Z</begin><end>2026-04-27T07:30:11Z</end></TimeSpan><styleUrl>#point</styleUrl><Point><altitudeMode>clampToGround</altitudeMode><coordinates>27.593608964234591,-24.601991381496191,977.79999999999995</coordinates></Point></Placemark><Placemark><TimeSpan><begin>2026-04-27T07:30:11Z</begin><end>2026-04-27T07:30:16Z</end></TimeSpan><styleUrl>#point</styleUrl><Point><altitudeMode>clampToGround</altitudeMode><coordinates>27.593904677778482,-24.602637710049748,978.75999999999999</coordinates></Point></Placemark><Placemark><TimeSpan><begin>2026-04-27T07:30:16Z</begin><end>2026-04-27T07:30:21Z</end></TimeSpan><styleUrl>#point</styleUrl><Point><altitudeMode>clampToGround</altitudeMode><coordinates>27.59420407935977,-24.603287139907479,979.24000000000001</coordinates></Point></Placemark><Placemark><TimeSpan><begin>2026-04-27T07:30:21Z</begin><end>2026-04-27T07:30:26Z</end></TimeSpan><styleUrl>#point</styleUrl><Point><altitudeMode>clampToGround</altitudeMode><coordinates>27.594502894207835,-24.603937324136496,979.24000000000001</coordinates></Point></Placemark><Placemark><TimeSpan><begin>2026-04-27T07:30:26Z</begin><end>2026-04-27T07:30:31Z</end></TimeSpan><styleUrl>#point</styleUrl><Point><altitudeMode>clampToGround</altitudeMode><coordinates>27.594805397093296,-24.604595135897398,979.24000000000001</coordinates></Point></Placemark><Placemark><TimeSpan><begin>2026-04-27T07:30:31Z</begin><end>2026-04-27T07:30:36Z</end></TimeSpan><styleUrl>#point</styleUrl><Point><altitudeMode>clampToGround</altitudeMode><coordinates>27.595111336559057,-24.605235513299704,979.24000000000001</coordinates></Point></Placemark><Placemark><TimeSpan><begin>2026-04-27T07:30:36Z</begin><end>2026-04-27T07:30:41Z</end></TimeSpan><styleUrl>#point</styleUrl><Point><altitudeMode>clampToGround</altitudeMode><coordinates>27.595520289614797,-24.605813277885318,980.20000000000005</coordinates></Point></Placemark><Placemark><TimeSpan><begin>2026-04-27T07:30:41Z</begin><end>2026-04-27T07:30:46Z</end></TimeSpan><styleUrl>#point</styleUrl><Point><altitudeMode>clampToGround</altitudeMode><coordinates>27.596028484404087,-24.606344187632203,981.15999999999997</coordinates></Point></Placemark><Placemark><TimeSpan><begin>2026-04-27T07:30:46Z</begin><end>2026-04-27T07:30:51Z</end></TimeSpan><styleUrl>#point</styleUrl><Point><altitudeMode>clampToGround</altitudeMode><coordinates>27.596567524597049,-24.606877360492945,980.67999999999995</coordinates></Point></Placemark><Placemark><TimeSpan><begin>2026-04-27T07:30:51Z</begin><end>2026-04-27T07:30:56Z</end></TimeSpan><styleUrl>#point</styleUrl><Point><altitudeMode>clampToGround</altitudeMode><coordinates>27.597123831510544,-24.607420759275556,978.75999999999999</coordinates></Point></Placemark><Placemark><TimeSpan><begin>2026-04-27T07:30:56Z</begin><end>2026-04-27T07:31:01Z</end></TimeSpan><styleUrl>#point</styleUrl><Point><altitudeMode>clampToGround</altitudeMode><coordinates>27.597659267485142,-24.607918979600072,978.75999999999999</coordinates></Point></Placemark><Placemark><TimeSpan><begin>2026-04-27T07:31:01Z</begin><end>2026-04-27T07:31:06Z</end></TimeSpan><styleUrl>#point</styleUrl><Point><altitudeMode>clampToGround</altitudeMode><coordinates>27.598156984895468,-24.608380990102887,980.20000000000005</coordinates></Point></Placemark><Placemark><TimeSpan><begin>2026-04-27T07:31:06Z</begin><end>2026-04-27T07:31:11Z</end></TimeSpan><styleUrl>#point</styleUrl><Point><altitudeMode>clampToGround</altitudeMode><coordinates>27.598512209951878,-24.608725318685174,980.20000000000005</coordinates></Point></Placemark><Placemark><TimeSpan><begin>2026-04-27T07:31:11Z</begin><end>2026-04-27T07:31:16Z</end></TimeSpan><styleUrl>#point</styleUrl><Point><altitudeMode>clampToGround</altitudeMode><coordinates>27.598675237968564,-24.608879629522562,980.67999999999995</coordinates></Point></Placemark><Placemark><TimeSpan><begin>2026-04-27T07:31:16Z</begin><end>2026-04-27T07:31:21Z</end></TimeSpan><styleUrl>#point</styleUrl><Point><altitudeMode>clampToGround</altitudeMode><coordinates>27.598680183291435,-24.608884071931243,980.67999999999995</coordinates></Point></Placemark><Placemark><TimeSpan><begin>2026-04-27T07:31:21Z</begin><end>2026-04-27T07:31:26Z</end></TimeSpan><styleUrl>#point</styleUrl><Point><altitudeMode>clampToGround</altitudeMode><coordinates>27.598680267110467,-24.608885161578655,980.20000000000005</coordinates></Point></Placemark><Placemark><TimeSpan><begin>2026-04-27T07:31:26Z</begin><end>2026-04-27T07:31:31Z</end></TimeSpan><styleUrl>#point</styleUrl><Point><altitudeMode>clampToGround</altitudeMode><coordinates>27.598680099472404,-24.608887927606702,979.24000000000001</coordinates></Point></Placemark><Placemark><TimeSpan><begin>2026-04-27T07:31:31Z</begin><end>2026-04-27T07:31:36Z</end></TimeSpan><styleUrl>#point</styleUrl><Point><altitudeMode>clampToGround</altitudeMode><coordinates>27.598680770024657,-24.608889687806368,979.24000000000001</coordinates></Point></Placemark><Placemark><TimeSpan><begin>2026-04-27T07:31:36Z</begin><end>2026-04-27T07:31:41Z</end></TimeSpan><styleUrl>#point</styleUrl><Point><altitudeMode>clampToGround</altitudeMode><coordinates>27.598680099472404,-24.608890442177653,979.24000000000001</coordinates></Point></Placemark><Placemark><TimeSpan><begin>2026-04-27T07:31:41Z</begin><end>2026-04-27T07:31:46Z</end></TimeSpan><styleUrl>#point</styleUrl><Point><altitudeMode>clampToGround</altitudeMode><coordinates>27.598677920177579,-24.608890861272812,978.75999999999999</coordinates></Point></Placemark><Placemark><TimeSpan><begin>2026-04-27T07:31:46Z</begin><end>2026-04-27T07:31:51Z</end></TimeSpan><styleUrl>#point</styleUrl><Point><altitudeMode>clampToGround</altitudeMode><coordinates>27.598676746711135,-24.608890861272812,979.24000000000001</coordinates></Point></Placemark><Placemark><TimeSpan><begin>2026-04-27T07:31:51Z</begin><end>2026-04-27T07:31:56Z</end></TimeSpan><styleUrl>#point</styleUrl><Point><altitudeMode>clampToGround</altitudeMode><coordinates>27.598728714510798,-24.608937716111541,979.24000000000001</coordinates></Point></Placemark><Placemark><TimeSpan><begin>2026-04-27T07:31:56Z</begin><end>2026-04-27T07:32:01Z</end></TimeSpan><styleUrl>#point</styleUrl><Point><altitudeMode>clampToGround</altitudeMode><coordinates>27.59898629039526,-24.609177773818374,979.24000000000001</coordinates></Point></Placemark><Placemark><TimeSpan><begin>2026-04-27T07:32:01Z</begin><end>2026-04-27T07:32:06Z</end></TimeSpan><styleUrl>#point</styleUrl><Point><altitudeMode>clampToGround</altitudeMode><coordinates>27.59938158094883,-24.609551187604666,979.72000000000003</coordinates></Point></Placemark><Placemark><TimeSpan><begin>2026-04-27T07:32:06Z</begin><end>2026-04-27T07:32:11Z</end></TimeSpan><styleUrl>#point</styleUrl><Point><altitudeMode>clampToGround</altitudeMode><coordinates>27.599867144599557,-24.610016131773591,979.24000000000001</coordinates></Point></Placemark><Placemark><TimeSpan><begin>2026-04-27T07:32:11Z</begin><end>2026-04-27T07:32:16Z</end></TimeSpan><styleUrl>#point</styleUrl><Point><altitudeMode>clampToGround</altitudeMode><coordinates>27.600403921678662,-24.610532121732831,978.27999999999997</coordinates></Point></Placemark><Placemark><TimeSpan><begin>2026-04-27T07:32:16Z</begin><end>2026-04-27T07:32:21Z</end></TimeSpan><styleUrl>#point</styleUrl><Point><altitudeMode>clampToGround</altitudeMode><coordinates>27.60093541815877,-24.611046686768532,977.32000000000005</coordinates></Point></Placemark><Placemark><TimeSpan><begin>2026-04-27T07:32:21Z</begin><end>2026-04-27T07:32:26Z</end></TimeSpan><styleUrl>#point</styleUrl><Point><altitudeMode>clampToGround</altitudeMode><coordinates>27.601456101983786,-24.611560078337789,975.38999999999999</coordinates></Point></Placemark><Placemark><TimeSpan><begin>2026-04-27T07:32:26Z</begin><end>2026-04-27T07:32:31Z</end></TimeSpan><styleUrl>#point</styleUrl><Point><altitudeMode>clampToGround</altitudeMode><coordinates>27.601945018395782,-24.612029548734426,973.95000000000005</coordinates></Point></Placemark><Placemark><TimeSpan><begin>2026-04-27T07:32:31Z</begin><end>2026-04-27T07:32:36Z</end></TimeSpan><styleUrl>#point</styleUrl><Point><altitudeMode>clampToGround</altitudeMode><coordinates>27.602403173223138,-24.612488290295005,972.99000000000001</coordinates></Point></Placemark><Placemark><TimeSpan><begin>2026-04-27T07:32:36Z</begin><end>2026-04-27T07:32:41Z</end></TimeSpan><styleUrl>#point</styleUrl><Point><altitudeMode>clampToGround</altitudeMode><coordinates>27.602881779894233,-24.612954156473279,972.02999999999997</coordinates></Point></Placemark><Placemark><TimeSpan><begin>2026-04-27T07:32:41Z</begin><end>2026-04-27T07:32:46Z</end></TimeSpan><styleUrl>#point</styleUrl><Point><altitudeMode>clampToGround</altitudeMode><coordinates>27.6033756416291,-24.613439049571753,971.07000000000005</coordinates></Point></Placemark><Placemark><TimeSpan><begin>2026-04-27T07:32:46Z</begin><end>2026-04-27T07:32:51Z</end></TimeSpan><styleUrl>#point</styleUrl><Point><altitudeMode>clampToGround</altitudeMode><coordinates>27.603834383189678,-24.613959481939673,969.63</coordinates></Point></Placemark><Placemark><TimeSpan><begin>2026-04-27T07:32:51Z</begin><end>2026-04-27T07:32:56Z</end></TimeSpan><styleUrl>#point</styleUrl><Point><altitudeMode>clampToGround</altitudeMode><coordinates>27.604251801967621,-24.614519895985723,969.14999999999998</coordinates></Point></Placemark><Placemark><TimeSpan><begin>2026-04-27T07:32:56Z</begin><end>2026-04-27T07:33:01Z</end></TimeSpan><styleUrl>#point</styleUrl><Point><altitudeMode>clampToGround</altitudeMode><coordinates>27.604672908782959,-24.615081902593374,968.17999999999995</coordinates></Point></Placemark><Placemark><TimeSpan><begin>2026-04-27T07:33:01Z</begin><end>2026-04-27T07:33:06Z</end></TimeSpan><styleUrl>#point</styleUrl><Point><altitudeMode>clampToGround</altitudeMode><coordinates>27.60501648299396,-24.615598060190678,968.17999999999995</coordinates></Point></Placemark><Placemark><TimeSpan><begin>2026-04-27T07:33:06Z</begin><end>2026-04-27T07:33:11Z</end></TimeSpan><styleUrl>#point</styleUrl><Point><altitudeMode>clampToGround</altitudeMode><coordinates>27.605260144919157,-24.616119582206011,968.66999999999996</coordinates></Point></Placemark><Placemark><TimeSpan><begin>2026-04-27T07:33:11Z</begin><end>2026-04-27T07:33:16Z</end></TimeSpan><styleUrl>#point</styleUrl><Point><altitudeMode>clampToGround</altitudeMode><coordinates>27.605454856529832,-24.616637751460075,968.17999999999995</coordinates></Point></Placemark><Placemark><TimeSpan><begin>2026-04-27T07:33:16Z</begin><end>2026-04-27T07:33:21Z</end></TimeSpan><styleUrl>#point</styleUrl><Point><altitudeMode>clampToGround</altitudeMode><coordinates>27.605622913688421,-24.617135636508465,967.22000000000003</coordinates></Point></Placemark><Placemark><TimeSpan><begin>2026-04-27T07:33:21Z</begin><end>2026-04-27T07:33:26Z</end></TimeSpan><styleUrl>#point</styleUrl><Point><altitudeMode>clampToGround</altitudeMode><coordinates>27.605812679976225,-24.617620529606938,966.74000000000001</coordinates></Point></Placemark><Placemark><TimeSpan><begin>2026-04-27T07:33:26Z</begin><end>2026-04-27T07:33:31Z</end></TimeSpan><styleUrl>#point</styleUrl><Point><altitudeMode>clampToGround</altitudeMode><coordinates>27.606083750724792,-24.618122773244977,967.22000000000003</coordinates></Point></Placemark><Placemark><TimeSpan><begin>2026-04-27T07:33:31Z</begin><end>2026-04-27T07:33:36Z</end></TimeSpan><styleUrl>#point</styleUrl><Point><altitudeMode>clampToGround</altitudeMode><coordinates>27.606386421248317,-24.618591153994203,966.74000000000001</coordinates></Point></Placemark><Placemark><TimeSpan><begin>2026-04-27T07:33:36Z</begin><end>2026-04-27T07:33:41Z</end></TimeSpan><styleUrl>#point</styleUrl><Point><altitudeMode>clampToGround</altitudeMode><coordinates>27.606592532247305,-24.61893699131906,967.22000000000003</coordinates></Point></Placemark><Placemark><TimeSpan><begin>2026-04-27T07:33:41Z</begin><end>2026-04-27T07:33:46Z</end></TimeSpan><styleUrl>#point</styleUrl><Point><altitudeMode>clampToGround</altitudeMode><coordinates>27.606796128675342,-24.619245193898678,967.22000000000003</coordinates></Point></Placemark><Placemark><TimeSpan><begin>2026-04-27T07:33:46Z</begin><end>2026-04-27T07:33:51Z</end></TimeSpan><styleUrl>#point</styleUrl><Point><altitudeMode>clampToGround</altitudeMode><coordinates>27.607006514444947,-24.61958491243422,967.22000000000003</coordinates></Point></Placemark><Placemark><TimeSpan><begin>2026-04-27T07:33:51Z</begin><end>2026-04-27T07:33:56Z</end></TimeSpan><styleUrl>#point</styleUrl><Point><altitudeMode>clampToGround</altitudeMode><coordinates>27.607270460575819,-24.619967881590128,967.22000000000003</coordinates></Point></Placemark><Placemark><TimeSpan><begin>2026-04-27T07:33:56Z</begin><end>2026-04-27T07:34:01Z</end></TimeSpan><styleUrl>#point</styleUrl><Point><altitudeMode>clampToGround</altitudeMode><coordinates>27.6076081674546,-24.62047372944653,967.22000000000003</coordinates></Point></Placemark><Placemark><TimeSpan><begin>2026-04-27T07:34:01Z</begin><end>2026-04-27T07:34:06Z</end></TimeSpan><styleUrl>#point</styleUrl><Point><altitudeMode>clampToGround</altitudeMode><coordinates>27.607986694201827,-24.621085524559021,966.25999999999999</coordinates></Point></Placemark><Placemark><TimeSpan><begin>2026-04-27T07:34:06Z</begin><end>2026-04-27T07:34:11Z</end></TimeSpan><styleUrl>#point</styleUrl><Point><altitudeMode>clampToGround</altitudeMode><coordinates>27.608411656692624,-24.621710479259491,965.77999999999997</coordinates></Point></Placemark><Placemark><TimeSpan><begin>2026-04-27T07:34:11Z</begin><end>2026-04-27T07:34:16Z</end></TimeSpan><styleUrl>#point</styleUrl><Point><altitudeMode>clampToGround</altitudeMode><coordinates>27.60882630944252,-24.622333757579327,966.25999999999999</coordinates></Point></Placemark><Placemark><TimeSpan><begin>2026-04-27T07:34:16Z</begin><end>2026-04-27T07:34:21Z</end></TimeSpan><styleUrl>#point</styleUrl><Point><altitudeMode>clampToGround</altitudeMode><coordinates>27.609252026304603,-24.622971788048744,966.25999999999999</coordinates></Point></Placemark><Placemark><TimeSpan><begin>2026-04-27T07:34:21Z</begin><end>2026-04-27T07:34:26Z</end></TimeSpan><styleUrl>#point</styleUrl><Point><altitudeMode>clampToGround</altitudeMode><coordinates>27.609672294929624,-24.623608561232686,966.74000000000001</coordinates></Point></Placemark><Placemark><TimeSpan><begin>2026-04-27T07:34:26Z</begin><end>2026-04-27T07:34:31Z</end></TimeSpan><styleUrl>#point</styleUrl><Point><altitudeMode>clampToGround</altitudeMode><coordinates>27.610122989863157,-24.624249022454023,967.70000000000005</coordinates></Point></Placemark><Placemark><TimeSpan><begin>2026-04-27T07:34:31Z</begin><end>2026-04-27T07:34:36Z</end></TimeSpan><styleUrl>#point</styleUrl><Point><altitudeMode>clampToGround</altitudeMode><coordinates>27.610725313425064,-24.624811112880707,968.66999999999996</coordinates></Point></Placemark><Placemark><TimeSpan><begin>2026-04-27T07:34:36Z</begin><end>2026-04-27T07:34:41Z</end></TimeSpan><styleUrl>#point</styleUrl><Point><altitudeMode>clampToGround</altitudeMode><coordinates>27.611347083002329,-24.625230627134442,969.63</coordinates></Point></Placemark><Placemark><TimeSpan><begin>2026-04-27T07:34:41Z</begin><end>2026-04-27T07:34:46Z</end></TimeSpan><styleUrl>#point</styleUrl><Point><altitudeMode>clampToGround</altitudeMode><coordinates>27.611809093505144,-24.625542098656297,970.11000000000001</coordinates></Point></Placemark><Placemark><TimeSpan><begin>2026-04-27T07:34:46Z</begin><end>2026-04-27T07:34:51Z</end></TimeSpan><styleUrl>#point</styleUrl><Point><altitudeMode>clampToGround</altitudeMode><coordinates>27.612083097919822,-24.625705881044269,970.11000000000001</coordinates></Point></Placemark><Placemark><TimeSpan><begin>2026-04-27T07:34:51Z</begin><end>2026-04-27T07:34:56Z</end></TimeSpan><styleUrl>#point</styleUrl><Point><altitudeMode>clampToGround</altitudeMode><coordinates>27.612347546964884,-24.625913249328732,970.59000000000003</coordinates></Point></Placemark><Placemark><TimeSpan><begin>2026-04-27T07:34:56Z</begin><end>2026-04-27T07:35:01Z</end></TimeSpan><styleUrl>#point</styleUrl><Point><altitudeMode>clampToGround</altitudeMode><coordinates>27.612643847241998,-24.626101171597838,970.59000000000003</coordinates></Point></Placemark><Placemark><TimeSpan><begin>2026-04-27T07:35:01Z</begin><end>2026-04-27T07:35:06Z</end></TimeSpan><styleUrl>#point</styleUrl><Point><altitudeMode>clampToGround</altitudeMode><coordinates>27.612811150029302,-24.626186918467283,971.07000000000005</coordinates></Point></Placemark><Placemark><TimeSpan><begin>2026-04-27T07:35:06Z</begin><end>2026-04-27T07:35:11Z</end></TimeSpan><styleUrl>#point</styleUrl><Point><altitudeMode>clampToGround</altitudeMode><coordinates>27.61299823410809,-24.626308120787144,971.54999999999995</coordinates></Point></Placemark><Placemark><TimeSpan><begin>2026-04-27T07:35:11Z</begin><end>2026-04-27T07:35:16Z</end></TimeSpan><styleUrl>#point</styleUrl><Point><altitudeMode>clampToGround</altitudeMode><coordinates>27.613315572962165,-24.626519596204162,971.54999999999995</coordinates></Point></Placemark><Placemark><TimeSpan><begin>2026-04-27T07:35:16Z</begin><end>2026-04-27T07:35:21Z</end></TimeSpan><styleUrl>#point</styleUrl><Point><altitudeMode>clampToGround</altitudeMode><coordinates>27.613786049187183,-24.626824613660574,972.02999999999997</coordinates></Point></Placemark><Placemark><TimeSpan><begin>2026-04-27T07:35:21Z</begin><end>2026-04-27T07:35:26Z</end></TimeSpan><styleUrl>#point</styleUrl><Point><altitudeMode>clampToGround</altitudeMode><coordinates>27.614330034703016,-24.627144299447536,971.54999999999995</coordinates></Point></Placemark><Placemark><TimeSpan><begin>2026-04-27T07:35:26Z</begin><end>2026-04-27T07:35:31Z</end></TimeSpan><styleUrl>#point</styleUrl><Point><altitudeMode>clampToGround</altitudeMode><coordinates>27.614943170920014,-24.627408497035503,971.07000000000005</coordinates></Point></Placemark><Placemark><TimeSpan><begin>2026-04-27T07:35:31Z</begin><end>2026-04-27T07:35:36Z</end></TimeSpan><styleUrl>#point</styleUrl><Point><altitudeMode>clampToGround</altitudeMode><coordinates>27.615658901631832,-24.627580577507615,970.59000000000003</coordinates></Point></Placemark><Placemark><TimeSpan><begin>2026-04-27T07:35:36Z</begin><end>2026-04-27T07:35:41Z</end></TimeSpan><styleUrl>#point</styleUrl><Point><altitudeMode>clampToGround</altitudeMode><coordinates>27.616393826901913,-24.627653751522303,970.11000000000001</coordinates></Point></Placemark><Placemark><TimeSpan><begin>2026-04-27T07:35:41Z</begin><end>2026-04-27T07:35:46Z</end></TimeSpan><styleUrl>#point</styleUrl><Point><altitudeMode>clampToGround</altitudeMode><coordinates>27.617094805464149,-24.62753489613533,969.14999999999998</coordinates></Point></Placemark><Placemark><TimeSpan><begin>2026-04-27T07:35:46Z</begin><end>2026-04-27T07:35:51Z</end></TimeSpan><styleUrl>#point</styleUrl><Point><altitudeMode>clampToGround</altitudeMode><coordinates>27.617790084332228,-24.627343788743019,968.66999999999996</coordinates></Point></Placemark><Placemark><TimeSpan><begin>2026-04-27T07:35:51Z</begin><end>2026-04-27T07:35:56Z</end></TimeSpan><styleUrl>#point</styleUrl><Point><altitudeMode>clampToGround</altitudeMode><coordinates>27.618480334058404,-24.627150502055883,968.66999999999996</coordinates></Point></Placemark><Placemark><TimeSpan><begin>2026-04-27T07:35:56Z</begin><end>2026-04-27T07:36:01Z</end></TimeSpan><styleUrl>#point</styleUrl><Point><altitudeMode>clampToGround</altitudeMode><coordinates>27.619145773351192,-24.62695880793035,969.14999999999998</coordinates></Point></Placemark><Placemark><TimeSpan><begin>2026-04-27T07:36:01Z</begin><end>2026-04-27T07:36:06Z</end></TimeSpan><styleUrl>#point</styleUrl><Point><altitudeMode>clampToGround</altitudeMode><coordinates>27.619707277044654,-24.626802233979106,968.66999999999996</coordinates></Point></Placemark><Placemark><TimeSpan><begin>2026-04-27T07:36:06Z</begin><end>2026-04-27T07:36:11Z</end></TimeSpan><styleUrl>#point</styleUrl><Point><altitudeMode>clampToGround</altitudeMode><coordinates>27.620241120457649,-24.626651694998145,969.14999999999998</coordinates></Point></Placemark><Placemark><TimeSpan><begin>2026-04-27T07:36:11Z</begin><end>2026-04-27T07:36:16Z</end></TimeSpan><styleUrl>#point</styleUrl><Point><altitudeMode>clampToGround</altitudeMode><coordinates>27.620764737948775,-24.6265107113868,969.63</coordinates></Point></Placemark></Folder><Placemark><name>[419] Sandrevierpoort - 2026-04-27</name><Style><LineStyle><color>ff0000ff</color><width>4</width></LineStyle></Style><MultiGeometry><LineString><coordinates>27.583202747628093,-24.579245410859585,1003.75 27.583477171137929,-24.579850919544697,1003.27 27.583796605467796,-24.580540917813778,1002.79 27.58410606533289,-24.581212140619755,1002.3099999999999 27.584419129416347,-24.581887554377317,1001.35 27.584702856838703,-24.582512006163597,1000.87 27.585001420229673,-24.58316252566874,1000.39 27.585298642516136,-24.583826288580894,999.90999999999997 27.585588153451681,-24.584482675418258,998.95000000000005 27.585879256948829,-24.585129758343101,997.99000000000001 27.58618326857686,-24.585784217342734,997.01999999999998 27.586483508348465,-24.58642702549696,996.53999999999996 27.58678374812007,-24.587066229432821,995.58000000000004 27.587073761969805,-24.587713982909918,995.10000000000002 27.587356315925717,-24.5883693639189,994.13999999999999 27.587656304240227,-24.589018207043409,992.70000000000005 27.587956544011831,-24.589661518111825,991.74000000000001 27.588253263384104,-24.59031019359827,990.77999999999997 27.588552832603455,-24.590965574607253,990.29999999999995 27.588842259719968,-24.591608801856637,989.80999999999995 27.589142918586731,-24.592258064076304,988.85000000000002 27.589446762576699,-24.592909421771765,988.37 27.589742476120591,-24.593554912135005,987.88999999999999 27.590044224634767,-24.594199061393738,987.88999999999999 27.590348152443767,-24.59484220482409,987.40999999999997 27.590659791603684,-24.595500938594341,985.97000000000003 27.590950056910515,-24.596156487241387,985.00999999999999 27.591245602816343,-24.596803821623325,984.52999999999997 27.591532515361905,-24.597462052479386,983.57000000000005 27.591834934428334,-24.598114583641291,983.09000000000003 27.592127546668053,-24.59877273067832,982.12 27.592425690963864,-24.599427105858922,981.15999999999997 27.592718889936805,-24.600075948983431,979.72000000000003 27.593010915443301,-24.600712722167373,978.75999999999999 27.59330696426332,-24.601344633847475,978.27999999999997 27.593608964234591,-24.601991381496191,977.79999999999995 27.593904677778482,-24.602637710049748,978.75999999999999 27.59420407935977,-24.603287139907479,979.24000000000001 27.594502894207835,-24.603937324136496,979.24000000000001 27.594805397093296,-24.604595135897398,979.24000000000001 27.595111336559057,-24.605235513299704,979.24000000000001 27.595520289614797,-24.605813277885318,980.20000000000005 27.596028484404087,-24.606344187632203,981.15999999999997 27.596567524597049,-24.606877360492945,980.67999999999995 27.597123831510544,-24.607420759275556,978.75999999999999 27.597659267485142,-24.607918979600072,978.75999999999999 27.598156984895468,-24.608380990102887,980.20000000000005 27.598512209951878,-24.608725318685174,980.20000000000005 27.598675237968564,-24.608879629522562,980.67999999999995 27.598680183291435,-24.608884071931243,980.67999999999995 27.598680267110467,-24.608885161578655,980.20000000000005 27.598680099472404,-24.608887927606702,979.24000000000001 27.598680770024657,-24.608889687806368,979.24000000000001 27.598680099472404,-24.608890442177653,979.24000000000001 27.598677920177579,-24.608890861272812,978.75999999999999 27.598676746711135,-24.608890861272812,979.24000000000001 27.598728714510798,-24.608937716111541,979.24000000000001 27.59898629039526,-24.609177773818374,979.24000000000001 27.59938158094883,-24.609551187604666,979.72000000000003 27.599867144599557,-24.610016131773591,979.24000000000001 27.600403921678662,-24.610532121732831,978.27999999999997 27.60093541815877,-24.611046686768532,977.32000000000005 27.601456101983786,-24.611560078337789,975.38999999999999 27.601945018395782,-24.612029548734426,973.95000000000005 27.602403173223138,-24.612488290295005,972.99000000000001 27.602881779894233,-24.612954156473279,972.02999999999997 27.6033756416291,-24.613439049571753,971.07000000000005 27.603834383189678,-24.613959481939673,969.63 27.604251801967621,-24.614519895985723,969.14999999999998 27.604672908782959,-24.615081902593374,968.17999999999995 27.60501648299396,-24.615598060190678,968.17999999999995 27.605260144919157,-24.616119582206011,968.66999999999996 27.605454856529832,-24.616637751460075,968.17999999999995 27.605622913688421,-24.617135636508465,967.22000000000003 27.605812679976225,-24.617620529606938,966.74000000000001 27.606083750724792,-24.618122773244977,967.22000000000003 27.606386421248317,-24.618591153994203,966.74000000000001 27.606592532247305,-24.61893699131906,967.22000000000003 27.606796128675342,-24.619245193898678,967.22000000000003 27.607006514444947,-24.61958491243422,967.22000000000003 27.607270460575819,-24.619967881590128,967.22000000000003 27.6076081674546,-24.62047372944653,967.22000000000003 27.607986694201827,-24.621085524559021,966.25999999999999 27.608411656692624,-24.621710479259491,965.77999999999997 27.60882630944252,-24.622333757579327,966.25999999999999 27.609252026304603,-24.622971788048744,966.25999999999999 27.609672294929624,-24.623608561232686,966.74000000000001 27.610122989863157,-24.624249022454023,967.70000000000005 27.610725313425064,-24.624811112880707,968.66999999999996 27.611347083002329,-24.625230627134442,969.63 27.611809093505144,-24.625542098656297,970.11000000000001 27.612083097919822,-24.625705881044269,970.11000000000001 27.612347546964884,-24.625913249328732,970.59000000000003 27.612643847241998,-24.626101171597838,970.59000000000003 27.612811150029302,-24.626186918467283,971.07000000000005 27.61299823410809,-24.626308120787144,971.54999999999995 27.613315572962165,-24.626519596204162,971.54999999999995 27.613786049187183,-24.626824613660574,972.02999999999997 27.614330034703016,-24.627144299447536,971.54999999999995 27.614943170920014,-24.627408497035503,971.07000000000005 27.615658901631832,-24.627580577507615,970.59000000000003 27.616393826901913,-24.627653751522303,970.11000000000001 27.617094805464149,-24.62753489613533,969.14999999999998 27.617790084332228,-24.627343788743019,968.66999999999996 27.618480334058404,-24.627150502055883,968.66999999999996 27.619145773351192,-24.62695880793035,969.14999999999998 27.619707277044654,-24.626802233979106,968.66999999999996 27.620241120457649,-24.626651694998145,969.14999999999998 27.620764737948775,-24.6265107113868,969.63 </coordinates></LineString></MultiGeometry></Placemark></Folder></Folder></Document></kml>