<?xml version="1.0" encoding="utf-8"?><kml xmlns="http://www.opengis.net/kml/2.2" xmlns:xsi="http://www.w3.org/2001/XMLSchema-instance" xmlns:kmlx="http://www.google.com/kml/ext/2.2" xmlns:atom="http://www.w3.org/2005/Atom" xmlns:gpxx="http://www.garmin.com/xmlschemas/GpxExtensions/v3"><Document><Style id="point"><IconStyle><scale>0.9</scale><Icon><href>http://maps.google.com/mapfiles/kml/shapes/placemark_circle.png</href></Icon></IconStyle></Style><Folder><name>Tracks</name><Folder><name>[424] Browns Cutting</name><Folder><name>Points</name><Style><ListStyle><listItemType>checkHideChildren</listItemType></ListStyle></Style><Placemark><TimeSpan><begin>2026-04-28T10:23:23Z</begin><end>2026-04-28T10:23:23Z</end></TimeSpan><Style><IconStyle><scale>0.9</scale><Icon><href>http://connect.garmin.com/image/main/icons/kml/grn-play.png</href></Icon></IconStyle></Style><Point><altitudeMode>clampToGround</altitudeMode><coordinates>28.097899965941906,-23.933447850868106,1349.3499999999999</coordinates></Point></Placemark><Placemark><TimeSpan><begin>2026-04-28T10:23:23Z</begin><end>2026-04-28T10:23:28Z</end></TimeSpan><styleUrl>#point</styleUrl><Point><altitudeMode>clampToGround</altitudeMode><coordinates>28.098114794120193,-23.933145264163613,1347.4300000000001</coordinates></Point></Placemark><Placemark><TimeSpan><begin>2026-04-28T10:23:28Z</begin><end>2026-04-28T10:23:33Z</end></TimeSpan><styleUrl>#point</styleUrl><Point><altitudeMode>clampToGround</altitudeMode><coordinates>28.098301962018013,-23.932908223941922,1345.02</coordinates></Point></Placemark><Placemark><TimeSpan><begin>2026-04-28T10:23:33Z</begin><end>2026-04-28T10:23:38Z</end></TimeSpan><styleUrl>#point</styleUrl><Point><altitudeMode>clampToGround</altitudeMode><coordinates>28.098406987264752,-23.932762043550611,1343.5799999999999</coordinates></Point></Placemark><Placemark><TimeSpan><begin>2026-04-28T10:23:38Z</begin><end>2026-04-28T10:23:43Z</end></TimeSpan><styleUrl>#point</styleUrl><Point><altitudeMode>clampToGround</altitudeMode><coordinates>28.098486699163914,-23.932653246447444,1342.1400000000001</coordinates></Point></Placemark><Placemark><TimeSpan><begin>2026-04-28T10:23:43Z</begin><end>2026-04-28T10:23:48Z</end></TimeSpan><styleUrl>#point</styleUrl><Point><altitudeMode>clampToGround</altitudeMode><coordinates>28.09858862310648,-23.932525338605046,1341.1800000000001</coordinates></Point></Placemark><Placemark><TimeSpan><begin>2026-04-28T10:23:48Z</begin><end>2026-04-28T10:23:53Z</end></TimeSpan><styleUrl>#point</styleUrl><Point><altitudeMode>clampToGround</altitudeMode><coordinates>28.09876992367208,-23.932318054139614,1339.73</coordinates></Point></Placemark><Placemark><TimeSpan><begin>2026-04-28T10:23:53Z</begin><end>2026-04-28T10:23:58Z</end></TimeSpan><styleUrl>#point</styleUrl><Point><altitudeMode>clampToGround</altitudeMode><coordinates>28.09895122423768,-23.932051761075854,1338.29</coordinates></Point></Placemark><Placemark><TimeSpan><begin>2026-04-28T10:23:58Z</begin><end>2026-04-28T10:24:03Z</end></TimeSpan><styleUrl>#point</styleUrl><Point><altitudeMode>clampToGround</altitudeMode><coordinates>28.099145432934165,-23.931681867688894,1336.3699999999999</coordinates></Point></Placemark><Placemark><TimeSpan><begin>2026-04-28T10:24:03Z</begin><end>2026-04-28T10:24:08Z</end></TimeSpan><styleUrl>#point</styleUrl><Point><altitudeMode>clampToGround</altitudeMode><coordinates>28.099286919459701,-23.931330163031816,1333.97</coordinates></Point></Placemark><Placemark><TimeSpan><begin>2026-04-28T10:24:08Z</begin><end>2026-04-28T10:24:13Z</end></TimeSpan><styleUrl>#point</styleUrl><Point><altitudeMode>clampToGround</altitudeMode><coordinates>28.099428238347173,-23.931056912988424,1331.0799999999999</coordinates></Point></Placemark><Placemark><TimeSpan><begin>2026-04-28T10:24:13Z</begin><end>2026-04-28T10:24:18Z</end></TimeSpan><styleUrl>#point</styleUrl><Point><altitudeMode>clampToGround</altitudeMode><coordinates>28.099631164222956,-23.930786680430174,1327.72</coordinates></Point></Placemark><Placemark><TimeSpan><begin>2026-04-28T10:24:18Z</begin><end>2026-04-28T10:24:23Z</end></TimeSpan><styleUrl>#point</styleUrl><Point><altitudeMode>clampToGround</altitudeMode><coordinates>28.099874490872025,-23.930559447035193,1323.3900000000001</coordinates></Point></Placemark><Placemark><TimeSpan><begin>2026-04-28T10:24:23Z</begin><end>2026-04-28T10:24:28Z</end></TimeSpan><styleUrl>#point</styleUrl><Point><altitudeMode>clampToGround</altitudeMode><coordinates>28.100102059543133,-23.930388120934367,1319.55</coordinates></Point></Placemark><Placemark><TimeSpan><begin>2026-04-28T10:24:28Z</begin><end>2026-04-28T10:24:33Z</end></TimeSpan><styleUrl>#point</styleUrl><Point><altitudeMode>clampToGround</altitudeMode><coordinates>28.100288808345795,-23.930251579731703,1316.6600000000001</coordinates></Point></Placemark><Placemark><TimeSpan><begin>2026-04-28T10:24:33Z</begin><end>2026-04-28T10:24:38Z</end></TimeSpan><styleUrl>#point</styleUrl><Point><altitudeMode>clampToGround</altitudeMode><coordinates>28.100390313193202,-23.930178405717015,1314.74</coordinates></Point></Placemark><Placemark><TimeSpan><begin>2026-04-28T10:24:38Z</begin><end>2026-04-28T10:24:43Z</end></TimeSpan><styleUrl>#point</styleUrl><Point><altitudeMode>clampToGround</altitudeMode><coordinates>28.100501541048288,-23.930111518129706,1313.78</coordinates></Point></Placemark><Placemark><TimeSpan><begin>2026-04-28T10:24:43Z</begin><end>2026-04-28T10:24:48Z</end></TimeSpan><styleUrl>#point</styleUrl><Point><altitudeMode>clampToGround</altitudeMode><coordinates>28.100627604871988,-23.930032644420862,1313.3</coordinates></Point></Placemark><Placemark><TimeSpan><begin>2026-04-28T10:24:48Z</begin><end>2026-04-28T10:24:53Z</end></TimeSpan><styleUrl>#point</styleUrl><Point><altitudeMode>clampToGround</altitudeMode><coordinates>28.100759536027908,-23.929963577538729,1311.8599999999999</coordinates></Point></Placemark><Placemark><TimeSpan><begin>2026-04-28T10:24:53Z</begin><end>2026-04-28T10:24:58Z</end></TimeSpan><styleUrl>#point</styleUrl><Point><altitudeMode>clampToGround</altitudeMode><coordinates>28.100865231826901,-23.929907754063606,1310.4100000000001</coordinates></Point></Placemark><Placemark><TimeSpan><begin>2026-04-28T10:24:58Z</begin><end>2026-04-28T10:25:03Z</end></TimeSpan><styleUrl>#point</styleUrl><Point><altitudeMode>clampToGround</altitudeMode><coordinates>28.100932538509369,-23.929867018014193,1309.45</coordinates></Point></Placemark><Placemark><TimeSpan><begin>2026-04-28T10:25:03Z</begin><end>2026-04-28T10:25:08Z</end></TimeSpan><styleUrl>#point</styleUrl><Point><altitudeMode>clampToGround</altitudeMode><coordinates>28.101042341440916,-23.929788395762444,1308.97</coordinates></Point></Placemark><Placemark><TimeSpan><begin>2026-04-28T10:25:08Z</begin><end>2026-04-28T10:25:13Z</end></TimeSpan><styleUrl>#point</styleUrl><Point><altitudeMode>clampToGround</altitudeMode><coordinates>28.101290948688984,-23.92962209880352,1307.53</coordinates></Point></Placemark><Placemark><TimeSpan><begin>2026-04-28T10:25:13Z</begin><end>2026-04-28T10:25:18Z</end></TimeSpan><styleUrl>#point</styleUrl><Point><altitudeMode>clampToGround</altitudeMode><coordinates>28.101423047482967,-23.929522186517715,1305.6099999999999</coordinates></Point></Placemark><Placemark><TimeSpan><begin>2026-04-28T10:25:18Z</begin><end>2026-04-28T10:25:23Z</end></TimeSpan><styleUrl>#point</styleUrl><Point><altitudeMode>clampToGround</altitudeMode><coordinates>28.101483900099993,-23.929472817108035,1304.1700000000001</coordinates></Point></Placemark><Placemark><TimeSpan><begin>2026-04-28T10:25:23Z</begin><end>2026-04-28T10:25:28Z</end></TimeSpan><styleUrl>#point</styleUrl><Point><altitudeMode>clampToGround</altitudeMode><coordinates>28.10153997503221,-23.929439792409539,1303.2</coordinates></Point></Placemark><Placemark><TimeSpan><begin>2026-04-28T10:25:28Z</begin><end>2026-04-28T10:25:33Z</end></TimeSpan><styleUrl>#point</styleUrl><Point><altitudeMode>clampToGround</altitudeMode><coordinates>28.101589260622859,-23.929411796852946,1302.72</coordinates></Point></Placemark><Placemark><TimeSpan><begin>2026-04-28T10:25:33Z</begin><end>2026-04-28T10:25:38Z</end></TimeSpan><styleUrl>#point</styleUrl><Point><altitudeMode>clampToGround</altitudeMode><coordinates>28.101641144603491,-23.929376509040594,1302.72</coordinates></Point></Placemark><Placemark><TimeSpan><begin>2026-04-28T10:25:38Z</begin><end>2026-04-28T10:25:43Z</end></TimeSpan><styleUrl>#point</styleUrl><Point><altitudeMode>clampToGround</altitudeMode><coordinates>28.101695710793138,-23.929344741627574,1301.76</coordinates></Point></Placemark><Placemark><TimeSpan><begin>2026-04-28T10:25:43Z</begin><end>2026-04-28T10:25:48Z</end></TimeSpan><styleUrl>#point</styleUrl><Point><altitudeMode>clampToGround</altitudeMode><coordinates>28.101777099072933,-23.929285146296024,1301.76</coordinates></Point></Placemark><Placemark><TimeSpan><begin>2026-04-28T10:25:48Z</begin><end>2026-04-28T10:25:53Z</end></TimeSpan><styleUrl>#point</styleUrl><Point><altitudeMode>clampToGround</altitudeMode><coordinates>28.101904587820172,-23.929205015301704,1301.28</coordinates></Point></Placemark><Placemark><TimeSpan><begin>2026-04-28T10:25:53Z</begin><end>2026-04-28T10:25:58Z</end></TimeSpan><styleUrl>#point</styleUrl><Point><altitudeMode>clampToGround</altitudeMode><coordinates>28.10203886590898,-23.929146006703377,1300.3199999999999</coordinates></Point></Placemark><Placemark><TimeSpan><begin>2026-04-28T10:25:58Z</begin><end>2026-04-28T10:26:03Z</end></TimeSpan><styleUrl>#point</styleUrl><Point><altitudeMode>clampToGround</altitudeMode><coordinates>28.102084463462234,-23.929132344201207,1299.3599999999999</coordinates></Point></Placemark><Placemark><TimeSpan><begin>2026-04-28T10:26:03Z</begin><end>2026-04-28T10:26:08Z</end></TimeSpan><styleUrl>#point</styleUrl><Point><altitudeMode>clampToGround</altitudeMode><coordinates>28.102165851742029,-23.929099906235933,1298.8800000000001</coordinates></Point></Placemark><Placemark><TimeSpan><begin>2026-04-28T10:26:08Z</begin><end>2026-04-28T10:26:13Z</end></TimeSpan><styleUrl>#point</styleUrl><Point><altitudeMode>clampToGround</altitudeMode><coordinates>28.102271631360054,-23.929054057225585,1298.4000000000001</coordinates></Point></Placemark><Placemark><TimeSpan><begin>2026-04-28T10:26:13Z</begin><end>2026-04-28T10:26:18Z</end></TimeSpan><styleUrl>#point</styleUrl><Point><altitudeMode>clampToGround</altitudeMode><coordinates>28.102406160905957,-23.928968645632267,1297.4400000000001</coordinates></Point></Placemark><Placemark><TimeSpan><begin>2026-04-28T10:26:18Z</begin><end>2026-04-28T10:26:23Z</end></TimeSpan><styleUrl>#point</styleUrl><Point><altitudeMode>clampToGround</altitudeMode><coordinates>28.102508755400777,-23.928906871005893,1296.48</coordinates></Point></Placemark><Placemark><TimeSpan><begin>2026-04-28T10:26:23Z</begin><end>2026-04-28T10:26:28Z</end></TimeSpan><styleUrl>#point</styleUrl><Point><altitudeMode>clampToGround</altitudeMode><coordinates>28.102577906101942,-23.928860519081354,1295.99</coordinates></Point></Placemark><Placemark><TimeSpan><begin>2026-04-28T10:26:28Z</begin><end>2026-04-28T10:26:33Z</end></TimeSpan><styleUrl>#point</styleUrl><Point><altitudeMode>clampToGround</altitudeMode><coordinates>28.102719476446509,-23.928727749735117,1295.99</coordinates></Point></Placemark><Placemark><TimeSpan><begin>2026-04-28T10:26:33Z</begin><end>2026-04-28T10:26:38Z</end></TimeSpan><styleUrl>#point</styleUrl><Point><altitudeMode>clampToGround</altitudeMode><coordinates>28.10278938151896,-23.928615264594555,1295.03</coordinates></Point></Placemark><Placemark><TimeSpan><begin>2026-04-28T10:26:38Z</begin><end>2026-04-28T10:26:43Z</end></TimeSpan><styleUrl>#point</styleUrl><Point><altitudeMode>clampToGround</altitudeMode><coordinates>28.10296380892396,-23.928427342325449,1295.03</coordinates></Point></Placemark><Placemark><TimeSpan><begin>2026-04-28T10:26:43Z</begin><end>2026-04-28T10:26:48Z</end></TimeSpan><styleUrl>#point</styleUrl><Point><altitudeMode>clampToGround</altitudeMode><coordinates>28.103282656520605,-23.92808829434216,1294.55</coordinates></Point></Placemark><Placemark><TimeSpan><begin>2026-04-28T10:26:48Z</begin><end>2026-04-28T10:26:53Z</end></TimeSpan><styleUrl>#point</styleUrl><Point><altitudeMode>clampToGround</altitudeMode><coordinates>28.103707619011402,-23.927752347663045,1292.6300000000001</coordinates></Point></Placemark><Placemark><TimeSpan><begin>2026-04-28T10:26:53Z</begin><end>2026-04-28T10:26:58Z</end></TimeSpan><styleUrl>#point</styleUrl><Point><altitudeMode>clampToGround</altitudeMode><coordinates>28.104197708889842,-23.927449677139521,1290.23</coordinates></Point></Placemark><Placemark><TimeSpan><begin>2026-04-28T10:26:58Z</begin><end>2026-04-28T10:27:03Z</end></TimeSpan><styleUrl>#point</styleUrl><Point><altitudeMode>clampToGround</altitudeMode><coordinates>28.104745801538229,-23.927167039364576,1286.3800000000001</coordinates></Point></Placemark><Placemark><TimeSpan><begin>2026-04-28T10:27:03Z</begin><end>2026-04-28T10:27:08Z</end></TimeSpan><styleUrl>#point</styleUrl><Point><altitudeMode>clampToGround</altitudeMode><coordinates>28.105275202542543,-23.926809802651405,1282.0599999999999</coordinates></Point></Placemark><Placemark><TimeSpan><begin>2026-04-28T10:27:08Z</begin><end>2026-04-28T10:27:13Z</end></TimeSpan><styleUrl>#point</styleUrl><Point><altitudeMode>clampToGround</altitudeMode><coordinates>28.105640234425664,-23.926526913419366,1279.1700000000001</coordinates></Point></Placemark><Placemark><TimeSpan><begin>2026-04-28T10:27:13Z</begin><end>2026-04-28T10:27:18Z</end></TimeSpan><styleUrl>#point</styleUrl><Point><altitudeMode>clampToGround</altitudeMode><coordinates>28.10587702319026,-23.926352988928556,1276.77</coordinates></Point></Placemark><Placemark><TimeSpan><begin>2026-04-28T10:27:18Z</begin><end>2026-04-28T10:27:23Z</end></TimeSpan><styleUrl>#point</styleUrl><Point><altitudeMode>clampToGround</altitudeMode><coordinates>28.106142394244671,-23.92617235891521,1273.8800000000001</coordinates></Point></Placemark><Placemark><TimeSpan><begin>2026-04-28T10:27:23Z</begin><end>2026-04-28T10:27:28Z</end></TimeSpan><styleUrl>#point</styleUrl><Point><altitudeMode>clampToGround</altitudeMode><coordinates>28.106367699801922,-23.926019305363297,1271.48</coordinates></Point></Placemark><Placemark><TimeSpan><begin>2026-04-28T10:27:28Z</begin><end>2026-04-28T10:27:33Z</end></TimeSpan><styleUrl>#point</styleUrl><Point><altitudeMode>clampToGround</altitudeMode><coordinates>28.106479598209262,-23.925918554887176,1270.52</coordinates></Point></Placemark><Placemark><TimeSpan><begin>2026-04-28T10:27:33Z</begin><end>2026-04-28T10:27:38Z</end></TimeSpan><styleUrl>#point</styleUrl><Point><altitudeMode>clampToGround</altitudeMode><coordinates>28.106570038944483,-23.925858540460467,1269.5599999999999</coordinates></Point></Placemark><Placemark><TimeSpan><begin>2026-04-28T10:27:38Z</begin><end>2026-04-28T10:27:43Z</end></TimeSpan><styleUrl>#point</styleUrl><Point><altitudeMode>clampToGround</altitudeMode><coordinates>28.10662804171443,-23.925810595974326,1268.5999999999999</coordinates></Point></Placemark><Placemark><TimeSpan><begin>2026-04-28T10:27:43Z</begin><end>2026-04-28T10:27:48Z</end></TimeSpan><styleUrl>#point</styleUrl><Point><altitudeMode>clampToGround</altitudeMode><coordinates>28.106678165495396,-23.925769692286849,1268.1199999999999</coordinates></Point></Placemark><Placemark><TimeSpan><begin>2026-04-28T10:27:48Z</begin><end>2026-04-28T10:27:53Z</end></TimeSpan><styleUrl>#point</styleUrl><Point><altitudeMode>clampToGround</altitudeMode><coordinates>28.106765672564507,-23.925700122490525,1268.5999999999999</coordinates></Point></Placemark><Placemark><TimeSpan><begin>2026-04-28T10:27:53Z</begin><end>2026-04-28T10:27:58Z</end></TimeSpan><styleUrl>#point</styleUrl><Point><altitudeMode>clampToGround</altitudeMode><coordinates>28.106904644519091,-23.925635162740946,1268.5999999999999</coordinates></Point></Placemark><Placemark><TimeSpan><begin>2026-04-28T10:27:58Z</begin><end>2026-04-28T10:28:03Z</end></TimeSpan><styleUrl>#point</styleUrl><Point><altitudeMode>clampToGround</altitudeMode><coordinates>28.107135817408562,-23.925507254898548,1268.5999999999999</coordinates></Point></Placemark><Placemark><TimeSpan><begin>2026-04-28T10:28:03Z</begin><end>2026-04-28T10:28:08Z</end></TimeSpan><styleUrl>#point</styleUrl><Point><altitudeMode>clampToGround</altitudeMode><coordinates>28.107278728857636,-23.925428045913577,1268.5999999999999</coordinates></Point></Placemark><Placemark><TimeSpan><begin>2026-04-28T10:28:08Z</begin><end>2026-04-28T10:28:13Z</end></TimeSpan><styleUrl>#point</styleUrl><Point><altitudeMode>clampToGround</altitudeMode><coordinates>28.107519205659628,-23.925360823050141,1269.0799999999999</coordinates></Point></Placemark><Placemark><TimeSpan><begin>2026-04-28T10:28:13Z</begin><end>2026-04-28T10:28:18Z</end></TimeSpan><styleUrl>#point</styleUrl><Point><altitudeMode>clampToGround</altitudeMode><coordinates>28.10779488645494,-23.925336180254817,1267.6400000000001</coordinates></Point></Placemark><Placemark><TimeSpan><begin>2026-04-28T10:28:18Z</begin><end>2026-04-28T10:28:23Z</end></TimeSpan><styleUrl>#point</styleUrl><Point><altitudeMode>clampToGround</altitudeMode><coordinates>28.10798934660852,-23.925316566601396,1266.6700000000001</coordinates></Point></Placemark><Placemark><TimeSpan><begin>2026-04-28T10:28:23Z</begin><end>2026-04-28T10:28:28Z</end></TimeSpan><styleUrl>#point</styleUrl><Point><altitudeMode>clampToGround</altitudeMode><coordinates>28.108112057670951,-23.925311369821429,1265.71</coordinates></Point></Placemark><Placemark><TimeSpan><begin>2026-04-28T10:28:28Z</begin><end>2026-04-28T10:28:33Z</end></TimeSpan><styleUrl>#point</styleUrl><Point><altitudeMode>clampToGround</altitudeMode><coordinates>28.10825471766293,-23.925357218831778,1264.27</coordinates></Point></Placemark><Placemark><TimeSpan><begin>2026-04-28T10:28:33Z</begin><end>2026-04-28T10:28:38Z</end></TimeSpan><styleUrl>#point</styleUrl><Point><altitudeMode>clampToGround</altitudeMode><coordinates>28.108316408470273,-23.925390746444464,1264.27</coordinates></Point></Placemark><Placemark><TimeSpan><begin>2026-04-28T10:28:38Z</begin><end>2026-04-28T10:28:43Z</end></TimeSpan><styleUrl>#point</styleUrl><Point><altitudeMode>clampToGround</altitudeMode><coordinates>28.108377428725362,-23.925410276278853,1264.27</coordinates></Point></Placemark><Placemark><TimeSpan><begin>2026-04-28T10:28:43Z</begin><end>2026-04-28T10:28:48Z</end></TimeSpan><styleUrl>#point</styleUrl><Point><altitudeMode>clampToGround</altitudeMode><coordinates>28.108573313802481,-23.925422010943294,1265.23</coordinates></Point></Placemark><Placemark><TimeSpan><begin>2026-04-28T10:28:48Z</begin><end>2026-04-28T10:28:53Z</end></TimeSpan><styleUrl>#point</styleUrl><Point><altitudeMode>clampToGround</altitudeMode><coordinates>28.109065163880587,-23.925515133887529,1265.71</coordinates></Point></Placemark><Placemark><TimeSpan><begin>2026-04-28T10:28:53Z</begin><end>2026-04-28T10:28:58Z</end></TimeSpan><styleUrl>#point</styleUrl><Point><altitudeMode>clampToGround</altitudeMode><coordinates>28.109637396410108,-23.925618818029761,1266.1900000000001</coordinates></Point></Placemark><Placemark><TimeSpan><begin>2026-04-28T10:28:58Z</begin><end>2026-04-28T10:29:03Z</end></TimeSpan><styleUrl>#point</styleUrl><Point><altitudeMode>clampToGround</altitudeMode><coordinates>28.110167551785707,-23.925713952630758,1265.71</coordinates></Point></Placemark><Placemark><TimeSpan><begin>2026-04-28T10:29:03Z</begin><end>2026-04-28T10:29:08Z</end></TimeSpan><styleUrl>#point</styleUrl><Point><altitudeMode>clampToGround</altitudeMode><coordinates>28.110646661370993,-23.925725519657135,1265.23</coordinates></Point></Placemark><Placemark><TimeSpan><begin>2026-04-28T10:29:08Z</begin><end>2026-04-28T10:29:13Z</end></TimeSpan><styleUrl>#point</styleUrl><Point><altitudeMode>clampToGround</altitudeMode><coordinates>28.111056117340922,-23.925627451390028,1263.79</coordinates></Point></Placemark><Placemark><TimeSpan><begin>2026-04-28T10:29:13Z</begin><end>2026-04-28T10:29:18Z</end></TimeSpan><styleUrl>#point</styleUrl><Point><altitudeMode>clampToGround</altitudeMode><coordinates>28.11138485558331,-23.925433997064829,1262.8299999999999</coordinates></Point></Placemark><Placemark><TimeSpan><begin>2026-04-28T10:29:18Z</begin><end>2026-04-28T10:29:23Z</end></TimeSpan><styleUrl>#point</styleUrl><Point><altitudeMode>clampToGround</altitudeMode><coordinates>28.11170051805675,-23.92511397600174,1261.3900000000001</coordinates></Point></Placemark><Placemark><TimeSpan><begin>2026-04-28T10:29:23Z</begin><end>2026-04-28T10:29:28Z</end></TimeSpan><styleUrl>#point</styleUrl><Point><altitudeMode>clampToGround</altitudeMode><coordinates>28.111994303762913,-23.92468549311161,1259.9400000000001</coordinates></Point></Placemark><Placemark><TimeSpan><begin>2026-04-28T10:29:28Z</begin><end>2026-04-28T10:29:33Z</end></TimeSpan><styleUrl>#point</styleUrl><Point><altitudeMode>clampToGround</altitudeMode><coordinates>28.112222794443369,-23.924343846738338,1257.54</coordinates></Point></Placemark><Placemark><TimeSpan><begin>2026-04-28T10:29:33Z</begin><end>2026-04-28T10:29:38Z</end></TimeSpan><styleUrl>#point</styleUrl><Point><altitudeMode>clampToGround</altitudeMode><coordinates>28.112330250442028,-23.924179980531335,1256.0999999999999</coordinates></Point></Placemark><Placemark><TimeSpan><begin>2026-04-28T10:29:38Z</begin><end>2026-04-28T10:29:43Z</end></TimeSpan><styleUrl>#point</styleUrl><Point><altitudeMode>clampToGround</altitudeMode><coordinates>28.112517921254039,-23.923831628635526,1255.1400000000001</coordinates></Point></Placemark><Placemark><TimeSpan><begin>2026-04-28T10:29:43Z</begin><end>2026-04-28T10:29:48Z</end></TimeSpan><styleUrl>#point</styleUrl><Point><altitudeMode>clampToGround</altitudeMode><coordinates>28.112697964534163,-23.92342577688396,1253.7</coordinates></Point></Placemark><Placemark><TimeSpan><begin>2026-04-28T10:29:48Z</begin><end>2026-04-28T10:29:53Z</end></TimeSpan><styleUrl>#point</styleUrl><Point><altitudeMode>clampToGround</altitudeMode><coordinates>28.11286099255085,-23.92315998673439,1252.74</coordinates></Point></Placemark><Placemark><TimeSpan><begin>2026-04-28T10:29:53Z</begin><end>2026-04-28T10:29:58Z</end></TimeSpan><styleUrl>#point</styleUrl><Point><altitudeMode>clampToGround</altitudeMode><coordinates>28.113059895113111,-23.922918168827891,1250.8099999999999</coordinates></Point></Placemark><Placemark><TimeSpan><begin>2026-04-28T10:29:58Z</begin><end>2026-04-28T10:30:03Z</end></TimeSpan><styleUrl>#point</styleUrl><Point><altitudeMode>clampToGround</altitudeMode><coordinates>28.113247146829963,-23.922731755301356,1248.4100000000001</coordinates></Point></Placemark><Placemark><TimeSpan><begin>2026-04-28T10:30:03Z</begin><end>2026-04-28T10:30:08Z</end></TimeSpan><styleUrl>#point</styleUrl><Point><altitudeMode>clampToGround</altitudeMode><coordinates>28.113341275602579,-23.922661263495684,1247.45</coordinates></Point></Placemark><Placemark><TimeSpan><begin>2026-04-28T10:30:08Z</begin><end>2026-04-28T10:30:13Z</end></TimeSpan><styleUrl>#point</styleUrl><Point><altitudeMode>clampToGround</altitudeMode><coordinates>28.113346053287387,-23.922660760581493,1246.97</coordinates></Point></Placemark><Placemark><TimeSpan><begin>2026-04-28T10:30:13Z</begin><end>2026-04-28T10:30:13Z</end></TimeSpan><styleUrl>#point</styleUrl><Point><altitudeMode>clampToGround</altitudeMode><coordinates>28.113346053287387,-23.922660760581493,1246.97</coordinates></Point></Placemark><Placemark><TimeSpan><begin>2026-04-28T10:30:13Z</begin><end>2026-04-28T10:30:18Z</end></TimeSpan><styleUrl>#point</styleUrl><Point><altitudeMode>clampToGround</altitudeMode><coordinates>28.113350663334131,-23.922659838572145,1246.01</coordinates></Point></Placemark><Placemark><TimeSpan><begin>2026-04-28T10:30:18Z</begin><end>2026-04-28T10:30:23Z</end></TimeSpan><styleUrl>#point</styleUrl><Point><altitudeMode>clampToGround</altitudeMode><coordinates>28.113346556201577,-23.922669226303697,1245.04</coordinates></Point></Placemark><Placemark><TimeSpan><begin>2026-04-28T10:30:23Z</begin><end>2026-04-28T10:30:28Z</end></TimeSpan><styleUrl>#point</styleUrl><Point><altitudeMode>clampToGround</altitudeMode><coordinates>28.113253684714437,-23.922759080305696,1245.04</coordinates></Point></Placemark><Placemark><TimeSpan><begin>2026-04-28T10:30:28Z</begin><end>2026-04-28T10:30:33Z</end></TimeSpan><styleUrl>#point</styleUrl><Point><altitudeMode>clampToGround</altitudeMode><coordinates>28.113175313919783,-23.922844910994172,1245.04</coordinates></Point></Placemark><Placemark><TimeSpan><begin>2026-04-28T10:30:33Z</begin><end>2026-04-28T10:30:38Z</end></TimeSpan><styleUrl>#point</styleUrl><Point><altitudeMode>clampToGround</altitudeMode><coordinates>28.113067522644997,-23.922957982867956,1246.01</coordinates></Point></Placemark><Placemark><TimeSpan><begin>2026-04-28T10:30:38Z</begin><end>2026-04-28T10:30:43Z</end></TimeSpan><styleUrl>#point</styleUrl><Point><altitudeMode>clampToGround</altitudeMode><coordinates>28.112935591489077,-23.923110030591488,1246.97</coordinates></Point></Placemark><Placemark><TimeSpan><begin>2026-04-28T10:30:43Z</begin><end>2026-04-28T10:30:48Z</end></TimeSpan><styleUrl>#point</styleUrl><Point><altitudeMode>clampToGround</altitudeMode><coordinates>28.112849676981568,-23.923197956755757,1248.4100000000001</coordinates></Point></Placemark><Placemark><TimeSpan><begin>2026-04-28T10:30:48Z</begin><end>2026-04-28T10:30:53Z</end></TimeSpan><styleUrl>#point</styleUrl><Point><altitudeMode>clampToGround</altitudeMode><coordinates>28.112865602597594,-23.923195609822869,1249.3699999999999</coordinates></Point></Placemark><Placemark><TimeSpan><begin>2026-04-28T10:30:53Z</begin><end>2026-04-28T10:30:58Z</end></TimeSpan><styleUrl>#point</styleUrl><Point><altitudeMode>clampToGround</altitudeMode><coordinates>28.112847413867712,-23.923196028918028,1248.8900000000001</coordinates></Point></Placemark><Placemark><TimeSpan><begin>2026-04-28T10:30:58Z</begin><end>2026-04-28T10:31:03Z</end></TimeSpan><styleUrl>#point</styleUrl><Point><altitudeMode>clampToGround</altitudeMode><coordinates>28.112854203209281,-23.9232078474015,1248.4100000000001</coordinates></Point></Placemark><Placemark><TimeSpan><begin>2026-04-28T10:31:03Z</begin><end>2026-04-28T10:31:08Z</end></TimeSpan><styleUrl>#point</styleUrl><Point><altitudeMode>clampToGround</altitudeMode><coordinates>28.112843474373221,-23.92320005223155,1247.9300000000001</coordinates></Point></Placemark><Placemark><TimeSpan><begin>2026-04-28T10:31:08Z</begin><end>2026-04-28T10:31:13Z</end></TimeSpan><styleUrl>#point</styleUrl><Point><altitudeMode>clampToGround</altitudeMode><coordinates>28.112837942317128,-23.923229640349746,1247.45</coordinates></Point></Placemark><Placemark><TimeSpan><begin>2026-04-28T10:31:13Z</begin><end>2026-04-28T10:31:18Z</end></TimeSpan><styleUrl>#point</styleUrl><Point><altitudeMode>clampToGround</altitudeMode><coordinates>28.112781448289752,-23.923316057771444,1246.97</coordinates></Point></Placemark><Placemark><TimeSpan><begin>2026-04-28T10:31:18Z</begin><end>2026-04-28T10:31:23Z</end></TimeSpan><styleUrl>#point</styleUrl><Point><altitudeMode>clampToGround</altitudeMode><coordinates>28.112690504640341,-23.923516469076276,1246.97</coordinates></Point></Placemark><Placemark><TimeSpan><begin>2026-04-28T10:31:23Z</begin><end>2026-04-28T10:31:28Z</end></TimeSpan><styleUrl>#point</styleUrl><Point><altitudeMode>clampToGround</altitudeMode><coordinates>28.112603751942515,-23.923703888431191,1247.45</coordinates></Point></Placemark><Placemark><TimeSpan><begin>2026-04-28T10:31:28Z</begin><end>2026-04-28T10:31:33Z</end></TimeSpan><styleUrl>#point</styleUrl><Point><altitudeMode>clampToGround</altitudeMode><coordinates>28.11249160207808,-23.923963727429509,1247.9300000000001</coordinates></Point></Placemark><Placemark><TimeSpan><begin>2026-04-28T10:31:33Z</begin><end>2026-04-28T10:31:38Z</end></TimeSpan><styleUrl>#point</styleUrl><Point><altitudeMode>clampToGround</altitudeMode><coordinates>28.112342655658722,-23.924235301092267,1248.4100000000001</coordinates></Point></Placemark><Placemark><TimeSpan><begin>2026-04-28T10:31:38Z</begin><end>2026-04-28T10:31:43Z</end></TimeSpan><styleUrl>#point</styleUrl><Point><altitudeMode>clampToGround</altitudeMode><coordinates>28.112230002880096,-23.924395311623812,1249.3699999999999</coordinates></Point></Placemark><Placemark><TimeSpan><begin>2026-04-28T10:31:43Z</begin><end>2026-04-28T10:31:48Z</end></TimeSpan><styleUrl>#point</styleUrl><Point><altitudeMode>clampToGround</altitudeMode><coordinates>28.112138388678432,-23.924516765400767,1250.3299999999999</coordinates></Point></Placemark><Placemark><TimeSpan><begin>2026-04-28T10:31:48Z</begin><end>2026-04-28T10:31:53Z</end></TimeSpan><styleUrl>#point</styleUrl><Point><altitudeMode>clampToGround</altitudeMode><coordinates>28.111981982365251,-23.924767300486565,1250.3299999999999</coordinates></Point></Placemark><Placemark><TimeSpan><begin>2026-04-28T10:31:53Z</begin><end>2026-04-28T10:31:58Z</end></TimeSpan><styleUrl>#point</styleUrl><Point><altitudeMode>clampToGround</altitudeMode><coordinates>28.111776290461421,-23.925064438953996,1250.8099999999999</coordinates></Point></Placemark><Placemark><TimeSpan><begin>2026-04-28T10:31:58Z</begin><end>2026-04-28T10:32:03Z</end></TimeSpan><styleUrl>#point</styleUrl><Point><altitudeMode>clampToGround</altitudeMode><coordinates>28.111546626314521,-23.925344226881862,1251.77</coordinates></Point></Placemark><Placemark><TimeSpan><begin>2026-04-28T10:32:03Z</begin><end>2026-04-28T10:32:08Z</end></TimeSpan><styleUrl>#point</styleUrl><Point><altitudeMode>clampToGround</altitudeMode><coordinates>28.111250158399343,-23.925569029524922,1253.22</coordinates></Point></Placemark><Placemark><TimeSpan><begin>2026-04-28T10:32:08Z</begin><end>2026-04-28T10:32:13Z</end></TimeSpan><styleUrl>#point</styleUrl><Point><altitudeMode>clampToGround</altitudeMode><coordinates>28.110892167314887,-23.92571059986949,1254.6600000000001</coordinates></Point></Placemark><Placemark><TimeSpan><begin>2026-04-28T10:32:13Z</begin><end>2026-04-28T10:32:18Z</end></TimeSpan><styleUrl>#point</styleUrl><Point><altitudeMode>clampToGround</altitudeMode><coordinates>28.110483130440116,-23.925757119432092,1256.5799999999999</coordinates></Point></Placemark><Placemark><TimeSpan><begin>2026-04-28T10:32:18Z</begin><end>2026-04-28T10:32:23Z</end></TimeSpan><styleUrl>#point</styleUrl><Point><altitudeMode>clampToGround</altitudeMode><coordinates>28.110051043331623,-23.925711773335934,1257.54</coordinates></Point></Placemark><Placemark><TimeSpan><begin>2026-04-28T10:32:23Z</begin><end>2026-04-28T10:32:28Z</end></TimeSpan><styleUrl>#point</styleUrl><Point><altitudeMode>clampToGround</altitudeMode><coordinates>28.109631277620792,-23.925630804151297,1258.5</coordinates></Point></Placemark><Placemark><TimeSpan><begin>2026-04-28T10:32:28Z</begin><end>2026-04-28T10:32:33Z</end></TimeSpan><styleUrl>#point</styleUrl><Point><altitudeMode>clampToGround</altitudeMode><coordinates>28.109139008447528,-23.925541955977678,1258.5</coordinates></Point></Placemark><Placemark><TimeSpan><begin>2026-04-28T10:32:33Z</begin><end>2026-04-28T10:32:38Z</end></TimeSpan><styleUrl>#point</styleUrl><Point><altitudeMode>clampToGround</altitudeMode><coordinates>28.108610194176435,-23.925438020378351,1258.98</coordinates></Point></Placemark><Placemark><TimeSpan><begin>2026-04-28T10:32:38Z</begin><end>2026-04-28T10:32:43Z</end></TimeSpan><styleUrl>#point</styleUrl><Point><altitudeMode>clampToGround</altitudeMode><coordinates>28.108392599970102,-23.925421591848135,1258.98</coordinates></Point></Placemark><Placemark><TimeSpan><begin>2026-04-28T10:32:43Z</begin><end>2026-04-28T10:32:48Z</end></TimeSpan><styleUrl>#point</styleUrl><Point><altitudeMode>clampToGround</altitudeMode><coordinates>28.108333675190806,-23.925404492765665,1258.98</coordinates></Point></Placemark><Placemark><TimeSpan><begin>2026-04-28T10:32:48Z</begin><end>2026-04-28T10:32:53Z</end></TimeSpan><styleUrl>#point</styleUrl><Point><altitudeMode>clampToGround</altitudeMode><coordinates>28.108253795653582,-23.925359984859824,1258.98</coordinates></Point></Placemark><Placemark><TimeSpan><begin>2026-04-28T10:32:53Z</begin><end>2026-04-28T10:32:58Z</end></TimeSpan><styleUrl>#point</styleUrl><Point><altitudeMode>clampToGround</altitudeMode><coordinates>28.108076686039567,-23.925330396741629,1259.46</coordinates></Point></Placemark><Placemark><TimeSpan><begin>2026-04-28T10:32:58Z</begin><end>2026-04-28T10:33:03Z</end></TimeSpan><styleUrl>#point</styleUrl><Point><altitudeMode>clampToGround</altitudeMode><coordinates>28.107947185635567,-23.925346909090877,1259.46</coordinates></Point></Placemark><Placemark><TimeSpan><begin>2026-04-28T10:33:03Z</begin><end>2026-04-28T10:33:08Z</end></TimeSpan><styleUrl>#point</styleUrl><Point><altitudeMode>clampToGround</altitudeMode><coordinates>28.107746606692672,-23.925360655412078,1259.9400000000001</coordinates></Point></Placemark><Placemark><TimeSpan><begin>2026-04-28T10:33:08Z</begin><end>2026-04-28T10:33:13Z</end></TimeSpan><styleUrl>#point</styleUrl><Point><altitudeMode>clampToGround</altitudeMode><coordinates>28.107497077435255,-23.925393931567669,1260.9100000000001</coordinates></Point></Placemark><Placemark><TimeSpan><begin>2026-04-28T10:33:13Z</begin><end>2026-04-28T10:33:18Z</end></TimeSpan><styleUrl>#point</styleUrl><Point><altitudeMode>clampToGround</altitudeMode><coordinates>28.107284093275666,-23.925457047298551,1261.8699999999999</coordinates></Point></Placemark><Placemark><TimeSpan><begin>2026-04-28T10:33:18Z</begin><end>2026-04-28T10:33:23Z</end></TimeSpan><styleUrl>#point</styleUrl><Point><altitudeMode>clampToGround</altitudeMode><coordinates>28.107136823236942,-23.925554528832436,1263.79</coordinates></Point></Placemark><Placemark><TimeSpan><begin>2026-04-28T10:33:23Z</begin><end>2026-04-28T10:33:28Z</end></TimeSpan><styleUrl>#point</styleUrl><Point><altitudeMode>clampToGround</altitudeMode><coordinates>28.106902884319425,-23.925678329542279,1264.75</coordinates></Point></Placemark><Placemark><TimeSpan><begin>2026-04-28T10:33:28Z</begin><end>2026-04-28T10:33:33Z</end></TimeSpan><styleUrl>#point</styleUrl><Point><altitudeMode>clampToGround</altitudeMode><coordinates>28.106760643422604,-23.92574924044311,1265.23</coordinates></Point></Placemark><Placemark><TimeSpan><begin>2026-04-28T10:33:33Z</begin><end>2026-04-28T10:33:38Z</end></TimeSpan><styleUrl>#point</styleUrl><Point><altitudeMode>clampToGround</altitudeMode><coordinates>28.106677746400237,-23.92579416744411,1265.23</coordinates></Point></Placemark><Placemark><TimeSpan><begin>2026-04-28T10:33:38Z</begin><end>2026-04-28T10:33:43Z</end></TimeSpan><styleUrl>#point</styleUrl><Point><altitudeMode>clampToGround</altitudeMode><coordinates>28.106658551841974,-23.925813445821404,1265.23</coordinates></Point></Placemark><Placemark><TimeSpan><begin>2026-04-28T10:33:43Z</begin><end>2026-04-28T10:33:48Z</end></TimeSpan><styleUrl>#point</styleUrl><Point><altitudeMode>clampToGround</altitudeMode><coordinates>28.106655199080706,-23.925818558782339,1263.79</coordinates></Point></Placemark><Placemark><TimeSpan><begin>2026-04-28T10:33:48Z</begin><end>2026-04-28T10:33:53Z</end></TimeSpan><styleUrl>#point</styleUrl><Point><altitudeMode>clampToGround</altitudeMode><coordinates>28.106621839106083,-23.925839345902205,1263.79</coordinates></Point></Placemark><Placemark><TimeSpan><begin>2026-04-28T10:33:53Z</begin><end>2026-04-28T10:33:58Z</end></TimeSpan><styleUrl>#point</styleUrl><Point><altitudeMode>clampToGround</altitudeMode><coordinates>28.106549084186554,-23.925884524360299,1263.79</coordinates></Point></Placemark><Placemark><TimeSpan><begin>2026-04-28T10:33:58Z</begin><end>2026-04-28T10:34:03Z</end></TimeSpan><styleUrl>#point</styleUrl><Point><altitudeMode>clampToGround</altitudeMode><coordinates>28.106508012861013,-23.925907490774989,1263.79</coordinates></Point></Placemark><Placemark><TimeSpan><begin>2026-04-28T10:34:03Z</begin><end>2026-04-28T10:34:08Z</end></TimeSpan><styleUrl>#point</styleUrl><Point><altitudeMode>clampToGround</altitudeMode><coordinates>28.106442969292402,-23.925955602899194,1264.27</coordinates></Point></Placemark><Placemark><TimeSpan><begin>2026-04-28T10:34:08Z</begin><end>2026-04-28T10:34:13Z</end></TimeSpan><styleUrl>#point</styleUrl><Point><altitudeMode>clampToGround</altitudeMode><coordinates>28.106371723115444,-23.926026094704866,1265.23</coordinates></Point></Placemark><Placemark><TimeSpan><begin>2026-04-28T10:34:13Z</begin><end>2026-04-28T10:34:18Z</end></TimeSpan><styleUrl>#point</styleUrl><Point><altitudeMode>clampToGround</altitudeMode><coordinates>28.106267284601927,-23.926097843796015,1265.71</coordinates></Point></Placemark><Placemark><TimeSpan><begin>2026-04-28T10:34:18Z</begin><end>2026-04-28T10:34:23Z</end></TimeSpan><styleUrl>#point</styleUrl><Point><altitudeMode>clampToGround</altitudeMode><coordinates>28.106020269915462,-23.926276629790664,1267.6400000000001</coordinates></Point></Placemark><Placemark><TimeSpan><begin>2026-04-28T10:34:23Z</begin><end>2026-04-28T10:34:28Z</end></TimeSpan><styleUrl>#point</styleUrl><Point><altitudeMode>clampToGround</altitudeMode><coordinates>28.105765543878078,-23.926468240097165,1269.0799999999999</coordinates></Point></Placemark><Placemark><TimeSpan><begin>2026-04-28T10:34:28Z</begin><end>2026-04-28T10:34:33Z</end></TimeSpan><styleUrl>#point</styleUrl><Point><altitudeMode>clampToGround</altitudeMode><coordinates>28.105560354888439,-23.926630010828376,1271</coordinates></Point></Placemark><Placemark><TimeSpan><begin>2026-04-28T10:34:33Z</begin><end>2026-04-28T10:34:38Z</end></TimeSpan><styleUrl>#point</styleUrl><Point><altitudeMode>clampToGround</altitudeMode><coordinates>28.105385256931186,-23.926767222583294,1272.9200000000001</coordinates></Point></Placemark><Placemark><TimeSpan><begin>2026-04-28T10:34:38Z</begin><end>2026-04-28T10:34:43Z</end></TimeSpan><styleUrl>#point</styleUrl><Point><altitudeMode>clampToGround</altitudeMode><coordinates>28.105093818157911,-23.926977692171931,1274.8499999999999</coordinates></Point></Placemark><Placemark><TimeSpan><begin>2026-04-28T10:34:43Z</begin><end>2026-04-28T10:34:48Z</end></TimeSpan><styleUrl>#point</styleUrl><Point><altitudeMode>clampToGround</altitudeMode><coordinates>28.104730043560266,-23.927215654402971,1276.77</coordinates></Point></Placemark><Placemark><TimeSpan><begin>2026-04-28T10:34:48Z</begin><end>2026-04-28T10:34:53Z</end></TimeSpan><styleUrl>#point</styleUrl><Point><altitudeMode>clampToGround</altitudeMode><coordinates>28.104321090504527,-23.927430063486099,1279.6500000000001</coordinates></Point></Placemark><Placemark><TimeSpan><begin>2026-04-28T10:34:53Z</begin><end>2026-04-28T10:34:58Z</end></TimeSpan><styleUrl>#point</styleUrl><Point><altitudeMode>clampToGround</altitudeMode><coordinates>28.103903755545616,-23.927668193355203,1282.54</coordinates></Point></Placemark><Placemark><TimeSpan><begin>2026-04-28T10:34:58Z</begin><end>2026-04-28T10:35:03Z</end></TimeSpan><styleUrl>#point</styleUrl><Point><altitudeMode>clampToGround</altitudeMode><coordinates>28.103522043675184,-23.927926775068045,1285.4200000000001</coordinates></Point></Placemark><Placemark><TimeSpan><begin>2026-04-28T10:35:03Z</begin><end>2026-04-28T10:35:08Z</end></TimeSpan><styleUrl>#point</styleUrl><Point><altitudeMode>clampToGround</altitudeMode><coordinates>28.103210236877203,-23.928222572430968,1288.78</coordinates></Point></Placemark><Placemark><TimeSpan><begin>2026-04-28T10:35:08Z</begin><end>2026-04-28T10:35:13Z</end></TimeSpan><styleUrl>#point</styleUrl><Point><altitudeMode>clampToGround</altitudeMode><coordinates>28.102919887751341,-23.92852901481092,1291.6700000000001</coordinates></Point></Placemark><Placemark><TimeSpan><begin>2026-04-28T10:35:13Z</begin><end>2026-04-28T10:35:18Z</end></TimeSpan><styleUrl>#point</styleUrl><Point><altitudeMode>clampToGround</altitudeMode><coordinates>28.102789130061865,-23.928669830784202,1293.5899999999999</coordinates></Point></Placemark><Placemark><TimeSpan><begin>2026-04-28T10:35:18Z</begin><end>2026-04-28T10:35:23Z</end></TimeSpan><styleUrl>#point</styleUrl><Point><altitudeMode>clampToGround</altitudeMode><coordinates>28.102734228596091,-23.928745184093714,1293.5899999999999</coordinates></Point></Placemark><Placemark><TimeSpan><begin>2026-04-28T10:35:23Z</begin><end>2026-04-28T10:35:28Z</end></TimeSpan><styleUrl>#point</styleUrl><Point><altitudeMode>clampToGround</altitudeMode><coordinates>28.102603638544679,-23.928867559880018,1294.55</coordinates></Point></Placemark><Placemark><TimeSpan><begin>2026-04-28T10:35:28Z</begin><end>2026-04-28T10:35:33Z</end></TimeSpan><styleUrl>#point</styleUrl><Point><altitudeMode>clampToGround</altitudeMode><coordinates>28.102504732087255,-23.928928496316075,1295.03</coordinates></Point></Placemark><Placemark><TimeSpan><begin>2026-04-28T10:35:33Z</begin><end>2026-04-28T10:35:38Z</end></TimeSpan><styleUrl>#point</styleUrl><Point><altitudeMode>clampToGround</altitudeMode><coordinates>28.102423343807459,-23.928966382518411,1295.99</coordinates></Point></Placemark><Placemark><TimeSpan><begin>2026-04-28T10:35:38Z</begin><end>2026-04-28T10:35:43Z</end></TimeSpan><styleUrl>#point</styleUrl><Point><altitudeMode>clampToGround</altitudeMode><coordinates>28.102321503683925,-23.92902891151607,1296.96</coordinates></Point></Placemark><Placemark><TimeSpan><begin>2026-04-28T10:35:43Z</begin><end>2026-04-28T10:35:48Z</end></TimeSpan><styleUrl>#point</styleUrl><Point><altitudeMode>clampToGround</altitudeMode><coordinates>28.102213963866234,-23.929082388058305,1297.4400000000001</coordinates></Point></Placemark><Placemark><TimeSpan><begin>2026-04-28T10:35:48Z</begin><end>2026-04-28T10:35:53Z</end></TimeSpan><styleUrl>#point</styleUrl><Point><altitudeMode>clampToGround</altitudeMode><coordinates>28.102153781801462,-23.929113652557135,1297.9200000000001</coordinates></Point></Placemark><Placemark><TimeSpan><begin>2026-04-28T10:35:53Z</begin><end>2026-04-28T10:35:58Z</end></TimeSpan><styleUrl>#point</styleUrl><Point><altitudeMode>clampToGround</altitudeMode><coordinates>28.102089576423168,-23.929138043895364,1297.9200000000001</coordinates></Point></Placemark><Placemark><TimeSpan><begin>2026-04-28T10:35:58Z</begin><end>2026-04-28T10:36:03Z</end></TimeSpan><styleUrl>#point</styleUrl><Point><altitudeMode>clampToGround</altitudeMode><coordinates>28.10197482816875,-23.929184312000871,1298.8800000000001</coordinates></Point></Placemark><Placemark><TimeSpan><begin>2026-04-28T10:36:03Z</begin><end>2026-04-28T10:36:08Z</end></TimeSpan><styleUrl>#point</styleUrl><Point><altitudeMode>clampToGround</altitudeMode><coordinates>28.101851362735033,-23.929247176274657,1300.3199999999999</coordinates></Point></Placemark><Placemark><TimeSpan><begin>2026-04-28T10:36:08Z</begin><end>2026-04-28T10:36:13Z</end></TimeSpan><styleUrl>#point</styleUrl><Point><altitudeMode>clampToGround</altitudeMode><coordinates>28.101762346923351,-23.929303670302033,1301.76</coordinates></Point></Placemark><Placemark><TimeSpan><begin>2026-04-28T10:36:13Z</begin><end>2026-04-28T10:36:18Z</end></TimeSpan><styleUrl>#point</styleUrl><Point><altitudeMode>clampToGround</altitudeMode><coordinates>28.101689172908664,-23.92935287207365,1303.2</coordinates></Point></Placemark><Placemark><TimeSpan><begin>2026-04-28T10:36:18Z</begin><end>2026-04-28T10:36:23Z</end></TimeSpan><styleUrl>#point</styleUrl><Point><altitudeMode>clampToGround</altitudeMode><coordinates>28.101619686931372,-23.929405845701694,1303.6900000000001</coordinates></Point></Placemark><Placemark><TimeSpan><begin>2026-04-28T10:36:23Z</begin><end>2026-04-28T10:36:28Z</end></TimeSpan><styleUrl>#point</styleUrl><Point><altitudeMode>clampToGround</altitudeMode><coordinates>28.101557996124029,-23.929444905370474,1304.6500000000001</coordinates></Point></Placemark><Placemark><TimeSpan><begin>2026-04-28T10:36:28Z</begin><end>2026-04-28T10:36:33Z</end></TimeSpan><styleUrl>#point</styleUrl><Point><altitudeMode>clampToGround</altitudeMode><coordinates>28.10149840079248,-23.929486982524395,1305.6099999999999</coordinates></Point></Placemark><Placemark><TimeSpan><begin>2026-04-28T10:36:33Z</begin><end>2026-04-28T10:36:38Z</end></TimeSpan><styleUrl>#point</styleUrl><Point><altitudeMode>clampToGround</altitudeMode><coordinates>28.101433860138059,-23.929534507915378,1306.5699999999999</coordinates></Point></Placemark><Placemark><TimeSpan><begin>2026-04-28T10:36:38Z</begin><end>2026-04-28T10:36:43Z</end></TimeSpan><styleUrl>#point</styleUrl><Point><altitudeMode>clampToGround</altitudeMode><coordinates>28.101320955902338,-23.929629139602184,1307.53</coordinates></Point></Placemark><Placemark><TimeSpan><begin>2026-04-28T10:36:43Z</begin><end>2026-04-28T10:36:48Z</end></TimeSpan><styleUrl>#point</styleUrl><Point><altitudeMode>clampToGround</altitudeMode><coordinates>28.101090202108026,-23.929777247831225,1309.45</coordinates></Point></Placemark><Placemark><TimeSpan><begin>2026-04-28T10:36:48Z</begin><end>2026-04-28T10:36:53Z</end></TimeSpan><styleUrl>#point</styleUrl><Point><altitudeMode>clampToGround</altitudeMode><coordinates>28.100936394184828,-23.929878752678633,1311.3800000000001</coordinates></Point></Placemark><Placemark><TimeSpan><begin>2026-04-28T10:36:53Z</begin><end>2026-04-28T10:36:58Z</end></TimeSpan><styleUrl>#point</styleUrl><Point><altitudeMode>clampToGround</altitudeMode><coordinates>28.100889204069972,-23.929899707436562,1312.3399999999999</coordinates></Point></Placemark><Placemark><TimeSpan><begin>2026-04-28T10:36:58Z</begin><end>2026-04-28T10:37:03Z</end></TimeSpan><styleUrl>#point</styleUrl><Point><altitudeMode>clampToGround</altitudeMode><coordinates>28.100802702829242,-23.929944802075624,1313.78</coordinates></Point></Placemark><Placemark><TimeSpan><begin>2026-04-28T10:37:03Z</begin><end>2026-04-28T10:37:08Z</end></TimeSpan><styleUrl>#point</styleUrl><Point><altitudeMode>clampToGround</altitudeMode><coordinates>28.100676806643605,-23.930021412670612,1315.22</coordinates></Point></Placemark><Placemark><TimeSpan><begin>2026-04-28T10:37:08Z</begin><end>2026-04-28T10:37:13Z</end></TimeSpan><styleUrl>#point</styleUrl><Point><altitudeMode>clampToGround</altitudeMode><coordinates>28.100554430857301,-23.930090060457587,1317.1400000000001</coordinates></Point></Placemark><Placemark><TimeSpan><begin>2026-04-28T10:37:13Z</begin><end>2026-04-28T10:37:18Z</end></TimeSpan><styleUrl>#point</styleUrl><Point><altitudeMode>clampToGround</altitudeMode><coordinates>28.10045225545764,-23.930157367140055,1318.0999999999999</coordinates></Point></Placemark><Placemark><TimeSpan><begin>2026-04-28T10:37:18Z</begin><end>2026-04-28T10:37:23Z</end></TimeSpan><styleUrl>#point</styleUrl><Point><altitudeMode>clampToGround</altitudeMode><coordinates>28.100380087271333,-23.930211011320353,1319.55</coordinates></Point></Placemark><Placemark><TimeSpan><begin>2026-04-28T10:37:23Z</begin><end>2026-04-28T10:37:28Z</end></TimeSpan><styleUrl>#point</styleUrl><Point><altitudeMode>clampToGround</altitudeMode><coordinates>28.100273385643959,-23.930285526439548,1320.51</coordinates></Point></Placemark><Placemark><TimeSpan><begin>2026-04-28T10:37:28Z</begin><end>2026-04-28T10:37:33Z</end></TimeSpan><styleUrl>#point</styleUrl><Point><altitudeMode>clampToGround</altitudeMode><coordinates>28.100072890520096,-23.930446123704314,1322.4300000000001</coordinates></Point></Placemark><Placemark><TimeSpan><begin>2026-04-28T10:37:33Z</begin><end>2026-04-28T10:37:38Z</end></TimeSpan><styleUrl>#point</styleUrl><Point><altitudeMode>clampToGround</altitudeMode><coordinates>28.099862420931458,-23.930605044588447,1324.8299999999999</coordinates></Point></Placemark><Placemark><TimeSpan><begin>2026-04-28T10:37:38Z</begin><end>2026-04-28T10:37:43Z</end></TimeSpan><styleUrl>#point</styleUrl><Point><altitudeMode>clampToGround</altitudeMode><coordinates>28.099653292447329,-23.930801432579756,1327.72</coordinates></Point></Placemark><Placemark><TimeSpan><begin>2026-04-28T10:37:43Z</begin><end>2026-04-28T10:37:48Z</end></TimeSpan><styleUrl>#point</styleUrl><Point><altitudeMode>clampToGround</altitudeMode><coordinates>28.099490599706769,-23.931023720651865,1330.5999999999999</coordinates></Point></Placemark><Placemark><TimeSpan><begin>2026-04-28T10:37:48Z</begin><end>2026-04-28T10:37:53Z</end></TimeSpan><styleUrl>#point</styleUrl><Point><altitudeMode>clampToGround</altitudeMode><coordinates>28.099362440407276,-23.931236285716295,1333.01</coordinates></Point></Placemark><Placemark><TimeSpan><begin>2026-04-28T10:37:53Z</begin><end>2026-04-28T10:37:58Z</end></TimeSpan><styleUrl>#point</styleUrl><Point><altitudeMode>clampToGround</altitudeMode><coordinates>28.099271999672055,-23.931463016197085,1335.8900000000001</coordinates></Point></Placemark><Placemark><TimeSpan><begin>2026-04-28T10:37:58Z</begin><end>2026-04-28T10:38:03Z</end></TimeSpan><styleUrl>#point</styleUrl><Point><altitudeMode>clampToGround</altitudeMode><coordinates>28.099132608622313,-23.931806087493896,1337.8099999999999</coordinates></Point></Placemark><Placemark><TimeSpan><begin>2026-04-28T10:38:03Z</begin><end>2026-04-28T10:38:08Z</end></TimeSpan><styleUrl>#point</styleUrl><Point><altitudeMode>clampToGround</altitudeMode><coordinates>28.098925156518817,-23.932157624512911,1339.73</coordinates></Point></Placemark><Placemark><TimeSpan><begin>2026-04-28T10:38:08Z</begin><end>2026-04-28T10:38:13Z</end></TimeSpan><styleUrl>#point</styleUrl><Point><altitudeMode>clampToGround</altitudeMode><coordinates>28.098679818212986,-23.932471442967653,1342.1400000000001</coordinates></Point></Placemark><Placemark><TimeSpan><begin>2026-04-28T10:38:13Z</begin><end>2026-04-28T10:38:18Z</end></TimeSpan><styleUrl>#point</styleUrl><Point><altitudeMode>clampToGround</altitudeMode><coordinates>28.098504301160574,-23.932669926434755,1344.54</coordinates></Point></Placemark><Placemark><TimeSpan><begin>2026-04-28T10:38:18Z</begin><end>2026-04-28T10:38:23Z</end></TimeSpan><styleUrl>#point</styleUrl><Point><altitudeMode>clampToGround</altitudeMode><coordinates>28.098447304219007,-23.932767324149609,1345.5</coordinates></Point></Placemark><Placemark><TimeSpan><begin>2026-04-28T10:38:23Z</begin><end>2026-04-28T10:38:28Z</end></TimeSpan><styleUrl>#point</styleUrl><Point><altitudeMode>clampToGround</altitudeMode><coordinates>28.098383853211999,-23.932869331911206,1346.46</coordinates></Point></Placemark><Placemark><TimeSpan><begin>2026-04-28T10:38:28Z</begin><end>2026-04-28T10:38:33Z</end></TimeSpan><styleUrl>#point</styleUrl><Point><altitudeMode>clampToGround</altitudeMode><coordinates>28.098290981724858,-23.93299262970686,1347.4300000000001</coordinates></Point></Placemark><Placemark><TimeSpan><begin>2026-04-28T10:38:33Z</begin><end>2026-04-28T10:38:38Z</end></TimeSpan><styleUrl>#point</styleUrl><Point><altitudeMode>clampToGround</altitudeMode><coordinates>28.098117141053081,-23.93319932743907,1348.8699999999999</coordinates></Point></Placemark><Placemark><TimeSpan><begin>2026-04-28T10:38:38Z</begin><end>2026-04-28T10:38:43Z</end></TimeSpan><styleUrl>#point</styleUrl><Point><altitudeMode>clampToGround</altitudeMode><coordinates>28.097879262641072,-23.93351155333221,1350.3099999999999</coordinates></Point></Placemark></Folder><Placemark><name>[424] Browns Cutting</name><Style><LineStyle><color>ff0000ff</color><width>4</width></LineStyle></Style><MultiGeometry><LineString><coordinates>28.097899965941906,-23.933447850868106,1349.3499999999999 28.098114794120193,-23.933145264163613,1347.4300000000001 28.098301962018013,-23.932908223941922,1345.02 28.098406987264752,-23.932762043550611,1343.5799999999999 28.098486699163914,-23.932653246447444,1342.1400000000001 28.09858862310648,-23.932525338605046,1341.1800000000001 28.09876992367208,-23.932318054139614,1339.73 28.09895122423768,-23.932051761075854,1338.29 28.099145432934165,-23.931681867688894,1336.3699999999999 28.099286919459701,-23.931330163031816,1333.97 28.099428238347173,-23.931056912988424,1331.0799999999999 28.099631164222956,-23.930786680430174,1327.72 28.099874490872025,-23.930559447035193,1323.3900000000001 28.100102059543133,-23.930388120934367,1319.55 28.100288808345795,-23.930251579731703,1316.6600000000001 28.100390313193202,-23.930178405717015,1314.74 28.100501541048288,-23.930111518129706,1313.78 28.100627604871988,-23.930032644420862,1313.3 28.100759536027908,-23.929963577538729,1311.8599999999999 28.100865231826901,-23.929907754063606,1310.4100000000001 28.100932538509369,-23.929867018014193,1309.45 28.101042341440916,-23.929788395762444,1308.97 28.101290948688984,-23.92962209880352,1307.53 28.101423047482967,-23.929522186517715,1305.6099999999999 28.101483900099993,-23.929472817108035,1304.1700000000001 28.10153997503221,-23.929439792409539,1303.2 28.101589260622859,-23.929411796852946,1302.72 28.101641144603491,-23.929376509040594,1302.72 28.101695710793138,-23.929344741627574,1301.76 28.101777099072933,-23.929285146296024,1301.76 28.101904587820172,-23.929205015301704,1301.28 28.10203886590898,-23.929146006703377,1300.3199999999999 28.102084463462234,-23.929132344201207,1299.3599999999999 28.102165851742029,-23.929099906235933,1298.8800000000001 28.102271631360054,-23.929054057225585,1298.4000000000001 28.102406160905957,-23.928968645632267,1297.4400000000001 28.102508755400777,-23.928906871005893,1296.48 28.102577906101942,-23.928860519081354,1295.99 28.102719476446509,-23.928727749735117,1295.99 28.10278938151896,-23.928615264594555,1295.03 28.10296380892396,-23.928427342325449,1295.03 28.103282656520605,-23.92808829434216,1294.55 28.103707619011402,-23.927752347663045,1292.6300000000001 28.104197708889842,-23.927449677139521,1290.23 28.104745801538229,-23.927167039364576,1286.3800000000001 28.105275202542543,-23.926809802651405,1282.0599999999999 28.105640234425664,-23.926526913419366,1279.1700000000001 28.10587702319026,-23.926352988928556,1276.77 28.106142394244671,-23.92617235891521,1273.8800000000001 28.106367699801922,-23.926019305363297,1271.48 28.106479598209262,-23.925918554887176,1270.52 28.106570038944483,-23.925858540460467,1269.5599999999999 28.10662804171443,-23.925810595974326,1268.5999999999999 28.106678165495396,-23.925769692286849,1268.1199999999999 28.106765672564507,-23.925700122490525,1268.5999999999999 28.106904644519091,-23.925635162740946,1268.5999999999999 28.107135817408562,-23.925507254898548,1268.5999999999999 28.107278728857636,-23.925428045913577,1268.5999999999999 28.107519205659628,-23.925360823050141,1269.0799999999999 28.10779488645494,-23.925336180254817,1267.6400000000001 28.10798934660852,-23.925316566601396,1266.6700000000001 28.108112057670951,-23.925311369821429,1265.71 28.10825471766293,-23.925357218831778,1264.27 28.108316408470273,-23.925390746444464,1264.27 28.108377428725362,-23.925410276278853,1264.27 28.108573313802481,-23.925422010943294,1265.23 28.109065163880587,-23.925515133887529,1265.71 28.109637396410108,-23.925618818029761,1266.1900000000001 28.110167551785707,-23.925713952630758,1265.71 28.110646661370993,-23.925725519657135,1265.23 28.111056117340922,-23.925627451390028,1263.79 28.11138485558331,-23.925433997064829,1262.8299999999999 28.11170051805675,-23.92511397600174,1261.3900000000001 28.111994303762913,-23.92468549311161,1259.9400000000001 28.112222794443369,-23.924343846738338,1257.54 28.112330250442028,-23.924179980531335,1256.0999999999999 28.112517921254039,-23.923831628635526,1255.1400000000001 28.112697964534163,-23.92342577688396,1253.7 28.11286099255085,-23.92315998673439,1252.74 28.113059895113111,-23.922918168827891,1250.8099999999999 28.113247146829963,-23.922731755301356,1248.4100000000001 28.113341275602579,-23.922661263495684,1247.45 28.113346053287387,-23.922660760581493,1246.97 28.113346053287387,-23.922660760581493,1246.97 28.113350663334131,-23.922659838572145,1246.01 28.113346556201577,-23.922669226303697,1245.04 28.113253684714437,-23.922759080305696,1245.04 28.113175313919783,-23.922844910994172,1245.04 28.113067522644997,-23.922957982867956,1246.01 28.112935591489077,-23.923110030591488,1246.97 28.112849676981568,-23.923197956755757,1248.4100000000001 28.112865602597594,-23.923195609822869,1249.3699999999999 28.112847413867712,-23.923196028918028,1248.8900000000001 28.112854203209281,-23.9232078474015,1248.4100000000001 28.112843474373221,-23.92320005223155,1247.9300000000001 28.112837942317128,-23.923229640349746,1247.45 28.112781448289752,-23.923316057771444,1246.97 28.112690504640341,-23.923516469076276,1246.97 28.112603751942515,-23.923703888431191,1247.45 28.11249160207808,-23.923963727429509,1247.9300000000001 28.112342655658722,-23.924235301092267,1248.4100000000001 28.112230002880096,-23.924395311623812,1249.3699999999999 28.112138388678432,-23.924516765400767,1250.3299999999999 28.111981982365251,-23.924767300486565,1250.3299999999999 28.111776290461421,-23.925064438953996,1250.8099999999999 28.111546626314521,-23.925344226881862,1251.77 28.111250158399343,-23.925569029524922,1253.22 28.110892167314887,-23.92571059986949,1254.6600000000001 28.110483130440116,-23.925757119432092,1256.5799999999999 28.110051043331623,-23.925711773335934,1257.54 28.109631277620792,-23.925630804151297,1258.5 28.109139008447528,-23.925541955977678,1258.5 28.108610194176435,-23.925438020378351,1258.98 28.108392599970102,-23.925421591848135,1258.98 28.108333675190806,-23.925404492765665,1258.98 28.108253795653582,-23.925359984859824,1258.98 28.108076686039567,-23.925330396741629,1259.46 28.107947185635567,-23.925346909090877,1259.46 28.107746606692672,-23.925360655412078,1259.9400000000001 28.107497077435255,-23.925393931567669,1260.9100000000001 28.107284093275666,-23.925457047298551,1261.8699999999999 28.107136823236942,-23.925554528832436,1263.79 28.106902884319425,-23.925678329542279,1264.75 28.106760643422604,-23.92574924044311,1265.23 28.106677746400237,-23.92579416744411,1265.23 28.106658551841974,-23.925813445821404,1265.23 28.106655199080706,-23.925818558782339,1263.79 28.106621839106083,-23.925839345902205,1263.79 28.106549084186554,-23.925884524360299,1263.79 28.106508012861013,-23.925907490774989,1263.79 28.106442969292402,-23.925955602899194,1264.27 28.106371723115444,-23.926026094704866,1265.23 28.106267284601927,-23.926097843796015,1265.71 28.106020269915462,-23.926276629790664,1267.6400000000001 28.105765543878078,-23.926468240097165,1269.0799999999999 28.105560354888439,-23.926630010828376,1271 28.105385256931186,-23.926767222583294,1272.9200000000001 28.105093818157911,-23.926977692171931,1274.8499999999999 28.104730043560266,-23.927215654402971,1276.77 28.104321090504527,-23.927430063486099,1279.6500000000001 28.103903755545616,-23.927668193355203,1282.54 28.103522043675184,-23.927926775068045,1285.4200000000001 28.103210236877203,-23.928222572430968,1288.78 28.102919887751341,-23.92852901481092,1291.6700000000001 28.102789130061865,-23.928669830784202,1293.5899999999999 28.102734228596091,-23.928745184093714,1293.5899999999999 28.102603638544679,-23.928867559880018,1294.55 28.102504732087255,-23.928928496316075,1295.03 28.102423343807459,-23.928966382518411,1295.99 28.102321503683925,-23.92902891151607,1296.96 28.102213963866234,-23.929082388058305,1297.4400000000001 28.102153781801462,-23.929113652557135,1297.9200000000001 28.102089576423168,-23.929138043895364,1297.9200000000001 28.10197482816875,-23.929184312000871,1298.8800000000001 28.101851362735033,-23.929247176274657,1300.3199999999999 28.101762346923351,-23.929303670302033,1301.76 28.101689172908664,-23.92935287207365,1303.2 28.101619686931372,-23.929405845701694,1303.6900000000001 28.101557996124029,-23.929444905370474,1304.6500000000001 28.10149840079248,-23.929486982524395,1305.6099999999999 28.101433860138059,-23.929534507915378,1306.5699999999999 28.101320955902338,-23.929629139602184,1307.53 28.101090202108026,-23.929777247831225,1309.45 28.100936394184828,-23.929878752678633,1311.3800000000001 28.100889204069972,-23.929899707436562,1312.3399999999999 28.100802702829242,-23.929944802075624,1313.78 28.100676806643605,-23.930021412670612,1315.22 28.100554430857301,-23.930090060457587,1317.1400000000001 28.10045225545764,-23.930157367140055,1318.0999999999999 28.100380087271333,-23.930211011320353,1319.55 28.100273385643959,-23.930285526439548,1320.51 28.100072890520096,-23.930446123704314,1322.4300000000001 28.099862420931458,-23.930605044588447,1324.8299999999999 28.099653292447329,-23.930801432579756,1327.72 28.099490599706769,-23.931023720651865,1330.5999999999999 28.099362440407276,-23.931236285716295,1333.01 28.099271999672055,-23.931463016197085,1335.8900000000001 28.099132608622313,-23.931806087493896,1337.8099999999999 28.098925156518817,-23.932157624512911,1339.73 28.098679818212986,-23.932471442967653,1342.1400000000001 28.098504301160574,-23.932669926434755,1344.54 28.098447304219007,-23.932767324149609,1345.5 28.098383853211999,-23.932869331911206,1346.46 28.098290981724858,-23.93299262970686,1347.4300000000001 28.098117141053081,-23.93319932743907,1348.8699999999999 28.097879262641072,-23.93351155333221,1350.3099999999999 </coordinates></LineString></MultiGeometry></Placemark></Folder></Folder></Document></kml>