<?xml version="1.0" encoding="utf-8"?><gpx creator="Garmin Desktop App" version="1.1" xsi:schemaLocation="http://www.topografix.com/GPX/1/1 http://www.topografix.com/GPX/1/1/gpx.xsd http://www.garmin.com/xmlschemas/WaypointExtension/v1 http://www8.garmin.com/xmlschemas/WaypointExtensionv1.xsd http://www.garmin.com/xmlschemas/TrackPointExtension/v1 http://www.garmin.com/xmlschemas/TrackPointExtensionv1.xsd http://www.garmin.com/xmlschemas/GpxExtensions/v3 http://www8.garmin.com/xmlschemas/GpxExtensionsv3.xsd http://www.garmin.com/xmlschemas/ActivityExtension/v1 http://www8.garmin.com/xmlschemas/ActivityExtensionv1.xsd http://www.garmin.com/xmlschemas/AdventuresExtensions/v1 http://www8.garmin.com/xmlschemas/AdventuresExtensionv1.xsd http://www.garmin.com/xmlschemas/PressureExtension/v1 http://www.garmin.com/xmlschemas/PressureExtensionv1.xsd http://www.garmin.com/xmlschemas/TripExtensions/v1 http://www.garmin.com/xmlschemas/TripExtensionsv1.xsd http://www.garmin.com/xmlschemas/TripMetaDataExtensions/v1 http://www.garmin.com/xmlschemas/TripMetaDataExtensionsv1.xsd http://www.garmin.com/xmlschemas/ViaPointTransportationModeExtensions/v1 http://www.garmin.com/xmlschemas/ViaPointTransportationModeExtensionsv1.xsd http://www.garmin.com/xmlschemas/CreationTimeExtension/v1 http://www.garmin.com/xmlschemas/CreationTimeExtensionsv1.xsd http://www.garmin.com/xmlschemas/AccelerationExtension/v1 http://www.garmin.com/xmlschemas/AccelerationExtensionv1.xsd http://www.garmin.com/xmlschemas/PowerExtension/v1 http://www.garmin.com/xmlschemas/PowerExtensionv1.xsd http://www.garmin.com/xmlschemas/VideoExtension/v1 http://www.garmin.com/xmlschemas/VideoExtensionv1.xsd" xmlns="http://www.topografix.com/GPX/1/1" xmlns:xsi="http://www.w3.org/2001/XMLSchema-instance" xmlns:wptx1="http://www.garmin.com/xmlschemas/WaypointExtension/v1" xmlns:gpxtrx="http://www.garmin.com/xmlschemas/GpxExtensions/v3" xmlns:gpxtpx="http://www.garmin.com/xmlschemas/TrackPointExtension/v1" xmlns:gpxx="http://www.garmin.com/xmlschemas/GpxExtensions/v3" xmlns:trp="http://www.garmin.com/xmlschemas/TripExtensions/v1" xmlns:adv="http://www.garmin.com/xmlschemas/AdventuresExtensions/v1" xmlns:prs="http://www.garmin.com/xmlschemas/PressureExtension/v1" xmlns:tmd="http://www.garmin.com/xmlschemas/TripMetaDataExtensions/v1" xmlns:vptm="http://www.garmin.com/xmlschemas/ViaPointTransportationModeExtensions/v1" xmlns:ctx="http://www.garmin.com/xmlschemas/CreationTimeExtension/v1" xmlns:gpxacc="http://www.garmin.com/xmlschemas/AccelerationExtension/v1" xmlns:gpxpx="http://www.garmin.com/xmlschemas/PowerExtension/v1" xmlns:vidx1="http://www.garmin.com/xmlschemas/VideoExtension/v1">

  <metadata>
    <link href="http://www.garmin.com">
      <text>Garmin International</text>
    </link>
    <time>2022-03-25T19:36:27Z</time>
    <bounds maxlat="-24.907599426805973" maxlon="30.809796592220664" minlat="-24.934039637446404" minlon="30.757165448740125" />
  </metadata>

  <trk>
    <name>[4] Bonnets Pass</name>
    <extensions>
      <gpxx:TrackExtension>
        <gpxx:DisplayColor>Blue</gpxx:DisplayColor>
      </gpxx:TrackExtension>
    </extensions>
    <trkseg>
      <trkpt lat="-24.907653490081429" lon="30.757165448740125">
        <ele>1274.3599999999999</ele>
        <time>2013-07-01T08:54:20Z</time>
      </trkpt>
      <trkpt lat="-24.907644102349877" lon="30.757214231416583">
        <ele>1273.8800000000001</ele>
        <time>2013-07-01T08:54:21Z</time>
      </trkpt>
      <trkpt lat="-24.907627841457725" lon="30.757259828969836">
        <ele>1273.8800000000001</ele>
        <time>2013-07-01T08:54:22Z</time>
      </trkpt>
      <trkpt lat="-24.907614011317492" lon="30.757298385724425">
        <ele>1273.8800000000001</ele>
        <time>2013-07-01T08:54:23Z</time>
      </trkpt>
      <trkpt lat="-24.907603869214654" lon="30.757329817861319">
        <ele>1273.8800000000001</ele>
        <time>2013-07-01T08:54:24Z</time>
      </trkpt>
      <trkpt lat="-24.907599426805973" lon="30.75735772959888">
        <ele>1273.4000000000001</ele>
        <time>2013-07-01T08:54:25Z</time>
      </trkpt>
      <trkpt lat="-24.907601270824671" lon="30.757391760125756">
        <ele>1273.4000000000001</ele>
        <time>2013-07-01T08:54:26Z</time>
      </trkpt>
      <trkpt lat="-24.907615603879094" lon="30.75743836350739">
        <ele>1273.8800000000001</ele>
        <time>2013-07-01T08:54:27Z</time>
      </trkpt>
      <trkpt lat="-24.9076481256634" lon="30.757494941353798">
        <ele>1273.8800000000001</ele>
        <time>2013-07-01T08:54:28Z</time>
      </trkpt>
      <trkpt lat="-24.907700344920158" lon="30.75755269266665">
        <ele>1273.8800000000001</ele>
        <time>2013-07-01T08:54:29Z</time>
      </trkpt>
      <trkpt lat="-24.907771339640021" lon="30.757604911923409">
        <ele>1273.8800000000001</ele>
        <time>2013-07-01T08:54:30Z</time>
      </trkpt>
      <trkpt lat="-24.907859349623322" lon="30.757650090381503">
        <ele>1274.3599999999999</ele>
        <time>2013-07-01T08:54:31Z</time>
      </trkpt>
      <trkpt lat="-24.90796085447073" lon="30.757694179192185">
        <ele>1274.3599999999999</ele>
        <time>2013-07-01T08:54:32Z</time>
      </trkpt>
      <trkpt lat="-24.908072669059038" lon="30.757739190012217">
        <ele>1274.8499999999999</ele>
        <time>2013-07-01T08:54:33Z</time>
      </trkpt>
      <trkpt lat="-24.909375216811895" lon="30.758404294028878">
        <ele>1281.5699999999999</ele>
        <time>2013-07-01T08:54:43Z</time>
      </trkpt>
      <trkpt lat="-24.911777218803763" lon="30.759958131238818">
        <ele>1310.9000000000001</ele>
        <time>2013-07-01T08:55:00Z</time>
      </trkpt>
      <trkpt lat="-24.91188651882112" lon="30.760072711855173">
        <ele>1313.3</ele>
        <time>2013-07-01T08:55:01Z</time>
      </trkpt>
      <trkpt lat="-24.911981485784054" lon="30.760192992165685">
        <ele>1315.22</ele>
        <time>2013-07-01T08:55:02Z</time>
      </trkpt>
      <trkpt lat="-24.912056000903249" lon="30.760319391265512">
        <ele>1317.1400000000001</ele>
        <time>2013-07-01T08:55:03Z</time>
      </trkpt>
      <trkpt lat="-24.912109645083547" lon="30.760452160611749">
        <ele>1319.0699999999999</ele>
        <time>2013-07-01T08:55:04Z</time>
      </trkpt>
      <trkpt lat="-24.912146860733628" lon="30.760588785633445">
        <ele>1320.99</ele>
        <time>2013-07-01T08:55:05Z</time>
      </trkpt>
      <trkpt lat="-24.912174018099904" lon="30.760728847235441">
        <ele>1322.9100000000001</ele>
        <time>2013-07-01T08:55:06Z</time>
      </trkpt>
      <trkpt lat="-24.912620354443789" lon="30.761841293424368">
        <ele>1333.49</ele>
        <time>2013-07-01T08:55:14Z</time>
      </trkpt>
      <trkpt lat="-24.91343499161303" lon="30.763106374070048">
        <ele>1339.25</ele>
        <time>2013-07-01T08:55:24Z</time>
      </trkpt>
      <trkpt lat="-24.913642695173621" lon="30.763468304648995">
        <ele>1340.22</ele>
        <time>2013-07-01T08:55:27Z</time>
      </trkpt>
      <trkpt lat="-24.913696171715856" lon="30.763608617708087">
        <ele>1340.22</ele>
        <time>2013-07-01T08:55:28Z</time>
      </trkpt>
      <trkpt lat="-24.913734812289476" lon="30.763754798099399">
        <ele>1340.22</ele>
        <time>2013-07-01T08:55:29Z</time>
      </trkpt>
      <trkpt lat="-24.913829946890473" lon="30.764144556596875">
        <ele>1342.1400000000001</ele>
        <time>2013-07-01T08:55:32Z</time>
      </trkpt>
      <trkpt lat="-24.913876634091139" lon="30.764245474711061">
        <ele>1342.6199999999999</ele>
        <time>2013-07-01T08:55:33Z</time>
      </trkpt>
      <trkpt lat="-24.91393581032753" lon="30.764337843284011">
        <ele>1343.5799999999999</ele>
        <time>2013-07-01T08:55:34Z</time>
      </trkpt>
      <trkpt lat="-24.91400764323771" lon="30.764425434172153">
        <ele>1344.0599999999999</ele>
        <time>2013-07-01T08:55:35Z</time>
      </trkpt>
      <trkpt lat="-24.914088025689125" lon="30.764511432498693">
        <ele>1344.54</ele>
        <time>2013-07-01T08:55:36Z</time>
      </trkpt>
      <trkpt lat="-24.914957396686077" lon="30.765224397182465">
        <ele>1348.3900000000001</ele>
        <time>2013-07-01T08:55:45Z</time>
      </trkpt>
      <trkpt lat="-24.915418149903417" lon="30.765423299744725">
        <ele>1349.3499999999999</ele>
        <time>2013-07-01T08:55:49Z</time>
      </trkpt>
      <trkpt lat="-24.915542956441641" lon="30.765444003045559">
        <ele>1349.3499999999999</ele>
        <time>2013-07-01T08:55:50Z</time>
      </trkpt>
      <trkpt lat="-24.915671451017261" lon="30.765447104349732">
        <ele>1349.8299999999999</ele>
        <time>2013-07-01T08:55:51Z</time>
      </trkpt>
      <trkpt lat="-24.915804052725434" lon="30.765432184562087">
        <ele>1349.8299999999999</ele>
        <time>2013-07-01T08:55:52Z</time>
      </trkpt>
      <trkpt lat="-24.915938246995211" lon="30.765405278652906">
        <ele>1350.3099999999999</ele>
        <time>2013-07-01T08:55:53Z</time>
      </trkpt>
      <trkpt lat="-24.916214346885681" lon="30.765349371358752">
        <ele>1350.3099999999999</ele>
        <time>2013-07-01T08:55:55Z</time>
      </trkpt>
      <trkpt lat="-24.916356923058629" lon="30.765341576188803">
        <ele>1350.3099999999999</ele>
        <time>2013-07-01T08:55:56Z</time>
      </trkpt>
      <trkpt lat="-24.917136104777455" lon="30.765422293916345">
        <ele>1352.71</ele>
        <time>2013-07-01T08:56:02Z</time>
      </trkpt>
      <trkpt lat="-24.91724532097578" lon="30.765465628355742">
        <ele>1353.1900000000001</ele>
        <time>2013-07-01T08:56:03Z</time>
      </trkpt>
      <trkpt lat="-24.917346155270934" lon="30.765534611418843">
        <ele>1353.1900000000001</ele>
        <time>2013-07-01T08:56:04Z</time>
      </trkpt>
      <trkpt lat="-24.917438104748726" lon="30.765624549239874">
        <ele>1353.6700000000001</ele>
        <time>2013-07-01T08:56:05Z</time>
      </trkpt>
      <trkpt lat="-24.917526785284281" lon="30.765726808458567">
        <ele>1353.6700000000001</ele>
        <time>2013-07-01T08:56:06Z</time>
      </trkpt>
      <trkpt lat="-24.918119637295604" lon="30.766364922747016">
        <ele>1355.1199999999999</ele>
        <time>2013-07-01T08:56:12Z</time>
      </trkpt>
      <trkpt lat="-24.918238911777735" lon="30.766452765092254">
        <ele>1356.0799999999999</ele>
        <time>2013-07-01T08:56:13Z</time>
      </trkpt>
      <trkpt lat="-24.918365562334657" lon="30.766527447849512">
        <ele>1356.5599999999999</ele>
        <time>2013-07-01T08:56:14Z</time>
      </trkpt>
      <trkpt lat="-24.918495984748006" lon="30.766589138656855">
        <ele>1357.52</ele>
        <time>2013-07-01T08:56:15Z</time>
      </trkpt>
      <trkpt lat="-24.918626574799418" lon="30.766642950475216">
        <ele>1358</ele>
        <time>2013-07-01T08:56:16Z</time>
      </trkpt>
      <trkpt lat="-24.918876020237803" lon="30.766763985157013">
        <ele>1359.4400000000001</ele>
        <time>2013-07-01T08:56:18Z</time>
      </trkpt>
      <trkpt lat="-24.918988589197397" lon="30.766843697056174">
        <ele>1359.4400000000001</ele>
        <time>2013-07-01T08:56:19Z</time>
      </trkpt>
      <trkpt lat="-24.919090764597058" lon="30.766935897991061">
        <ele>1359.4400000000001</ele>
        <time>2013-07-01T08:56:20Z</time>
      </trkpt>
      <trkpt lat="-24.919595187529922" lon="30.767455575987697">
        <ele>1358.48</ele>
        <time>2013-07-01T08:56:25Z</time>
      </trkpt>
      <trkpt lat="-24.919675486162305" lon="30.767572754994035">
        <ele>1358</ele>
        <time>2013-07-01T08:56:26Z</time>
      </trkpt>
      <trkpt lat="-24.919730722904205" lon="30.767704518511891">
        <ele>1357.52</ele>
        <time>2013-07-01T08:56:27Z</time>
      </trkpt>
      <trkpt lat="-24.919761484488845" lon="30.767845837399364">
        <ele>1358</ele>
        <time>2013-07-01T08:56:28Z</time>
      </trkpt>
      <trkpt lat="-24.919774560257792" lon="30.767990676686168">
        <ele>1358</ele>
        <time>2013-07-01T08:56:29Z</time>
      </trkpt>
      <trkpt lat="-24.91977640427649" lon="30.768138282001019">
        <ele>1358</ele>
        <time>2013-07-01T08:56:30Z</time>
      </trkpt>
      <trkpt lat="-24.919770369306207" lon="30.768287060782313">
        <ele>1358.48</ele>
        <time>2013-07-01T08:56:31Z</time>
      </trkpt>
      <trkpt lat="-24.91975930519402" lon="30.768436258658767">
        <ele>1358.48</ele>
        <time>2013-07-01T08:56:32Z</time>
      </trkpt>
      <trkpt lat="-24.91975880227983" lon="30.768733564764261">
        <ele>1358.96</ele>
        <time>2013-07-01T08:56:34Z</time>
      </trkpt>
      <trkpt lat="-24.919788055121899" lon="30.768873374909163">
        <ele>1359.4400000000001</ele>
        <time>2013-07-01T08:56:35Z</time>
      </trkpt>
      <trkpt lat="-24.919841028749943" lon="30.768999941647053">
        <ele>1359.9200000000001</ele>
        <time>2013-07-01T08:56:36Z</time>
      </trkpt>
      <trkpt lat="-24.919914286583662" lon="30.769108654931188">
        <ele>1360.8800000000001</ele>
        <time>2013-07-01T08:56:37Z</time>
      </trkpt>
      <trkpt lat="-24.920006152242422" lon="30.769197335466743">
        <ele>1361.3599999999999</ele>
        <time>2013-07-01T08:56:38Z</time>
      </trkpt>
      <trkpt lat="-24.92011352442205" lon="30.769261373206973">
        <ele>1362.3299999999999</ele>
        <time>2013-07-01T08:56:39Z</time>
      </trkpt>
      <trkpt lat="-24.9202317930758" lon="30.769303450360894">
        <ele>1362.8099999999999</ele>
        <time>2013-07-01T08:56:40Z</time>
      </trkpt>
      <trkpt lat="-24.920357521623373" lon="30.769329015165567">
        <ele>1363.77</ele>
        <time>2013-07-01T08:56:41Z</time>
      </trkpt>
      <trkpt lat="-24.920486602932215" lon="30.769351730123162">
        <ele>1364.73</ele>
        <time>2013-07-01T08:56:42Z</time>
      </trkpt>
      <trkpt lat="-24.920618366450071" lon="30.769383832812309">
        <ele>1365.6900000000001</ele>
        <time>2013-07-01T08:56:43Z</time>
      </trkpt>
      <trkpt lat="-24.920752309262753" lon="30.769429430365562">
        <ele>1366.6500000000001</ele>
        <time>2013-07-01T08:56:44Z</time>
      </trkpt>
      <trkpt lat="-24.921413222327828" lon="30.76969220302999">
        <ele>1369.54</ele>
        <time>2013-07-01T08:56:49Z</time>
      </trkpt>
      <trkpt lat="-24.921545069664717" lon="30.769715504720807">
        <ele>1370.02</ele>
        <time>2013-07-01T08:56:50Z</time>
      </trkpt>
      <trkpt lat="-24.921677587553859" lon="30.769714415073395">
        <ele>1370.5</ele>
        <time>2013-07-01T08:56:51Z</time>
      </trkpt>
      <trkpt lat="-24.921807339414954" lon="30.769690945744514">
        <ele>1371.46</ele>
        <time>2013-07-01T08:56:52Z</time>
      </trkpt>
      <trkpt lat="-24.921934409067035" lon="30.769659848883748">
        <ele>1371.9400000000001</ele>
        <time>2013-07-01T08:56:53Z</time>
      </trkpt>
      <trkpt lat="-24.922061143442988" lon="30.769637301564217">
        <ele>1372.9000000000001</ele>
        <time>2013-07-01T08:56:54Z</time>
      </trkpt>
      <trkpt lat="-24.922188967466354" lon="30.769628332927823">
        <ele>1373.8599999999999</ele>
        <time>2013-07-01T08:56:55Z</time>
      </trkpt>
      <trkpt lat="-24.922317881137133" lon="30.769630679860711">
        <ele>1374.8199999999999</ele>
        <time>2013-07-01T08:56:56Z</time>
      </trkpt>
      <trkpt lat="-24.923608526587486" lon="30.769942738115788">
        <ele>1380.5899999999999</ele>
        <time>2013-07-01T08:57:05Z</time>
      </trkpt>
      <trkpt lat="-24.924689875915647" lon="30.770287318155169">
        <ele>1384.4400000000001</ele>
        <time>2013-07-01T08:57:12Z</time>
      </trkpt>
      <trkpt lat="-24.926076997071505" lon="30.770441545173526">
        <ele>1391.1700000000001</ele>
        <time>2013-07-01T08:57:22Z</time>
      </trkpt>
      <trkpt lat="-24.926190236583352" lon="30.770498290657997">
        <ele>1392.1300000000001</ele>
        <time>2013-07-01T08:57:23Z</time>
      </trkpt>
      <trkpt lat="-24.92630205117166" lon="30.770577332004905">
        <ele>1392.6099999999999</ele>
        <time>2013-07-01T08:57:24Z</time>
      </trkpt>
      <trkpt lat="-24.926409171894193" lon="30.770675651729107">
        <ele>1393.0899999999999</ele>
        <time>2013-07-01T08:57:25Z</time>
      </trkpt>
      <trkpt lat="-24.926509167999029" lon="30.770792495459318">
        <ele>1393.5699999999999</ele>
        <time>2013-07-01T08:57:26Z</time>
      </trkpt>
      <trkpt lat="-24.926596507430077" lon="30.770923839882016">
        <ele>1394.05</ele>
        <time>2013-07-01T08:57:27Z</time>
      </trkpt>
      <trkpt lat="-24.926663311198354" lon="30.771066164597869">
        <ele>1394.53</ele>
        <time>2013-07-01T08:57:28Z</time>
      </trkpt>
      <trkpt lat="-24.926703376695514" lon="30.771216871216893">
        <ele>1395.49</ele>
        <time>2013-07-01T08:57:29Z</time>
      </trkpt>
      <trkpt lat="-24.926725756376982" lon="30.771368835121393">
        <ele>1396.45</ele>
        <time>2013-07-01T08:57:30Z</time>
      </trkpt>
      <trkpt lat="-24.926747465506196" lon="30.771506801247597">
        <ele>1397.8900000000001</ele>
        <time>2013-07-01T08:57:31Z</time>
      </trkpt>
      <trkpt lat="-24.926786525174975" lon="30.771622974425554">
        <ele>1398.8599999999999</ele>
        <time>2013-07-01T08:57:32Z</time>
      </trkpt>
      <trkpt lat="-24.926848215982318" lon="30.771722048521042">
        <ele>1399.8199999999999</ele>
        <time>2013-07-01T08:57:33Z</time>
      </trkpt>
      <trkpt lat="-24.926928598433733" lon="30.771812321618199">
        <ele>1401.26</ele>
        <time>2013-07-01T08:57:34Z</time>
      </trkpt>
      <trkpt lat="-24.927019458264112" lon="30.771903013810515">
        <ele>1402.7</ele>
        <time>2013-07-01T08:57:35Z</time>
      </trkpt>
      <trkpt lat="-24.927676180377603" lon="30.772781185805798">
        <ele>1412.79</ele>
        <time>2013-07-01T08:57:42Z</time>
      </trkpt>
      <trkpt lat="-24.927866952493787" lon="30.773032642900944">
        <ele>1416.1600000000001</ele>
        <time>2013-07-01T08:57:44Z</time>
      </trkpt>
      <trkpt lat="-24.927972732111812" lon="30.773135656490922">
        <ele>1418.0799999999999</ele>
        <time>2013-07-01T08:57:45Z</time>
      </trkpt>
      <trkpt lat="-24.928284035995603" lon="30.773408487439156">
        <ele>1424.3299999999999</ele>
        <time>2013-07-01T08:57:48Z</time>
      </trkpt>
      <trkpt lat="-24.928348241373897" lon="30.773507645353675">
        <ele>1425.77</ele>
        <time>2013-07-01T08:57:49Z</time>
      </trkpt>
      <trkpt lat="-24.928386127576232" lon="30.773616190999746">
        <ele>1427.21</ele>
        <time>2013-07-01T08:57:50Z</time>
      </trkpt>
      <trkpt lat="-24.92839777842164" lon="30.773733453825116">
        <ele>1428.6600000000001</ele>
        <time>2013-07-01T08:57:51Z</time>
      </trkpt>
      <trkpt lat="-24.928380260244012" lon="30.773855745792389">
        <ele>1430.0999999999999</ele>
        <time>2013-07-01T08:57:52Z</time>
      </trkpt>
      <trkpt lat="-24.928333908319473" lon="30.773977870121598">
        <ele>1431.0599999999999</ele>
        <time>2013-07-01T08:57:53Z</time>
      </trkpt>
      <trkpt lat="-24.928264338523149" lon="30.77409471385181">
        <ele>1432.5</ele>
        <time>2013-07-01T08:57:54Z</time>
      </trkpt>
      <trkpt lat="-24.928183369338512" lon="30.774208959192038">
        <ele>1433.9400000000001</ele>
        <time>2013-07-01T08:57:55Z</time>
      </trkpt>
      <trkpt lat="-24.92811094969511" lon="30.774333514273167">
        <ele>1434.9100000000001</ele>
        <time>2013-07-01T08:57:56Z</time>
      </trkpt>
      <trkpt lat="-24.928063927218318" lon="30.774471731856465">
        <ele>1436.3499999999999</ele>
        <time>2013-07-01T08:57:57Z</time>
      </trkpt>
      <trkpt lat="-24.928046576678753" lon="30.774619085714221">
        <ele>1437.3099999999999</ele>
        <time>2013-07-01T08:57:58Z</time>
      </trkpt>
      <trkpt lat="-24.928054120391607" lon="30.774769205600023">
        <ele>1438.75</ele>
        <time>2013-07-01T08:57:59Z</time>
      </trkpt>
      <trkpt lat="-24.928079517558217" lon="30.77491614036262">
        <ele>1439.71</ele>
        <time>2013-07-01T08:58:00Z</time>
      </trkpt>
      <trkpt lat="-24.928125450387597" lon="30.775055615231395">
        <ele>1441.1500000000001</ele>
        <time>2013-07-01T08:58:01Z</time>
      </trkpt>
      <trkpt lat="-24.928194265812635" lon="30.775183439254761">
        <ele>1442.1099999999999</ele>
        <time>2013-07-01T08:58:02Z</time>
      </trkpt>
      <trkpt lat="-24.928281437605619" lon="30.77530019916594">
        <ele>1443.5599999999999</ele>
        <time>2013-07-01T08:58:03Z</time>
      </trkpt>
      <trkpt lat="-24.928371543064713" lon="30.775415701791644">
        <ele>1445</ele>
        <time>2013-07-01T08:58:04Z</time>
      </trkpt>
      <trkpt lat="-24.92852384224534" lon="30.775655759498477">
        <ele>1447.4000000000001</ele>
        <time>2013-07-01T08:58:06Z</time>
      </trkpt>
      <trkpt lat="-24.928566170856357" lon="30.775773944333196">
        <ele>1448.3599999999999</ele>
        <time>2013-07-01T08:58:07Z</time>
      </trkpt>
      <trkpt lat="-24.928580671548843" lon="30.775891039520502">
        <ele>1448.8399999999999</ele>
        <time>2013-07-01T08:58:08Z</time>
      </trkpt>
      <trkpt lat="-24.928562985733151" lon="30.776003776118159">
        <ele>1449.3199999999999</ele>
        <time>2013-07-01T08:58:09Z</time>
      </trkpt>
      <trkpt lat="-24.928514119237661" lon="30.776104358956218">
        <ele>1449.3199999999999</ele>
        <time>2013-07-01T08:58:10Z</time>
      </trkpt>
      <trkpt lat="-24.928441867232323" lon="30.776187591254711">
        <ele>1449.3199999999999</ele>
        <time>2013-07-01T08:58:11Z</time>
      </trkpt>
      <trkpt lat="-24.928351258859038" lon="30.776257328689098">
        <ele>1449.8099999999999</ele>
        <time>2013-07-01T08:58:12Z</time>
      </trkpt>
      <trkpt lat="-24.928256459534168" lon="30.77632530592382">
        <ele>1450.29</ele>
        <time>2013-07-01T08:58:13Z</time>
      </trkpt>
      <trkpt lat="-24.928168784826994" lon="30.7764040119946">
        <ele>1450.29</ele>
        <time>2013-07-01T08:58:14Z</time>
      </trkpt>
      <trkpt lat="-24.928096365183592" lon="30.776499649509788">
        <ele>1451.25</ele>
        <time>2013-07-01T08:58:15Z</time>
      </trkpt>
      <trkpt lat="-24.92804154753685" lon="30.776612218469381">
        <ele>1451.25</ele>
        <time>2013-07-01T08:58:16Z</time>
      </trkpt>
      <trkpt lat="-24.928002236410975" lon="30.77673627063632">
        <ele>1451.73</ele>
        <time>2013-07-01T08:58:17Z</time>
      </trkpt>
      <trkpt lat="-24.927976755425334" lon="30.776870967820287">
        <ele>1452.21</ele>
        <time>2013-07-01T08:58:18Z</time>
      </trkpt>
      <trkpt lat="-24.927968457341194" lon="30.777017818763852">
        <ele>1453.1700000000001</ele>
        <time>2013-07-01T08:58:19Z</time>
      </trkpt>
      <trkpt lat="-24.927978431805968" lon="30.777174811810255">
        <ele>1453.6500000000001</ele>
        <time>2013-07-01T08:58:20Z</time>
      </trkpt>
      <trkpt lat="-24.928003745153546" lon="30.777336750179529">
        <ele>1455.0899999999999</ele>
        <time>2013-07-01T08:58:21Z</time>
      </trkpt>
      <trkpt lat="-24.928037691861391" lon="30.777505226433277">
        <ele>1456.53</ele>
        <time>2013-07-01T08:58:22Z</time>
      </trkpt>
      <trkpt lat="-24.928202563896775" lon="30.778339393436909">
        <ele>1464.71</ele>
        <time>2013-07-01T08:58:27Z</time>
      </trkpt>
      <trkpt lat="-24.928206084296107" lon="30.778489597141743">
        <ele>1466.6300000000001</ele>
        <time>2013-07-01T08:58:28Z</time>
      </trkpt>
      <trkpt lat="-24.928193679079413" lon="30.778633346781135">
        <ele>1468.0699999999999</ele>
        <time>2013-07-01T08:58:29Z</time>
      </trkpt>
      <trkpt lat="-24.928169120103121" lon="30.778771648183465">
        <ele>1469.51</ele>
        <time>2013-07-01T08:58:30Z</time>
      </trkpt>
      <trkpt lat="-24.928137268871069" lon="30.778906596824527">
        <ele>1471.4400000000001</ele>
        <time>2013-07-01T08:58:31Z</time>
      </trkpt>
      <trkpt lat="-24.928008774295449" lon="30.779440104961395">
        <ele>1477.6800000000001</ele>
        <time>2013-07-01T08:58:35Z</time>
      </trkpt>
      <trkpt lat="-24.928000057116151" lon="30.77958301641047">
        <ele>1479.1300000000001</ele>
        <time>2013-07-01T08:58:36Z</time>
      </trkpt>
      <trkpt lat="-24.928009109571576" lon="30.779727520421147">
        <ele>1481.05</ele>
        <time>2013-07-01T08:58:37Z</time>
      </trkpt>
      <trkpt lat="-24.928035764023662" lon="30.779873616993427">
        <ele>1482.49</ele>
        <time>2013-07-01T08:58:38Z</time>
      </trkpt>
      <trkpt lat="-24.92807331494987" lon="30.780022395774722">
        <ele>1483.9300000000001</ele>
        <time>2013-07-01T08:58:39Z</time>
      </trkpt>
      <trkpt lat="-24.928115559741855" lon="30.780173353850842">
        <ele>1485.3699999999999</ele>
        <time>2013-07-01T08:58:40Z</time>
      </trkpt>
      <trkpt lat="-24.92862987332046" lon="30.782066490501165">
        <ele>1506.04</ele>
        <time>2013-07-01T08:58:52Z</time>
      </trkpt>
      <trkpt lat="-24.928647475317121" lon="30.782225327566266">
        <ele>1507.48</ele>
        <time>2013-07-01T08:58:53Z</time>
      </trkpt>
      <trkpt lat="-24.928669687360525" lon="30.78299704939127">
        <ele>1510.3699999999999</ele>
        <time>2013-07-01T08:58:58Z</time>
      </trkpt>
      <trkpt lat="-24.928649654611945" lon="30.783130154013634">
        <ele>1510.3699999999999</ele>
        <time>2013-07-01T08:58:59Z</time>
      </trkpt>
      <trkpt lat="-24.928607577458024" lon="30.783254625275731">
        <ele>1510.3699999999999</ele>
        <time>2013-07-01T08:59:00Z</time>
      </trkpt>
      <trkpt lat="-24.928545048460364" lon="30.783373564481735">
        <ele>1510.3699999999999</ele>
        <time>2013-07-01T08:59:01Z</time>
      </trkpt>
      <trkpt lat="-24.92846961133182" lon="30.783489402383566">
        <ele>1510.8499999999999</ele>
        <time>2013-07-01T08:59:02Z</time>
      </trkpt>
      <trkpt lat="-24.927661092951894" lon="30.78485045582056">
        <ele>1519.98</ele>
        <time>2013-07-01T08:59:14Z</time>
      </trkpt>
      <trkpt lat="-24.927363619208336" lon="30.785463843494654">
        <ele>1526.71</ele>
        <time>2013-07-01T08:59:24Z</time>
      </trkpt>
      <trkpt lat="-24.92724166251719" lon="30.785758383572102">
        <ele>1529.5899999999999</ele>
        <time>2013-07-01T08:59:29Z</time>
      </trkpt>
      <trkpt lat="-24.927231939509511" lon="30.785822756588459">
        <ele>1530.0799999999999</ele>
        <time>2013-07-01T08:59:30Z</time>
      </trkpt>
      <trkpt lat="-24.927231101319194" lon="30.785891991108656">
        <ele>1530.5599999999999</ele>
        <time>2013-07-01T08:59:31Z</time>
      </trkpt>
      <trkpt lat="-24.927240656688809" lon="30.785960806533694">
        <ele>1531.04</ele>
        <time>2013-07-01T08:59:32Z</time>
      </trkpt>
      <trkpt lat="-24.927256582304835" lon="30.786022916436195">
        <ele>1531.52</ele>
        <time>2013-07-01T08:59:33Z</time>
      </trkpt>
      <trkpt lat="-24.927286840975285" lon="30.786128947511315">
        <ele>1532</ele>
        <time>2013-07-01T08:59:35Z</time>
      </trkpt>
      <trkpt lat="-24.927306873723865" lon="30.78617949038744">
        <ele>1532.48</ele>
        <time>2013-07-01T08:59:36Z</time>
      </trkpt>
      <trkpt lat="-24.927587248384953" lon="30.786879798397422">
        <ele>1536.3199999999999</ele>
        <time>2013-07-01T08:59:47Z</time>
      </trkpt>
      <trkpt lat="-24.927599988877773" lon="30.786962108686566">
        <ele>1536.8</ele>
        <time>2013-07-01T08:59:48Z</time>
      </trkpt>
      <trkpt lat="-24.927604012191296" lon="30.78704877756536">
        <ele>1537.29</ele>
        <time>2013-07-01T08:59:49Z</time>
      </trkpt>
      <trkpt lat="-24.927600407972932" lon="30.787135697901249">
        <ele>1537.77</ele>
        <time>2013-07-01T08:59:50Z</time>
      </trkpt>
      <trkpt lat="-24.927590852603316" lon="30.787218427285552">
        <ele>1538.25</ele>
        <time>2013-07-01T08:59:51Z</time>
      </trkpt>
      <trkpt lat="-24.927579537034035" lon="30.787290427833796">
        <ele>1538.73</ele>
        <time>2013-07-01T08:59:52Z</time>
      </trkpt>
      <trkpt lat="-24.927532430738211" lon="30.787556301802397">
        <ele>1541.6099999999999</ele>
        <time>2013-07-01T08:59:57Z</time>
      </trkpt>
      <trkpt lat="-24.927529077976942" lon="30.787614556029439">
        <ele>1542.5699999999999</ele>
        <time>2013-07-01T08:59:58Z</time>
      </trkpt>
      <trkpt lat="-24.927546847611666" lon="30.788374291732907">
        <ele>1548.3399999999999</ele>
        <time>2013-07-01T09:00:10Z</time>
      </trkpt>
      <trkpt lat="-24.927593283355236" lon="30.78886840492487">
        <ele>1550.26</ele>
        <time>2013-07-01T09:00:20Z</time>
      </trkpt>
      <trkpt lat="-24.927606945857406" lon="30.788926407694817">
        <ele>1550.74</ele>
        <time>2013-07-01T09:00:21Z</time>
      </trkpt>
      <trkpt lat="-24.927629828453064" lon="30.788986841216683">
        <ele>1551.22</ele>
        <time>2013-07-01T09:00:22Z</time>
      </trkpt>
      <trkpt lat="-24.927661260589957" lon="30.789049118757248">
        <ele>1551.22</ele>
        <time>2013-07-01T09:00:23Z</time>
      </trkpt>
      <trkpt lat="-24.927702499553561" lon="30.789109133183956">
        <ele>1551.22</ele>
        <time>2013-07-01T09:00:24Z</time>
      </trkpt>
      <trkpt lat="-24.92775178514421" lon="30.78915917314589">
        <ele>1551.71</ele>
        <time>2013-07-01T09:00:25Z</time>
      </trkpt>
      <trkpt lat="-24.927800819277763" lon="30.789195718243718">
        <ele>1552.1900000000001</ele>
        <time>2013-07-01T09:00:26Z</time>
      </trkpt>
      <trkpt lat="-24.927845913916826" lon="30.789221785962582">
        <ele>1552.1900000000001</ele>
        <time>2013-07-01T09:00:27Z</time>
      </trkpt>
      <trkpt lat="-24.927887488156557" lon="30.789241651073098">
        <ele>1552.6700000000001</ele>
        <time>2013-07-01T09:00:28Z</time>
      </trkpt>
      <trkpt lat="-24.927929230034351" lon="30.789258247241378">
        <ele>1552.6700000000001</ele>
        <time>2013-07-01T09:00:29Z</time>
      </trkpt>
      <trkpt lat="-24.927976168692112" lon="30.789273418486118">
        <ele>1553.1500000000001</ele>
        <time>2013-07-01T09:00:30Z</time>
      </trkpt>
      <trkpt lat="-24.928233828395605" lon="30.789353046566248">
        <ele>1555.0699999999999</ele>
        <time>2013-07-01T09:00:34Z</time>
      </trkpt>
      <trkpt lat="-24.928292585536838" lon="30.789393531158566">
        <ele>1555.55</ele>
        <time>2013-07-01T09:00:35Z</time>
      </trkpt>
      <trkpt lat="-24.928623335435987" lon="30.789750348776579">
        <ele>1558.9200000000001</ele>
        <time>2013-07-01T09:00:42Z</time>
      </trkpt>
      <trkpt lat="-24.928662059828639" lon="30.789817487820983">
        <ele>1559.4000000000001</ele>
        <time>2013-07-01T09:00:43Z</time>
      </trkpt>
      <trkpt lat="-24.928743280470371" lon="30.790008762851357">
        <ele>1560.3599999999999</ele>
        <time>2013-07-01T09:00:46Z</time>
      </trkpt>
      <trkpt lat="-24.928756859153509" lon="30.790067268535495">
        <ele>1560.8399999999999</ele>
        <time>2013-07-01T09:00:47Z</time>
      </trkpt>
      <trkpt lat="-24.928761469200253" lon="30.790129881352186">
        <ele>1561.3199999999999</ele>
        <time>2013-07-01T09:00:48Z</time>
      </trkpt>
      <trkpt lat="-24.928753171116114" lon="30.7901965174824">
        <ele>1561.3199999999999</ele>
        <time>2013-07-01T09:00:49Z</time>
      </trkpt>
      <trkpt lat="-24.92873003706336" lon="30.79026491381228">
        <ele>1561.8</ele>
        <time>2013-07-01T09:00:50Z</time>
      </trkpt>
      <trkpt lat="-24.928690055385232" lon="30.790328029543161">
        <ele>1561.8</ele>
        <time>2013-07-01T09:00:51Z</time>
      </trkpt>
      <trkpt lat="-24.928634986281395" lon="30.790382260456681">
        <ele>1561.8</ele>
        <time>2013-07-01T09:00:52Z</time>
      </trkpt>
      <trkpt lat="-24.928568350151181" lon="30.790426768362522">
        <ele>1562.28</ele>
        <time>2013-07-01T09:00:53Z</time>
      </trkpt>
      <trkpt lat="-24.928497523069382" lon="30.790468007326126">
        <ele>1562.76</ele>
        <time>2013-07-01T09:00:54Z</time>
      </trkpt>
      <trkpt lat="-24.928429210558534" lon="30.790517292916775">
        <ele>1562.76</ele>
        <time>2013-07-01T09:00:55Z</time>
      </trkpt>
      <trkpt lat="-24.928370034322143" lon="30.79058107919991">
        <ele>1563.24</ele>
        <time>2013-07-01T09:00:56Z</time>
      </trkpt>
      <trkpt lat="-24.928327621892095" lon="30.79066121019423">
        <ele>1563.24</ele>
        <time>2013-07-01T09:00:57Z</time>
      </trkpt>
      <trkpt lat="-24.928303901106119" lon="30.790755925700068">
        <ele>1563.24</ele>
        <time>2013-07-01T09:00:58Z</time>
      </trkpt>
      <trkpt lat="-24.928300715982914" lon="30.790863800793886">
        <ele>1563.72</ele>
        <time>2013-07-01T09:00:59Z</time>
      </trkpt>
      <trkpt lat="-24.928311025723815" lon="30.790977375581861">
        <ele>1563.72</ele>
        <time>2013-07-01T09:01:00Z</time>
      </trkpt>
      <trkpt lat="-24.928328208625317" lon="30.791092878207564">
        <ele>1563.72</ele>
        <time>2013-07-01T09:01:01Z</time>
      </trkpt>
      <trkpt lat="-24.928412782028317" lon="30.791488252580166">
        <ele>1563.72</ele>
        <time>2013-07-01T09:01:05Z</time>
      </trkpt>
      <trkpt lat="-24.928450584411621" lon="30.79157198779285">
        <ele>1563.72</ele>
        <time>2013-07-01T09:01:06Z</time>
      </trkpt>
      <trkpt lat="-24.928498696535826" lon="30.79165262170136">
        <ele>1563.72</ele>
        <time>2013-07-01T09:01:07Z</time>
      </trkpt>
      <trkpt lat="-24.928604476153851" lon="30.791815482079983">
        <ele>1564.2</ele>
        <time>2013-07-01T09:01:09Z</time>
      </trkpt>
      <trkpt lat="-24.928642278537154" lon="30.791910029947758">
        <ele>1564.2</ele>
        <time>2013-07-01T09:01:10Z</time>
      </trkpt>
      <trkpt lat="-24.928663400933146" lon="30.792011702433228">
        <ele>1564.2</ele>
        <time>2013-07-01T09:01:11Z</time>
      </trkpt>
      <trkpt lat="-24.928668010979891" lon="30.792118487879634">
        <ele>1564.2</ele>
        <time>2013-07-01T09:01:12Z</time>
      </trkpt>
      <trkpt lat="-24.92866013199091" lon="30.792225357145071">
        <ele>1564.2</ele>
        <time>2013-07-01T09:01:13Z</time>
      </trkpt>
      <trkpt lat="-24.928646301850677" lon="30.792331974953413">
        <ele>1564.2</ele>
        <time>2013-07-01T09:01:14Z</time>
      </trkpt>
      <trkpt lat="-24.928615959361196" lon="30.792638165876269">
        <ele>1564.2</ele>
        <time>2013-07-01T09:01:17Z</time>
      </trkpt>
      <trkpt lat="-24.928625179454684" lon="30.792736820876598">
        <ele>1564.2</ele>
        <time>2013-07-01T09:01:18Z</time>
      </trkpt>
      <trkpt lat="-24.928648145869374" lon="30.79283757135272">
        <ele>1563.72</ele>
        <time>2013-07-01T09:01:19Z</time>
      </trkpt>
      <trkpt lat="-24.928688798099756" lon="30.79293823800981">
        <ele>1563.72</ele>
        <time>2013-07-01T09:01:20Z</time>
      </trkpt>
      <trkpt lat="-24.928743783384562" lon="30.793038653209805">
        <ele>1563.72</ele>
        <time>2013-07-01T09:01:21Z</time>
      </trkpt>
      <trkpt lat="-24.928808156400919" lon="30.793135883286595">
        <ele>1563.72</ele>
        <time>2013-07-01T09:01:22Z</time>
      </trkpt>
      <trkpt lat="-24.928875546902418" lon="30.793231101706624">
        <ele>1563.72</ele>
        <time>2013-07-01T09:01:23Z</time>
      </trkpt>
      <trkpt lat="-24.929141504690051" lon="30.793565204367042">
        <ele>1565.1600000000001</ele>
        <time>2013-07-01T09:01:27Z</time>
      </trkpt>
      <trkpt lat="-24.929209901019931" lon="30.793627901002765">
        <ele>1565.6400000000001</ele>
        <time>2013-07-01T09:01:28Z</time>
      </trkpt>
      <trkpt lat="-24.92928265593946" lon="30.793678946793079">
        <ele>1566.6099999999999</ele>
        <time>2013-07-01T09:01:29Z</time>
      </trkpt>
      <trkpt lat="-24.929359182715416" lon="30.793720353394747">
        <ele>1567.0899999999999</ele>
        <time>2013-07-01T09:01:30Z</time>
      </trkpt>
      <trkpt lat="-24.929435877129436" lon="30.793752204626799">
        <ele>1567.5699999999999</ele>
        <time>2013-07-01T09:01:31Z</time>
      </trkpt>
      <trkpt lat="-24.929509470239282" lon="30.793771147727966">
        <ele>1568.53</ele>
        <time>2013-07-01T09:01:32Z</time>
      </trkpt>
      <trkpt lat="-24.929585494101048" lon="30.793774919584394">
        <ele>1569.01</ele>
        <time>2013-07-01T09:01:33Z</time>
      </trkpt>
      <trkpt lat="-24.929673420265317" lon="30.793764777481556">
        <ele>1569.97</ele>
        <time>2013-07-01T09:01:34Z</time>
      </trkpt>
      <trkpt lat="-24.929778948426247" lon="30.793742397800088">
        <ele>1570.45</ele>
        <time>2013-07-01T09:01:35Z</time>
      </trkpt>
      <trkpt lat="-24.930691989138722" lon="30.793485995382071">
        <ele>1577.6600000000001</ele>
        <time>2013-07-01T09:01:41Z</time>
      </trkpt>
      <trkpt lat="-24.931081747636199" lon="30.793389016762376">
        <ele>1581.51</ele>
        <time>2013-07-01T09:01:44Z</time>
      </trkpt>
      <trkpt lat="-24.931184174492955" lon="30.793400667607784">
        <ele>1582.47</ele>
        <time>2013-07-01T09:01:45Z</time>
      </trkpt>
      <trkpt lat="-24.931279476732016" lon="30.793441738933325">
        <ele>1583.4300000000001</ele>
        <time>2013-07-01T09:01:46Z</time>
      </trkpt>
      <trkpt lat="-24.931365558877587" lon="30.793510554358363">
        <ele>1584.3900000000001</ele>
        <time>2013-07-01T09:01:47Z</time>
      </trkpt>
      <trkpt lat="-24.931440576910973" lon="30.793600995093584">
        <ele>1585.3499999999999</ele>
        <time>2013-07-01T09:01:48Z</time>
      </trkpt>
      <trkpt lat="-24.931516936048865" lon="30.793696297332644">
        <ele>1586.3099999999999</ele>
        <time>2013-07-01T09:01:49Z</time>
      </trkpt>
      <trkpt lat="-24.931607963517308" lon="30.793775757774711">
        <ele>1586.79</ele>
        <time>2013-07-01T09:01:50Z</time>
      </trkpt>
      <trkpt lat="-24.931716676801443" lon="30.793827725574374">
        <ele>1587.27</ele>
        <time>2013-07-01T09:01:51Z</time>
      </trkpt>
      <trkpt lat="-24.931837040930986" lon="30.793852619826794">
        <ele>1587.75</ele>
        <time>2013-07-01T09:01:52Z</time>
      </trkpt>
      <trkpt lat="-24.931965619325638" lon="30.793853541836143">
        <ele>1588.24</ele>
        <time>2013-07-01T09:01:53Z</time>
      </trkpt>
      <trkpt lat="-24.932099645957351" lon="30.793839963153005">
        <ele>1588.24</ele>
        <time>2013-07-01T09:01:54Z</time>
      </trkpt>
      <trkpt lat="-24.932232331484556" lon="30.793827138841152">
        <ele>1588.24</ele>
        <time>2013-07-01T09:01:55Z</time>
      </trkpt>
      <trkpt lat="-24.932352108880877" lon="30.793833257630467">
        <ele>1588.72</ele>
        <time>2013-07-01T09:01:56Z</time>
      </trkpt>
      <trkpt lat="-24.932451769709587" lon="30.793867874890566">
        <ele>1589.2</ele>
        <time>2013-07-01T09:01:57Z</time>
      </trkpt>
      <trkpt lat="-24.932525781914592" lon="30.793928056955338">
        <ele>1590.1600000000001</ele>
        <time>2013-07-01T09:01:58Z</time>
      </trkpt>
      <trkpt lat="-24.932571798563004" lon="30.794006930664182">
        <ele>1590.6400000000001</ele>
        <time>2013-07-01T09:01:59Z</time>
      </trkpt>
      <trkpt lat="-24.932589987292886" lon="30.794100472703576">
        <ele>1591.1199999999999</ele>
        <time>2013-07-01T09:02:00Z</time>
      </trkpt>
      <trkpt lat="-24.932584539055824" lon="30.794206671416759">
        <ele>1592.0799999999999</ele>
        <time>2013-07-01T09:02:01Z</time>
      </trkpt>
      <trkpt lat="-24.932563919574022" lon="30.794322593137622">
        <ele>1592.5599999999999</ele>
        <time>2013-07-01T09:02:02Z</time>
      </trkpt>
      <trkpt lat="-24.932535253465176" lon="30.794450333341956">
        <ele>1593.04</ele>
        <time>2013-07-01T09:02:03Z</time>
      </trkpt>
      <trkpt lat="-24.932414386421442" lon="30.795209817588329">
        <ele>1593.52</ele>
        <time>2013-07-01T09:02:08Z</time>
      </trkpt>
      <trkpt lat="-24.932424696162343" lon="30.79536815173924">
        <ele>1594</ele>
        <time>2013-07-01T09:02:09Z</time>
      </trkpt>
      <trkpt lat="-24.932452104985714" lon="30.795524809509516">
        <ele>1594</ele>
        <time>2013-07-01T09:02:10Z</time>
      </trkpt>
      <trkpt lat="-24.932496277615428" lon="30.795673253014684">
        <ele>1594</ele>
        <time>2013-07-01T09:02:11Z</time>
      </trkpt>
      <trkpt lat="-24.932558722794056" lon="30.795804597437382">
        <ele>1594.48</ele>
        <time>2013-07-01T09:02:12Z</time>
      </trkpt>
      <trkpt lat="-24.932639021426439" lon="30.795915322378278">
        <ele>1594.48</ele>
        <time>2013-07-01T09:02:13Z</time>
      </trkpt>
      <trkpt lat="-24.932737005874515" lon="30.796005008742213">
        <ele>1594.96</ele>
        <time>2013-07-01T09:02:14Z</time>
      </trkpt>
      <trkpt lat="-24.932850580662489" lon="30.796076841652393">
        <ele>1595.45</ele>
        <time>2013-07-01T09:02:15Z</time>
      </trkpt>
      <trkpt lat="-24.93297572247684" lon="30.796139370650053">
        <ele>1595.9300000000001</ele>
        <time>2013-07-01T09:02:16Z</time>
      </trkpt>
      <trkpt lat="-24.933942491188645" lon="30.796680673956871">
        <ele>1601.21</ele>
        <time>2013-07-01T09:02:24Z</time>
      </trkpt>
      <trkpt lat="-24.934002673253417" lon="30.796761391684413">
        <ele>1602.1700000000001</ele>
        <time>2013-07-01T09:02:25Z</time>
      </trkpt>
      <trkpt lat="-24.934034692123532" lon="30.796853760257363">
        <ele>1603.1400000000001</ele>
        <time>2013-07-01T09:02:26Z</time>
      </trkpt>
      <trkpt lat="-24.934039637446404" lon="30.796955432742834">
        <ele>1604.0999999999999</ele>
        <time>2013-07-01T09:02:27Z</time>
      </trkpt>
      <trkpt lat="-24.934018682688475" lon="30.797061296179891">
        <ele>1605.0599999999999</ele>
        <time>2013-07-01T09:02:28Z</time>
      </trkpt>
      <trkpt lat="-24.933972498401999" lon="30.797168919816613">
        <ele>1606.02</ele>
        <time>2013-07-01T09:02:29Z</time>
      </trkpt>
      <trkpt lat="-24.933909131214023" lon="30.797279141843319">
        <ele>1607.46</ele>
        <time>2013-07-01T09:02:30Z</time>
      </trkpt>
      <trkpt lat="-24.933832352980971" lon="30.797392297536135">
        <ele>1608.4200000000001</ele>
        <time>2013-07-01T09:02:31Z</time>
      </trkpt>
      <trkpt lat="-24.933744929730892" lon="30.797508219256997">
        <ele>1609.8599999999999</ele>
        <time>2013-07-01T09:02:32Z</time>
      </trkpt>
      <trkpt lat="-24.933646693825722" lon="30.797622799873352">
        <ele>1611.3099999999999</ele>
        <time>2013-07-01T09:02:33Z</time>
      </trkpt>
      <trkpt lat="-24.933444522321224" lon="30.797840394079685">
        <ele>1614.1900000000001</ele>
        <time>2013-07-01T09:02:35Z</time>
      </trkpt>
      <trkpt lat="-24.933369839563966" lon="30.797951621934772">
        <ele>1616.1099999999999</ele>
        <time>2013-07-01T09:02:36Z</time>
      </trkpt>
      <trkpt lat="-24.933320805430412" lon="30.798064861446619">
        <ele>1617.5599999999999</ele>
        <time>2013-07-01T09:02:37Z</time>
      </trkpt>
      <trkpt lat="-24.933292977511883" lon="30.798180280253291">
        <ele>1619</ele>
        <time>2013-07-01T09:02:38Z</time>
      </trkpt>
      <trkpt lat="-24.933288367465138" lon="30.798294609412551">
        <ele>1620.4400000000001</ele>
        <time>2013-07-01T09:02:39Z</time>
      </trkpt>
      <trkpt lat="-24.933312004432082" lon="30.798400724306703">
        <ele>1621.8800000000001</ele>
        <time>2013-07-01T09:02:40Z</time>
      </trkpt>
      <trkpt lat="-24.93336221203208" lon="30.79849636182189">
        <ele>1622.8399999999999</ele>
        <time>2013-07-01T09:02:41Z</time>
      </trkpt>
      <trkpt lat="-24.933429686352611" lon="30.798587808385491">
        <ele>1624.28</ele>
        <time>2013-07-01T09:02:42Z</time>
      </trkpt>
      <trkpt lat="-24.933507973328233" lon="30.798681685701013">
        <ele>1625.25</ele>
        <time>2013-07-01T09:02:43Z</time>
      </trkpt>
      <trkpt lat="-24.93373746983707" lon="30.798985697329044">
        <ele>1629.0899999999999</ele>
        <time>2013-07-01T09:02:46Z</time>
      </trkpt>
      <trkpt lat="-24.933782899752259" lon="30.799093404784799">
        <ele>1630.05</ele>
        <time>2013-07-01T09:02:47Z</time>
      </trkpt>
      <trkpt lat="-24.933800501748919" lon="30.799198597669601">
        <ele>1631.49</ele>
        <time>2013-07-01T09:02:48Z</time>
      </trkpt>
      <trkpt lat="-24.93378784507513" lon="30.799297336488962">
        <ele>1632.46</ele>
        <time>2013-07-01T09:02:49Z</time>
      </trkpt>
      <trkpt lat="-24.933744259178638" lon="30.799382999539375">
        <ele>1633.4200000000001</ele>
        <time>2013-07-01T09:02:50Z</time>
      </trkpt>
      <trkpt lat="-24.933672677725554" lon="30.799453323706985">
        <ele>1633.9000000000001</ele>
        <time>2013-07-01T09:02:51Z</time>
      </trkpt>
      <trkpt lat="-24.933579470962286" lon="30.799513757228851">
        <ele>1634.8599999999999</ele>
        <time>2013-07-01T09:02:52Z</time>
      </trkpt>
      <trkpt lat="-24.933472601696849" lon="30.799574106931686">
        <ele>1635.3399999999999</ele>
        <time>2013-07-01T09:02:53Z</time>
      </trkpt>
      <trkpt lat="-24.933225587010384" lon="30.799695141613483">
        <ele>1636.78</ele>
        <time>2013-07-01T09:02:55Z</time>
      </trkpt>
      <trkpt lat="-24.933081921190023" lon="30.799735374748707">
        <ele>1637.26</ele>
        <time>2013-07-01T09:02:56Z</time>
      </trkpt>
      <trkpt lat="-24.932928197085857" lon="30.799753479659557">
        <ele>1637.74</ele>
        <time>2013-07-01T09:02:57Z</time>
      </trkpt>
      <trkpt lat="-24.93276852183044" lon="30.799754736945033">
        <ele>1638.7</ele>
        <time>2013-07-01T09:02:58Z</time>
      </trkpt>
      <trkpt lat="-24.932611864060163" lon="30.799737386405468">
        <ele>1639.1900000000001</ele>
        <time>2013-07-01T09:02:59Z</time>
      </trkpt>
      <trkpt lat="-24.932467611506581" lon="30.799697740003467">
        <ele>1639.6700000000001</ele>
        <time>2013-07-01T09:03:00Z</time>
      </trkpt>
      <trkpt lat="-24.93233660236001" lon="30.799633366987109">
        <ele>1640.1500000000001</ele>
        <time>2013-07-01T09:03:01Z</time>
      </trkpt>
      <trkpt lat="-24.932213975116611" lon="30.799544602632523">
        <ele>1640.6300000000001</ele>
        <time>2013-07-01T09:03:02Z</time>
      </trkpt>
      <trkpt lat="-24.932093191891909" lon="30.799437398090959">
        <ele>1641.1099999999999</ele>
        <time>2013-07-01T09:03:03Z</time>
      </trkpt>
      <trkpt lat="-24.931970983743668" lon="30.799321895465255">
        <ele>1641.5899999999999</ele>
        <time>2013-07-01T09:03:04Z</time>
      </trkpt>
      <trkpt lat="-24.93158801458776" lon="30.79898888245225">
        <ele>1642.0699999999999</ele>
        <time>2013-07-01T09:03:07Z</time>
      </trkpt>
      <trkpt lat="-24.931446947157383" lon="30.798895424231887">
        <ele>1642.0699999999999</ele>
        <time>2013-07-01T09:03:08Z</time>
      </trkpt>
      <trkpt lat="-24.9308917298913" lon="30.798595268279314">
        <ele>1642.0699999999999</ele>
        <time>2013-07-01T09:03:12Z</time>
      </trkpt>
      <trkpt lat="-24.930760217830539" lon="30.798561153933406">
        <ele>1642.0699999999999</ele>
        <time>2013-07-01T09:03:13Z</time>
      </trkpt>
      <trkpt lat="-24.930625688284636" lon="30.798554280772805">
        <ele>1642.0699999999999</ele>
        <time>2013-07-01T09:03:14Z</time>
      </trkpt>
      <trkpt lat="-24.930484788492322" lon="30.798573978245258">
        <ele>1642.55</ele>
        <time>2013-07-01T09:03:15Z</time>
      </trkpt>
      <trkpt lat="-24.930336009711027" lon="30.798610104247928">
        <ele>1642.55</ele>
        <time>2013-07-01T09:03:16Z</time>
      </trkpt>
      <trkpt lat="-24.928650073707104" lon="30.799049399793148">
        <ele>1647.8399999999999</ele>
        <time>2013-07-01T09:03:26Z</time>
      </trkpt>
      <trkpt lat="-24.92807675153017" lon="30.799208655953407">
        <ele>1652.6400000000001</ele>
        <time>2013-07-01T09:03:30Z</time>
      </trkpt>
      <trkpt lat="-24.927963512018323" lon="30.799260791391134">
        <ele>1653.5999999999999</ele>
        <time>2013-07-01T09:03:31Z</time>
      </trkpt>
      <trkpt lat="-24.927859911695123" lon="30.799333462491632">
        <ele>1655.05</ele>
        <time>2013-07-01T09:03:32Z</time>
      </trkpt>
      <trkpt lat="-24.927769806236029" lon="30.799430105835199">
        <ele>1656.01</ele>
        <time>2013-07-01T09:03:33Z</time>
      </trkpt>
      <trkpt lat="-24.927695626392961" lon="30.799550050869584">
        <ele>1656.97</ele>
        <time>2013-07-01T09:03:34Z</time>
      </trkpt>
      <trkpt lat="-24.927635779604316" lon="30.799687933176756">
        <ele>1657.9300000000001</ele>
        <time>2013-07-01T09:03:35Z</time>
      </trkpt>
      <trkpt lat="-24.927584398537874" lon="30.799838555976748">
        <ele>1658.8900000000001</ele>
        <time>2013-07-01T09:03:36Z</time>
      </trkpt>
      <trkpt lat="-24.927501752972603" lon="30.800135610625148">
        <ele>1660.8099999999999</ele>
        <time>2013-07-01T09:03:38Z</time>
      </trkpt>
      <trkpt lat="-24.927481720224023" lon="30.800271313637495">
        <ele>1661.78</ele>
        <time>2013-07-01T09:03:39Z</time>
      </trkpt>
      <trkpt lat="-24.927479708567262" lon="30.800399975851178">
        <ele>1662.74</ele>
        <time>2013-07-01T09:03:40Z</time>
      </trkpt>
      <trkpt lat="-24.927494712173939" lon="30.800525117665529">
        <ele>1663.22</ele>
        <time>2013-07-01T09:03:41Z</time>
      </trkpt>
      <trkpt lat="-24.927526563405991" lon="30.800647577270865">
        <ele>1663.7</ele>
        <time>2013-07-01T09:03:42Z</time>
      </trkpt>
      <trkpt lat="-24.927575765177608" lon="30.800760481506586">
        <ele>1664.1800000000001</ele>
        <time>2013-07-01T09:03:43Z</time>
      </trkpt>
      <trkpt lat="-24.927645418792963" lon="30.800854358822107">
        <ele>1664.6600000000001</ele>
        <time>2013-07-01T09:03:44Z</time>
      </trkpt>
      <trkpt lat="-24.927730998024344" lon="30.800922755151987">
        <ele>1664.6600000000001</ele>
        <time>2013-07-01T09:03:45Z</time>
      </trkpt>
      <trkpt lat="-24.927826970815659" lon="30.800967430695891">
        <ele>1664.6600000000001</ele>
        <time>2013-07-01T09:03:46Z</time>
      </trkpt>
      <trkpt lat="-24.927929313853383" lon="30.800996515899897">
        <ele>1664.1800000000001</ele>
        <time>2013-07-01T09:03:47Z</time>
      </trkpt>
      <trkpt lat="-24.928036853671074" lon="30.801016548648477">
        <ele>1663.22</ele>
        <time>2013-07-01T09:03:48Z</time>
      </trkpt>
      <trkpt lat="-24.928148165345192" lon="30.801022164523602">
        <ele>1662.74</ele>
        <time>2013-07-01T09:03:49Z</time>
      </trkpt>
      <trkpt lat="-24.928262243047357" lon="30.801007580012083">
        <ele>1661.78</ele>
        <time>2013-07-01T09:03:50Z</time>
      </trkpt>
      <trkpt lat="-24.928375901654363" lon="30.800977991893888">
        <ele>1660.8099999999999</ele>
        <time>2013-07-01T09:03:51Z</time>
      </trkpt>
      <trkpt lat="-24.928491236642003" lon="30.800947565585375">
        <ele>1659.8499999999999</ele>
        <time>2013-07-01T09:03:52Z</time>
      </trkpt>
      <trkpt lat="-24.928608331829309" lon="30.800933735445142">
        <ele>1658.8900000000001</ele>
        <time>2013-07-01T09:03:53Z</time>
      </trkpt>
      <trkpt lat="-24.928725762292743" lon="30.800946559756994">
        <ele>1657.9300000000001</ele>
        <time>2013-07-01T09:03:54Z</time>
      </trkpt>
      <trkpt lat="-24.928840091452003" lon="30.800985032692552">
        <ele>1656.49</ele>
        <time>2013-07-01T09:03:55Z</time>
      </trkpt>
      <trkpt lat="-24.928946541622281" lon="30.801042281091213">
        <ele>1655.53</ele>
        <time>2013-07-01T09:03:56Z</time>
      </trkpt>
      <trkpt lat="-24.929037317633629" lon="30.801111683249474">
        <ele>1654.5699999999999</ele>
        <time>2013-07-01T09:03:57Z</time>
      </trkpt>
      <trkpt lat="-24.929107306525111" lon="30.801192568615079">
        <ele>1653.5999999999999</ele>
        <time>2013-07-01T09:03:58Z</time>
      </trkpt>
      <trkpt lat="-24.929155083373189" lon="30.8012864459306">
        <ele>1652.6400000000001</ele>
        <time>2013-07-01T09:03:59Z</time>
      </trkpt>
      <trkpt lat="-24.929179809987545" lon="30.801392141729593">
        <ele>1651.2</ele>
        <time>2013-07-01T09:04:00Z</time>
      </trkpt>
      <trkpt lat="-24.929186347872019" lon="30.801504543051124">
        <ele>1650.24</ele>
        <time>2013-07-01T09:04:01Z</time>
      </trkpt>
      <trkpt lat="-24.929187186062336" lon="30.801619878038764">
        <ele>1648.8</ele>
        <time>2013-07-01T09:04:02Z</time>
      </trkpt>
      <trkpt lat="-24.92919665761292" lon="30.801734710112214">
        <ele>1647.3599999999999</ele>
        <time>2013-07-01T09:04:03Z</time>
      </trkpt>
      <trkpt lat="-24.929226245731115" lon="30.801844513043761">
        <ele>1646.4000000000001</ele>
        <time>2013-07-01T09:04:04Z</time>
      </trkpt>
      <trkpt lat="-24.929283577948809" lon="30.801940904930234">
        <ele>1644.95</ele>
        <time>2013-07-01T09:04:05Z</time>
      </trkpt>
      <trkpt lat="-24.929367229342461" lon="30.80201500095427">
        <ele>1643.99</ele>
        <time>2013-07-01T09:04:06Z</time>
      </trkpt>
      <trkpt lat="-24.929471835494041" lon="30.802064621821046">
        <ele>1642.55</ele>
        <time>2013-07-01T09:04:07Z</time>
      </trkpt>
      <trkpt lat="-24.929591696709394" lon="30.802093707025051">
        <ele>1641.5899999999999</ele>
        <time>2013-07-01T09:04:08Z</time>
      </trkpt>
      <trkpt lat="-24.929721532389522" lon="30.802110219374299">
        <ele>1640.1500000000001</ele>
        <time>2013-07-01T09:04:09Z</time>
      </trkpt>
      <trkpt lat="-24.929855726659298" lon="30.80212689936161">
        <ele>1638.7</ele>
        <time>2013-07-01T09:04:10Z</time>
      </trkpt>
      <trkpt lat="-24.929988831281662" lon="30.802160175517201">
        <ele>1637.74</ele>
        <time>2013-07-01T09:04:11Z</time>
      </trkpt>
      <trkpt lat="-24.930117661133409" lon="30.802217088639736">
        <ele>1636.3</ele>
        <time>2013-07-01T09:04:12Z</time>
      </trkpt>
      <trkpt lat="-24.930240204557776" lon="30.802293363958597">
        <ele>1634.8599999999999</ele>
        <time>2013-07-01T09:04:13Z</time>
      </trkpt>
      <trkpt lat="-24.930357886478305" lon="30.802381038665771">
        <ele>1633.4200000000001</ele>
        <time>2013-07-01T09:04:14Z</time>
      </trkpt>
      <trkpt lat="-24.930474562570453" lon="30.802474245429039">
        <ele>1632.46</ele>
        <time>2013-07-01T09:04:15Z</time>
      </trkpt>
      <trkpt lat="-24.931299760937691" lon="30.803177738562226">
        <ele>1620.4400000000001</ele>
        <time>2013-07-01T09:04:22Z</time>
      </trkpt>
      <trkpt lat="-24.931379640474916" lon="30.803303802385926">
        <ele>1618.52</ele>
        <time>2013-07-01T09:04:23Z</time>
      </trkpt>
      <trkpt lat="-24.931445103138685" lon="30.803435314446688">
        <ele>1616.5899999999999</ele>
        <time>2013-07-01T09:04:24Z</time>
      </trkpt>
      <trkpt lat="-24.931627409532666" lon="30.803796658292413">
        <ele>1611.3099999999999</ele>
        <time>2013-07-01T09:04:27Z</time>
      </trkpt>
      <trkpt lat="-24.931707624346018" lon="30.803882656618953">
        <ele>1609.8599999999999</ele>
        <time>2013-07-01T09:04:28Z</time>
      </trkpt>
      <trkpt lat="-24.931803094223142" lon="30.8039406593889">
        <ele>1608.9000000000001</ele>
        <time>2013-07-01T09:04:29Z</time>
      </trkpt>
      <trkpt lat="-24.931907197460532" lon="30.803970582783222">
        <ele>1607.46</ele>
        <time>2013-07-01T09:04:30Z</time>
      </trkpt>
      <trkpt lat="-24.932015324011445" lon="30.803982568904757">
        <ele>1606.02</ele>
        <time>2013-07-01T09:04:31Z</time>
      </trkpt>
      <trkpt lat="-24.932122863829136" lon="30.803994722664356">
        <ele>1605.0599999999999</ele>
        <time>2013-07-01T09:04:32Z</time>
      </trkpt>
      <trkpt lat="-24.932220429182053" lon="30.804020371288061">
        <ele>1603.6199999999999</ele>
        <time>2013-07-01T09:04:33Z</time>
      </trkpt>
      <trkpt lat="-24.932300811633468" lon="30.804064879193902">
        <ele>1602.6600000000001</ele>
        <time>2013-07-01T09:04:34Z</time>
      </trkpt>
      <trkpt lat="-24.932357640936971" lon="30.804130677133799">
        <ele>1601.6900000000001</ele>
        <time>2013-07-01T09:04:35Z</time>
      </trkpt>
      <trkpt lat="-24.93238303810358" lon="30.804214663803577">
        <ele>1600.73</ele>
        <time>2013-07-01T09:04:36Z</time>
      </trkpt>
      <trkpt lat="-24.932374069467187" lon="30.80430569127202">
        <ele>1599.29</ele>
        <time>2013-07-01T09:04:37Z</time>
      </trkpt>
      <trkpt lat="-24.932331489399076" lon="30.804394539445639">
        <ele>1598.3299999999999</ele>
        <time>2013-07-01T09:04:38Z</time>
      </trkpt>
      <trkpt lat="-24.932260327041149" lon="30.80448254942894">
        <ele>1596.8900000000001</ele>
        <time>2013-07-01T09:04:39Z</time>
      </trkpt>
      <trkpt lat="-24.932172149419785" lon="30.80457542091608">
        <ele>1595.9300000000001</ele>
        <time>2013-07-01T09:04:40Z</time>
      </trkpt>
      <trkpt lat="-24.931574268266559" lon="30.805211355909705">
        <ele>1587.75</ele>
        <time>2013-07-01T09:04:46Z</time>
      </trkpt>
      <trkpt lat="-24.931465638801455" lon="30.805290145799518">
        <ele>1586.3099999999999</ele>
        <time>2013-07-01T09:04:47Z</time>
      </trkpt>
      <trkpt lat="-24.931348124518991" lon="30.805348148569465">
        <ele>1584.8699999999999</ele>
        <time>2013-07-01T09:04:48Z</time>
      </trkpt>
      <trkpt lat="-24.931225078180432" lon="30.805382262915373">
        <ele>1583.4300000000001</ele>
        <time>2013-07-01T09:04:49Z</time>
      </trkpt>
      <trkpt lat="-24.931097673252225" lon="30.805396679788828">
        <ele>1582.47</ele>
        <time>2013-07-01T09:04:50Z</time>
      </trkpt>
      <trkpt lat="-24.930970771238208" lon="30.80539676360786">
        <ele>1581.03</ele>
        <time>2013-07-01T09:04:51Z</time>
      </trkpt>
      <trkpt lat="-24.930844623595476" lon="30.80538553185761">
        <ele>1579.5799999999999</ele>
        <time>2013-07-01T09:04:52Z</time>
      </trkpt>
      <trkpt lat="-24.930723588913679" lon="30.805371198803186">
        <ele>1578.6199999999999</ele>
        <time>2013-07-01T09:04:53Z</time>
      </trkpt>
      <trkpt lat="-24.930500378832221" lon="30.805351082235575">
        <ele>1576.22</ele>
        <time>2013-07-01T09:04:55Z</time>
      </trkpt>
      <trkpt lat="-24.93039577268064" lon="30.805359380319715">
        <ele>1574.78</ele>
        <time>2013-07-01T09:04:56Z</time>
      </trkpt>
      <trkpt lat="-24.930297285318375" lon="30.80538896843791">
        <ele>1573.8199999999999</ele>
        <time>2013-07-01T09:04:57Z</time>
      </trkpt>
      <trkpt lat="-24.93020910769701" lon="30.805442277342081">
        <ele>1572.3699999999999</ele>
        <time>2013-07-01T09:04:58Z</time>
      </trkpt>
      <trkpt lat="-24.93013777770102" lon="30.805518049746752">
        <ele>1571.8900000000001</ele>
        <time>2013-07-01T09:04:59Z</time>
      </trkpt>
      <trkpt lat="-24.930086731910706" lon="30.805612932890654">
        <ele>1570.9300000000001</ele>
        <time>2013-07-01T09:05:00Z</time>
      </trkpt>
      <trkpt lat="-24.930058652535081" lon="30.805723490193486">
        <ele>1569.97</ele>
        <time>2013-07-01T09:05:01Z</time>
      </trkpt>
      <trkpt lat="-24.930054042488337" lon="30.805842094123363">
        <ele>1569.01</ele>
        <time>2013-07-01T09:05:02Z</time>
      </trkpt>
      <trkpt lat="-24.93007373996079" lon="30.805957345291972">
        <ele>1568.05</ele>
        <time>2013-07-01T09:05:03Z</time>
      </trkpt>
      <trkpt lat="-24.930116487666965" lon="30.80606329254806">
        <ele>1567.0899999999999</ele>
        <time>2013-07-01T09:05:04Z</time>
      </trkpt>
      <trkpt lat="-24.930181615054607" lon="30.806156750768423">
        <ele>1565.6400000000001</ele>
        <time>2013-07-01T09:05:05Z</time>
      </trkpt>
      <trkpt lat="-24.930263757705688" lon="30.806237300857902">
        <ele>1564.2</ele>
        <time>2013-07-01T09:05:06Z</time>
      </trkpt>
      <trkpt lat="-24.930353946983814" lon="30.80631198361516">
        <ele>1563.24</ele>
        <time>2013-07-01T09:05:07Z</time>
      </trkpt>
      <trkpt lat="-24.930434916168451" lon="30.806397059932351">
        <ele>1561.8</ele>
        <time>2013-07-01T09:05:08Z</time>
      </trkpt>
      <trkpt lat="-24.930494679138064" lon="30.806501163169742">
        <ele>1560.3599999999999</ele>
        <time>2013-07-01T09:05:09Z</time>
      </trkpt>
      <trkpt lat="-24.930524686351418" lon="30.806617420166731">
        <ele>1559.4000000000001</ele>
        <time>2013-07-01T09:05:10Z</time>
      </trkpt>
      <trkpt lat="-24.930523177608848" lon="30.806735437363386">
        <ele>1557.95</ele>
        <time>2013-07-01T09:05:11Z</time>
      </trkpt>
      <trkpt lat="-24.93049593642354" lon="30.806849263608456">
        <ele>1556.51</ele>
        <time>2013-07-01T09:05:12Z</time>
      </trkpt>
      <trkpt lat="-24.930453523993492" lon="30.806958228349686">
        <ele>1555.55</ele>
        <time>2013-07-01T09:05:13Z</time>
      </trkpt>
      <trkpt lat="-24.930409351363778" lon="30.807066522538662">
        <ele>1554.1099999999999</ele>
        <time>2013-07-01T09:05:14Z</time>
      </trkpt>
      <trkpt lat="-24.930376410484314" lon="30.807178001850843">
        <ele>1552.6700000000001</ele>
        <time>2013-07-01T09:05:15Z</time>
      </trkpt>
      <trkpt lat="-24.93036693893373" lon="30.807294426485896">
        <ele>1551.22</ele>
        <time>2013-07-01T09:05:16Z</time>
      </trkpt>
      <trkpt lat="-24.930383786559105" lon="30.807409342378378">
        <ele>1549.78</ele>
        <time>2013-07-01T09:05:17Z</time>
      </trkpt>
      <trkpt lat="-24.930426450446248" lon="30.807516044005752">
        <ele>1548.3399999999999</ele>
        <time>2013-07-01T09:05:18Z</time>
      </trkpt>
      <trkpt lat="-24.930491158738732" lon="30.807610508054495">
        <ele>1547.3800000000001</ele>
        <time>2013-07-01T09:05:19Z</time>
      </trkpt>
      <trkpt lat="-24.93057070299983" lon="30.807692985981703">
        <ele>1545.9400000000001</ele>
        <time>2013-07-01T09:05:20Z</time>
      </trkpt>
      <trkpt lat="-24.930657790973783" lon="30.807766998186707">
        <ele>1544.5</ele>
        <time>2013-07-01T09:05:21Z</time>
      </trkpt>
      <trkpt lat="-24.930749740451574" lon="30.807835226878524">
        <ele>1543.05</ele>
        <time>2013-07-01T09:05:22Z</time>
      </trkpt>
      <trkpt lat="-24.930846802890301" lon="30.807893062010407">
        <ele>1541.6099999999999</ele>
        <time>2013-07-01T09:05:23Z</time>
      </trkpt>
      <trkpt lat="-24.930949229747057" lon="30.807938743382692">
        <ele>1540.1700000000001</ele>
        <time>2013-07-01T09:05:24Z</time>
      </trkpt>
      <trkpt lat="-24.931056099012494" lon="30.807969504967332">
        <ele>1539.21</ele>
        <time>2013-07-01T09:05:25Z</time>
      </trkpt>
      <trkpt lat="-24.931165231391788" lon="30.807988364249468">
        <ele>1537.77</ele>
        <time>2013-07-01T09:05:26Z</time>
      </trkpt>
      <trkpt lat="-24.931275369599462" lon="30.808002445846796">
        <ele>1536.8</ele>
        <time>2013-07-01T09:05:27Z</time>
      </trkpt>
      <trkpt lat="-24.932056562975049" lon="30.808111578226089">
        <ele>1528.1500000000001</ele>
        <time>2013-07-01T09:05:34Z</time>
      </trkpt>
      <trkpt lat="-24.932153038680553" lon="30.808150386437774">
        <ele>1526.71</ele>
        <time>2013-07-01T09:05:35Z</time>
      </trkpt>
      <trkpt lat="-24.93223886936903" lon="30.80820738337934">
        <ele>1525.27</ele>
        <time>2013-07-01T09:05:36Z</time>
      </trkpt>
      <trkpt lat="-24.93231019936502" lon="30.808282820507884">
        <ele>1524.3099999999999</ele>
        <time>2013-07-01T09:05:37Z</time>
      </trkpt>
      <trkpt lat="-24.932366609573364" lon="30.808372171595693">
        <ele>1522.8699999999999</ele>
        <time>2013-07-01T09:05:38Z</time>
      </trkpt>
      <trkpt lat="-24.932405417785048" lon="30.808472754433751">
        <ele>1521.4200000000001</ele>
        <time>2013-07-01T09:05:39Z</time>
      </trkpt>
      <trkpt lat="-24.932424277067184" lon="30.808580545708537">
        <ele>1520.46</ele>
        <time>2013-07-01T09:05:40Z</time>
      </trkpt>
      <trkpt lat="-24.93242159485817" lon="30.808686576783657">
        <ele>1519.02</ele>
        <time>2013-07-01T09:05:41Z</time>
      </trkpt>
      <trkpt lat="-24.932395862415433" lon="30.808791099116206">
        <ele>1518.0599999999999</ele>
        <time>2013-07-01T09:05:42Z</time>
      </trkpt>
      <trkpt lat="-24.932348001748323" lon="30.808891179040074">
        <ele>1517.0999999999999</ele>
        <time>2013-07-01T09:05:43Z</time>
      </trkpt>
      <trkpt lat="-24.9322853051126" lon="30.80898773856461">
        <ele>1516.6199999999999</ele>
        <time>2013-07-01T09:05:44Z</time>
      </trkpt>
      <trkpt lat="-24.932216070592403" lon="30.809084046632051">
        <ele>1515.6600000000001</ele>
        <time>2013-07-01T09:05:45Z</time>
      </trkpt>
      <trkpt lat="-24.931559432297945" lon="30.809796592220664">
        <ele>1507.48</ele>
        <time>2013-07-01T09:05:54Z</time>
      </trkpt>
    </trkseg>
  </trk>

</gpx>