<?xml version="1.0" encoding="utf-8"?><gpx creator="Garmin Desktop App" version="1.1" xsi:schemaLocation="http://www.topografix.com/GPX/1/1 http://www.topografix.com/GPX/1/1/gpx.xsd http://www.garmin.com/xmlschemas/WaypointExtension/v1 http://www8.garmin.com/xmlschemas/WaypointExtensionv1.xsd http://www.garmin.com/xmlschemas/TrackPointExtension/v1 http://www.garmin.com/xmlschemas/TrackPointExtensionv1.xsd http://www.garmin.com/xmlschemas/GpxExtensions/v3 http://www8.garmin.com/xmlschemas/GpxExtensionsv3.xsd http://www.garmin.com/xmlschemas/ActivityExtension/v1 http://www8.garmin.com/xmlschemas/ActivityExtensionv1.xsd http://www.garmin.com/xmlschemas/AdventuresExtensions/v1 http://www8.garmin.com/xmlschemas/AdventuresExtensionv1.xsd http://www.garmin.com/xmlschemas/PressureExtension/v1 http://www.garmin.com/xmlschemas/PressureExtensionv1.xsd http://www.garmin.com/xmlschemas/TripExtensions/v1 http://www.garmin.com/xmlschemas/TripExtensionsv1.xsd http://www.garmin.com/xmlschemas/TripMetaDataExtensions/v1 http://www.garmin.com/xmlschemas/TripMetaDataExtensionsv1.xsd http://www.garmin.com/xmlschemas/ViaPointTransportationModeExtensions/v1 http://www.garmin.com/xmlschemas/ViaPointTransportationModeExtensionsv1.xsd http://www.garmin.com/xmlschemas/CreationTimeExtension/v1 http://www.garmin.com/xmlschemas/CreationTimeExtensionsv1.xsd http://www.garmin.com/xmlschemas/AccelerationExtension/v1 http://www.garmin.com/xmlschemas/AccelerationExtensionv1.xsd http://www.garmin.com/xmlschemas/PowerExtension/v1 http://www.garmin.com/xmlschemas/PowerExtensionv1.xsd http://www.garmin.com/xmlschemas/VideoExtension/v1 http://www.garmin.com/xmlschemas/VideoExtensionv1.xsd" xmlns="http://www.topografix.com/GPX/1/1" xmlns:xsi="http://www.w3.org/2001/XMLSchema-instance" xmlns:wptx1="http://www.garmin.com/xmlschemas/WaypointExtension/v1" xmlns:gpxtrx="http://www.garmin.com/xmlschemas/GpxExtensions/v3" xmlns:gpxtpx="http://www.garmin.com/xmlschemas/TrackPointExtension/v1" xmlns:gpxx="http://www.garmin.com/xmlschemas/GpxExtensions/v3" xmlns:trp="http://www.garmin.com/xmlschemas/TripExtensions/v1" xmlns:adv="http://www.garmin.com/xmlschemas/AdventuresExtensions/v1" xmlns:prs="http://www.garmin.com/xmlschemas/PressureExtension/v1" xmlns:tmd="http://www.garmin.com/xmlschemas/TripMetaDataExtensions/v1" xmlns:vptm="http://www.garmin.com/xmlschemas/ViaPointTransportationModeExtensions/v1" xmlns:ctx="http://www.garmin.com/xmlschemas/CreationTimeExtension/v1" xmlns:gpxacc="http://www.garmin.com/xmlschemas/AccelerationExtension/v1" xmlns:gpxpx="http://www.garmin.com/xmlschemas/PowerExtension/v1" xmlns:vidx1="http://www.garmin.com/xmlschemas/VideoExtension/v1">

  <metadata>
    <link href="http://www.garmin.com">
      <text>Garmin International</text>
    </link>
    <time>2022-07-02T14:16:52Z</time>
    <bounds maxlat="-29.584501823410392" maxlon="29.338928991928697" minlat="-29.60318055935204" minlon="29.285677000880241" />
  </metadata>

  <trk>
    <name>[22] Sani Pass (Down)</name>
    <extensions>
      <gpxx:TrackExtension>
        <gpxx:DisplayColor>Red</gpxx:DisplayColor>
      </gpxx:TrackExtension>
    </extensions>
    <trkseg>
      <trkpt lat="-29.584501823410392" lon="29.285677000880241">
        <ele>2880.25</ele>
        <time>2015-05-03T08:37:17Z</time>
      </trkpt>
      <trkpt lat="-29.584510121494532" lon="29.28570382297039">
        <ele>2880.25</ele>
        <time>2015-05-03T08:37:18Z</time>
      </trkpt>
      <trkpt lat="-29.584517162293196" lon="29.285744475200772">
        <ele>2880.25</ele>
        <time>2015-05-03T08:37:19Z</time>
      </trkpt>
      <trkpt lat="-29.58452713675797" lon="29.285801220685244">
        <ele>2880.73</ele>
        <time>2015-05-03T08:37:20Z</time>
      </trkpt>
      <trkpt lat="-29.584822682663798" lon="29.286597752943635">
        <ele>2880.73</ele>
        <time>2015-05-03T08:37:33Z</time>
      </trkpt>
      <trkpt lat="-29.585320316255093" lon="29.28725179284811">
        <ele>2877.8400000000001</ele>
        <time>2015-05-03T08:37:44Z</time>
      </trkpt>
      <trkpt lat="-29.585349317640066" lon="29.287308286875486">
        <ele>2877.3600000000001</ele>
        <time>2015-05-03T08:37:45Z</time>
      </trkpt>
      <trkpt lat="-29.585372535511851" lon="29.287368217483163">
        <ele>2876.8800000000001</ele>
        <time>2015-05-03T08:37:46Z</time>
      </trkpt>
      <trkpt lat="-29.585392316803336" lon="29.287438793107867">
        <ele>2876.4000000000001</ele>
        <time>2015-05-03T08:37:47Z</time>
      </trkpt>
      <trkpt lat="-29.585406314581633" lon="29.287514230236411">
        <ele>2875.9200000000001</ele>
        <time>2015-05-03T08:37:48Z</time>
      </trkpt>
      <trkpt lat="-29.585413355380297" lon="29.28758698515594">
        <ele>2875.4400000000001</ele>
        <time>2015-05-03T08:37:49Z</time>
      </trkpt>
      <trkpt lat="-29.58541595377028" lon="29.287656303495169">
        <ele>2874.96</ele>
        <time>2015-05-03T08:37:50Z</time>
      </trkpt>
      <trkpt lat="-29.58541545085609" lon="29.287721766158938">
        <ele>2874</ele>
        <time>2015-05-03T08:37:51Z</time>
      </trkpt>
      <trkpt lat="-29.585419641807675" lon="29.287850931286812">
        <ele>2873.04</ele>
        <time>2015-05-03T08:37:53Z</time>
      </trkpt>
      <trkpt lat="-29.585431627929211" lon="29.28790558129549">
        <ele>2872.5599999999999</ele>
        <time>2015-05-03T08:37:54Z</time>
      </trkpt>
      <trkpt lat="-29.585695741698146" lon="29.288552077487111">
        <ele>2861.02</ele>
        <time>2015-05-03T08:38:09Z</time>
      </trkpt>
      <trkpt lat="-29.585977457463741" lon="29.288943344727159">
        <ele>2851.8899999999999</ele>
        <time>2015-05-03T08:38:19Z</time>
      </trkpt>
      <trkpt lat="-29.586189351975918" lon="29.289239812642336">
        <ele>2844.6799999999998</ele>
        <time>2015-05-03T08:38:29Z</time>
      </trkpt>
      <trkpt lat="-29.586176527664065" lon="29.289260264486074">
        <ele>2844.1999999999998</ele>
        <time>2015-05-03T08:38:30Z</time>
      </trkpt>
      <trkpt lat="-29.586159763857722" lon="29.289272837340832">
        <ele>2844.1999999999998</ele>
        <time>2015-05-03T08:38:31Z</time>
      </trkpt>
      <trkpt lat="-29.586138892918825" lon="29.289274094626307">
        <ele>2844.1999999999998</ele>
        <time>2015-05-03T08:38:32Z</time>
      </trkpt>
      <trkpt lat="-29.586116094142199" lon="29.289267305284739">
        <ele>2843.7199999999998</ele>
        <time>2015-05-03T08:38:33Z</time>
      </trkpt>
      <trkpt lat="-29.586092540994287" lon="29.289254480972886">
        <ele>2843.7199999999998</ele>
        <time>2015-05-03T08:38:34Z</time>
      </trkpt>
      <trkpt lat="-29.586062533780932" lon="29.289237046614289">
        <ele>2843.7199999999998</ele>
        <time>2015-05-03T08:38:35Z</time>
      </trkpt>
      <trkpt lat="-29.58574092015624" lon="29.28923511877656">
        <ele>2840.3499999999999</ele>
        <time>2015-05-03T08:38:45Z</time>
      </trkpt>
      <trkpt lat="-29.585695406422019" lon="29.289340144023299">
        <ele>2838.9099999999999</ele>
        <time>2015-05-03T08:38:53Z</time>
      </trkpt>
      <trkpt lat="-29.585705967620015" lon="29.289350118488073">
        <ele>2840.3499999999999</ele>
        <time>2015-05-03T08:39:22Z</time>
      </trkpt>
      <trkpt lat="-29.585718205198646" lon="29.289513397961855">
        <ele>2837.4699999999998</ele>
        <time>2015-05-03T08:39:35Z</time>
      </trkpt>
      <trkpt lat="-29.585733963176608" lon="29.289536448195577">
        <ele>2836.9899999999998</ele>
        <time>2015-05-03T08:39:36Z</time>
      </trkpt>
      <trkpt lat="-29.585782578215003" lon="29.28955371491611">
        <ele>2835.5500000000002</ele>
        <time>2015-05-03T08:39:38Z</time>
      </trkpt>
      <trkpt lat="-29.585804538801312" lon="29.28954248316586">
        <ele>2834.5799999999999</ele>
        <time>2015-05-03T08:39:39Z</time>
      </trkpt>
      <trkpt lat="-29.585817446932197" lon="29.289526222273707">
        <ele>2834.5799999999999</ele>
        <time>2015-05-03T08:39:40Z</time>
      </trkpt>
      <trkpt lat="-29.585827756673098" lon="29.289502920582891">
        <ele>2834.0999999999999</ele>
        <time>2015-05-03T08:39:41Z</time>
      </trkpt>
      <trkpt lat="-29.585838317871094" lon="29.28947551175952">
        <ele>2834.0999999999999</ele>
        <time>2015-05-03T08:39:42Z</time>
      </trkpt>
      <trkpt lat="-29.585856003686786" lon="29.289449779316783">
        <ele>2833.6199999999999</ele>
        <time>2015-05-03T08:39:43Z</time>
      </trkpt>
      <trkpt lat="-29.585878131911159" lon="29.289432177320123">
        <ele>2833.1399999999999</ele>
        <time>2015-05-03T08:39:44Z</time>
      </trkpt>
      <trkpt lat="-29.585900092497468" lon="29.289426477625966">
        <ele>2832.6599999999999</ele>
        <time>2015-05-03T08:39:45Z</time>
      </trkpt>
      <trkpt lat="-29.585940493270755" lon="29.289434691891074">
        <ele>2831.2199999999998</ele>
        <time>2015-05-03T08:39:51Z</time>
      </trkpt>
      <trkpt lat="-29.585961112752557" lon="29.289470985531807">
        <ele>2831.2199999999998</ele>
        <time>2015-05-03T08:39:53Z</time>
      </trkpt>
      <trkpt lat="-29.585963878780603" lon="29.289500573650002">
        <ele>2830.7399999999998</ele>
        <time>2015-05-03T08:39:54Z</time>
      </trkpt>
      <trkpt lat="-29.585959604009986" lon="29.289526809006929">
        <ele>2830.7399999999998</ele>
        <time>2015-05-03T08:39:55Z</time>
      </trkpt>
      <trkpt lat="-29.585946947336197" lon="29.289556564763188">
        <ele>2830.7399999999998</ele>
        <time>2015-05-03T08:39:56Z</time>
      </trkpt>
      <trkpt lat="-29.585930518805981" lon="29.289584057405591">
        <ele>2830.2600000000002</ele>
        <time>2015-05-03T08:39:57Z</time>
      </trkpt>
      <trkpt lat="-29.58591291680932" lon="29.289611633867025">
        <ele>2830.2600000000002</ele>
        <time>2015-05-03T08:39:58Z</time>
      </trkpt>
      <trkpt lat="-29.585806801915169" lon="29.289970211684704">
        <ele>2824.4899999999998</ele>
        <time>2015-05-03T08:40:08Z</time>
      </trkpt>
      <trkpt lat="-29.585817446932197" lon="29.289999296888709">
        <ele>2824.4899999999998</ele>
        <time>2015-05-03T08:40:09Z</time>
      </trkpt>
      <trkpt lat="-29.585834546014667" lon="29.290022682398558">
        <ele>2824.0100000000002</ele>
        <time>2015-05-03T08:40:10Z</time>
      </trkpt>
      <trkpt lat="-29.585856674239039" lon="29.290035339072347">
        <ele>2823.5300000000002</ele>
        <time>2015-05-03T08:40:11Z</time>
      </trkpt>
      <trkpt lat="-29.585880730301142" lon="29.290036596357822">
        <ele>2823.5300000000002</ele>
        <time>2015-05-03T08:40:12Z</time>
      </trkpt>
      <trkpt lat="-29.585905205458403" lon="29.290027292445302">
        <ele>2823.5300000000002</ele>
        <time>2015-05-03T08:40:13Z</time>
      </trkpt>
      <trkpt lat="-29.585924567654729" lon="29.290008433163166">
        <ele>2823.5300000000002</ele>
        <time>2015-05-03T08:40:14Z</time>
      </trkpt>
      <trkpt lat="-29.585937894880772" lon="29.289984796196222">
        <ele>2823.0500000000002</ele>
        <time>2015-05-03T08:40:15Z</time>
      </trkpt>
      <trkpt lat="-29.585947450250387" lon="29.289960991591215">
        <ele>2823.0500000000002</ele>
        <time>2015-05-03T08:40:16Z</time>
      </trkpt>
      <trkpt lat="-29.58603210747242" lon="29.289863090962172">
        <ele>2820.6500000000001</ele>
        <time>2015-05-03T08:40:22Z</time>
      </trkpt>
      <trkpt lat="-29.586049793288112" lon="29.28986644372344">
        <ele>2820.1599999999999</ele>
        <time>2015-05-03T08:40:23Z</time>
      </trkpt>
      <trkpt lat="-29.586062869057059" lon="29.289877256378531">
        <ele>2819.6799999999998</ele>
        <time>2015-05-03T08:40:24Z</time>
      </trkpt>
      <trkpt lat="-29.586073849350214" lon="29.289890499785542">
        <ele>2819.6799999999998</ele>
        <time>2015-05-03T08:40:25Z</time>
      </trkpt>
      <trkpt lat="-29.586085248738527" lon="29.289903910830617">
        <ele>2819.1999999999998</ele>
        <time>2015-05-03T08:40:26Z</time>
      </trkpt>
      <trkpt lat="-29.586094887927175" lon="29.289918746799231">
        <ele>2818.7199999999998</ele>
        <time>2015-05-03T08:40:27Z</time>
      </trkpt>
      <trkpt lat="-29.586179042235017" lon="29.290022011846304">
        <ele>2816.3200000000002</ele>
        <time>2015-05-03T08:40:31Z</time>
      </trkpt>
      <trkpt lat="-29.586217598989606" lon="29.290056126192212">
        <ele>2815.3600000000001</ele>
        <time>2015-05-03T08:40:32Z</time>
      </trkpt>
      <trkpt lat="-29.586739456281066" lon="29.290475388988853">
        <ele>2802.8600000000001</ele>
        <time>2015-05-03T08:40:45Z</time>
      </trkpt>
      <trkpt lat="-29.586791256442666" lon="29.290550909936428">
        <ele>2800.46</ele>
        <time>2015-05-03T08:40:49Z</time>
      </trkpt>
      <trkpt lat="-29.586787568405271" lon="29.290569433942437">
        <ele>2800.46</ele>
        <time>2015-05-03T08:40:50Z</time>
      </trkpt>
      <trkpt lat="-29.586777929216623" lon="29.290583180263638">
        <ele>2799.98</ele>
        <time>2015-05-03T08:40:51Z</time>
      </trkpt>
      <trkpt lat="-29.586763009428978" lon="29.290592484176159">
        <ele>2799.5</ele>
        <time>2015-05-03T08:40:52Z</time>
      </trkpt>
      <trkpt lat="-29.586746664717793" lon="29.290599022060633">
        <ele>2799.02</ele>
        <time>2015-05-03T08:40:53Z</time>
      </trkpt>
      <trkpt lat="-29.586728643625975" lon="29.290602877736092">
        <ele>2799.02</ele>
        <time>2015-05-03T08:40:54Z</time>
      </trkpt>
      <trkpt lat="-29.586708191782236" lon="29.290601620450616">
        <ele>2798.54</ele>
        <time>2015-05-03T08:40:55Z</time>
      </trkpt>
      <trkpt lat="-29.586686482653022" lon="29.290592400357127">
        <ele>2798.0500000000002</ele>
        <time>2015-05-03T08:40:56Z</time>
      </trkpt>
      <trkpt lat="-29.586660917848349" lon="29.290581839159131">
        <ele>2797.5700000000002</ele>
        <time>2015-05-03T08:40:57Z</time>
      </trkpt>
      <trkpt lat="-29.586633425205946" lon="29.290568763390183">
        <ele>2797.0900000000001</ele>
        <time>2015-05-03T08:40:58Z</time>
      </trkpt>
      <trkpt lat="-29.586309464648366" lon="29.290632298216224">
        <ele>2790.8400000000001</ele>
        <time>2015-05-03T08:41:09Z</time>
      </trkpt>
      <trkpt lat="-29.586372915655375" lon="29.290960365906358">
        <ele>2782.1900000000001</ele>
        <time>2015-05-03T08:41:19Z</time>
      </trkpt>
      <trkpt lat="-29.586458662524819" lon="29.291153904050589">
        <ele>2776.9099999999999</ele>
        <time>2015-05-03T08:41:28Z</time>
      </trkpt>
      <trkpt lat="-29.586468720808625" lon="29.291150886565447">
        <ele>2776.9099999999999</ele>
        <time>2015-05-03T08:41:29Z</time>
      </trkpt>
      <trkpt lat="-29.586481377482414" lon="29.291140241548419">
        <ele>2776.9099999999999</ele>
        <time>2015-05-03T08:41:30Z</time>
      </trkpt>
      <trkpt lat="-29.586497470736504" lon="29.291120041161776">
        <ele>2776.4200000000001</ele>
        <time>2015-05-03T08:41:31Z</time>
      </trkpt>
      <trkpt lat="-29.586517503485084" lon="29.291093135252595">
        <ele>2776.4200000000001</ele>
        <time>2015-05-03T08:41:32Z</time>
      </trkpt>
      <trkpt lat="-29.586801063269377" lon="29.290983416140079">
        <ele>2770.6599999999999</ele>
        <time>2015-05-03T08:41:43Z</time>
      </trkpt>
      <trkpt lat="-29.587019830942154" lon="29.291137307882309">
        <ele>2765.8499999999999</ele>
        <time>2015-05-03T08:41:56Z</time>
      </trkpt>
      <trkpt lat="-29.587041204795241" lon="29.291164800524712">
        <ele>2765.8499999999999</ele>
        <time>2015-05-03T08:42:14Z</time>
      </trkpt>
      <trkpt lat="-29.587115719914436" lon="29.291149796918035">
        <ele>2763.4499999999998</ele>
        <time>2015-05-03T08:42:26Z</time>
      </trkpt>
      <trkpt lat="-29.587513525038958" lon="29.290993558242917">
        <ele>2754.8000000000002</ele>
        <time>2015-05-03T08:42:40Z</time>
      </trkpt>
      <trkpt lat="-29.587966399267316" lon="29.291122304275632">
        <ele>2745.6599999999999</ele>
        <time>2015-05-03T08:42:54Z</time>
      </trkpt>
      <trkpt lat="-29.588044853881001" lon="29.291260186582804">
        <ele>2742.7800000000002</ele>
        <time>2015-05-03T08:42:59Z</time>
      </trkpt>
      <trkpt lat="-29.588041584938765" lon="29.291288517415524">
        <ele>2741.8200000000002</ele>
        <time>2015-05-03T08:43:00Z</time>
      </trkpt>
      <trkpt lat="-29.5880311075598" lon="29.291314585134387">
        <ele>2741.3400000000001</ele>
        <time>2015-05-03T08:43:01Z</time>
      </trkpt>
      <trkpt lat="-29.588013924658298" lon="29.291333528235555">
        <ele>2740.8600000000001</ele>
        <time>2015-05-03T08:43:02Z</time>
      </trkpt>
      <trkpt lat="-29.587992047891021" lon="29.291344257071614">
        <ele>2740.3800000000001</ele>
        <time>2015-05-03T08:43:03Z</time>
      </trkpt>
      <trkpt lat="-29.587964806705713" lon="29.291351130232215">
        <ele>2739.8899999999999</ele>
        <time>2015-05-03T08:43:04Z</time>
      </trkpt>
      <trkpt lat="-29.587933123111725" lon="29.291358590126038">
        <ele>2739.4099999999999</ele>
        <time>2015-05-03T08:43:05Z</time>
      </trkpt>
      <trkpt lat="-29.587553758174181" lon="29.291568640619516">
        <ele>2729.8000000000002</ele>
        <time>2015-05-03T08:43:17Z</time>
      </trkpt>
      <trkpt lat="-29.587342701852322" lon="29.291761424392462">
        <ele>2724.0300000000002</ele>
        <time>2015-05-03T08:43:23Z</time>
      </trkpt>
      <trkpt lat="-29.587304312735796" lon="29.29178774356842">
        <ele>2723.0700000000002</ele>
        <time>2015-05-03T08:43:24Z</time>
      </trkpt>
      <trkpt lat="-29.58718478679657" lon="29.291860330849886">
        <ele>2720.6700000000001</ele>
        <time>2015-05-03T08:43:28Z</time>
      </trkpt>
      <trkpt lat="-29.587172381579876" lon="29.291879357770085">
        <ele>2720.1900000000001</ele>
        <time>2015-05-03T08:43:29Z</time>
      </trkpt>
      <trkpt lat="-29.587165508419275" lon="29.29189863614738">
        <ele>2719.71</ele>
        <time>2015-05-03T08:43:30Z</time>
      </trkpt>
      <trkpt lat="-29.587164334952831" lon="29.291916908696294">
        <ele>2719.23</ele>
        <time>2015-05-03T08:43:31Z</time>
      </trkpt>
      <trkpt lat="-29.587166346609592" lon="29.291932079941034">
        <ele>2718.75</ele>
        <time>2015-05-03T08:43:32Z</time>
      </trkpt>
      <trkpt lat="-29.587171208113432" lon="29.29194406606257">
        <ele>2718.27</ele>
        <time>2015-05-03T08:43:33Z</time>
      </trkpt>
      <trkpt lat="-29.587178668007255" lon="29.291954375803471">
        <ele>2718.27</ele>
        <time>2015-05-03T08:43:34Z</time>
      </trkpt>
      <trkpt lat="-29.587188391014934" lon="29.291963176801801">
        <ele>2718.27</ele>
        <time>2015-05-03T08:43:35Z</time>
      </trkpt>
      <trkpt lat="-29.587200963869691" lon="29.291968373581767">
        <ele>2717.7800000000002</ele>
        <time>2015-05-03T08:43:36Z</time>
      </trkpt>
      <trkpt lat="-29.587254440411925" lon="29.291974073275924">
        <ele>2717.7800000000002</ele>
        <time>2015-05-03T08:43:38Z</time>
      </trkpt>
      <trkpt lat="-29.587295679375529" lon="29.291973989456892">
        <ele>2717.3000000000002</ele>
        <time>2015-05-03T08:43:39Z</time>
      </trkpt>
      <trkpt lat="-29.587330045178533" lon="29.291972732171416">
        <ele>2717.3000000000002</ele>
        <time>2015-05-03T08:43:40Z</time>
      </trkpt>
      <trkpt lat="-29.587427359074354" lon="29.291960913687944">
        <ele>2716.3400000000001</ele>
        <time>2015-05-03T08:43:42Z</time>
      </trkpt>
      <trkpt lat="-29.587774286046624" lon="29.291924787685275">
        <ele>2712.98</ele>
        <time>2015-05-03T08:43:49Z</time>
      </trkpt>
      <trkpt lat="-29.587815022096038" lon="29.291935181245208">
        <ele>2712.5</ele>
        <time>2015-05-03T08:43:50Z</time>
      </trkpt>
      <trkpt lat="-29.588373173028231" lon="29.29220893420279">
        <ele>2702.4000000000001</ele>
        <time>2015-05-03T08:44:04Z</time>
      </trkpt>
      <trkpt lat="-29.58851876668632" lon="29.292313791811466">
        <ele>2698.0799999999999</ele>
        <time>2015-05-03T08:44:10Z</time>
      </trkpt>
      <trkpt lat="-29.588483478873968" lon="29.292372381314635">
        <ele>2695.6700000000001</ele>
        <time>2015-05-03T08:44:14Z</time>
      </trkpt>
      <trkpt lat="-29.588450202718377" lon="29.292374141514301">
        <ele>2695.1900000000001</ele>
        <time>2015-05-03T08:44:16Z</time>
      </trkpt>
      <trkpt lat="-29.587933123111725" lon="29.292422672733665">
        <ele>2684.6199999999999</ele>
        <time>2015-05-03T08:44:28Z</time>
      </trkpt>
      <trkpt lat="-29.58785081282258" lon="29.292564494535327">
        <ele>2679.8099999999999</ele>
        <time>2015-05-03T08:44:36Z</time>
      </trkpt>
      <trkpt lat="-29.587861122563481" lon="29.292577151209116">
        <ele>2679.8099999999999</ele>
        <time>2015-05-03T08:44:37Z</time>
      </trkpt>
      <trkpt lat="-29.587877048179507" lon="29.292586455121636">
        <ele>2679.3299999999999</ele>
        <time>2015-05-03T08:44:38Z</time>
      </trkpt>
      <trkpt lat="-29.587899008765817" lon="29.292595088481903">
        <ele>2678.8499999999999</ele>
        <time>2015-05-03T08:44:39Z</time>
      </trkpt>
      <trkpt lat="-29.58792507648468" lon="29.292600620537996">
        <ele>2678.8499999999999</ele>
        <time>2015-05-03T08:44:40Z</time>
      </trkpt>
      <trkpt lat="-29.587956508621573" lon="29.29260372184217">
        <ele>2678.3699999999999</ele>
        <time>2015-05-03T08:44:41Z</time>
      </trkpt>
      <trkpt lat="-29.588456740602851" lon="29.292766163125634">
        <ele>2669.7199999999998</ele>
        <time>2015-05-03T08:44:54Z</time>
      </trkpt>
      <trkpt lat="-29.58863602951169" lon="29.292926173657179">
        <ele>2664.4299999999998</ele>
        <time>2015-05-03T08:45:03Z</time>
      </trkpt>
      <trkpt lat="-29.588629407808185" lon="29.292944949120283">
        <ele>2663.9499999999998</ele>
        <time>2015-05-03T08:45:04Z</time>
      </trkpt>
      <trkpt lat="-29.588617589324713" lon="29.292957689613104">
        <ele>2663.9499999999998</ele>
        <time>2015-05-03T08:45:05Z</time>
      </trkpt>
      <trkpt lat="-29.588601998984814" lon="29.292963724583387">
        <ele>2663.4699999999998</ele>
        <time>2015-05-03T08:45:06Z</time>
      </trkpt>
      <trkpt lat="-29.588585486635566" lon="29.292962802574039">
        <ele>2663.4699999999998</ele>
        <time>2015-05-03T08:45:07Z</time>
      </trkpt>
      <trkpt lat="-29.588566208258271" lon="29.292958276346326">
        <ele>2662.9899999999998</ele>
        <time>2015-05-03T08:45:08Z</time>
      </trkpt>
      <trkpt lat="-29.588241912424564" lon="29.293013345450163">
        <ele>2658.1799999999998</ele>
        <time>2015-05-03T08:45:18Z</time>
      </trkpt>
      <trkpt lat="-29.588094558566809" lon="29.293134547770023">
        <ele>2655.3000000000002</ele>
        <time>2015-05-03T08:45:23Z</time>
      </trkpt>
      <trkpt lat="-29.588065976276994" lon="29.293170003220439">
        <ele>2654.8200000000002</ele>
        <time>2015-05-03T08:45:24Z</time>
      </trkpt>
      <trkpt lat="-29.588046027347445" lon="29.293201016262174">
        <ele>2654.3400000000001</ele>
        <time>2015-05-03T08:45:25Z</time>
      </trkpt>
      <trkpt lat="-29.588032783940434" lon="29.293231358751655">
        <ele>2653.8600000000001</ele>
        <time>2015-05-03T08:45:26Z</time>
      </trkpt>
      <trkpt lat="-29.588025826960802" lon="29.293262707069516">
        <ele>2653.3800000000001</ele>
        <time>2015-05-03T08:45:27Z</time>
      </trkpt>
      <trkpt lat="-29.588023563846946" lon="29.293295899406075">
        <ele>2652.9000000000001</ele>
        <time>2015-05-03T08:45:28Z</time>
      </trkpt>
      <trkpt lat="-29.588024821132421" lon="29.293330516666174">
        <ele>2651.9299999999998</ele>
        <time>2015-05-03T08:45:29Z</time>
      </trkpt>
      <trkpt lat="-29.588027084246278" lon="29.29336404427886">
        <ele>2651.4499999999998</ele>
        <time>2015-05-03T08:45:30Z</time>
      </trkpt>
      <trkpt lat="-29.588105957955122" lon="29.293857319280505">
        <ele>2643.7600000000002</ele>
        <time>2015-05-03T08:45:44Z</time>
      </trkpt>
      <trkpt lat="-29.588086092844605" lon="29.294222770258784">
        <ele>2637.9899999999998</ele>
        <time>2015-05-03T08:45:57Z</time>
      </trkpt>
      <trkpt lat="-29.58807016722858" lon="29.294306086376309">
        <ele>2636.0700000000002</ele>
        <time>2015-05-03T08:46:00Z</time>
      </trkpt>
      <trkpt lat="-29.588075280189514" lon="29.29433005861938">
        <ele>2636.0700000000002</ele>
        <time>2015-05-03T08:46:01Z</time>
      </trkpt>
      <trkpt lat="-29.588119452819228" lon="29.294397616758943">
        <ele>2635.5900000000001</ele>
        <time>2015-05-03T08:46:13Z</time>
      </trkpt>
      <trkpt lat="-29.588126493617892" lon="29.294399293139577">
        <ele>2638.96</ele>
        <time>2015-05-03T08:46:32Z</time>
      </trkpt>
      <trkpt lat="-29.588127583265305" lon="29.294393844902515">
        <ele>2640.4000000000001</ele>
        <time>2015-05-03T08:46:59Z</time>
      </trkpt>
      <trkpt lat="-29.588133869692683" lon="29.294394347816706">
        <ele>2640.4000000000001</ele>
        <time>2015-05-03T08:47:08Z</time>
      </trkpt>
      <trkpt lat="-29.588140826672316" lon="29.294393844902515">
        <ele>2640.4000000000001</ele>
        <time>2015-05-03T08:47:09Z</time>
      </trkpt>
      <trkpt lat="-29.588149208575487" lon="29.294391581788659">
        <ele>2639.9200000000001</ele>
        <time>2015-05-03T08:47:10Z</time>
      </trkpt>
      <trkpt lat="-29.588156500831246" lon="29.294381439685822">
        <ele>2639.9200000000001</ele>
        <time>2015-05-03T08:47:11Z</time>
      </trkpt>
      <trkpt lat="-29.588167732581496" lon="29.294369285926223">
        <ele>2639.4400000000001</ele>
        <time>2015-05-03T08:47:12Z</time>
      </trkpt>
      <trkpt lat="-29.588182736188173" lon="29.294349085539579">
        <ele>2639.4400000000001</ele>
        <time>2015-05-03T08:47:13Z</time>
      </trkpt>
      <trkpt lat="-29.588237721472979" lon="29.294241964817047">
        <ele>2638.48</ele>
        <time>2015-05-03T08:47:16Z</time>
      </trkpt>
      <trkpt lat="-29.588277284055948" lon="29.294149009510875">
        <ele>2637.5100000000002</ele>
        <time>2015-05-03T08:47:18Z</time>
      </trkpt>
      <trkpt lat="-29.588300753384829" lon="29.294109614565969">
        <ele>2637.0300000000002</ele>
        <time>2015-05-03T08:47:19Z</time>
      </trkpt>
      <trkpt lat="-29.588378369808197" lon="29.293989669531584">
        <ele>2636.0700000000002</ele>
        <time>2015-05-03T08:47:22Z</time>
      </trkpt>
      <trkpt lat="-29.588696882128716" lon="29.293859330937266">
        <ele>2630.3000000000002</ele>
        <time>2015-05-03T08:47:32Z</time>
      </trkpt>
      <trkpt lat="-29.588733511045575" lon="29.293880201876163">
        <ele>2629.8200000000002</ele>
        <time>2015-05-03T08:47:33Z</time>
      </trkpt>
      <trkpt lat="-29.588768547400832" lon="29.293906772509217">
        <ele>2629.3400000000001</ele>
        <time>2015-05-03T08:47:34Z</time>
      </trkpt>
      <trkpt lat="-29.589064847677946" lon="29.294214639812708">
        <ele>2623.0900000000001</ele>
        <time>2015-05-03T08:47:44Z</time>
      </trkpt>
      <trkpt lat="-29.589373553171754" lon="29.294555867090821">
        <ele>2615.4000000000001</ele>
        <time>2015-05-03T08:47:55Z</time>
      </trkpt>
      <trkpt lat="-29.589803460985422" lon="29.294977560639381">
        <ele>2604.8299999999999</ele>
        <time>2015-05-03T08:48:09Z</time>
      </trkpt>
      <trkpt lat="-29.590381225571036" lon="29.295316860079765">
        <ele>2594.25</ele>
        <time>2015-05-03T08:48:23Z</time>
      </trkpt>
      <trkpt lat="-29.590960163623095" lon="29.29539430886507">
        <ele>2584.6399999999999</ele>
        <time>2015-05-03T08:48:36Z</time>
      </trkpt>
      <trkpt lat="-29.591077761724591" lon="29.295409144833684">
        <ele>2582.2399999999998</ele>
        <time>2015-05-03T08:48:39Z</time>
      </trkpt>
      <trkpt lat="-29.591117491945624" lon="29.295422555878758">
        <ele>2581.7600000000002</ele>
        <time>2015-05-03T08:48:40Z</time>
      </trkpt>
      <trkpt lat="-29.591150768101215" lon="29.295439906418324">
        <ele>2580.8000000000002</ele>
        <time>2015-05-03T08:48:41Z</time>
      </trkpt>
      <trkpt lat="-29.591179685667157" lon="29.295461867004633">
        <ele>2580.3200000000002</ele>
        <time>2015-05-03T08:48:42Z</time>
      </trkpt>
      <trkpt lat="-29.591205418109894" lon="29.295483157038689">
        <ele>2579.8400000000001</ele>
        <time>2015-05-03T08:48:43Z</time>
      </trkpt>
      <trkpt lat="-29.591308766975999" lon="29.295772835612297">
        <ele>2575.9899999999998</ele>
        <time>2015-05-03T08:48:53Z</time>
      </trkpt>
      <trkpt lat="-29.591478249058127" lon="29.296489907428622">
        <ele>2567.8200000000002</ele>
        <time>2015-05-03T08:49:07Z</time>
      </trkpt>
      <trkpt lat="-29.591608420014381" lon="29.297160794958472">
        <ele>2558.21</ele>
        <time>2015-05-03T08:49:21Z</time>
      </trkpt>
      <trkpt lat="-29.591633649542928" lon="29.297196166589856">
        <ele>2557.73</ele>
        <time>2015-05-03T08:49:22Z</time>
      </trkpt>
      <trkpt lat="-29.59166307002306" lon="29.297230197116733">
        <ele>2556.7600000000002</ele>
        <time>2015-05-03T08:49:23Z</time>
      </trkpt>
      <trkpt lat="-29.592064563184977" lon="29.297581231221557">
        <ele>2550.5100000000002</ele>
        <time>2015-05-03T08:49:35Z</time>
      </trkpt>
      <trkpt lat="-29.592095827683806" lon="29.297613585367799">
        <ele>2549.5500000000002</ele>
        <time>2015-05-03T08:49:36Z</time>
      </trkpt>
      <trkpt lat="-29.592480724677444" lon="29.298103004693985">
        <ele>2539.9400000000001</ele>
        <time>2015-05-03T08:49:50Z</time>
      </trkpt>
      <trkpt lat="-29.592696139588952" lon="29.298672135919333">
        <ele>2531.77</ele>
        <time>2015-05-03T08:50:03Z</time>
      </trkpt>
      <trkpt lat="-29.592948434874415" lon="29.299189802259207">
        <ele>2523.1199999999999</ele>
        <time>2015-05-03T08:50:17Z</time>
      </trkpt>
      <trkpt lat="-29.593146583065391" lon="29.299276219680905">
        <ele>2518.79</ele>
        <time>2015-05-03T08:50:23Z</time>
      </trkpt>
      <trkpt lat="-29.593173488974571" lon="29.299311172217131">
        <ele>2517.8299999999999</ele>
        <time>2015-05-03T08:50:24Z</time>
      </trkpt>
      <trkpt lat="-29.593195449560881" lon="29.299349226057529">
        <ele>2517.3499999999999</ele>
        <time>2015-05-03T08:50:25Z</time>
      </trkpt>
      <trkpt lat="-29.593215985223651" lon="29.299390548840165">
        <ele>2516.8699999999999</ele>
        <time>2015-05-03T08:50:26Z</time>
      </trkpt>
      <trkpt lat="-29.593236185610294" lon="29.299437738955021">
        <ele>2516.3899999999999</ele>
        <time>2015-05-03T08:50:27Z</time>
      </trkpt>
      <trkpt lat="-29.593566516414285" lon="29.300029752776027">
        <ele>2507.2600000000002</ele>
        <time>2015-05-03T08:50:40Z</time>
      </trkpt>
      <trkpt lat="-29.593648323789239" lon="29.30007191374898">
        <ele>2505.8099999999999</ele>
        <time>2015-05-03T08:50:42Z</time>
      </trkpt>
      <trkpt lat="-29.593697190284729" lon="29.300085157155991">
        <ele>2504.8499999999999</ele>
        <time>2015-05-03T08:50:43Z</time>
      </trkpt>
      <trkpt lat="-29.593745805323124" lon="29.300090940669179">
        <ele>2503.8899999999999</ele>
        <time>2015-05-03T08:50:44Z</time>
      </trkpt>
      <trkpt lat="-29.593927608802915" lon="29.300105022266507">
        <ele>2500.0500000000002</ele>
        <time>2015-05-03T08:50:48Z</time>
      </trkpt>
      <trkpt lat="-29.593966081738472" lon="29.300119187682867">
        <ele>2499.5700000000002</ele>
        <time>2015-05-03T08:50:49Z</time>
      </trkpt>
      <trkpt lat="-29.594003213569522" lon="29.300142405554652">
        <ele>2498.5999999999999</ele>
        <time>2015-05-03T08:50:50Z</time>
      </trkpt>
      <trkpt lat="-29.594031125307083" lon="29.300175346434116">
        <ele>2497.6399999999999</ele>
        <time>2015-05-03T08:50:51Z</time>
      </trkpt>
      <trkpt lat="-29.59404805675149" lon="29.300218848511577">
        <ele>2497.1599999999999</ele>
        <time>2015-05-03T08:50:52Z</time>
      </trkpt>
      <trkpt lat="-29.594058198854327" lon="29.300269391387701">
        <ele>2496.6799999999998</ele>
        <time>2015-05-03T08:50:53Z</time>
      </trkpt>
      <trkpt lat="-29.594065826386213" lon="29.300326891243458">
        <ele>2495.7199999999998</ele>
        <time>2015-05-03T08:50:54Z</time>
      </trkpt>
      <trkpt lat="-29.594069011509418" lon="29.300381122156978">
        <ele>2495.2399999999998</ele>
        <time>2015-05-03T08:50:55Z</time>
      </trkpt>
      <trkpt lat="-29.594082925468683" lon="29.301520558074117">
        <ele>2481.3000000000002</ele>
        <time>2015-05-03T08:51:13Z</time>
      </trkpt>
      <trkpt lat="-29.594117710366845" lon="29.302161019295454">
        <ele>2473.6100000000001</ele>
        <time>2015-05-03T08:51:24Z</time>
      </trkpt>
      <trkpt lat="-29.59413263015449" lon="29.302207538858056">
        <ele>2473.1300000000001</ele>
        <time>2015-05-03T08:51:25Z</time>
      </trkpt>
      <trkpt lat="-29.594522137194872" lon="29.302932824939489">
        <ele>2462.0700000000002</ele>
        <time>2015-05-03T08:51:39Z</time>
      </trkpt>
      <trkpt lat="-29.594741156324744" lon="29.303144551813602">
        <ele>2459.1900000000001</ele>
        <time>2015-05-03T08:51:50Z</time>
      </trkpt>
      <trkpt lat="-29.594734869897366" lon="29.303145641461015">
        <ele>2460.1500000000001</ele>
        <time>2015-05-03T08:52:14Z</time>
      </trkpt>
      <trkpt lat="-29.594731349498034" lon="29.303170284256339">
        <ele>2461.5900000000001</ele>
        <time>2015-05-03T08:52:42Z</time>
      </trkpt>
      <trkpt lat="-29.594729337841272" lon="29.30316349491477">
        <ele>2462.0700000000002</ele>
        <time>2015-05-03T08:53:03Z</time>
      </trkpt>
      <trkpt lat="-29.594739396125078" lon="29.303150251507759">
        <ele>2462.5500000000002</ele>
        <time>2015-05-03T08:53:12Z</time>
      </trkpt>
      <trkpt lat="-29.594752555713058" lon="29.303139857947826">
        <ele>2462.5500000000002</ele>
        <time>2015-05-03T08:53:13Z</time>
      </trkpt>
      <trkpt lat="-29.594767224043608" lon="29.303119657561183">
        <ele>2462.0700000000002</ele>
        <time>2015-05-03T08:53:14Z</time>
      </trkpt>
      <trkpt lat="-29.594783652573824" lon="29.303086046129465">
        <ele>2462.0700000000002</ele>
        <time>2015-05-03T08:53:15Z</time>
      </trkpt>
      <trkpt lat="-29.594801338389516" lon="29.303040783852339">
        <ele>2461.5900000000001</ele>
        <time>2015-05-03T08:53:16Z</time>
      </trkpt>
      <trkpt lat="-29.594869399443269" lon="29.302842216566205">
        <ele>2459.1900000000001</ele>
        <time>2015-05-03T08:53:20Z</time>
      </trkpt>
      <trkpt lat="-29.594891024753451" lon="29.30279552936554">
        <ele>2458.71</ele>
        <time>2015-05-03T08:53:21Z</time>
      </trkpt>
      <trkpt lat="-29.594917930662632" lon="29.302752446383238">
        <ele>2458.23</ele>
        <time>2015-05-03T08:53:22Z</time>
      </trkpt>
      <trkpt lat="-29.594948943704367" lon="29.302712380886078">
        <ele>2457.75</ele>
        <time>2015-05-03T08:53:23Z</time>
      </trkpt>
      <trkpt lat="-29.594984399154782" lon="29.302677428349853">
        <ele>2457.27</ele>
        <time>2015-05-03T08:53:24Z</time>
      </trkpt>
      <trkpt lat="-29.595022704452276" lon="29.302645744755864">
        <ele>2456.79</ele>
        <time>2015-05-03T08:53:25Z</time>
      </trkpt>
      <trkpt lat="-29.595064865425229" lon="29.302618419751525">
        <ele>2456.3099999999999</ele>
        <time>2015-05-03T08:53:26Z</time>
      </trkpt>
      <trkpt lat="-29.595108451321721" lon="29.302595285698771">
        <ele>2456.3099999999999</ele>
        <time>2015-05-03T08:53:27Z</time>
      </trkpt>
      <trkpt lat="-29.595153462141752" lon="29.302573744207621">
        <ele>2455.8200000000002</ele>
        <time>2015-05-03T08:53:28Z</time>
      </trkpt>
      <trkpt lat="-29.595197467133403" lon="29.302548933774233">
        <ele>2455.3400000000001</ele>
        <time>2015-05-03T08:53:29Z</time>
      </trkpt>
      <trkpt lat="-29.595239879563451" lon="29.302517669275403">
        <ele>2454.3800000000001</ele>
        <time>2015-05-03T08:53:30Z</time>
      </trkpt>
      <trkpt lat="-29.595280112698674" lon="29.302479028701782">
        <ele>2453.9000000000001</ele>
        <time>2015-05-03T08:53:31Z</time>
      </trkpt>
      <trkpt lat="-29.595432328060269" lon="29.302311474457383">
        <ele>2451.02</ele>
        <time>2015-05-03T08:53:35Z</time>
      </trkpt>
      <trkpt lat="-29.595471639186144" lon="29.302283814176917">
        <ele>2450.0599999999999</ele>
        <time>2015-05-03T08:53:36Z</time>
      </trkpt>
      <trkpt lat="-29.595514386892319" lon="29.30226294323802">
        <ele>2449.0999999999999</ele>
        <time>2015-05-03T08:53:37Z</time>
      </trkpt>
      <trkpt lat="-29.59555990062654" lon="29.302251627668738">
        <ele>2448.1300000000001</ele>
        <time>2015-05-03T08:53:38Z</time>
      </trkpt>
      <trkpt lat="-29.595605665817857" lon="29.302252130582929">
        <ele>2447.1700000000001</ele>
        <time>2015-05-03T08:53:39Z</time>
      </trkpt>
      <trkpt lat="-29.595650341361761" lon="29.302263194695115">
        <ele>2446.6900000000001</ele>
        <time>2015-05-03T08:53:40Z</time>
      </trkpt>
      <trkpt lat="-29.59568940103054" lon="29.302276941016316">
        <ele>2446.21</ele>
        <time>2015-05-03T08:53:41Z</time>
      </trkpt>
      <trkpt lat="-29.595877742394805" lon="29.302488667890429">
        <ele>2440.9200000000001</ele>
        <time>2015-05-03T08:53:51Z</time>
      </trkpt>
      <trkpt lat="-29.595991484820843" lon="29.302941625937819">
        <ele>2434.6799999999998</ele>
        <time>2015-05-03T08:54:02Z</time>
      </trkpt>
      <trkpt lat="-29.596233889460564" lon="29.303949465975165">
        <ele>2421.2199999999998</ele>
        <time>2015-05-03T08:54:21Z</time>
      </trkpt>
      <trkpt lat="-29.596360540017486" lon="29.304633848369122">
        <ele>2414.0100000000002</ele>
        <time>2015-05-03T08:54:31Z</time>
      </trkpt>
      <trkpt lat="-29.596386691555381" lon="29.305102983489633">
        <ele>2409.1999999999998</ele>
        <time>2015-05-03T08:54:38Z</time>
      </trkpt>
      <trkpt lat="-29.596377220004797" lon="29.305172134190798">
        <ele>2408.7199999999998</ele>
        <time>2015-05-03T08:54:39Z</time>
      </trkpt>
      <trkpt lat="-29.596355175599456" lon="29.305302975699306">
        <ele>2407.7600000000002</ele>
        <time>2015-05-03T08:54:41Z</time>
      </trkpt>
      <trkpt lat="-29.59637395106256" lon="29.305732799693942">
        <ele>2402.9499999999998</ele>
        <time>2015-05-03T08:54:48Z</time>
      </trkpt>
      <trkpt lat="-29.596392475068569" lon="29.305786695331335">
        <ele>2401.9899999999998</ele>
        <time>2015-05-03T08:54:49Z</time>
      </trkpt>
      <trkpt lat="-29.596413932740688" lon="29.305834639817476">
        <ele>2401.0300000000002</ele>
        <time>2015-05-03T08:54:50Z</time>
      </trkpt>
      <trkpt lat="-29.596456261351705" lon="29.305921560153365">
        <ele>2400.0700000000002</ele>
        <time>2015-05-03T08:54:52Z</time>
      </trkpt>
      <trkpt lat="-29.596471097320318" lon="29.305967325344682">
        <ele>2399.5900000000001</ele>
        <time>2015-05-03T08:54:53Z</time>
      </trkpt>
      <trkpt lat="-29.59648291580379" lon="29.306009570136666">
        <ele>2399.5900000000001</ele>
        <time>2015-05-03T08:54:54Z</time>
      </trkpt>
      <trkpt lat="-29.596498841419816" lon="29.306049216538668">
        <ele>2399.1100000000001</ele>
        <time>2015-05-03T08:54:55Z</time>
      </trkpt>
      <trkpt lat="-29.596518622711301" lon="29.306077463552356">
        <ele>2398.6300000000001</ele>
        <time>2015-05-03T08:54:56Z</time>
      </trkpt>
      <trkpt lat="-29.596542846411467" lon="29.306093975901604">
        <ele>2398.6300000000001</ele>
        <time>2015-05-03T08:54:57Z</time>
      </trkpt>
      <trkpt lat="-29.596567070111632" lon="29.306098753586411">
        <ele>2398.1500000000001</ele>
        <time>2015-05-03T08:54:58Z</time>
      </trkpt>
      <trkpt lat="-29.596590036526322" lon="29.306094059720635">
        <ele>2398.1500000000001</ele>
        <time>2015-05-03T08:54:59Z</time>
      </trkpt>
      <trkpt lat="-29.59661241620779" lon="29.306074697524309">
        <ele>2398.6300000000001</ele>
        <time>2015-05-03T08:55:00Z</time>
      </trkpt>
      <trkpt lat="-29.596629263833165" lon="29.306045779958367">
        <ele>2398.6300000000001</ele>
        <time>2015-05-03T08:55:01Z</time>
      </trkpt>
      <trkpt lat="-29.596639908850193" lon="29.30601954460144">
        <ele>2398.6300000000001</ele>
        <time>2015-05-03T08:55:02Z</time>
      </trkpt>
      <trkpt lat="-29.596644183620811" lon="29.306008815765381">
        <ele>2398.6300000000001</ele>
        <time>2015-05-03T08:55:12Z</time>
      </trkpt>
      <trkpt lat="-29.596643093973398" lon="29.30602247826755">
        <ele>2400.0700000000002</ele>
        <time>2015-05-03T08:55:40Z</time>
      </trkpt>
      <trkpt lat="-29.596646530553699" lon="29.306021304801106">
        <ele>2399.1100000000001</ele>
        <time>2015-05-03T08:56:06Z</time>
      </trkpt>
      <trkpt lat="-29.596643848344684" lon="29.306037481874228">
        <ele>2400.5500000000002</ele>
        <time>2015-05-03T08:56:34Z</time>
      </trkpt>
      <trkpt lat="-29.596638819202781" lon="29.306049970909953">
        <ele>2403.4299999999998</ele>
        <time>2015-05-03T08:57:05Z</time>
      </trkpt>
      <trkpt lat="-29.596638064831495" lon="29.30604737251997">
        <ele>2403.9099999999999</ele>
        <time>2015-05-03T08:57:36Z</time>
      </trkpt>
      <trkpt lat="-29.596637729555368" lon="29.306053658947349">
        <ele>2404.8800000000001</ele>
        <time>2015-05-03T08:58:05Z</time>
      </trkpt>
      <trkpt lat="-29.596642507240176" lon="29.306053826585412">
        <ele>2405.3600000000001</ele>
        <time>2015-05-03T08:58:34Z</time>
      </trkpt>
      <trkpt lat="-29.596640411764383" lon="29.306054413318634">
        <ele>2405.3600000000001</ele>
        <time>2015-05-03T08:59:07Z</time>
      </trkpt>
      <trkpt lat="-29.596636723726988" lon="29.306052904576063">
        <ele>2405.3600000000001</ele>
        <time>2015-05-03T08:59:35Z</time>
      </trkpt>
      <trkpt lat="-29.596633370965719" lon="29.306053323671222">
        <ele>2405.3600000000001</ele>
        <time>2015-05-03T09:00:02Z</time>
      </trkpt>
      <trkpt lat="-29.596631526947021" lon="29.306042091920972">
        <ele>2405.3600000000001</ele>
        <time>2015-05-03T09:00:20Z</time>
      </trkpt>
      <trkpt lat="-29.596702521666884" lon="29.305910496041179">
        <ele>2404.3899999999999</ele>
        <time>2015-05-03T09:00:24Z</time>
      </trkpt>
      <trkpt lat="-29.596732445061207" lon="29.305872609838843">
        <ele>2403.9099999999999</ele>
        <time>2015-05-03T09:00:25Z</time>
      </trkpt>
      <trkpt lat="-29.596764128655195" lon="29.30584067478776">
        <ele>2403.4299999999998</ele>
        <time>2015-05-03T09:00:26Z</time>
      </trkpt>
      <trkpt lat="-29.596879128366709" lon="29.305746546015143">
        <ele>2402.4699999999998</ele>
        <time>2015-05-03T09:00:29Z</time>
      </trkpt>
      <trkpt lat="-29.597383635118604" lon="29.305481342598796">
        <ele>2396.6999999999998</ele>
        <time>2015-05-03T09:00:41Z</time>
      </trkpt>
      <trkpt lat="-29.597423449158669" lon="29.305451167747378">
        <ele>2396.2199999999998</ele>
        <time>2015-05-03T09:00:42Z</time>
      </trkpt>
      <trkpt lat="-29.597454126924276" lon="29.305424261838198">
        <ele>2396.2199999999998</ele>
        <time>2015-05-03T09:00:43Z</time>
      </trkpt>
      <trkpt lat="-29.597490420565009" lon="29.305388554930687">
        <ele>2395.7399999999998</ele>
        <time>2015-05-03T09:00:44Z</time>
      </trkpt>
      <trkpt lat="-29.597521349787712" lon="29.305354943498969">
        <ele>2395.2600000000002</ele>
        <time>2015-05-03T09:00:45Z</time>
      </trkpt>
      <trkpt lat="-29.59788428619504" lon="29.304855298250914">
        <ele>2389.0100000000002</ele>
        <time>2015-05-03T09:00:57Z</time>
      </trkpt>
      <trkpt lat="-29.597917227074504" lon="29.3048111256212">
        <ele>2388.5300000000002</ele>
        <time>2015-05-03T09:00:58Z</time>
      </trkpt>
      <trkpt lat="-29.597951928153634" lon="29.304776843637228">
        <ele>2388.0500000000002</ele>
        <time>2015-05-03T09:00:59Z</time>
      </trkpt>
      <trkpt lat="-29.597989227622747" lon="29.304746417328715">
        <ele>2387.5700000000002</ele>
        <time>2015-05-03T09:01:00Z</time>
      </trkpt>
      <trkpt lat="-29.5980313885957" lon="29.304716493934393">
        <ele>2387.0900000000001</ele>
        <time>2015-05-03T09:01:01Z</time>
      </trkpt>
      <trkpt lat="-29.598078997805715" lon="29.304687576368451">
        <ele>2386.1300000000001</ele>
        <time>2015-05-03T09:01:02Z</time>
      </trkpt>
      <trkpt lat="-29.598121745511889" lon="29.304665951058269">
        <ele>2385.6500000000001</ele>
        <time>2015-05-03T09:01:03Z</time>
      </trkpt>
      <trkpt lat="-29.598168516531587" lon="29.30464600212872">
        <ele>2385.1700000000001</ele>
        <time>2015-05-03T09:01:04Z</time>
      </trkpt>
      <trkpt lat="-29.598547797650099" lon="29.304524883627892">
        <ele>2381.3200000000002</ele>
        <time>2015-05-03T09:01:12Z</time>
      </trkpt>
      <trkpt lat="-29.598604124039412" lon="29.304524883627892">
        <ele>2380.8400000000001</ele>
        <time>2015-05-03T09:01:13Z</time>
      </trkpt>
      <trkpt lat="-29.598652487620711" lon="29.304533852264285">
        <ele>2380.3600000000001</ele>
        <time>2015-05-03T09:01:14Z</time>
      </trkpt>
      <trkpt lat="-29.598694983869791" lon="29.30454726330936">
        <ele>2379.8800000000001</ele>
        <time>2015-05-03T09:01:15Z</time>
      </trkpt>
      <trkpt lat="-29.59875013679266" lon="29.304569894447923">
        <ele>2379.4000000000001</ele>
        <time>2015-05-03T09:01:16Z</time>
      </trkpt>
      <trkpt lat="-29.598793722689152" lon="29.304591938853264">
        <ele>2378.9200000000001</ele>
        <time>2015-05-03T09:01:17Z</time>
      </trkpt>
      <trkpt lat="-29.59884007461369" lon="29.304618006572127">
        <ele>2377.96</ele>
        <time>2015-05-03T09:01:18Z</time>
      </trkpt>
      <trkpt lat="-29.599173087626696" lon="29.304827135056257">
        <ele>2373.1500000000001</ele>
        <time>2015-05-03T09:01:29Z</time>
      </trkpt>
      <trkpt lat="-29.599220026284456" lon="29.30517666041851">
        <ele>2372.1900000000001</ele>
        <time>2015-05-03T09:01:36Z</time>
      </trkpt>
      <trkpt lat="-29.599247183650732" lon="29.305827599018812">
        <ele>2370.27</ele>
        <time>2015-05-03T09:01:43Z</time>
      </trkpt>
      <trkpt lat="-29.599255817010999" lon="29.306175615638494">
        <ele>2367.3800000000001</ele>
        <time>2015-05-03T09:01:49Z</time>
      </trkpt>
      <trkpt lat="-29.599148025736213" lon="29.306581299751997">
        <ele>2363.54</ele>
        <time>2015-05-03T09:01:59Z</time>
      </trkpt>
      <trkpt lat="-29.599139224737883" lon="29.306629160419106">
        <ele>2363.0599999999999</ele>
        <time>2015-05-03T09:02:00Z</time>
      </trkpt>
      <trkpt lat="-29.599134530872107" lon="29.306679200381041">
        <ele>2362.5799999999999</ele>
        <time>2015-05-03T09:02:01Z</time>
      </trkpt>
      <trkpt lat="-29.599133357405663" lon="29.30672949180007">
        <ele>2362.5799999999999</ele>
        <time>2015-05-03T09:02:02Z</time>
      </trkpt>
      <trkpt lat="-29.599135117605329" lon="29.306777939200401">
        <ele>2362.0999999999999</ele>
        <time>2015-05-03T09:02:03Z</time>
      </trkpt>
      <trkpt lat="-29.599136877804995" lon="29.306821189820766">
        <ele>2361.6199999999999</ele>
        <time>2015-05-03T09:02:04Z</time>
      </trkpt>
      <trkpt lat="-29.599164202809334" lon="29.307011375203729">
        <ele>2361.1399999999999</ele>
        <time>2015-05-03T09:02:09Z</time>
      </trkpt>
      <trkpt lat="-29.599189767614007" lon="29.30703392252326">
        <ele>2361.1399999999999</ele>
        <time>2015-05-03T09:02:10Z</time>
      </trkpt>
      <trkpt lat="-29.599225306883454" lon="29.307043058797717">
        <ele>2360.6500000000001</ele>
        <time>2015-05-03T09:02:11Z</time>
      </trkpt>
      <trkpt lat="-29.599263779819012" lon="29.307037275284529">
        <ele>2360.6500000000001</ele>
        <time>2015-05-03T09:02:12Z</time>
      </trkpt>
      <trkpt lat="-29.599298145622015" lon="29.30702461861074">
        <ele>2360.6500000000001</ele>
        <time>2015-05-03T09:02:13Z</time>
      </trkpt>
      <trkpt lat="-29.599372828379273" lon="29.307002322748303">
        <ele>2360.6500000000001</ele>
        <time>2015-05-03T09:02:15Z</time>
      </trkpt>
      <trkpt lat="-29.599418509751558" lon="29.307000478729606">
        <ele>2360.1700000000001</ele>
        <time>2015-05-03T09:02:16Z</time>
      </trkpt>
      <trkpt lat="-29.59946502931416" lon="29.307004753500223">
        <ele>2360.1700000000001</ele>
        <time>2015-05-03T09:02:17Z</time>
      </trkpt>
      <trkpt lat="-29.599680863320827" lon="29.307024115696549">
        <ele>2359.21</ele>
        <time>2015-05-03T09:02:21Z</time>
      </trkpt>
      <trkpt lat="-29.599738782271743" lon="29.307020260021091">
        <ele>2358.73</ele>
        <time>2015-05-03T09:02:22Z</time>
      </trkpt>
      <trkpt lat="-29.599793264642358" lon="29.307008692994714">
        <ele>2358.25</ele>
        <time>2015-05-03T09:02:23Z</time>
      </trkpt>
      <trkpt lat="-29.600002896040678" lon="29.306958988308907">
        <ele>2356.8099999999999</ele>
        <time>2015-05-03T09:02:27Z</time>
      </trkpt>
      <trkpt lat="-29.60005721077323" lon="29.306959994137287">
        <ele>2355.8499999999999</ele>
        <time>2015-05-03T09:02:28Z</time>
      </trkpt>
      <trkpt lat="-29.600260639563203" lon="29.306967621669173">
        <ele>2354.4099999999999</ele>
        <time>2015-05-03T09:02:32Z</time>
      </trkpt>
      <trkpt lat="-29.600305315107107" lon="29.306958485394716">
        <ele>2353.9299999999998</ele>
        <time>2015-05-03T09:02:33Z</time>
      </trkpt>
      <trkpt lat="-29.600413274019957" lon="29.306928897276521">
        <ele>2351.52</ele>
        <time>2015-05-03T09:02:41Z</time>
      </trkpt>
      <trkpt lat="-29.60043054074049" lon="29.306934010237455">
        <ele>2353.9299999999998</ele>
        <time>2015-05-03T09:03:00Z</time>
      </trkpt>
      <trkpt lat="-29.600611170753837" lon="29.306997628882527">
        <ele>2351.52</ele>
        <time>2015-05-03T09:03:07Z</time>
      </trkpt>
      <trkpt lat="-29.600753579288721" lon="29.307294012978673">
        <ele>2346.23</ele>
        <time>2015-05-03T09:03:16Z</time>
      </trkpt>
      <trkpt lat="-29.601157084107399" lon="29.307433320209384">
        <ele>2338.0599999999999</ele>
        <time>2015-05-03T09:03:28Z</time>
      </trkpt>
      <trkpt lat="-29.601258169859648" lon="29.307491239160299">
        <ele>2335.6599999999999</ele>
        <time>2015-05-03T09:03:31Z</time>
      </trkpt>
      <trkpt lat="-29.601279459893703" lon="29.307530885562301">
        <ele>2335.1799999999998</ele>
        <time>2015-05-03T09:03:32Z</time>
      </trkpt>
      <trkpt lat="-29.601462939754128" lon="29.307954590767622">
        <ele>2327.9699999999998</ele>
        <time>2015-05-03T09:03:44Z</time>
      </trkpt>
      <trkpt lat="-29.60145472548902" lon="29.30798476561904">
        <ele>2327.9699999999998</ele>
        <time>2015-05-03T09:03:45Z</time>
      </trkpt>
      <trkpt lat="-29.601439302787185" lon="29.308007145300508">
        <ele>2327.0100000000002</ele>
        <time>2015-05-03T09:03:46Z</time>
      </trkpt>
      <trkpt lat="-29.6014160849154" lon="29.308021729812026">
        <ele>2327.0100000000002</ele>
        <time>2015-05-03T09:03:47Z</time>
      </trkpt>
      <trkpt lat="-29.600977208465338" lon="29.308153744786978">
        <ele>2322.1999999999998</ele>
        <time>2015-05-03T09:04:02Z</time>
      </trkpt>
      <trkpt lat="-29.600672191008925" lon="29.30801410228014">
        <ele>2317.8800000000001</ele>
        <time>2015-05-03T09:04:15Z</time>
      </trkpt>
      <trkpt lat="-29.600256280973554" lon="29.307765662670135">
        <ele>2308.7399999999998</ele>
        <time>2015-05-03T09:04:29Z</time>
      </trkpt>
      <trkpt lat="-29.599857972934842" lon="29.307815451174974">
        <ele>2302.0100000000002</ele>
        <time>2015-05-03T09:04:42Z</time>
      </trkpt>
      <trkpt lat="-29.599705338478088" lon="29.307856606319547">
        <ele>2300.0900000000001</ele>
        <time>2015-05-03T09:04:54Z</time>
      </trkpt>
      <trkpt lat="-29.599683461710811" lon="29.30782257579267">
        <ele>2300.0900000000001</ele>
        <time>2015-05-03T09:05:26Z</time>
      </trkpt>
      <trkpt lat="-29.599650017917156" lon="29.307878818362951">
        <ele>2302.0100000000002</ele>
        <time>2015-05-03T09:06:03Z</time>
      </trkpt>
      <trkpt lat="-29.599169651046395" lon="29.308233456686139">
        <ele>2292.8800000000001</ele>
        <time>2015-05-03T09:06:18Z</time>
      </trkpt>
      <trkpt lat="-29.598886929452419" lon="29.308602511882782">
        <ele>2284.71</ele>
        <time>2015-05-03T09:06:32Z</time>
      </trkpt>
      <trkpt lat="-29.598578810691833" lon="29.308893363922834">
        <ele>2277.02</ele>
        <time>2015-05-03T09:06:45Z</time>
      </trkpt>
      <trkpt lat="-29.598520724102855" lon="29.309072401374578">
        <ele>2273.6599999999999</ele>
        <time>2015-05-03T09:06:51Z</time>
      </trkpt>
      <trkpt lat="-29.598535560071468" lon="29.309095032513142">
        <ele>2272.6900000000001</ele>
        <time>2015-05-03T09:06:52Z</time>
      </trkpt>
      <trkpt lat="-29.598547294735909" lon="29.309114646166563">
        <ele>2272.6900000000001</ele>
        <time>2015-05-03T09:06:53Z</time>
      </trkpt>
      <trkpt lat="-29.598556011915207" lon="29.309134259819984">
        <ele>2272.21</ele>
        <time>2015-05-03T09:06:54Z</time>
      </trkpt>
      <trkpt lat="-29.598562382161617" lon="29.309148844331503">
        <ele>2272.21</ele>
        <time>2015-05-03T09:06:55Z</time>
      </trkpt>
      <trkpt lat="-29.598569003865123" lon="29.309170050546527">
        <ele>2272.21</ele>
        <time>2015-05-03T09:07:08Z</time>
      </trkpt>
      <trkpt lat="-29.598565064370632" lon="29.309168122708797">
        <ele>2269.8099999999999</ele>
        <time>2015-05-03T09:07:51Z</time>
      </trkpt>
      <trkpt lat="-29.598619630560279" lon="29.30926401168108">
        <ele>2271.25</ele>
        <time>2015-05-03T09:07:59Z</time>
      </trkpt>
      <trkpt lat="-29.598619882017374" lon="29.309288403019309">
        <ele>2271.25</ele>
        <time>2015-05-03T09:08:00Z</time>
      </trkpt>
      <trkpt lat="-29.598616445437074" lon="29.309319499880075">
        <ele>2271.25</ele>
        <time>2015-05-03T09:08:01Z</time>
      </trkpt>
      <trkpt lat="-29.598604878410697" lon="29.309354620054364">
        <ele>2270.77</ele>
        <time>2015-05-03T09:08:02Z</time>
      </trkpt>
      <trkpt lat="-29.598586689680815" lon="29.30939300917089">
        <ele>2270.77</ele>
        <time>2015-05-03T09:08:03Z</time>
      </trkpt>
      <trkpt lat="-29.598565399646759" lon="29.309428883716464">
        <ele>2270.29</ele>
        <time>2015-05-03T09:08:04Z</time>
      </trkpt>
      <trkpt lat="-29.59825124591589" lon="29.309980412945151">
        <ele>2262.1199999999999</ele>
        <time>2015-05-03T09:08:19Z</time>
      </trkpt>
      <trkpt lat="-29.597835503518581" lon="29.310292135924101">
        <ele>2253.4699999999998</ele>
        <time>2015-05-03T09:08:34Z</time>
      </trkpt>
      <trkpt lat="-29.597665518522263" lon="29.310417110100389">
        <ele>2251.54</ele>
        <time>2015-05-03T09:08:39Z</time>
      </trkpt>
      <trkpt lat="-29.597638361155987" lon="29.31045189499855">
        <ele>2251.0599999999999</ele>
        <time>2015-05-03T09:08:40Z</time>
      </trkpt>
      <trkpt lat="-29.597613383084536" lon="29.310488272458315">
        <ele>2250.0999999999999</ele>
        <time>2015-05-03T09:08:41Z</time>
      </trkpt>
      <trkpt lat="-29.597386568784714" lon="29.310988085344434">
        <ele>2243.3699999999999</ele>
        <time>2015-05-03T09:08:55Z</time>
      </trkpt>
      <trkpt lat="-29.597333762794733" lon="29.311103839427233">
        <ele>2242.4099999999999</ele>
        <time>2015-05-03T09:08:58Z</time>
      </trkpt>
      <trkpt lat="-29.597311466932297" lon="29.311203416436911">
        <ele>2241.9299999999998</ele>
        <time>2015-05-03T09:09:00Z</time>
      </trkpt>
      <trkpt lat="-29.597303504124284" lon="29.311251109465957">
        <ele>2241.9299999999998</ele>
        <time>2015-05-03T09:09:01Z</time>
      </trkpt>
      <trkpt lat="-29.597290931269526" lon="29.311346830800176">
        <ele>2241.9299999999998</ele>
        <time>2015-05-03T09:09:03Z</time>
      </trkpt>
      <trkpt lat="-29.597293781116605" lon="29.311396116390824">
        <ele>2241.9299999999998</ele>
        <time>2015-05-03T09:09:04Z</time>
      </trkpt>
      <trkpt lat="-29.597299229353666" lon="29.31144037283957">
        <ele>2241.4499999999998</ele>
        <time>2015-05-03T09:09:05Z</time>
      </trkpt>
      <trkpt lat="-29.59732823073864" lon="29.311508098617196">
        <ele>2240.4899999999998</ele>
        <time>2015-05-03T09:09:13Z</time>
      </trkpt>
      <trkpt lat="-29.597368463873863" lon="29.311582027003169">
        <ele>2240.4899999999998</ele>
        <time>2015-05-03T09:09:16Z</time>
      </trkpt>
      <trkpt lat="-29.597388748079538" lon="29.311640448868275">
        <ele>2240.4899999999998</ele>
        <time>2015-05-03T09:09:17Z</time>
      </trkpt>
      <trkpt lat="-29.597406685352325" lon="29.311722340062261">
        <ele>2240.4899999999998</ele>
        <time>2015-05-03T09:09:18Z</time>
      </trkpt>
      <trkpt lat="-29.597503412514925" lon="29.312471933662891">
        <ele>2235.6799999999998</ele>
        <time>2015-05-03T09:09:29Z</time>
      </trkpt>
      <trkpt lat="-29.597542975097895" lon="29.312809053808451">
        <ele>2230.8800000000001</ele>
        <time>2015-05-03T09:09:40Z</time>
      </trkpt>
      <trkpt lat="-29.597544483840466" lon="29.312824308872223">
        <ele>2230.8800000000001</ele>
        <time>2015-05-03T09:10:01Z</time>
      </trkpt>
      <trkpt lat="-29.597615143284202" lon="29.312955820932984">
        <ele>2229.9200000000001</ele>
        <time>2015-05-03T09:10:24Z</time>
      </trkpt>
      <trkpt lat="-29.597624698653817" lon="29.313406683504581">
        <ele>2222.71</ele>
        <time>2015-05-03T09:10:35Z</time>
      </trkpt>
      <trkpt lat="-29.597670547664165" lon="29.313642466440797">
        <ele>2218.8600000000001</ele>
        <time>2015-05-03T09:10:39Z</time>
      </trkpt>
      <trkpt lat="-29.597691167145967" lon="29.313700217753649">
        <ele>2217.9000000000001</ele>
        <time>2015-05-03T09:10:40Z</time>
      </trkpt>
      <trkpt lat="-29.597838688641787" lon="29.314205981791019">
        <ele>2210.21</ele>
        <time>2015-05-03T09:10:52Z</time>
      </trkpt>
      <trkpt lat="-29.597879173234105" lon="29.314426509663463">
        <ele>2205.8800000000001</ele>
        <time>2015-05-03T09:11:03Z</time>
      </trkpt>
      <trkpt lat="-29.597883196547627" lon="29.314448554068804">
        <ele>2204.9200000000001</ele>
        <time>2015-05-03T09:11:14Z</time>
      </trkpt>
      <trkpt lat="-29.59792485460639" lon="29.314572438597679">
        <ele>2201.5599999999999</ele>
        <time>2015-05-03T09:11:37Z</time>
      </trkpt>
      <trkpt lat="-29.597885878756642" lon="29.315035371109843">
        <ele>2194.8299999999999</ele>
        <time>2015-05-03T09:11:47Z</time>
      </trkpt>
      <trkpt lat="-29.597915383055806" lon="29.315429488196969">
        <ele>2189.0599999999999</ele>
        <time>2015-05-03T09:11:59Z</time>
      </trkpt>
      <trkpt lat="-29.597937595099211" lon="29.315567119047046">
        <ele>2187.6199999999999</ele>
        <time>2015-05-03T09:12:03Z</time>
      </trkpt>
      <trkpt lat="-29.597992831841111" lon="29.315723106265068">
        <ele>2185.6900000000001</ele>
        <time>2015-05-03T09:12:06Z</time>
      </trkpt>
      <trkpt lat="-29.598021665588021" lon="29.315780773758888">
        <ele>2185.21</ele>
        <time>2015-05-03T09:12:07Z</time>
      </trkpt>
      <trkpt lat="-29.598055947571993" lon="29.315838105976582">
        <ele>2184.73</ele>
        <time>2015-05-03T09:12:08Z</time>
      </trkpt>
      <trkpt lat="-29.598158458247781" lon="29.316006666049361">
        <ele>2183.29</ele>
        <time>2015-05-03T09:12:11Z</time>
      </trkpt>
      <trkpt lat="-29.598176898434758" lon="29.316070033237338">
        <ele>2182.8099999999999</ele>
        <time>2015-05-03T09:12:12Z</time>
      </trkpt>
      <trkpt lat="-29.598267842084169" lon="29.316646456718445">
        <ele>2181.3699999999999</ele>
        <time>2015-05-03T09:12:19Z</time>
      </trkpt>
      <trkpt lat="-29.598282929509878" lon="29.316713931038976">
        <ele>2180.8899999999999</ele>
        <time>2015-05-03T09:12:20Z</time>
      </trkpt>
      <trkpt lat="-29.598314696922898" lon="29.316837647929788">
        <ele>2179.9299999999998</ele>
        <time>2015-05-03T09:12:22Z</time>
      </trkpt>
      <trkpt lat="-29.598339088261127" lon="29.317000508308411">
        <ele>2178</ele>
        <time>2015-05-03T09:12:25Z</time>
      </trkpt>
      <trkpt lat="-29.598341267555952" lon="29.317050632089376">
        <ele>2177.04</ele>
        <time>2015-05-03T09:12:26Z</time>
      </trkpt>
      <trkpt lat="-29.598345039412379" lon="29.317099917680025">
        <ele>2176.5599999999999</ele>
        <time>2015-05-03T09:12:27Z</time>
      </trkpt>
      <trkpt lat="-29.598348559811711" lon="29.317148784175515">
        <ele>2175.5999999999999</ele>
        <time>2015-05-03T09:12:28Z</time>
      </trkpt>
      <trkpt lat="-29.598353002220392" lon="29.317197063937783">
        <ele>2175.1199999999999</ele>
        <time>2015-05-03T09:12:29Z</time>
      </trkpt>
      <trkpt lat="-29.598352164030075" lon="29.317247606813908">
        <ele>2174.1599999999999</ele>
        <time>2015-05-03T09:12:30Z</time>
      </trkpt>
      <trkpt lat="-29.598346380516887" lon="29.31729706004262">
        <ele>2173.1999999999998</ele>
        <time>2015-05-03T09:12:31Z</time>
      </trkpt>
      <trkpt lat="-29.598341602832079" lon="29.317342909052968">
        <ele>2172.2399999999998</ele>
        <time>2015-05-03T09:12:32Z</time>
      </trkpt>
      <trkpt lat="-29.598209336400032" lon="29.317920673638582">
        <ele>2164.0599999999999</ele>
        <time>2015-05-03T09:12:47Z</time>
      </trkpt>
      <trkpt lat="-29.59814814850688" lon="29.318263828754425">
        <ele>2157.8200000000002</ele>
        <time>2015-05-03T09:12:55Z</time>
      </trkpt>
      <trkpt lat="-29.598152423277497" lon="29.318319065496325">
        <ele>2156.8600000000001</ele>
        <time>2015-05-03T09:12:56Z</time>
      </trkpt>
      <trkpt lat="-29.598161056637764" lon="29.318377487361431">
        <ele>2155.8899999999999</ele>
        <time>2015-05-03T09:12:57Z</time>
      </trkpt>
      <trkpt lat="-29.598174132406712" lon="29.318436495959759">
        <ele>2154.9299999999998</ele>
        <time>2015-05-03T09:12:58Z</time>
      </trkpt>
      <trkpt lat="-29.598192572593689" lon="29.318496007472277">
        <ele>2153.4899999999998</ele>
        <time>2015-05-03T09:12:59Z</time>
      </trkpt>
      <trkpt lat="-29.598215371370316" lon="29.318553926423192">
        <ele>2152.5300000000002</ele>
        <time>2015-05-03T09:13:00Z</time>
      </trkpt>
      <trkpt lat="-29.598311930894852" lon="29.318754756823182">
        <ele>2148.6799999999998</ele>
        <time>2015-05-03T09:13:04Z</time>
      </trkpt>
      <trkpt lat="-29.59849457256496" lon="29.319313997402787">
        <ele>2140.5100000000002</ele>
        <time>2015-05-03T09:13:16Z</time>
      </trkpt>
      <trkpt lat="-29.598588449880481" lon="29.31969964876771">
        <ele>2137.1500000000001</ele>
        <time>2015-05-03T09:13:24Z</time>
      </trkpt>
      <trkpt lat="-29.598638657480478" lon="29.319803416728973">
        <ele>2137.1500000000001</ele>
        <time>2015-05-03T09:13:40Z</time>
      </trkpt>
      <trkpt lat="-29.598807385191321" lon="29.320289567112923">
        <ele>2128.5</ele>
        <time>2015-05-03T09:13:54Z</time>
      </trkpt>
      <trkpt lat="-29.598959935829043" lon="29.320946708321571">
        <ele>2119.3600000000001</ele>
        <time>2015-05-03T09:14:08Z</time>
      </trkpt>
      <trkpt lat="-29.599064039066434" lon="29.321153992787004">
        <ele>2117.4400000000001</ele>
        <time>2015-05-03T09:14:11Z</time>
      </trkpt>
      <trkpt lat="-29.599101506173611" lon="29.321201182901859">
        <ele>2116.96</ele>
        <time>2015-05-03T09:14:12Z</time>
      </trkpt>
      <trkpt lat="-29.599139727652073" lon="29.321236303076148">
        <ele>2116</ele>
        <time>2015-05-03T09:14:13Z</time>
      </trkpt>
      <trkpt lat="-29.599231006577611" lon="29.32132531888783">
        <ele>2114.5599999999999</ele>
        <time>2015-05-03T09:14:16Z</time>
      </trkpt>
      <trkpt lat="-29.599253972992301" lon="29.321357253938913">
        <ele>2114.0799999999999</ele>
        <time>2015-05-03T09:14:17Z</time>
      </trkpt>
      <trkpt lat="-29.599271574988961" lon="29.321388686075807">
        <ele>2113.5999999999999</ele>
        <time>2015-05-03T09:14:18Z</time>
      </trkpt>
      <trkpt lat="-29.599284566938877" lon="29.321420453488827">
        <ele>2113.1199999999999</ele>
        <time>2015-05-03T09:14:19Z</time>
      </trkpt>
      <trkpt lat="-29.599292362108827" lon="29.321450125426054">
        <ele>2112.6300000000001</ele>
        <time>2015-05-03T09:14:20Z</time>
      </trkpt>
      <trkpt lat="-29.599296469241381" lon="29.321473091840744">
        <ele>2112.6300000000001</ele>
        <time>2015-05-03T09:14:21Z</time>
      </trkpt>
      <trkpt lat="-29.599299151450396" lon="29.321495303884149">
        <ele>2112.1500000000001</ele>
        <time>2015-05-03T09:14:22Z</time>
      </trkpt>
      <trkpt lat="-29.599391100928187" lon="29.321913393214345">
        <ele>2107.8299999999999</ele>
        <time>2015-05-03T09:14:30Z</time>
      </trkpt>
      <trkpt lat="-29.599600480869412" lon="29.322347743436694">
        <ele>2103.5</ele>
        <time>2015-05-03T09:14:36Z</time>
      </trkpt>
      <trkpt lat="-29.599645575508475" lon="29.322404656559229">
        <ele>2103.02</ele>
        <time>2015-05-03T09:14:37Z</time>
      </trkpt>
      <trkpt lat="-29.599694442003965" lon="29.322453606873751">
        <ele>2102.54</ele>
        <time>2015-05-03T09:14:38Z</time>
      </trkpt>
      <trkpt lat="-29.599749343469739" lon="29.322499958798289">
        <ele>2102.0599999999999</ele>
        <time>2015-05-03T09:14:39Z</time>
      </trkpt>
      <trkpt lat="-29.599807597696781" lon="29.322541365399957">
        <ele>2101.5799999999999</ele>
        <time>2015-05-03T09:14:40Z</time>
      </trkpt>
      <trkpt lat="-29.599863421171904" lon="29.322576988488436">
        <ele>2101.0999999999999</ele>
        <time>2015-05-03T09:14:41Z</time>
      </trkpt>
      <trkpt lat="-29.600014463067055" lon="29.322688216343522">
        <ele>2099.6599999999999</ele>
        <time>2015-05-03T09:14:44Z</time>
      </trkpt>
      <trkpt lat="-29.600056791678071" lon="29.32273062877357">
        <ele>2098.6999999999998</ele>
        <time>2015-05-03T09:14:45Z</time>
      </trkpt>
      <trkpt lat="-29.600095935165882" lon="29.322775052860379">
        <ele>2098.21</ele>
        <time>2015-05-03T09:14:46Z</time>
      </trkpt>
      <trkpt lat="-29.600460883229971" lon="29.323304872959852">
        <ele>2094.8499999999999</ele>
        <time>2015-05-03T09:14:54Z</time>
      </trkpt>
      <trkpt lat="-29.600858772173524" lon="29.323931336402893">
        <ele>2095.3299999999999</ele>
        <time>2015-05-03T09:15:02Z</time>
      </trkpt>
      <trkpt lat="-29.601016184315085" lon="29.324296871200204">
        <ele>2092.9299999999998</ele>
        <time>2015-05-03T09:15:08Z</time>
      </trkpt>
      <trkpt lat="-29.601123640313745" lon="29.324990725144744">
        <ele>2081.3899999999999</ele>
        <time>2015-05-03T09:15:21Z</time>
      </trkpt>
      <trkpt lat="-29.601158844307065" lon="29.325324324890971">
        <ele>2077.5500000000002</ele>
        <time>2015-05-03T09:15:27Z</time>
      </trkpt>
      <trkpt lat="-29.601177200675011" lon="29.325381740927696">
        <ele>2076.5900000000001</ele>
        <time>2015-05-03T09:15:28Z</time>
      </trkpt>
      <trkpt lat="-29.601202514022589" lon="29.325438570231199">
        <ele>2076.0999999999999</ele>
        <time>2015-05-03T09:15:29Z</time>
      </trkpt>
      <trkpt lat="-29.601284572854638" lon="29.325594222173095">
        <ele>2073.2199999999998</ele>
        <time>2015-05-03T09:15:32Z</time>
      </trkpt>
      <trkpt lat="-29.601298067718744" lon="29.325642082840204">
        <ele>2072.7399999999998</ele>
        <time>2015-05-03T09:15:33Z</time>
      </trkpt>
      <trkpt lat="-29.601305108517408" lon="29.32569270953536">
        <ele>2071.7800000000002</ele>
        <time>2015-05-03T09:15:34Z</time>
      </trkpt>
      <trkpt lat="-29.601304102689028" lon="29.325743084773421">
        <ele>2070.8200000000002</ele>
        <time>2015-05-03T09:15:35Z</time>
      </trkpt>
      <trkpt lat="-29.601298235356808" lon="29.325794968754053">
        <ele>2070.3400000000001</ele>
        <time>2015-05-03T09:15:36Z</time>
      </trkpt>
      <trkpt lat="-29.601284908130765" lon="29.325949279591441">
        <ele>2068.4099999999999</ele>
        <time>2015-05-03T09:15:39Z</time>
      </trkpt>
      <trkpt lat="-29.601286668330431" lon="29.326010132208467">
        <ele>2067.4499999999998</ele>
        <time>2015-05-03T09:15:40Z</time>
      </trkpt>
      <trkpt lat="-29.601294714957476" lon="29.326068889349699">
        <ele>2066.9699999999998</ele>
        <time>2015-05-03T09:15:41Z</time>
      </trkpt>
      <trkpt lat="-29.601310389116406" lon="29.326130831614137">
        <ele>2066.0100000000002</ele>
        <time>2015-05-03T09:15:42Z</time>
      </trkpt>
      <trkpt lat="-29.601332768797874" lon="29.32620232924819">
        <ele>2065.5300000000002</ele>
        <time>2015-05-03T09:15:43Z</time>
      </trkpt>
      <trkpt lat="-29.601361770182848" lon="29.326279778033495">
        <ele>2064.5700000000002</ele>
        <time>2015-05-03T09:15:44Z</time>
      </trkpt>
      <trkpt lat="-29.601536281406879" lon="29.326639948412776">
        <ele>2060.2399999999998</ele>
        <time>2015-05-03T09:15:50Z</time>
      </trkpt>
      <trkpt lat="-29.601554805412889" lon="29.326687306165695">
        <ele>2059.7600000000002</ele>
        <time>2015-05-03T09:15:51Z</time>
      </trkpt>
      <trkpt lat="-29.601728897541761" lon="29.327216288074851">
        <ele>2055.9200000000001</ele>
        <time>2015-05-03T09:15:59Z</time>
      </trkpt>
      <trkpt lat="-29.601794946938753" lon="29.327411921694875">
        <ele>2053.9899999999998</ele>
        <time>2015-05-03T09:16:04Z</time>
      </trkpt>
      <trkpt lat="-29.601996280252934" lon="29.328027488663793">
        <ele>2046.78</ele>
        <time>2015-05-03T09:16:13Z</time>
      </trkpt>
      <trkpt lat="-29.602006757631898" lon="29.328103009611368">
        <ele>2046.3</ele>
        <time>2015-05-03T09:16:14Z</time>
      </trkpt>
      <trkpt lat="-29.602011619135737" lon="29.328179536387324">
        <ele>2045.8199999999999</ele>
        <time>2015-05-03T09:16:15Z</time>
      </trkpt>
      <trkpt lat="-29.602009942755103" lon="29.328328231349587">
        <ele>2044.8599999999999</ele>
        <time>2015-05-03T09:16:17Z</time>
      </trkpt>
      <trkpt lat="-29.602051097899675" lon="29.329355014488101">
        <ele>2038.1300000000001</ele>
        <time>2015-05-03T09:16:29Z</time>
      </trkpt>
      <trkpt lat="-29.602180430665612" lon="29.330031266435981">
        <ele>2035.25</ele>
        <time>2015-05-03T09:16:36Z</time>
      </trkpt>
      <trkpt lat="-29.602203480899334" lon="29.330171747133136">
        <ele>2034.77</ele>
        <time>2015-05-03T09:16:38Z</time>
      </trkpt>
      <trkpt lat="-29.60221747867763" lon="29.330965597182512">
        <ele>2031.4000000000001</ele>
        <time>2015-05-03T09:16:50Z</time>
      </trkpt>
      <trkpt lat="-29.602155704051256" lon="29.331310261040926">
        <ele>2029.96</ele>
        <time>2015-05-03T09:16:54Z</time>
      </trkpt>
      <trkpt lat="-29.602144975215197" lon="29.331817366182804">
        <ele>2028.04</ele>
        <time>2015-05-03T09:16:59Z</time>
      </trkpt>
      <trkpt lat="-29.60213391110301" lon="29.331881236284971">
        <ele>2027.5599999999999</ele>
        <time>2015-05-03T09:17:00Z</time>
      </trkpt>
      <trkpt lat="-29.602085715159774" lon="29.332271749153733">
        <ele>2025.1500000000001</ele>
        <time>2015-05-03T09:17:07Z</time>
      </trkpt>
      <trkpt lat="-29.602230973541737" lon="29.333002148196101">
        <ele>2018.9100000000001</ele>
        <time>2015-05-03T09:17:19Z</time>
      </trkpt>
      <trkpt lat="-29.602305823937058" lon="29.333594748750329">
        <ele>2013.1400000000001</ele>
        <time>2015-05-03T09:17:31Z</time>
      </trkpt>
      <trkpt lat="-29.602324767038226" lon="29.334199586883187">
        <ele>2007.8499999999999</ele>
        <time>2015-05-03T09:17:43Z</time>
      </trkpt>
      <trkpt lat="-29.602340692654252" lon="29.334242753684521">
        <ele>2007.3699999999999</ele>
        <time>2015-05-03T09:17:44Z</time>
      </trkpt>
      <trkpt lat="-29.602360976859927" lon="29.334279885515571">
        <ele>2007.3699999999999</ele>
        <time>2015-05-03T09:17:45Z</time>
      </trkpt>
      <trkpt lat="-29.602383272722363" lon="29.334313916042447">
        <ele>2006.4100000000001</ele>
        <time>2015-05-03T09:17:46Z</time>
      </trkpt>
      <trkpt lat="-29.602409927174449" lon="29.334345683455467">
        <ele>2005.9300000000001</ele>
        <time>2015-05-03T09:17:47Z</time>
      </trkpt>
      <trkpt lat="-29.602440102025867" lon="29.334377283230424">
        <ele>2005.45</ele>
        <time>2015-05-03T09:17:48Z</time>
      </trkpt>
      <trkpt lat="-29.602822316810489" lon="29.334892686456442">
        <ele>1996.3199999999999</ele>
        <time>2015-05-03T09:18:03Z</time>
      </trkpt>
      <trkpt lat="-29.60288199596107" lon="29.335209857672453">
        <ele>1991.51</ele>
        <time>2015-05-03T09:18:15Z</time>
      </trkpt>
      <trkpt lat="-29.60298802703619" lon="29.335490735247731">
        <ele>1987.6600000000001</ele>
        <time>2015-05-03T09:18:26Z</time>
      </trkpt>
      <trkpt lat="-29.603063380345702" lon="29.335808577015996">
        <ele>1985.74</ele>
        <time>2015-05-03T09:18:36Z</time>
      </trkpt>
      <trkpt lat="-29.60318055935204" lon="29.336510309949517">
        <ele>1980.45</ele>
        <time>2015-05-03T09:18:47Z</time>
      </trkpt>
      <trkpt lat="-29.603171003982425" lon="29.337343387305737">
        <ele>1976.6099999999999</ele>
        <time>2015-05-03T09:19:02Z</time>
      </trkpt>
      <trkpt lat="-29.60315759293735" lon="29.337888211011887">
        <ele>1974.2</ele>
        <time>2015-05-03T09:19:12Z</time>
      </trkpt>
      <trkpt lat="-29.603128088638186" lon="29.338126508519053">
        <ele>1972.76</ele>
        <time>2015-05-03T09:19:16Z</time>
      </trkpt>
      <trkpt lat="-29.603025997057557" lon="29.338582819327712">
        <ele>1971.8</ele>
        <time>2015-05-03T09:19:27Z</time>
      </trkpt>
      <trkpt lat="-29.603010909631848" lon="29.338928991928697">
        <ele>1968.9200000000001</ele>
        <time>2015-05-03T09:19:37Z</time>
      </trkpt>
    </trkseg>
  </trk>

</gpx>