<?xml version="1.0" encoding="utf-8"?><gpx creator="Garmin Desktop App" version="1.1" xsi:schemaLocation="http://www.topografix.com/GPX/1/1 http://www.topografix.com/GPX/1/1/gpx.xsd http://www.garmin.com/xmlschemas/WaypointExtension/v1 http://www8.garmin.com/xmlschemas/WaypointExtensionv1.xsd http://www.garmin.com/xmlschemas/TrackPointExtension/v1 http://www.garmin.com/xmlschemas/TrackPointExtensionv1.xsd http://www.garmin.com/xmlschemas/GpxExtensions/v3 http://www8.garmin.com/xmlschemas/GpxExtensionsv3.xsd http://www.garmin.com/xmlschemas/ActivityExtension/v1 http://www8.garmin.com/xmlschemas/ActivityExtensionv1.xsd http://www.garmin.com/xmlschemas/AdventuresExtensions/v1 http://www8.garmin.com/xmlschemas/AdventuresExtensionv1.xsd http://www.garmin.com/xmlschemas/PressureExtension/v1 http://www.garmin.com/xmlschemas/PressureExtensionv1.xsd http://www.garmin.com/xmlschemas/TripExtensions/v1 http://www.garmin.com/xmlschemas/TripExtensionsv1.xsd http://www.garmin.com/xmlschemas/TripMetaDataExtensions/v1 http://www.garmin.com/xmlschemas/TripMetaDataExtensionsv1.xsd http://www.garmin.com/xmlschemas/ViaPointTransportationModeExtensions/v1 http://www.garmin.com/xmlschemas/ViaPointTransportationModeExtensionsv1.xsd http://www.garmin.com/xmlschemas/CreationTimeExtension/v1 http://www.garmin.com/xmlschemas/CreationTimeExtensionsv1.xsd http://www.garmin.com/xmlschemas/AccelerationExtension/v1 http://www.garmin.com/xmlschemas/AccelerationExtensionv1.xsd http://www.garmin.com/xmlschemas/PowerExtension/v1 http://www.garmin.com/xmlschemas/PowerExtensionv1.xsd http://www.garmin.com/xmlschemas/VideoExtension/v1 http://www.garmin.com/xmlschemas/VideoExtensionv1.xsd" xmlns="http://www.topografix.com/GPX/1/1" xmlns:xsi="http://www.w3.org/2001/XMLSchema-instance" xmlns:wptx1="http://www.garmin.com/xmlschemas/WaypointExtension/v1" xmlns:gpxtrx="http://www.garmin.com/xmlschemas/GpxExtensions/v3" xmlns:gpxtpx="http://www.garmin.com/xmlschemas/TrackPointExtension/v1" xmlns:gpxx="http://www.garmin.com/xmlschemas/GpxExtensions/v3" xmlns:trp="http://www.garmin.com/xmlschemas/TripExtensions/v1" xmlns:adv="http://www.garmin.com/xmlschemas/AdventuresExtensions/v1" xmlns:prs="http://www.garmin.com/xmlschemas/PressureExtension/v1" xmlns:tmd="http://www.garmin.com/xmlschemas/TripMetaDataExtensions/v1" xmlns:vptm="http://www.garmin.com/xmlschemas/ViaPointTransportationModeExtensions/v1" xmlns:ctx="http://www.garmin.com/xmlschemas/CreationTimeExtension/v1" xmlns:gpxacc="http://www.garmin.com/xmlschemas/AccelerationExtension/v1" xmlns:gpxpx="http://www.garmin.com/xmlschemas/PowerExtension/v1" xmlns:vidx1="http://www.garmin.com/xmlschemas/VideoExtension/v1">

  <metadata>
    <link href="http://www.garmin.com">
      <text>Garmin International</text>
    </link>
    <time>2022-07-02T14:19:26Z</time>
    <bounds maxlat="-28.777138134464622" maxlon="28.040149994194508" minlat="-28.806815939024091" minlon="28.017543666064739" />
  </metadata>

  <trk>
    <name>[35] Kommandonek (R26)</name>
    <extensions>
      <gpxx:TrackExtension>
        <gpxx:DisplayColor>Blue</gpxx:DisplayColor>
      </gpxx:TrackExtension>
    </extensions>
    <trkseg>
      <trkpt lat="-28.777138134464622" lon="28.040149994194508">
        <ele>1686.29</ele>
        <time>2015-12-28T07:00:27Z</time>
      </trkpt>
      <trkpt lat="-28.78133880905807" lon="28.037807168439031">
        <ele>1695.4200000000001</ele>
        <time>2015-12-28T07:00:43Z</time>
      </trkpt>
      <trkpt lat="-28.786745639517903" lon="28.034817343577743">
        <ele>1702.6300000000001</ele>
        <time>2015-12-28T07:01:04Z</time>
      </trkpt>
      <trkpt lat="-28.791218725964427" lon="28.032258432358503">
        <ele>1722.8199999999999</ele>
        <time>2015-12-28T07:01:22Z</time>
      </trkpt>
      <trkpt lat="-28.792614061385393" lon="28.030991507694125">
        <ele>1729.0699999999999</ele>
        <time>2015-12-28T07:01:30Z</time>
      </trkpt>
      <trkpt lat="-28.79482545889914" lon="28.028387920930982">
        <ele>1723.3</ele>
        <time>2015-12-28T07:01:45Z</time>
      </trkpt>
      <trkpt lat="-28.796187937259674" lon="28.026478104293346">
        <ele>1715.6099999999999</ele>
        <time>2015-12-28T07:01:56Z</time>
      </trkpt>
      <trkpt lat="-28.797433571889997" lon="28.024429064244032">
        <ele>1701.6700000000001</ele>
        <time>2015-12-28T07:02:08Z</time>
      </trkpt>
      <trkpt lat="-28.798979194834828" lon="28.022779757156968">
        <ele>1688.6900000000001</ele>
        <time>2015-12-28T07:02:19Z</time>
      </trkpt>
      <trkpt lat="-28.800542335957289" lon="28.021607296541333">
        <ele>1678.5999999999999</ele>
        <time>2015-12-28T07:02:29Z</time>
      </trkpt>
      <trkpt lat="-28.801078358665109" lon="28.021235726773739">
        <ele>1674.27</ele>
        <time>2015-12-28T07:02:34Z</time>
      </trkpt>
      <trkpt lat="-28.801131164655089" lon="28.021204378455877">
        <ele>1673.79</ele>
        <time>2015-12-28T07:02:35Z</time>
      </trkpt>
      <trkpt lat="-28.801171062514186" lon="28.0211893748492">
        <ele>1673.3099999999999</ele>
        <time>2015-12-28T07:02:36Z</time>
      </trkpt>
      <trkpt lat="-28.801201907917857" lon="28.021180992946029">
        <ele>1673.3099999999999</ele>
        <time>2015-12-28T07:02:37Z</time>
      </trkpt>
      <trkpt lat="-28.801221353933215" lon="28.021173281595111">
        <ele>1672.8299999999999</ele>
        <time>2015-12-28T07:02:38Z</time>
      </trkpt>
      <trkpt lat="-28.801236357539892" lon="28.021166240796447">
        <ele>1672.3499999999999</ele>
        <time>2015-12-28T07:02:39Z</time>
      </trkpt>
      <trkpt lat="-28.801240297034383" lon="28.0211634747684">
        <ele>1671.8699999999999</ele>
        <time>2015-12-28T07:02:51Z</time>
      </trkpt>
      <trkpt lat="-28.801244990900159" lon="28.021166492253542">
        <ele>1673.79</ele>
        <time>2015-12-28T07:03:14Z</time>
      </trkpt>
      <trkpt lat="-28.80124649964273" lon="28.021167498081923">
        <ele>1674.27</ele>
        <time>2015-12-28T07:03:55Z</time>
      </trkpt>
      <trkpt lat="-28.801248427480459" lon="28.021158864721656">
        <ele>1674.75</ele>
        <time>2015-12-28T07:04:20Z</time>
      </trkpt>
      <trkpt lat="-28.801258485764265" lon="28.021137742325664">
        <ele>1674.75</ele>
        <time>2015-12-28T07:04:21Z</time>
      </trkpt>
      <trkpt lat="-28.801285224035382" lon="28.021103795617819">
        <ele>1674.75</ele>
        <time>2015-12-28T07:04:22Z</time>
      </trkpt>
      <trkpt lat="-28.801335599273443" lon="28.021061047911644">
        <ele>1674.75</ele>
        <time>2015-12-28T07:04:23Z</time>
      </trkpt>
      <trkpt lat="-28.801405755802989" lon="28.021008828654885">
        <ele>1674.27</ele>
        <time>2015-12-28T07:04:24Z</time>
      </trkpt>
      <trkpt lat="-28.802153086289763" lon="28.020522259175777">
        <ele>1670.4300000000001</ele>
        <time>2015-12-28T07:04:30Z</time>
      </trkpt>
      <trkpt lat="-28.803515397012234" lon="28.0199512001127">
        <ele>1662.74</ele>
        <time>2015-12-28T07:04:37Z</time>
      </trkpt>
      <trkpt lat="-28.805193034932017" lon="28.019041009247303">
        <ele>1656.49</ele>
        <time>2015-12-28T07:04:45Z</time>
      </trkpt>
      <trkpt lat="-28.806815939024091" lon="28.017543666064739">
        <ele>1656.49</ele>
        <time>2015-12-28T07:04:53Z</time>
      </trkpt>
    </trkseg>
  </trk>

</gpx>