<?xml version="1.0" encoding="utf-8"?><gpx creator="Garmin Desktop App" version="1.1" xsi:schemaLocation="http://www.topografix.com/GPX/1/1 http://www.topografix.com/GPX/1/1/gpx.xsd http://www.garmin.com/xmlschemas/WaypointExtension/v1 http://www8.garmin.com/xmlschemas/WaypointExtensionv1.xsd http://www.garmin.com/xmlschemas/TrackPointExtension/v1 http://www.garmin.com/xmlschemas/TrackPointExtensionv1.xsd http://www.garmin.com/xmlschemas/GpxExtensions/v3 http://www8.garmin.com/xmlschemas/GpxExtensionsv3.xsd http://www.garmin.com/xmlschemas/ActivityExtension/v1 http://www8.garmin.com/xmlschemas/ActivityExtensionv1.xsd http://www.garmin.com/xmlschemas/AdventuresExtensions/v1 http://www8.garmin.com/xmlschemas/AdventuresExtensionv1.xsd http://www.garmin.com/xmlschemas/PressureExtension/v1 http://www.garmin.com/xmlschemas/PressureExtensionv1.xsd http://www.garmin.com/xmlschemas/TripExtensions/v1 http://www.garmin.com/xmlschemas/TripExtensionsv1.xsd http://www.garmin.com/xmlschemas/TripMetaDataExtensions/v1 http://www.garmin.com/xmlschemas/TripMetaDataExtensionsv1.xsd http://www.garmin.com/xmlschemas/ViaPointTransportationModeExtensions/v1 http://www.garmin.com/xmlschemas/ViaPointTransportationModeExtensionsv1.xsd http://www.garmin.com/xmlschemas/CreationTimeExtension/v1 http://www.garmin.com/xmlschemas/CreationTimeExtensionsv1.xsd http://www.garmin.com/xmlschemas/AccelerationExtension/v1 http://www.garmin.com/xmlschemas/AccelerationExtensionv1.xsd http://www.garmin.com/xmlschemas/PowerExtension/v1 http://www.garmin.com/xmlschemas/PowerExtensionv1.xsd http://www.garmin.com/xmlschemas/VideoExtension/v1 http://www.garmin.com/xmlschemas/VideoExtensionv1.xsd" xmlns="http://www.topografix.com/GPX/1/1" xmlns:xsi="http://www.w3.org/2001/XMLSchema-instance" xmlns:wptx1="http://www.garmin.com/xmlschemas/WaypointExtension/v1" xmlns:gpxtrx="http://www.garmin.com/xmlschemas/GpxExtensions/v3" xmlns:gpxtpx="http://www.garmin.com/xmlschemas/TrackPointExtension/v1" xmlns:gpxx="http://www.garmin.com/xmlschemas/GpxExtensions/v3" xmlns:trp="http://www.garmin.com/xmlschemas/TripExtensions/v1" xmlns:adv="http://www.garmin.com/xmlschemas/AdventuresExtensions/v1" xmlns:prs="http://www.garmin.com/xmlschemas/PressureExtension/v1" xmlns:tmd="http://www.garmin.com/xmlschemas/TripMetaDataExtensions/v1" xmlns:vptm="http://www.garmin.com/xmlschemas/ViaPointTransportationModeExtensions/v1" xmlns:ctx="http://www.garmin.com/xmlschemas/CreationTimeExtension/v1" xmlns:gpxacc="http://www.garmin.com/xmlschemas/AccelerationExtension/v1" xmlns:gpxpx="http://www.garmin.com/xmlschemas/PowerExtension/v1" xmlns:vidx1="http://www.garmin.com/xmlschemas/VideoExtension/v1">

  <metadata>
    <link href="http://www.garmin.com">
      <text>Garmin International</text>
    </link>
    <time>2022-07-02T14:20:34Z</time>
    <bounds maxlat="-25.887281130999327" maxlon="27.71430023945868" minlat="-25.932856807485223" minlon="27.702974360436201" />
  </metadata>

  <trk>
    <name>[41] Poeiernek</name>
    <extensions>
      <gpxx:TrackExtension>
        <gpxx:DisplayColor>Blue</gpxx:DisplayColor>
      </gpxx:TrackExtension>
    </extensions>
    <trkseg>
      <trkpt lat="-25.932856807485223" lon="27.702974360436201">
        <ele>1500.27</ele>
        <time>2016-03-28T08:22:41Z</time>
      </trkpt>
      <trkpt lat="-25.928896693512797" lon="27.70508567802608">
        <ele>1517.5799999999999</ele>
        <time>2016-03-28T08:22:53Z</time>
      </trkpt>
      <trkpt lat="-25.925853559747338" lon="27.706206841394305">
        <ele>1513.25</ele>
        <time>2016-03-28T08:23:02Z</time>
      </trkpt>
      <trkpt lat="-25.920814778655767" lon="27.707989336922765">
        <ele>1523.3499999999999</ele>
        <time>2016-03-28T08:23:18Z</time>
      </trkpt>
      <trkpt lat="-25.919452216476202" lon="27.708817301318049">
        <ele>1529.1099999999999</ele>
        <time>2016-03-28T08:23:23Z</time>
      </trkpt>
      <trkpt lat="-25.917776674032211" lon="27.710195537656546">
        <ele>1541.6099999999999</ele>
        <time>2016-03-28T08:23:30Z</time>
      </trkpt>
      <trkpt lat="-25.916445963084698" lon="27.710657296702266">
        <ele>1551.71</ele>
        <time>2016-03-28T08:23:35Z</time>
      </trkpt>
      <trkpt lat="-25.913348430767655" lon="27.711299350485206">
        <ele>1547.8599999999999</ele>
        <time>2016-03-28T08:23:46Z</time>
      </trkpt>
      <trkpt lat="-25.910261124372482" lon="27.711909804493189">
        <ele>1527.6700000000001</ele>
        <time>2016-03-28T08:23:57Z</time>
      </trkpt>
      <trkpt lat="-25.90806313790381" lon="27.711925813928246">
        <ele>1514.6900000000001</ele>
        <time>2016-03-28T08:24:05Z</time>
      </trkpt>
      <trkpt lat="-25.904874494299293" lon="27.711597997695208">
        <ele>1496.4300000000001</ele>
        <time>2016-03-28T08:24:15Z</time>
      </trkpt>
      <trkpt lat="-25.898476839065552" lon="27.711008079349995">
        <ele>1482.01</ele>
        <time>2016-03-28T08:24:34Z</time>
      </trkpt>
      <trkpt lat="-25.893632853403687" lon="27.710669282823801">
        <ele>1489.7</ele>
        <time>2016-03-28T08:24:48Z</time>
      </trkpt>
      <trkpt lat="-25.89160367846489" lon="27.711195666342974">
        <ele>1497.8699999999999</ele>
        <time>2016-03-28T08:24:54Z</time>
      </trkpt>
      <trkpt lat="-25.889833336696029" lon="27.712332922965288">
        <ele>1505.5599999999999</ele>
        <time>2016-03-28T08:25:00Z</time>
      </trkpt>
      <trkpt lat="-25.887281130999327" lon="27.71430023945868">
        <ele>1502.6800000000001</ele>
        <time>2016-03-28T08:25:10Z</time>
      </trkpt>
    </trkseg>
  </trk>

</gpx>