<?xml version="1.0" encoding="utf-8"?><gpx creator="Garmin Desktop App" version="1.1" xsi:schemaLocation="http://www.topografix.com/GPX/1/1 http://www.topografix.com/GPX/1/1/gpx.xsd http://www.garmin.com/xmlschemas/WaypointExtension/v1 http://www8.garmin.com/xmlschemas/WaypointExtensionv1.xsd http://www.garmin.com/xmlschemas/TrackPointExtension/v1 http://www.garmin.com/xmlschemas/TrackPointExtensionv1.xsd http://www.garmin.com/xmlschemas/GpxExtensions/v3 http://www8.garmin.com/xmlschemas/GpxExtensionsv3.xsd http://www.garmin.com/xmlschemas/ActivityExtension/v1 http://www8.garmin.com/xmlschemas/ActivityExtensionv1.xsd http://www.garmin.com/xmlschemas/AdventuresExtensions/v1 http://www8.garmin.com/xmlschemas/AdventuresExtensionv1.xsd http://www.garmin.com/xmlschemas/PressureExtension/v1 http://www.garmin.com/xmlschemas/PressureExtensionv1.xsd http://www.garmin.com/xmlschemas/TripExtensions/v1 http://www.garmin.com/xmlschemas/TripExtensionsv1.xsd http://www.garmin.com/xmlschemas/TripMetaDataExtensions/v1 http://www.garmin.com/xmlschemas/TripMetaDataExtensionsv1.xsd http://www.garmin.com/xmlschemas/ViaPointTransportationModeExtensions/v1 http://www.garmin.com/xmlschemas/ViaPointTransportationModeExtensionsv1.xsd http://www.garmin.com/xmlschemas/CreationTimeExtension/v1 http://www.garmin.com/xmlschemas/CreationTimeExtensionsv1.xsd http://www.garmin.com/xmlschemas/AccelerationExtension/v1 http://www.garmin.com/xmlschemas/AccelerationExtensionv1.xsd http://www.garmin.com/xmlschemas/PowerExtension/v1 http://www.garmin.com/xmlschemas/PowerExtensionv1.xsd http://www.garmin.com/xmlschemas/VideoExtension/v1 http://www.garmin.com/xmlschemas/VideoExtensionv1.xsd" xmlns="http://www.topografix.com/GPX/1/1" xmlns:xsi="http://www.w3.org/2001/XMLSchema-instance" xmlns:wptx1="http://www.garmin.com/xmlschemas/WaypointExtension/v1" xmlns:gpxtrx="http://www.garmin.com/xmlschemas/GpxExtensions/v3" xmlns:gpxtpx="http://www.garmin.com/xmlschemas/TrackPointExtension/v1" xmlns:gpxx="http://www.garmin.com/xmlschemas/GpxExtensions/v3" xmlns:trp="http://www.garmin.com/xmlschemas/TripExtensions/v1" xmlns:adv="http://www.garmin.com/xmlschemas/AdventuresExtensions/v1" xmlns:prs="http://www.garmin.com/xmlschemas/PressureExtension/v1" xmlns:tmd="http://www.garmin.com/xmlschemas/TripMetaDataExtensions/v1" xmlns:vptm="http://www.garmin.com/xmlschemas/ViaPointTransportationModeExtensions/v1" xmlns:ctx="http://www.garmin.com/xmlschemas/CreationTimeExtension/v1" xmlns:gpxacc="http://www.garmin.com/xmlschemas/AccelerationExtension/v1" xmlns:gpxpx="http://www.garmin.com/xmlschemas/PowerExtension/v1" xmlns:vidx1="http://www.garmin.com/xmlschemas/VideoExtension/v1">

  <metadata>
    <link href="http://www.garmin.com">
      <text>Garmin International</text>
    </link>
    <time>2022-07-02T14:21:47Z</time>
    <bounds maxlat="-25.131678711622953" maxlon="30.291626919060946" minlat="-25.253660045564175" minlon="30.088989213109016" />
  </metadata>

  <trk>
    <name>[48] Steenkampsberg Pass</name>
    <extensions>
      <gpxx:TrackExtension>
        <gpxx:DisplayColor>Blue</gpxx:DisplayColor>
      </gpxx:TrackExtension>
    </extensions>
    <trkseg>
      <trkpt lat="-25.235044592991471" lon="30.089519955217838">
        <ele>1858.3699999999999</ele>
        <time>2016-07-14T08:46:16Z</time>
      </trkpt>
      <trkpt lat="-25.235228491947055" lon="30.089672841131687">
        <ele>1859.8099999999999</ele>
        <time>2016-07-14T08:46:17Z</time>
      </trkpt>
      <trkpt lat="-25.235397052019835" lon="30.089787086471915">
        <ele>1861.73</ele>
        <time>2016-07-14T08:46:18Z</time>
      </trkpt>
      <trkpt lat="-25.235582962632179" lon="30.089891441166401">
        <ele>1863.1700000000001</ele>
        <time>2016-07-14T08:46:19Z</time>
      </trkpt>
      <trkpt lat="-25.235766526311636" lon="30.089975846931338">
        <ele>1865.0899999999999</ele>
        <time>2016-07-14T08:46:20Z</time>
      </trkpt>
      <trkpt lat="-25.235965764150023" lon="30.090049104765058">
        <ele>1867.02</ele>
        <time>2016-07-14T08:46:21Z</time>
      </trkpt>
      <trkpt lat="-25.236182017251849" lon="30.090108448639512">
        <ele>1868.9400000000001</ele>
        <time>2016-07-14T08:46:22Z</time>
      </trkpt>
      <trkpt lat="-25.236399527639151" lon="30.090149939060211">
        <ele>1870.3800000000001</ele>
        <time>2016-07-14T08:46:23Z</time>
      </trkpt>
      <trkpt lat="-25.236594406887889" lon="30.090169301256537">
        <ele>1872.3</ele>
        <time>2016-07-14T08:46:24Z</time>
      </trkpt>
      <trkpt lat="-25.236822059378028" lon="30.090171229094267">
        <ele>1874.23</ele>
        <time>2016-07-14T08:46:25Z</time>
      </trkpt>
      <trkpt lat="-25.23702984675765" lon="30.090154968202114">
        <ele>1875.6700000000001</ele>
        <time>2016-07-14T08:46:26Z</time>
      </trkpt>
      <trkpt lat="-25.23726143874228" lon="30.090116327628493">
        <ele>1877.5899999999999</ele>
        <time>2016-07-14T08:46:27Z</time>
      </trkpt>
      <trkpt lat="-25.237472411245108" lon="30.090061677619815">
        <ele>1879.51</ele>
        <time>2016-07-14T08:46:28Z</time>
      </trkpt>
      <trkpt lat="-25.237671313807368" lon="30.089993365108967">
        <ele>1880.96</ele>
        <time>2016-07-14T08:46:29Z</time>
      </trkpt>
      <trkpt lat="-25.237888740375638" lon="30.089900912716985">
        <ele>1882.8800000000001</ele>
        <time>2016-07-14T08:46:30Z</time>
      </trkpt>
      <trkpt lat="-25.238099629059434" lon="30.08979563601315">
        <ele>1884.8</ele>
        <time>2016-07-14T08:46:31Z</time>
      </trkpt>
      <trkpt lat="-25.240169959142804" lon="30.088989213109016">
        <ele>1903.0699999999999</ele>
        <time>2016-07-14T08:46:41Z</time>
      </trkpt>
      <trkpt lat="-25.241438560187817" lon="30.089206555858254">
        <ele>1913.6400000000001</ele>
        <time>2016-07-14T08:46:47Z</time>
      </trkpt>
      <trkpt lat="-25.243000276386738" lon="30.090102748945355">
        <ele>1928.0599999999999</ele>
        <time>2016-07-14T08:46:55Z</time>
      </trkpt>
      <trkpt lat="-25.244797607883811" lon="30.090869525447488">
        <ele>1942.96</ele>
        <time>2016-07-14T08:47:04Z</time>
      </trkpt>
      <trkpt lat="-25.245754653587937" lon="30.091747613623738">
        <ele>1952.5699999999999</ele>
        <time>2016-07-14T08:47:10Z</time>
      </trkpt>
      <trkpt lat="-25.246290676295757" lon="30.092932060360909">
        <ele>1962.1900000000001</ele>
        <time>2016-07-14T08:47:16Z</time>
      </trkpt>
      <trkpt lat="-25.246649505570531" lon="30.094592096284032">
        <ele>1974.2</ele>
        <time>2016-07-14T08:47:24Z</time>
      </trkpt>
      <trkpt lat="-25.247398344799876" lon="30.095913503319025">
        <ele>1984.3</ele>
        <time>2016-07-14T08:47:31Z</time>
      </trkpt>
      <trkpt lat="-25.248720003291965" lon="30.097309928387403">
        <ele>1998.24</ele>
        <time>2016-07-14T08:47:40Z</time>
      </trkpt>
      <trkpt lat="-25.250003691762686" lon="30.098816910758615">
        <ele>2013.1400000000001</ele>
        <time>2016-07-14T08:47:49Z</time>
      </trkpt>
      <trkpt lat="-25.251424089074135" lon="30.099473800510168">
        <ele>2025.1500000000001</ele>
        <time>2016-07-14T08:47:56Z</time>
      </trkpt>
      <trkpt lat="-25.252720266580582" lon="30.100337052717805">
        <ele>2036.6900000000001</ele>
        <time>2016-07-14T08:48:03Z</time>
      </trkpt>
      <trkpt lat="-25.253411941230297" lon="30.101481936872005">
        <ele>2047.26</ele>
        <time>2016-07-14T08:48:09Z</time>
      </trkpt>
      <trkpt lat="-25.253660045564175" lon="30.102851456031203">
        <ele>2056.8800000000001</ele>
        <time>2016-07-14T08:48:15Z</time>
      </trkpt>
      <trkpt lat="-25.253389729186893" lon="30.104262549430132">
        <ele>2066.9699999999998</ele>
        <time>2016-07-14T08:48:21Z</time>
      </trkpt>
      <trkpt lat="-25.252455649897456" lon="30.10626976378262">
        <ele>2083.79</ele>
        <time>2016-07-14T08:48:30Z</time>
      </trkpt>
      <trkpt lat="-25.252174437046051" lon="30.10761346668005">
        <ele>2094.8499999999999</ele>
        <time>2016-07-14T08:48:36Z</time>
      </trkpt>
      <trkpt lat="-25.252382894977927" lon="30.108936047181487">
        <ele>2104.9400000000001</ele>
        <time>2016-07-14T08:48:42Z</time>
      </trkpt>
      <trkpt lat="-25.253096781671047" lon="30.110312355682254">
        <ele>2115.52</ele>
        <time>2016-07-14T08:48:49Z</time>
      </trkpt>
      <trkpt lat="-25.25352937169373" lon="30.111782876774669">
        <ele>2126.5700000000002</ele>
        <time>2016-07-14T08:48:56Z</time>
      </trkpt>
      <trkpt lat="-25.253366511315107" lon="30.113157173618674">
        <ele>2135.23</ele>
        <time>2016-07-14T08:49:02Z</time>
      </trkpt>
      <trkpt lat="-25.252696881070733" lon="30.11435654014349">
        <ele>2141.9499999999998</ele>
        <time>2016-07-14T08:49:08Z</time>
      </trkpt>
      <trkpt lat="-25.251492653042078" lon="30.115316100418568">
        <ele>2149.1599999999999</ele>
        <time>2016-07-14T08:49:15Z</time>
      </trkpt>
      <trkpt lat="-25.2491913177073" lon="30.116993989795446">
        <ele>2157.8200000000002</ele>
        <time>2016-07-14T08:49:27Z</time>
      </trkpt>
      <trkpt lat="-25.245638899505138" lon="30.119783990085125">
        <ele>2168.3899999999999</ele>
        <time>2016-07-14T08:49:45Z</time>
      </trkpt>
      <trkpt lat="-25.244253873825073" lon="30.121148899197578">
        <ele>2179.9299999999998</ele>
        <time>2016-07-14T08:49:53Z</time>
      </trkpt>
      <trkpt lat="-25.242666760459542" lon="30.121816014871001">
        <ele>2187.6199999999999</ele>
        <time>2016-07-14T08:50:00Z</time>
      </trkpt>
      <trkpt lat="-25.241422299295664" lon="30.122635597363114">
        <ele>2189.0599999999999</ele>
        <time>2016-07-14T08:50:06Z</time>
      </trkpt>
      <trkpt lat="-25.240727942436934" lon="30.123739242553711">
        <ele>2190.02</ele>
        <time>2016-07-14T08:50:11Z</time>
      </trkpt>
      <trkpt lat="-25.240458883345127" lon="30.125049082562327">
        <ele>2192.4200000000001</ele>
        <time>2016-07-14T08:50:16Z</time>
      </trkpt>
      <trkpt lat="-25.2403065841645" lon="30.127163082361221">
        <ele>2201.0799999999999</ele>
        <time>2016-07-14T08:50:24Z</time>
      </trkpt>
      <trkpt lat="-25.240224357694387" lon="30.127412611618638">
        <ele>2202.52</ele>
        <time>2016-07-14T08:50:25Z</time>
      </trkpt>
      <trkpt lat="-25.240122517570853" lon="30.127654513344169">
        <ele>2204.4400000000001</ele>
        <time>2016-07-14T08:50:26Z</time>
      </trkpt>
      <trkpt lat="-25.239200089126825" lon="30.12984411790967">
        <ele>2219.3400000000001</ele>
        <time>2016-07-14T08:50:35Z</time>
      </trkpt>
      <trkpt lat="-25.239038318395615" lon="30.131368953734636">
        <ele>2228.9499999999998</ele>
        <time>2016-07-14T08:50:41Z</time>
      </trkpt>
      <trkpt lat="-25.23898140527308" lon="30.131606832146645">
        <ele>2230.4000000000001</ele>
        <time>2016-07-14T08:50:42Z</time>
      </trkpt>
      <trkpt lat="-25.238907309249043" lon="30.131831131875515">
        <ele>2231.8400000000001</ele>
        <time>2016-07-14T08:50:43Z</time>
      </trkpt>
      <trkpt lat="-25.238813599571586" lon="30.132056353613734">
        <ele>2233.2800000000002</ele>
        <time>2016-07-14T08:50:44Z</time>
      </trkpt>
      <trkpt lat="-25.237761251628399" lon="30.134482411667705">
        <ele>2245.7800000000002</ele>
        <time>2016-07-14T08:50:55Z</time>
      </trkpt>
      <trkpt lat="-25.237674750387669" lon="30.135226473212242">
        <ele>2247.2199999999998</ele>
        <time>2016-07-14T08:50:58Z</time>
      </trkpt>
      <trkpt lat="-25.23767969571054" lon="30.135483462363482">
        <ele>2247.6999999999998</ele>
        <time>2016-07-14T08:50:59Z</time>
      </trkpt>
      <trkpt lat="-25.237701321020722" lon="30.135730393230915">
        <ele>2247.6999999999998</ele>
        <time>2016-07-14T08:51:00Z</time>
      </trkpt>
      <trkpt lat="-25.237739207223058" lon="30.135984532535076">
        <ele>2247.6999999999998</ele>
        <time>2016-07-14T08:51:01Z</time>
      </trkpt>
      <trkpt lat="-25.237790755927563" lon="30.1362285297364">
        <ele>2247.2199999999998</ele>
        <time>2016-07-14T08:51:02Z</time>
      </trkpt>
      <trkpt lat="-25.237860074266791" lon="30.136477388441563">
        <ele>2246.7399999999998</ele>
        <time>2016-07-14T08:51:03Z</time>
      </trkpt>
      <trkpt lat="-25.23794305510819" lon="30.136715434491634">
        <ele>2246.2600000000002</ele>
        <time>2016-07-14T08:51:04Z</time>
      </trkpt>
      <trkpt lat="-25.238044476136565" lon="30.136957839131355">
        <ele>2245.7800000000002</ele>
        <time>2016-07-14T08:51:05Z</time>
      </trkpt>
      <trkpt lat="-25.238156542181969" lon="30.137190939858556">
        <ele>2244.8200000000002</ele>
        <time>2016-07-14T08:51:06Z</time>
      </trkpt>
      <trkpt lat="-25.239491360262036" lon="30.139863677322865">
        <ele>2243.3699999999999</ele>
        <time>2016-07-14T08:51:18Z</time>
      </trkpt>
      <trkpt lat="-25.239682719111443" lon="30.140421409159899">
        <ele>2246.2600000000002</ele>
        <time>2016-07-14T08:51:22Z</time>
      </trkpt>
      <trkpt lat="-25.239718845114112" lon="30.140486620366573">
        <ele>2246.7399999999998</ele>
        <time>2016-07-14T08:51:23Z</time>
      </trkpt>
      <trkpt lat="-25.239755306392908" lon="30.140522746369243">
        <ele>2247.6999999999998</ele>
        <time>2016-07-14T08:51:24Z</time>
      </trkpt>
      <trkpt lat="-25.239792186766863" lon="30.140539091080427">
        <ele>2248.1799999999998</ele>
        <time>2016-07-14T08:51:25Z</time>
      </trkpt>
      <trkpt lat="-25.23982378654182" lon="30.140535486862063">
        <ele>2248.1799999999998</ele>
        <time>2016-07-14T08:51:26Z</time>
      </trkpt>
      <trkpt lat="-25.239845411852002" lon="30.140520818531513">
        <ele>2248.1799999999998</ele>
        <time>2016-07-14T08:51:27Z</time>
      </trkpt>
      <trkpt lat="-25.239860834553838" lon="30.14049768447876">
        <ele>2248.1799999999998</ele>
        <time>2016-07-14T08:51:28Z</time>
      </trkpt>
      <trkpt lat="-25.239864103496075" lon="30.140469018369913">
        <ele>2248.1799999999998</ele>
        <time>2016-07-14T08:51:29Z</time>
      </trkpt>
      <trkpt lat="-25.239851111546159" lon="30.140446051955223">
        <ele>2247.6999999999998</ele>
        <time>2016-07-14T08:51:30Z</time>
      </trkpt>
      <trkpt lat="-25.239828061312437" lon="30.140435909852386">
        <ele>2247.6999999999998</ele>
        <time>2016-07-14T08:51:31Z</time>
      </trkpt>
      <trkpt lat="-25.239796377718449" lon="30.140439765527844">
        <ele>2247.6999999999998</ele>
        <time>2016-07-14T08:51:32Z</time>
      </trkpt>
      <trkpt lat="-25.239762933924794" lon="30.140460301190615">
        <ele>2247.2199999999998</ele>
        <time>2016-07-14T08:51:33Z</time>
      </trkpt>
      <trkpt lat="-25.239733597263694" lon="30.140503216534853">
        <ele>2247.2199999999998</ele>
        <time>2016-07-14T08:51:34Z</time>
      </trkpt>
      <trkpt lat="-25.239713983610272" lon="30.140561806038022">
        <ele>2247.6999999999998</ele>
        <time>2016-07-14T08:51:35Z</time>
      </trkpt>
      <trkpt lat="-25.239706272259355" lon="30.140630789101124">
        <ele>2247.6999999999998</ele>
        <time>2016-07-14T08:51:36Z</time>
      </trkpt>
      <trkpt lat="-25.239710127934813" lon="30.140709746629">
        <ele>2248.1799999999998</ele>
        <time>2016-07-14T08:51:37Z</time>
      </trkpt>
      <trkpt lat="-25.239721443504095" lon="30.140795996412635">
        <ele>2248.6599999999999</ele>
        <time>2016-07-14T08:51:38Z</time>
      </trkpt>
      <trkpt lat="-25.239731585606933" lon="30.141696212813258">
        <ele>2253.9499999999998</ele>
        <time>2016-07-14T08:51:45Z</time>
      </trkpt>
      <trkpt lat="-25.239394884556532" lon="30.14292860403657">
        <ele>2258.27</ele>
        <time>2016-07-14T08:51:53Z</time>
      </trkpt>
      <trkpt lat="-25.238863388076425" lon="30.143830245360732">
        <ele>2259.7199999999998</ele>
        <time>2016-07-14T08:52:01Z</time>
      </trkpt>
      <trkpt lat="-25.23870094679296" lon="30.144031159579754">
        <ele>2259.7199999999998</ele>
        <time>2016-07-14T08:52:06Z</time>
      </trkpt>
      <trkpt lat="-25.238700695335865" lon="30.144028812646866">
        <ele>2259.2399999999998</ele>
        <time>2016-07-14T08:52:19Z</time>
      </trkpt>
      <trkpt lat="-25.238708658143878" lon="30.144027220085263">
        <ele>2258.27</ele>
        <time>2016-07-14T08:53:03Z</time>
      </trkpt>
      <trkpt lat="-25.238696923479438" lon="30.144023280590773">
        <ele>2258.75</ele>
        <time>2016-07-14T08:53:53Z</time>
      </trkpt>
      <trkpt lat="-25.238692564889789" lon="30.144047252833843">
        <ele>2259.2399999999998</ele>
        <time>2016-07-14T08:54:24Z</time>
      </trkpt>
      <trkpt lat="-25.238691056147218" lon="30.144043313339353">
        <ele>2259.7199999999998</ele>
        <time>2016-07-14T08:54:49Z</time>
      </trkpt>
      <trkpt lat="-25.238655935972929" lon="30.144060747697949">
        <ele>2259.7199999999998</ele>
        <time>2016-07-14T08:55:13Z</time>
      </trkpt>
      <trkpt lat="-25.238651325926185" lon="30.144074494019151">
        <ele>2259.2399999999998</ele>
        <time>2016-07-14T08:55:33Z</time>
      </trkpt>
      <trkpt lat="-25.2386574447155" lon="30.144053874537349">
        <ele>2259.2399999999998</ele>
        <time>2016-07-14T08:55:53Z</time>
      </trkpt>
      <trkpt lat="-25.238634729757905" lon="30.144071225076914">
        <ele>2259.7199999999998</ele>
        <time>2016-07-14T08:56:17Z</time>
      </trkpt>
      <trkpt lat="-25.238620061427355" lon="30.144089497625828">
        <ele>2259.7199999999998</ele>
        <time>2016-07-14T08:56:20Z</time>
      </trkpt>
      <trkpt lat="-25.238598184660077" lon="30.144112380221486">
        <ele>2259.7199999999998</ele>
        <time>2016-07-14T08:56:21Z</time>
      </trkpt>
      <trkpt lat="-25.238560382276773" lon="30.144143644720316">
        <ele>2259.7199999999998</ele>
        <time>2016-07-14T08:56:22Z</time>
      </trkpt>
      <trkpt lat="-25.238077668473125" lon="30.144541449844837">
        <ele>2257.3099999999999</ele>
        <time>2016-07-14T08:56:28Z</time>
      </trkpt>
      <trkpt lat="-25.237226318567991" lon="30.145577788352966">
        <ele>2250.0999999999999</ele>
        <time>2016-07-14T08:56:36Z</time>
      </trkpt>
      <trkpt lat="-25.236254688352346" lon="30.147420633584261">
        <ele>2235.6799999999998</ele>
        <time>2016-07-14T08:56:46Z</time>
      </trkpt>
      <trkpt lat="-25.235189683735371" lon="30.148875815793872">
        <ele>2222.71</ele>
        <time>2016-07-14T08:56:54Z</time>
      </trkpt>
      <trkpt lat="-25.234123673290014" lon="30.150364777073264">
        <ele>2210.21</ele>
        <time>2016-07-14T08:57:02Z</time>
      </trkpt>
      <trkpt lat="-25.234037758782506" lon="30.150573067367077">
        <ele>2208.29</ele>
        <time>2016-07-14T08:57:03Z</time>
      </trkpt>
      <trkpt lat="-25.233966764062643" lon="30.150786889716983">
        <ele>2206.8400000000001</ele>
        <time>2016-07-14T08:57:04Z</time>
      </trkpt>
      <trkpt lat="-25.233908342197537" lon="30.151005741208792">
        <ele>2205.4000000000001</ele>
        <time>2016-07-14T08:57:05Z</time>
      </trkpt>
      <trkpt lat="-25.233858469873667" lon="30.151245463639498">
        <ele>2203.96</ele>
        <time>2016-07-14T08:57:06Z</time>
      </trkpt>
      <trkpt lat="-25.233828127384186" lon="30.151454005390406">
        <ele>2202.52</ele>
        <time>2016-07-14T08:57:07Z</time>
      </trkpt>
      <trkpt lat="-25.233808429911733" lon="30.15168190933764">
        <ele>2201.0799999999999</ele>
        <time>2016-07-14T08:57:08Z</time>
      </trkpt>
      <trkpt lat="-25.233802478760481" lon="30.151909561827779">
        <ele>2199.6300000000001</ele>
        <time>2016-07-14T08:57:09Z</time>
      </trkpt>
      <trkpt lat="-25.233804741874337" lon="30.15213537029922">
        <ele>2198.1900000000001</ele>
        <time>2016-07-14T08:57:10Z</time>
      </trkpt>
      <trkpt lat="-25.233763419091702" lon="30.152987642213702">
        <ele>2192.4200000000001</ele>
        <time>2016-07-14T08:57:14Z</time>
      </trkpt>
      <trkpt lat="-25.233718072995543" lon="30.153185371309519">
        <ele>2190.98</ele>
        <time>2016-07-14T08:57:15Z</time>
      </trkpt>
      <trkpt lat="-25.233656046912074" lon="30.15337941236794">
        <ele>2189.54</ele>
        <time>2016-07-14T08:57:16Z</time>
      </trkpt>
      <trkpt lat="-25.23357423953712" lon="30.153567166998982">
        <ele>2188.0999999999999</ele>
        <time>2016-07-14T08:57:17Z</time>
      </trkpt>
      <trkpt lat="-25.233472650870681" lon="30.153747797012329">
        <ele>2186.6599999999999</ele>
        <time>2016-07-14T08:57:18Z</time>
      </trkpt>
      <trkpt lat="-25.233354130759835" lon="30.153919961303473">
        <ele>2184.73</ele>
        <time>2016-07-14T08:57:19Z</time>
      </trkpt>
      <trkpt lat="-25.233219852671027" lon="30.15408399514854">
        <ele>2183.29</ele>
        <time>2016-07-14T08:57:20Z</time>
      </trkpt>
      <trkpt lat="-25.233071409165859" lon="30.15423696488142">
        <ele>2181.8499999999999</ele>
        <time>2016-07-14T08:57:21Z</time>
      </trkpt>
      <trkpt lat="-25.232907962054014" lon="30.154375098645687">
        <ele>2179.9299999999998</ele>
        <time>2016-07-14T08:57:22Z</time>
      </trkpt>
      <trkpt lat="-25.232731439173222" lon="30.154496720060706">
        <ele>2178.48</ele>
        <time>2016-07-14T08:57:23Z</time>
      </trkpt>
      <trkpt lat="-25.23254469037056" lon="30.154605014249682">
        <ele>2177.04</ele>
        <time>2016-07-14T08:57:24Z</time>
      </trkpt>
      <trkpt lat="-25.232352577149868" lon="30.15470702201128">
        <ele>2175.1199999999999</ele>
        <time>2016-07-14T08:57:25Z</time>
      </trkpt>
      <trkpt lat="-25.231399135664105" lon="30.155281517654657">
        <ele>2167.9099999999999</ele>
        <time>2016-07-14T08:57:30Z</time>
      </trkpt>
      <trkpt lat="-25.23123568855226" lon="30.155439097434282">
        <ele>2166.4699999999998</ele>
        <time>2016-07-14T08:57:31Z</time>
      </trkpt>
      <trkpt lat="-25.231087328866124" lon="30.155617631971836">
        <ele>2165.5100000000002</ele>
        <time>2016-07-14T08:57:32Z</time>
      </trkpt>
      <trkpt lat="-25.230958331376314" lon="30.155816534534097">
        <ele>2164.0599999999999</ele>
        <time>2016-07-14T08:57:33Z</time>
      </trkpt>
      <trkpt lat="-25.230856658890843" lon="30.156021472066641">
        <ele>2163.5799999999999</ele>
        <time>2016-07-14T08:57:34Z</time>
      </trkpt>
      <trkpt lat="-25.230775102972984" lon="30.156239401549101">
        <ele>2162.6199999999999</ele>
        <time>2016-07-14T08:57:35Z</time>
      </trkpt>
      <trkpt lat="-25.2307138312608" lon="30.156467976048589">
        <ele>2162.1399999999999</ele>
        <time>2016-07-14T08:57:36Z</time>
      </trkpt>
      <trkpt lat="-25.230675861239433" lon="30.156689425930381">
        <ele>2162.1399999999999</ele>
        <time>2016-07-14T08:57:37Z</time>
      </trkpt>
      <trkpt lat="-25.230657672509551" lon="30.156914899125695">
        <ele>2162.1399999999999</ele>
        <time>2016-07-14T08:57:38Z</time>
      </trkpt>
      <trkpt lat="-25.230657504871488" lon="30.157142970710993">
        <ele>2162.6199999999999</ele>
        <time>2016-07-14T08:57:39Z</time>
      </trkpt>
      <trkpt lat="-25.230669407173991" lon="30.157362492755055">
        <ele>2162.6199999999999</ele>
        <time>2016-07-14T08:57:40Z</time>
      </trkpt>
      <trkpt lat="-25.23053789511323" lon="30.159161165356636">
        <ele>2169.3499999999999</ele>
        <time>2016-07-14T08:57:48Z</time>
      </trkpt>
      <trkpt lat="-25.229825852438807" lon="30.160342929884791">
        <ele>2172.2399999999998</ele>
        <time>2016-07-14T08:57:54Z</time>
      </trkpt>
      <trkpt lat="-25.22827997803688" lon="30.161608345806599">
        <ele>2164.5500000000002</ele>
        <time>2016-07-14T08:58:02Z</time>
      </trkpt>
      <trkpt lat="-25.226364713162184" lon="30.163309285417199">
        <ele>2146.7600000000002</ele>
        <time>2016-07-14T08:58:12Z</time>
      </trkpt>
      <trkpt lat="-25.22493677213788" lon="30.164402620866895">
        <ele>2134.2600000000002</ele>
        <time>2016-07-14T08:58:20Z</time>
      </trkpt>
      <trkpt lat="-25.223075486719608" lon="30.165349021553993">
        <ele>2119.8400000000001</ele>
        <time>2016-07-14T08:58:29Z</time>
      </trkpt>
      <trkpt lat="-25.221816692501307" lon="30.16656456515193">
        <ele>2108.79</ele>
        <time>2016-07-14T08:58:36Z</time>
      </trkpt>
      <trkpt lat="-25.22046678699553" lon="30.168558955192566">
        <ele>2094.8499999999999</ele>
        <time>2016-07-14T08:58:45Z</time>
      </trkpt>
      <trkpt lat="-25.219713756814599" lon="30.169579368084669">
        <ele>2086.1999999999998</ele>
        <time>2016-07-14T08:58:50Z</time>
      </trkpt>
      <trkpt lat="-25.219533210620284" lon="30.16973870806396">
        <ele>2084.2800000000002</ele>
        <time>2016-07-14T08:58:51Z</time>
      </trkpt>
      <trkpt lat="-25.219343109056354" lon="30.169878099113703">
        <ele>2082.3499999999999</ele>
        <time>2016-07-14T08:58:52Z</time>
      </trkpt>
      <trkpt lat="-25.21914797835052" lon="30.169999971985817">
        <ele>2080.9099999999999</ele>
        <time>2016-07-14T08:58:53Z</time>
      </trkpt>
      <trkpt lat="-25.218946980312467" lon="30.170110445469618">
        <ele>2078.9899999999998</ele>
        <time>2016-07-14T08:58:54Z</time>
      </trkpt>
      <trkpt lat="-25.217172782868147" lon="30.171243427321315">
        <ele>2065.5300000000002</ele>
        <time>2016-07-14T08:59:03Z</time>
      </trkpt>
      <trkpt lat="-25.215650880709291" lon="30.172646390274167">
        <ele>2051.1100000000001</ele>
        <time>2016-07-14T08:59:12Z</time>
      </trkpt>
      <trkpt lat="-25.215449212118983" lon="30.172743955627084">
        <ele>2049.6700000000001</ele>
        <time>2016-07-14T08:59:13Z</time>
      </trkpt>
      <trkpt lat="-25.215237401425838" lon="30.172820817679167">
        <ele>2047.75</ele>
        <time>2016-07-14T08:59:14Z</time>
      </trkpt>
      <trkpt lat="-25.213006138801575" lon="30.173489358276129">
        <ele>2032.3599999999999</ele>
        <time>2016-07-14T08:59:24Z</time>
      </trkpt>
      <trkpt lat="-25.210589300841093" lon="30.174272647127509">
        <ele>2014.0999999999999</ele>
        <time>2016-07-14T08:59:35Z</time>
      </trkpt>
      <trkpt lat="-25.209030350670218" lon="30.174126299098134">
        <ele>2002.5599999999999</ele>
        <time>2016-07-14T08:59:42Z</time>
      </trkpt>
      <trkpt lat="-25.207813549786806" lon="30.174485212191939">
        <ele>1993.9100000000001</ele>
        <time>2016-07-14T08:59:48Z</time>
      </trkpt>
      <trkpt lat="-25.205966765061021" lon="30.175297502428293">
        <ele>1979.97</ele>
        <time>2016-07-14T08:59:57Z</time>
      </trkpt>
      <trkpt lat="-25.204481994733214" lon="30.175964618101716">
        <ele>1969.4000000000001</ele>
        <time>2016-07-14T09:00:04Z</time>
      </trkpt>
      <trkpt lat="-25.202929833903909" lon="30.176524529233575">
        <ele>1957.3800000000001</ele>
        <time>2016-07-14T09:00:11Z</time>
      </trkpt>
      <trkpt lat="-25.201847981661558" lon="30.177324498072267">
        <ele>1947.77</ele>
        <time>2016-07-14T09:00:17Z</time>
      </trkpt>
      <trkpt lat="-25.199799193069339" lon="30.178938349708915">
        <ele>1930.46</ele>
        <time>2016-07-14T09:00:28Z</time>
      </trkpt>
      <trkpt lat="-25.197364669293165" lon="30.180081054568291">
        <ele>1913.1600000000001</ele>
        <time>2016-07-14T09:00:39Z</time>
      </trkpt>
      <trkpt lat="-25.196031024679542" lon="30.18125519156456">
        <ele>1901.1400000000001</ele>
        <time>2016-07-14T09:00:46Z</time>
      </trkpt>
      <trkpt lat="-25.194654799997807" lon="30.183283528313041">
        <ele>1888.1700000000001</ele>
        <time>2016-07-14T09:00:55Z</time>
      </trkpt>
      <trkpt lat="-25.192727046087384" lon="30.185866914689541">
        <ele>1879.03</ele>
        <time>2016-07-14T09:01:06Z</time>
      </trkpt>
      <trkpt lat="-25.19079526886344" lon="30.187462661415339">
        <ele>1868.46</ele>
        <time>2016-07-14T09:01:15Z</time>
      </trkpt>
      <trkpt lat="-25.187204126268625" lon="30.190063901245594">
        <ele>1847.3099999999999</ele>
        <time>2016-07-14T09:01:30Z</time>
      </trkpt>
      <trkpt lat="-25.182700697332621" lon="30.193334016948938">
        <ele>1842.02</ele>
        <time>2016-07-14T09:01:50Z</time>
      </trkpt>
      <trkpt lat="-25.17872029915452" lon="30.19623558036983">
        <ele>1831.9300000000001</ele>
        <time>2016-07-14T09:02:08Z</time>
      </trkpt>
      <trkpt lat="-25.175736593082547" lon="30.198400039225817">
        <ele>1807.9000000000001</ele>
        <time>2016-07-14T09:02:22Z</time>
      </trkpt>
      <trkpt lat="-25.172181241214275" lon="30.200854428112507">
        <ele>1787.71</ele>
        <time>2016-07-14T09:02:37Z</time>
      </trkpt>
      <trkpt lat="-25.168734854087234" lon="30.202739350497723">
        <ele>1779.54</ele>
        <time>2016-07-14T09:02:51Z</time>
      </trkpt>
      <trkpt lat="-25.164620010182261" lon="30.20469275303185">
        <ele>1775.6900000000001</ele>
        <time>2016-07-14T09:03:08Z</time>
      </trkpt>
      <trkpt lat="-25.160306179895997" lon="30.206748163327575">
        <ele>1776.1700000000001</ele>
        <time>2016-07-14T09:03:25Z</time>
      </trkpt>
      <trkpt lat="-25.157332113012671" lon="30.208155317232013">
        <ele>1777.6099999999999</ele>
        <time>2016-07-14T09:03:37Z</time>
      </trkpt>
      <trkpt lat="-25.154149839654565" lon="30.209715608507395">
        <ele>1778.0999999999999</ele>
        <time>2016-07-14T09:03:50Z</time>
      </trkpt>
      <trkpt lat="-25.15230112709105" lon="30.211097616702318">
        <ele>1784.3399999999999</ele>
        <time>2016-07-14T09:03:59Z</time>
      </trkpt>
      <trkpt lat="-25.150781068950891" lon="30.21285773254931">
        <ele>1784.8199999999999</ele>
        <time>2016-07-14T09:04:08Z</time>
      </trkpt>
      <trkpt lat="-25.149630652740598" lon="30.214929319918156">
        <ele>1777.1300000000001</ele>
        <time>2016-07-14T09:04:17Z</time>
      </trkpt>
      <trkpt lat="-25.148865217342973" lon="30.217414051294327">
        <ele>1767.52</ele>
        <time>2016-07-14T09:04:26Z</time>
      </trkpt>
      <trkpt lat="-25.148236658424139" lon="30.220069773495197">
        <ele>1764.1600000000001</ele>
        <time>2016-07-14T09:04:36Z</time>
      </trkpt>
      <trkpt lat="-25.147265447303653" lon="30.224129045382142">
        <ele>1769.4400000000001</ele>
        <time>2016-07-14T09:04:51Z</time>
      </trkpt>
      <trkpt lat="-25.146255344152451" lon="30.227614408358932">
        <ele>1754.0599999999999</ele>
        <time>2016-07-14T09:05:04Z</time>
      </trkpt>
      <trkpt lat="-25.145047679543495" lon="30.229980954900384">
        <ele>1742.53</ele>
        <time>2016-07-14T09:05:14Z</time>
      </trkpt>
      <trkpt lat="-25.143439779058099" lon="30.232130074873567">
        <ele>1730.03</ele>
        <time>2016-07-14T09:05:24Z</time>
      </trkpt>
      <trkpt lat="-25.141684357076883" lon="30.233767814934254">
        <ele>1716.0899999999999</ele>
        <time>2016-07-14T09:05:33Z</time>
      </trkpt>
      <trkpt lat="-25.139458123594522" lon="30.235204724594951">
        <ele>1697.8299999999999</ele>
        <time>2016-07-14T09:05:43Z</time>
      </trkpt>
      <trkpt lat="-25.136026153340936" lon="30.237195258960128">
        <ele>1670.4300000000001</ele>
        <time>2016-07-14T09:05:58Z</time>
      </trkpt>
      <trkpt lat="-25.134387826547027" lon="30.238667288795114">
        <ele>1656.01</ele>
        <time>2016-07-14T09:06:06Z</time>
      </trkpt>
      <trkpt lat="-25.133047979325056" lon="30.240557659417391">
        <ele>1648.3199999999999</ele>
        <time>2016-07-14T09:06:14Z</time>
      </trkpt>
      <trkpt lat="-25.132155977189541" lon="30.242665791884065">
        <ele>1654.5699999999999</ele>
        <time>2016-07-14T09:06:22Z</time>
      </trkpt>
      <trkpt lat="-25.131739983335137" lon="30.244581308215857">
        <ele>1662.74</ele>
        <time>2016-07-14T09:06:30Z</time>
      </trkpt>
      <trkpt lat="-25.131678711622953" lon="30.246830591931939">
        <ele>1668.02</ele>
        <time>2016-07-14T09:06:39Z</time>
      </trkpt>
      <trkpt lat="-25.132021615281701" lon="30.248798159882426">
        <ele>1670.9100000000001</ele>
        <time>2016-07-14T09:06:47Z</time>
      </trkpt>
      <trkpt lat="-25.132873049005866" lon="30.251096729189157">
        <ele>1676.6800000000001</ele>
        <time>2016-07-14T09:06:57Z</time>
      </trkpt>
      <trkpt lat="-25.134699298068881" lon="30.254285708069801">
        <ele>1687.73</ele>
        <time>2016-07-14T09:07:11Z</time>
      </trkpt>
      <trkpt lat="-25.136790163815022" lon="30.257887914776802">
        <ele>1699.75</ele>
        <time>2016-07-14T09:07:27Z</time>
      </trkpt>
      <trkpt lat="-25.13808935880661" lon="30.26056744158268">
        <ele>1708.4000000000001</ele>
        <time>2016-07-14T09:07:39Z</time>
      </trkpt>
      <trkpt lat="-25.138815147802234" lon="30.263270018622279">
        <ele>1718.49</ele>
        <time>2016-07-14T09:07:49Z</time>
      </trkpt>
      <trkpt lat="-25.139043387025595" lon="30.265583926811814">
        <ele>1728.1099999999999</ele>
        <time>2016-07-14T09:07:58Z</time>
      </trkpt>
      <trkpt lat="-25.139044560492039" lon="30.268890503793955">
        <ele>1742.05</ele>
        <time>2016-07-14T09:08:11Z</time>
      </trkpt>
      <trkpt lat="-25.139032322913408" lon="30.273689059540629">
        <ele>1768.48</ele>
        <time>2016-07-14T09:08:29Z</time>
      </trkpt>
      <trkpt lat="-25.139040453359485" lon="30.276819113641977">
        <ele>1790.1099999999999</ele>
        <time>2016-07-14T09:08:43Z</time>
      </trkpt>
      <trkpt lat="-25.139108430594206" lon="30.278545031324029">
        <ele>1802.1300000000001</ele>
        <time>2016-07-14T09:08:52Z</time>
      </trkpt>
      <trkpt lat="-25.139580415561795" lon="30.280244378373027">
        <ele>1813.6600000000001</ele>
        <time>2016-07-14T09:09:00Z</time>
      </trkpt>
      <trkpt lat="-25.140674086287618" lon="30.282276067882776">
        <ele>1828.5599999999999</ele>
        <time>2016-07-14T09:09:10Z</time>
      </trkpt>
      <trkpt lat="-25.142624890431762" lon="30.285799065604806">
        <ele>1835.77</ele>
        <time>2016-07-14T09:09:27Z</time>
      </trkpt>
      <trkpt lat="-25.144238490611315" lon="30.288698617368937">
        <ele>1849.23</ele>
        <time>2016-07-14T09:09:43Z</time>
      </trkpt>
      <trkpt lat="-25.145850414410233" lon="30.291626919060946">
        <ele>1865.0899999999999</ele>
        <time>2016-07-14T09:09:57Z</time>
      </trkpt>
    </trkseg>
  </trk>

</gpx>