<?xml version="1.0" encoding="utf-8"?><gpx creator="Garmin Desktop App" version="1.1" xsi:schemaLocation="http://www.topografix.com/GPX/1/1 http://www.topografix.com/GPX/1/1/gpx.xsd http://www.garmin.com/xmlschemas/WaypointExtension/v1 http://www8.garmin.com/xmlschemas/WaypointExtensionv1.xsd http://www.garmin.com/xmlschemas/TrackPointExtension/v1 http://www.garmin.com/xmlschemas/TrackPointExtensionv1.xsd http://www.garmin.com/xmlschemas/GpxExtensions/v3 http://www8.garmin.com/xmlschemas/GpxExtensionsv3.xsd http://www.garmin.com/xmlschemas/ActivityExtension/v1 http://www8.garmin.com/xmlschemas/ActivityExtensionv1.xsd http://www.garmin.com/xmlschemas/AdventuresExtensions/v1 http://www8.garmin.com/xmlschemas/AdventuresExtensionv1.xsd http://www.garmin.com/xmlschemas/PressureExtension/v1 http://www.garmin.com/xmlschemas/PressureExtensionv1.xsd http://www.garmin.com/xmlschemas/TripExtensions/v1 http://www.garmin.com/xmlschemas/TripExtensionsv1.xsd http://www.garmin.com/xmlschemas/TripMetaDataExtensions/v1 http://www.garmin.com/xmlschemas/TripMetaDataExtensionsv1.xsd http://www.garmin.com/xmlschemas/ViaPointTransportationModeExtensions/v1 http://www.garmin.com/xmlschemas/ViaPointTransportationModeExtensionsv1.xsd http://www.garmin.com/xmlschemas/CreationTimeExtension/v1 http://www.garmin.com/xmlschemas/CreationTimeExtensionsv1.xsd http://www.garmin.com/xmlschemas/AccelerationExtension/v1 http://www.garmin.com/xmlschemas/AccelerationExtensionv1.xsd http://www.garmin.com/xmlschemas/PowerExtension/v1 http://www.garmin.com/xmlschemas/PowerExtensionv1.xsd http://www.garmin.com/xmlschemas/VideoExtension/v1 http://www.garmin.com/xmlschemas/VideoExtensionv1.xsd" xmlns="http://www.topografix.com/GPX/1/1" xmlns:xsi="http://www.w3.org/2001/XMLSchema-instance" xmlns:wptx1="http://www.garmin.com/xmlschemas/WaypointExtension/v1" xmlns:gpxtrx="http://www.garmin.com/xmlschemas/GpxExtensions/v3" xmlns:gpxtpx="http://www.garmin.com/xmlschemas/TrackPointExtension/v1" xmlns:gpxx="http://www.garmin.com/xmlschemas/GpxExtensions/v3" xmlns:trp="http://www.garmin.com/xmlschemas/TripExtensions/v1" xmlns:adv="http://www.garmin.com/xmlschemas/AdventuresExtensions/v1" xmlns:prs="http://www.garmin.com/xmlschemas/PressureExtension/v1" xmlns:tmd="http://www.garmin.com/xmlschemas/TripMetaDataExtensions/v1" xmlns:vptm="http://www.garmin.com/xmlschemas/ViaPointTransportationModeExtensions/v1" xmlns:ctx="http://www.garmin.com/xmlschemas/CreationTimeExtension/v1" xmlns:gpxacc="http://www.garmin.com/xmlschemas/AccelerationExtension/v1" xmlns:gpxpx="http://www.garmin.com/xmlschemas/PowerExtension/v1" xmlns:vidx1="http://www.garmin.com/xmlschemas/VideoExtension/v1">

  <metadata>
    <link href="http://www.garmin.com">
      <text>Garmin International</text>
    </link>
    <time>2023-01-21T09:57:33Z</time>
    <bounds maxlat="-33.627800988033414" maxlon="23.136958004906774" minlat="-33.653923021629453" minlon="23.121721968054771" />
  </metadata>

  <trk>
    <name>[106] Uniondale Heights</name>
    <extensions>
      <gpxx:TrackExtension>
        <gpxx:DisplayColor>Blue</gpxx:DisplayColor>
      </gpxx:TrackExtension>
    </extensions>
    <trkseg>
      <trkpt lat="-33.627800988033414" lon="23.130178973078728">
        <ele>819.65999999999997</ele>
        <time>2020-02-24T07:26:55Z</time>
      </trkpt>
      <trkpt lat="-33.629441997036338" lon="23.128195982426405">
        <ele>828.30999999999995</ele>
        <time>2020-02-24T07:27:04Z</time>
      </trkpt>
      <trkpt lat="-33.630612026900053" lon="23.127574967220426">
        <ele>836</ele>
        <time>2020-02-24T07:27:09Z</time>
      </trkpt>
      <trkpt lat="-33.632090007886291" lon="23.127541020512581">
        <ele>840.33000000000004</ele>
        <time>2020-02-24T07:27:15Z</time>
      </trkpt>
      <trkpt lat="-33.63346497528255" lon="23.128200005739927">
        <ele>839.85000000000002</ele>
        <time>2020-02-24T07:27:21Z</time>
      </trkpt>
      <trkpt lat="-33.635199023410678" lon="23.129629958420992">
        <ele>832.15999999999997</ele>
        <time>2020-02-24T07:27:30Z</time>
      </trkpt>
      <trkpt lat="-33.636373998597264" lon="23.130061039701104">
        <ele>823.99000000000001</ele>
        <time>2020-02-24T07:27:36Z</time>
      </trkpt>
      <trkpt lat="-33.636580025777221" lon="23.130071014165878">
        <ele>822.54999999999995</ele>
        <time>2020-02-24T07:27:37Z</time>
      </trkpt>
      <trkpt lat="-33.636784963309765" lon="23.130059028044343">
        <ele>821.10000000000002</ele>
        <time>2020-02-24T07:27:38Z</time>
      </trkpt>
      <trkpt lat="-33.636991996318102" lon="23.130023991689086">
        <ele>819.65999999999997</ele>
        <time>2020-02-24T07:27:39Z</time>
      </trkpt>
      <trkpt lat="-33.637192994356155" lon="23.129973029717803">
        <ele>818.22000000000003</ele>
        <time>2020-02-24T07:27:40Z</time>
      </trkpt>
      <trkpt lat="-33.637389969080687" lon="23.12990396283567">
        <ele>816.77999999999997</ele>
        <time>2020-02-24T07:27:41Z</time>
      </trkpt>
      <trkpt lat="-33.638326982036233" lon="23.129585031419992">
        <ele>811.97000000000003</ele>
        <time>2020-02-24T07:27:46Z</time>
      </trkpt>
      <trkpt lat="-33.638504007831216" lon="23.129585031419992">
        <ele>811.00999999999999</ele>
        <time>2020-02-24T07:27:47Z</time>
      </trkpt>
      <trkpt lat="-33.638696037232876" lon="23.129611015319824">
        <ele>810.04999999999995</ele>
        <time>2020-02-24T07:27:48Z</time>
      </trkpt>
      <trkpt lat="-33.638883959501982" lon="23.129673963412642">
        <ele>808.13</ele>
        <time>2020-02-24T07:27:49Z</time>
      </trkpt>
      <trkpt lat="-33.639064002782106" lon="23.129763985052705">
        <ele>806.67999999999995</ele>
        <time>2020-02-24T07:27:50Z</time>
      </trkpt>
      <trkpt lat="-33.639234993606806" lon="23.129891976714134">
        <ele>804.75999999999999</ele>
        <time>2020-02-24T07:27:51Z</time>
      </trkpt>
      <trkpt lat="-33.639387041330338" lon="23.130048969760537">
        <ele>802.84000000000003</ele>
        <time>2020-02-24T07:27:52Z</time>
      </trkpt>
      <trkpt lat="-33.63952299579978" lon="23.130228007212281">
        <ele>801.88</ele>
        <time>2020-02-24T07:27:53Z</time>
      </trkpt>
      <trkpt lat="-33.639635983854532" lon="23.130433028563857">
        <ele>800.44000000000005</ele>
        <time>2020-02-24T07:27:54Z</time>
      </trkpt>
      <trkpt lat="-33.63971502520144" lon="23.130657998844981">
        <ele>799.95000000000005</ele>
        <time>2020-02-24T07:27:55Z</time>
      </trkpt>
      <trkpt lat="-33.639765987172723" lon="23.130885986611247">
        <ele>799.95000000000005</ele>
        <time>2020-02-24T07:27:56Z</time>
      </trkpt>
      <trkpt lat="-33.639784008264542" lon="23.131125960499048">
        <ele>799.47000000000003</ele>
        <time>2020-02-24T07:27:57Z</time>
      </trkpt>
      <trkpt lat="-33.639776967465878" lon="23.131368029862642">
        <ele>798.50999999999999</ele>
        <time>2020-02-24T07:27:58Z</time>
      </trkpt>
      <trkpt lat="-33.639719970524311" lon="23.131610015407205">
        <ele>798.50999999999999</ele>
        <time>2020-02-24T07:27:59Z</time>
      </trkpt>
      <trkpt lat="-33.639650987461209" lon="23.131840014830232">
        <ele>798.02999999999997</ele>
        <time>2020-02-24T07:28:00Z</time>
      </trkpt>
      <trkpt lat="-33.639556020498276" lon="23.132063979282975">
        <ele>797.54999999999995</ele>
        <time>2020-02-24T07:28:01Z</time>
      </trkpt>
      <trkpt lat="-33.639435991644859" lon="23.132289033383131">
        <ele>797.07000000000005</ele>
        <time>2020-02-24T07:28:02Z</time>
      </trkpt>
      <trkpt lat="-33.638148028403521" lon="23.134452989324927">
        <ele>790.82000000000005</ele>
        <time>2020-02-24T07:28:11Z</time>
      </trkpt>
      <trkpt lat="-33.6380610242486" lon="23.134690029546618">
        <ele>790.34000000000003</ele>
        <time>2020-02-24T07:28:12Z</time>
      </trkpt>
      <trkpt lat="-33.637998998165131" lon="23.134932015091181">
        <ele>789.38</ele>
        <time>2020-02-24T07:28:13Z</time>
      </trkpt>
      <trkpt lat="-33.637973014265299" lon="23.135178023949265">
        <ele>788.89999999999998</ele>
        <time>2020-02-24T07:28:14Z</time>
      </trkpt>
      <trkpt lat="-33.637972008436918" lon="23.135416992008686">
        <ele>788.41999999999996</ele>
        <time>2020-02-24T07:28:15Z</time>
      </trkpt>
      <trkpt lat="-33.638000003993511" lon="23.135647997260094">
        <ele>787.94000000000005</ele>
        <time>2020-02-24T07:28:16Z</time>
      </trkpt>
      <trkpt lat="-33.638053983449936" lon="23.135868022218347">
        <ele>786.98000000000002</ele>
        <time>2020-02-24T07:28:17Z</time>
      </trkpt>
      <trkpt lat="-33.638134030625224" lon="23.136081006377935">
        <ele>786.01999999999998</ele>
        <time>2020-02-24T07:28:18Z</time>
      </trkpt>
      <trkpt lat="-33.638235032558441" lon="23.136282004415989">
        <ele>785.52999999999997</ele>
        <time>2020-02-24T07:28:19Z</time>
      </trkpt>
      <trkpt lat="-33.638357995077968" lon="23.136461963877082">
        <ele>784.57000000000005</ele>
        <time>2020-02-24T07:28:20Z</time>
      </trkpt>
      <trkpt lat="-33.638499984517694" lon="23.136618034914136">
        <ele>784.09000000000003</ele>
        <time>2020-02-24T07:28:21Z</time>
      </trkpt>
      <trkpt lat="-33.638666030019522" lon="23.136745020747185">
        <ele>783.13</ele>
        <time>2020-02-24T07:28:22Z</time>
      </trkpt>
      <trkpt lat="-33.638843977823853" lon="23.136845016852021">
        <ele>781.69000000000005</ele>
        <time>2020-02-24T07:28:23Z</time>
      </trkpt>
      <trkpt lat="-33.639023015275598" lon="23.136921040713787">
        <ele>781.21000000000004</ele>
        <time>2020-02-24T07:28:24Z</time>
      </trkpt>
      <trkpt lat="-33.639209009706974" lon="23.136950964108109">
        <ele>780.25</ele>
        <time>2020-02-24T07:28:25Z</time>
      </trkpt>
      <trkpt lat="-33.639402966946363" lon="23.136958004906774">
        <ele>779.76999999999998</ele>
        <time>2020-02-24T07:28:26Z</time>
      </trkpt>
      <trkpt lat="-33.639599019661546" lon="23.136937972158194">
        <ele>778.80999999999995</ele>
        <time>2020-02-24T07:28:27Z</time>
      </trkpt>
      <trkpt lat="-33.639779984951019" lon="23.136877035722136">
        <ele>778.32000000000005</ele>
        <time>2020-02-24T07:28:28Z</time>
      </trkpt>
      <trkpt lat="-33.639960028231144" lon="23.136785002425313">
        <ele>776.88</ele>
        <time>2020-02-24T07:28:29Z</time>
      </trkpt>
      <trkpt lat="-33.640129007399082" lon="23.136664973571897">
        <ele>774.96000000000004</ele>
        <time>2020-02-24T07:28:30Z</time>
      </trkpt>
      <trkpt lat="-33.640290023759007" lon="23.136509992182255">
        <ele>773.51999999999998</ele>
        <time>2020-02-24T07:28:31Z</time>
      </trkpt>
      <trkpt lat="-33.640438970178366" lon="23.136334978044033">
        <ele>772.08000000000004</ele>
        <time>2020-02-24T07:28:32Z</time>
      </trkpt>
      <trkpt lat="-33.640584982931614" lon="23.136140014976263">
        <ele>770.63</ele>
        <time>2020-02-24T07:28:33Z</time>
      </trkpt>
      <trkpt lat="-33.640728984028101" lon="23.135933987796307">
        <ele>769.19000000000005</ele>
        <time>2020-02-24T07:28:34Z</time>
      </trkpt>
      <trkpt lat="-33.642000015825033" lon="23.13415702432394">
        <ele>757.17999999999995</ele>
        <time>2020-02-24T07:28:42Z</time>
      </trkpt>
      <trkpt lat="-33.642600998282433" lon="23.133386978879571">
        <ele>749.97000000000003</ele>
        <time>2020-02-24T07:28:46Z</time>
      </trkpt>
      <trkpt lat="-33.642779029905796" lon="23.133248006924987">
        <ele>747.55999999999995</ele>
        <time>2020-02-24T07:28:47Z</time>
      </trkpt>
      <trkpt lat="-33.642968041822314" lon="23.133149016648531">
        <ele>745.63999999999999</ele>
        <time>2020-02-24T07:28:48Z</time>
      </trkpt>
      <trkpt lat="-33.643182031810284" lon="23.133075004443526">
        <ele>743.72000000000003</ele>
        <time>2020-02-24T07:28:49Z</time>
      </trkpt>
      <trkpt lat="-33.643387975171208" lon="23.13306100666523">
        <ele>743.24000000000001</ele>
        <time>2020-02-24T07:28:50Z</time>
      </trkpt>
      <trkpt lat="-33.643599031493068" lon="23.133068969473243">
        <ele>742.75999999999999</ele>
        <time>2020-02-24T07:28:51Z</time>
      </trkpt>
      <trkpt lat="-33.643817966803908" lon="23.133092019706964">
        <ele>742.27999999999997</ele>
        <time>2020-02-24T07:28:52Z</time>
      </trkpt>
      <trkpt lat="-33.645529970526695" lon="23.133015995845199">
        <ele>743.24000000000001</ele>
        <time>2020-02-24T07:29:00Z</time>
      </trkpt>
      <trkpt lat="-33.645743960514665" lon="23.132921028882265">
        <ele>742.27999999999997</ele>
        <time>2020-02-24T07:29:01Z</time>
      </trkpt>
      <trkpt lat="-33.645943030714989" lon="23.132809968665242">
        <ele>742.27999999999997</ele>
        <time>2020-02-24T07:29:02Z</time>
      </trkpt>
      <trkpt lat="-33.646137993782759" lon="23.132665967568755">
        <ele>741.30999999999995</ele>
        <time>2020-02-24T07:29:03Z</time>
      </trkpt>
      <trkpt lat="-33.646322982385755" lon="23.132514003664255">
        <ele>740.83000000000004</ele>
        <time>2020-02-24T07:29:04Z</time>
      </trkpt>
      <trkpt lat="-33.646500008180737" lon="23.132337983697653">
        <ele>741.30999999999995</ele>
        <time>2020-02-24T07:29:05Z</time>
      </trkpt>
      <trkpt lat="-33.646666975691915" lon="23.132145032286644">
        <ele>740.35000000000002</ele>
        <time>2020-02-24T07:29:06Z</time>
      </trkpt>
      <trkpt lat="-33.646835032850504" lon="23.131937999278307">
        <ele>739.87</ele>
        <time>2020-02-24T07:29:07Z</time>
      </trkpt>
      <trkpt lat="-33.648922964930534" lon="23.129095025360584">
        <ele>731.22000000000003</ele>
        <time>2020-02-24T07:29:20Z</time>
      </trkpt>
      <trkpt lat="-33.651167973875999" lon="23.125857012346387">
        <ele>720.64999999999998</ele>
        <time>2020-02-24T07:29:34Z</time>
      </trkpt>
      <trkpt lat="-33.653923021629453" lon="23.121721968054771">
        <ele>720.64999999999998</ele>
        <time>2020-02-24T07:29:52Z</time>
      </trkpt>
    </trkseg>
  </trk>

</gpx>