<?xml version="1.0" encoding="utf-8"?><gpx creator="Garmin Desktop App" version="1.1" xsi:schemaLocation="http://www.topografix.com/GPX/1/1 http://www.topografix.com/GPX/1/1/gpx.xsd http://www.garmin.com/xmlschemas/WaypointExtension/v1 http://www8.garmin.com/xmlschemas/WaypointExtensionv1.xsd http://www.garmin.com/xmlschemas/TrackPointExtension/v1 http://www.garmin.com/xmlschemas/TrackPointExtensionv1.xsd http://www.garmin.com/xmlschemas/GpxExtensions/v3 http://www8.garmin.com/xmlschemas/GpxExtensionsv3.xsd http://www.garmin.com/xmlschemas/ActivityExtension/v1 http://www8.garmin.com/xmlschemas/ActivityExtensionv1.xsd http://www.garmin.com/xmlschemas/AdventuresExtensions/v1 http://www8.garmin.com/xmlschemas/AdventuresExtensionv1.xsd http://www.garmin.com/xmlschemas/PressureExtension/v1 http://www.garmin.com/xmlschemas/PressureExtensionv1.xsd http://www.garmin.com/xmlschemas/TripExtensions/v1 http://www.garmin.com/xmlschemas/TripExtensionsv1.xsd http://www.garmin.com/xmlschemas/TripMetaDataExtensions/v1 http://www.garmin.com/xmlschemas/TripMetaDataExtensionsv1.xsd http://www.garmin.com/xmlschemas/ViaPointTransportationModeExtensions/v1 http://www.garmin.com/xmlschemas/ViaPointTransportationModeExtensionsv1.xsd http://www.garmin.com/xmlschemas/CreationTimeExtension/v1 http://www.garmin.com/xmlschemas/CreationTimeExtensionsv1.xsd http://www.garmin.com/xmlschemas/AccelerationExtension/v1 http://www.garmin.com/xmlschemas/AccelerationExtensionv1.xsd http://www.garmin.com/xmlschemas/PowerExtension/v1 http://www.garmin.com/xmlschemas/PowerExtensionv1.xsd http://www.garmin.com/xmlschemas/VideoExtension/v1 http://www.garmin.com/xmlschemas/VideoExtensionv1.xsd" xmlns="http://www.topografix.com/GPX/1/1" xmlns:xsi="http://www.w3.org/2001/XMLSchema-instance" xmlns:wptx1="http://www.garmin.com/xmlschemas/WaypointExtension/v1" xmlns:gpxtrx="http://www.garmin.com/xmlschemas/GpxExtensions/v3" xmlns:gpxtpx="http://www.garmin.com/xmlschemas/TrackPointExtension/v1" xmlns:gpxx="http://www.garmin.com/xmlschemas/GpxExtensions/v3" xmlns:trp="http://www.garmin.com/xmlschemas/TripExtensions/v1" xmlns:adv="http://www.garmin.com/xmlschemas/AdventuresExtensions/v1" xmlns:prs="http://www.garmin.com/xmlschemas/PressureExtension/v1" xmlns:tmd="http://www.garmin.com/xmlschemas/TripMetaDataExtensions/v1" xmlns:vptm="http://www.garmin.com/xmlschemas/ViaPointTransportationModeExtensions/v1" xmlns:ctx="http://www.garmin.com/xmlschemas/CreationTimeExtension/v1" xmlns:gpxacc="http://www.garmin.com/xmlschemas/AccelerationExtension/v1" xmlns:gpxpx="http://www.garmin.com/xmlschemas/PowerExtension/v1" xmlns:vidx1="http://www.garmin.com/xmlschemas/VideoExtension/v1">

  <metadata>
    <link href="http://www.garmin.com">
      <text>Garmin International</text>
    </link>
    <time>2023-01-21T09:59:30Z</time>
    <bounds maxlat="-34.18589198961854" maxlon="21.808729022741318" minlat="-34.199998984113336" minlon="21.676895013079047" />
  </metadata>

  <trk>
    <name>[115] Gouritz River Pass</name>
    <extensions>
      <gpxx:TrackExtension>
        <gpxx:DisplayColor>Blue</gpxx:DisplayColor>
      </gpxx:TrackExtension>
    </extensions>
    <trkseg>
      <trkpt lat="-34.1968700196594" lon="21.808729022741318">
        <ele>189.52000000000001</ele>
        <time>2020-02-25T05:38:19Z</time>
      </trkpt>
      <trkpt lat="-34.195866035297513" lon="21.800842992961407">
        <ele>191.44</ele>
        <time>2020-02-25T05:38:39Z</time>
      </trkpt>
      <trkpt lat="-34.195522964000702" lon="21.798020973801613">
        <ele>196.72999999999999</ele>
        <time>2020-02-25T05:38:47Z</time>
      </trkpt>
      <trkpt lat="-34.195122979581356" lon="21.794950012117624">
        <ele>193.36000000000001</ele>
        <time>2020-02-25T05:38:57Z</time>
      </trkpt>
      <trkpt lat="-34.194673039019108" lon="21.791084026917815">
        <ele>186.15000000000001</ele>
        <time>2020-02-25T05:39:07Z</time>
      </trkpt>
      <trkpt lat="-34.193833004683256" lon="21.784236012026668">
        <ele>179.90000000000001</ele>
        <time>2020-02-25T05:39:25Z</time>
      </trkpt>
      <trkpt lat="-34.193221963942051" lon="21.780971009284258">
        <ele>176.53999999999999</ele>
        <time>2020-02-25T05:39:34Z</time>
      </trkpt>
      <trkpt lat="-34.192269025370479" lon="21.779093965888023">
        <ele>170.77000000000001</ele>
        <time>2020-02-25T05:39:40Z</time>
      </trkpt>
      <trkpt lat="-34.191568968817592" lon="21.777264028787613">
        <ele>162.12</ele>
        <time>2020-02-25T05:39:46Z</time>
      </trkpt>
      <trkpt lat="-34.191230004653335" lon="21.774913994595408">
        <ele>150.58000000000001</ele>
        <time>2020-02-25T05:39:53Z</time>
      </trkpt>
      <trkpt lat="-34.190690964460373" lon="21.769699025899172">
        <ele>130.40000000000001</ele>
        <time>2020-02-25T05:40:07Z</time>
      </trkpt>
      <trkpt lat="-34.190211016684771" lon="21.765773026272655">
        <ele>119.81999999999999</ele>
        <time>2020-02-25T05:40:18Z</time>
      </trkpt>
      <trkpt lat="-34.189534010365605" lon="21.764241987839341">
        <ele>114.05</ele>
        <time>2020-02-25T05:40:23Z</time>
      </trkpt>
      <trkpt lat="-34.188288962468505" lon="21.762763001024723">
        <ele>106.36</ele>
        <time>2020-02-25T05:40:29Z</time>
      </trkpt>
      <trkpt lat="-34.187123039737344" lon="21.761179994791746">
        <ele>97.230000000000004</ele>
        <time>2020-02-25T05:40:35Z</time>
      </trkpt>
      <trkpt lat="-34.186414014548063" lon="21.75927403382957">
        <ele>86.659999999999997</ele>
        <time>2020-02-25T05:40:41Z</time>
      </trkpt>
      <trkpt lat="-34.186182003468275" lon="21.757175959646702">
        <ele>76.560000000000002</ele>
        <time>2020-02-25T05:40:47Z</time>
      </trkpt>
      <trkpt lat="-34.1860649921" lon="21.753434026613832">
        <ele>64.069999999999993</ele>
        <time>2020-02-25T05:40:58Z</time>
      </trkpt>
      <trkpt lat="-34.18589198961854" lon="21.748590040951967">
        <ele>80.409999999999997</ele>
        <time>2020-02-25T05:41:12Z</time>
      </trkpt>
      <trkpt lat="-34.186025010421872" lon="21.745364014059305">
        <ele>90.5</ele>
        <time>2020-02-25T05:41:21Z</time>
      </trkpt>
      <trkpt lat="-34.186640996485949" lon="21.74221602268517">
        <ele>93.870000000000005</ele>
        <time>2020-02-25T05:41:30Z</time>
      </trkpt>
      <trkpt lat="-34.188084024935961" lon="21.735851978883147">
        <ele>91.459999999999994</ele>
        <time>2020-02-25T05:41:48Z</time>
      </trkpt>
      <trkpt lat="-34.189893007278442" lon="21.727739972993731">
        <ele>92.900000000000006</ele>
        <time>2020-02-25T05:42:10Z</time>
      </trkpt>
      <trkpt lat="-34.191941963508725" lon="21.718601016327739">
        <ele>118.38</ele>
        <time>2020-02-25T05:42:35Z</time>
      </trkpt>
      <trkpt lat="-34.19416300021112" lon="21.708673993125558">
        <ele>137.13</ele>
        <time>2020-02-25T05:43:02Z</time>
      </trkpt>
      <trkpt lat="-34.195498991757631" lon="21.701986994594336">
        <ele>142.88999999999999</ele>
        <time>2020-02-25T05:43:20Z</time>
      </trkpt>
      <trkpt lat="-34.196955012157559" lon="21.693801982328296">
        <ele>162.12</ele>
        <time>2020-02-25T05:43:42Z</time>
      </trkpt>
      <trkpt lat="-34.198797019198537" lon="21.683574970811605">
        <ele>165.47999999999999</ele>
        <time>2020-02-25T05:44:09Z</time>
      </trkpt>
      <trkpt lat="-34.199998984113336" lon="21.676895013079047">
        <ele>181.83000000000001</ele>
        <time>2020-02-25T05:44:27Z</time>
      </trkpt>
    </trkseg>
  </trk>

</gpx>