<?xml version="1.0" encoding="utf-8"?><gpx creator="Garmin Desktop App" version="1.1" xsi:schemaLocation="http://www.topografix.com/GPX/1/1 http://www.topografix.com/GPX/1/1/gpx.xsd http://www.garmin.com/xmlschemas/WaypointExtension/v1 http://www8.garmin.com/xmlschemas/WaypointExtensionv1.xsd http://www.garmin.com/xmlschemas/TrackPointExtension/v1 http://www.garmin.com/xmlschemas/TrackPointExtensionv1.xsd http://www.garmin.com/xmlschemas/GpxExtensions/v3 http://www8.garmin.com/xmlschemas/GpxExtensionsv3.xsd http://www.garmin.com/xmlschemas/ActivityExtension/v1 http://www8.garmin.com/xmlschemas/ActivityExtensionv1.xsd http://www.garmin.com/xmlschemas/AdventuresExtensions/v1 http://www8.garmin.com/xmlschemas/AdventuresExtensionv1.xsd http://www.garmin.com/xmlschemas/PressureExtension/v1 http://www.garmin.com/xmlschemas/PressureExtensionv1.xsd http://www.garmin.com/xmlschemas/TripExtensions/v1 http://www.garmin.com/xmlschemas/TripExtensionsv1.xsd http://www.garmin.com/xmlschemas/TripMetaDataExtensions/v1 http://www.garmin.com/xmlschemas/TripMetaDataExtensionsv1.xsd http://www.garmin.com/xmlschemas/ViaPointTransportationModeExtensions/v1 http://www.garmin.com/xmlschemas/ViaPointTransportationModeExtensionsv1.xsd http://www.garmin.com/xmlschemas/CreationTimeExtension/v1 http://www.garmin.com/xmlschemas/CreationTimeExtensionsv1.xsd http://www.garmin.com/xmlschemas/AccelerationExtension/v1 http://www.garmin.com/xmlschemas/AccelerationExtensionv1.xsd http://www.garmin.com/xmlschemas/PowerExtension/v1 http://www.garmin.com/xmlschemas/PowerExtensionv1.xsd http://www.garmin.com/xmlschemas/VideoExtension/v1 http://www.garmin.com/xmlschemas/VideoExtensionv1.xsd" xmlns="http://www.topografix.com/GPX/1/1" xmlns:xsi="http://www.w3.org/2001/XMLSchema-instance" xmlns:wptx1="http://www.garmin.com/xmlschemas/WaypointExtension/v1" xmlns:gpxtrx="http://www.garmin.com/xmlschemas/GpxExtensions/v3" xmlns:gpxtpx="http://www.garmin.com/xmlschemas/TrackPointExtension/v1" xmlns:gpxx="http://www.garmin.com/xmlschemas/GpxExtensions/v3" xmlns:trp="http://www.garmin.com/xmlschemas/TripExtensions/v1" xmlns:adv="http://www.garmin.com/xmlschemas/AdventuresExtensions/v1" xmlns:prs="http://www.garmin.com/xmlschemas/PressureExtension/v1" xmlns:tmd="http://www.garmin.com/xmlschemas/TripMetaDataExtensions/v1" xmlns:vptm="http://www.garmin.com/xmlschemas/ViaPointTransportationModeExtensions/v1" xmlns:ctx="http://www.garmin.com/xmlschemas/CreationTimeExtension/v1" xmlns:gpxacc="http://www.garmin.com/xmlschemas/AccelerationExtension/v1" xmlns:gpxpx="http://www.garmin.com/xmlschemas/PowerExtension/v1" xmlns:vidx1="http://www.garmin.com/xmlschemas/VideoExtension/v1">

  <metadata>
    <link href="http://www.garmin.com">
      <text>Garmin International</text>
    </link>
    <time>2023-01-21T09:59:44Z</time>
    <bounds maxlat="-34.150902992114425" maxlon="21.325783962383866" minlat="-34.170498959720135" minlon="21.297428989782929" />
  </metadata>

  <trk>
    <name>[116] Soetmelksrivier Pass</name>
    <extensions>
      <gpxx:TrackExtension>
        <gpxx:DisplayColor>Blue</gpxx:DisplayColor>
      </gpxx:TrackExtension>
    </extensions>
    <trkseg>
      <trkpt lat="-34.170332998037338" lon="21.325783962383866">
        <ele>140.49000000000001</ele>
        <time>2020-02-25T06:04:40Z</time>
      </trkpt>
      <trkpt lat="-34.170498959720135" lon="21.321630980819464">
        <ele>140.00999999999999</ele>
        <time>2020-02-25T06:04:52Z</time>
      </trkpt>
      <trkpt lat="-34.170302990823984" lon="21.319482028484344">
        <ele>140.00999999999999</ele>
        <time>2020-02-25T06:04:58Z</time>
      </trkpt>
      <trkpt lat="-34.16965096257627" lon="21.317920982837677">
        <ele>140.00999999999999</ele>
        <time>2020-02-25T06:05:03Z</time>
      </trkpt>
      <trkpt lat="-34.168461989611387" lon="21.316439984366298">
        <ele>140.00999999999999</ele>
        <time>2020-02-25T06:05:09Z</time>
      </trkpt>
      <trkpt lat="-34.164431970566511" lon="21.3119310233742">
        <ele>112.61</ele>
        <time>2020-02-25T06:05:28Z</time>
      </trkpt>
      <trkpt lat="-34.163366965949535" lon="21.310309963300824">
        <ele>105.40000000000001</ele>
        <time>2020-02-25T06:05:34Z</time>
      </trkpt>
      <trkpt lat="-34.162738993763924" lon="21.308340970426798">
        <ele>93.390000000000001</ele>
        <time>2020-02-25T06:05:40Z</time>
      </trkpt>
      <trkpt lat="-34.161752024665475" lon="21.305261040106416">
        <ele>86.659999999999997</ele>
        <time>2020-02-25T06:05:49Z</time>
      </trkpt>
      <trkpt lat="-34.16032399982214" lon="21.303092977032065">
        <ele>88.579999999999998</ele>
        <time>2020-02-25T06:05:57Z</time>
      </trkpt>
      <trkpt lat="-34.159222031012177" lon="21.302100978791714">
        <ele>100.11</ele>
        <time>2020-02-25T06:06:02Z</time>
      </trkpt>
      <trkpt lat="-34.157682023942471" lon="21.301438976079226">
        <ele>113.09</ele>
        <time>2020-02-25T06:06:08Z</time>
      </trkpt>
      <trkpt lat="-34.157412964850664" lon="21.301408968865871">
        <ele>115.5</ele>
        <time>2020-02-25T06:06:09Z</time>
      </trkpt>
      <trkpt lat="-34.157138038426638" lon="21.30142598412931">
        <ele>118.38</ele>
        <time>2020-02-25T06:06:10Z</time>
      </trkpt>
      <trkpt lat="-34.156874008476734" lon="21.301479041576385">
        <ele>120.3</ele>
        <time>2020-02-25T06:06:11Z</time>
      </trkpt>
      <trkpt lat="-34.156610984355211" lon="21.301569985225797">
        <ele>121.26000000000001</ele>
        <time>2020-02-25T06:06:12Z</time>
      </trkpt>
      <trkpt lat="-34.156353995203972" lon="21.301681967452168">
        <ele>123.19</ele>
        <time>2020-02-25T06:06:13Z</time>
      </trkpt>
      <trkpt lat="-34.154799990355968" lon="21.302375989034772">
        <ele>136.63999999999999</ele>
        <time>2020-02-25T06:06:19Z</time>
      </trkpt>
      <trkpt lat="-34.154549958184361" lon="21.302408007904887">
        <ele>138.09</ele>
        <time>2020-02-25T06:06:20Z</time>
      </trkpt>
      <trkpt lat="-34.154291041195393" lon="21.302408007904887">
        <ele>139.53</ele>
        <time>2020-02-25T06:06:21Z</time>
      </trkpt>
      <trkpt lat="-34.154034974053502" lon="21.30237297154963">
        <ele>141.93000000000001</ele>
        <time>2020-02-25T06:06:22Z</time>
      </trkpt>
      <trkpt lat="-34.153786031529307" lon="21.302300971001387">
        <ele>142.88999999999999</ele>
        <time>2020-02-25T06:06:23Z</time>
      </trkpt>
      <trkpt lat="-34.153547985479236" lon="21.302192006260157">
        <ele>144.81999999999999</ele>
        <time>2020-02-25T06:06:24Z</time>
      </trkpt>
      <trkpt lat="-34.153318991884589" lon="21.302058985456824">
        <ele>146.74000000000001</ele>
        <time>2020-02-25T06:06:25Z</time>
      </trkpt>
      <trkpt lat="-34.153102990239859" lon="21.301894029602408">
        <ele>147.69999999999999</ele>
        <time>2020-02-25T06:06:26Z</time>
      </trkpt>
      <trkpt lat="-34.152896963059902" lon="21.301695965230465">
        <ele>149.13999999999999</ele>
        <time>2020-02-25T06:06:27Z</time>
      </trkpt>
      <trkpt lat="-34.152713986113667" lon="21.301476024091244">
        <ele>150.09999999999999</ele>
        <time>2020-02-25T06:06:28Z</time>
      </trkpt>
      <trkpt lat="-34.152550036087632" lon="21.30123202688992">
        <ele>151.53999999999999</ele>
        <time>2020-02-25T06:06:29Z</time>
      </trkpt>
      <trkpt lat="-34.152409974485636" lon="21.30095399916172">
        <ele>151.53999999999999</ele>
        <time>2020-02-25T06:06:30Z</time>
      </trkpt>
      <trkpt lat="-34.152279971167445" lon="21.300664991140366">
        <ele>152.50999999999999</ele>
        <time>2020-02-25T06:06:31Z</time>
      </trkpt>
      <trkpt lat="-34.152153991162777" lon="21.300370031967759">
        <ele>153.47</ele>
        <time>2020-02-25T06:06:32Z</time>
      </trkpt>
      <trkpt lat="-34.150902992114425" lon="21.297428989782929">
        <ele>150.58000000000001</ele>
        <time>2020-02-25T06:06:41Z</time>
      </trkpt>
    </trkseg>
  </trk>

</gpx>