<?xml version="1.0" encoding="utf-8"?><gpx creator="Garmin Desktop App" version="1.1" xsi:schemaLocation="http://www.topografix.com/GPX/1/1 http://www.topografix.com/GPX/1/1/gpx.xsd http://www.garmin.com/xmlschemas/WaypointExtension/v1 http://www8.garmin.com/xmlschemas/WaypointExtensionv1.xsd http://www.garmin.com/xmlschemas/TrackPointExtension/v1 http://www.garmin.com/xmlschemas/TrackPointExtensionv1.xsd http://www.garmin.com/xmlschemas/GpxExtensions/v3 http://www8.garmin.com/xmlschemas/GpxExtensionsv3.xsd http://www.garmin.com/xmlschemas/ActivityExtension/v1 http://www8.garmin.com/xmlschemas/ActivityExtensionv1.xsd http://www.garmin.com/xmlschemas/AdventuresExtensions/v1 http://www8.garmin.com/xmlschemas/AdventuresExtensionv1.xsd http://www.garmin.com/xmlschemas/PressureExtension/v1 http://www.garmin.com/xmlschemas/PressureExtensionv1.xsd http://www.garmin.com/xmlschemas/TripExtensions/v1 http://www.garmin.com/xmlschemas/TripExtensionsv1.xsd http://www.garmin.com/xmlschemas/TripMetaDataExtensions/v1 http://www.garmin.com/xmlschemas/TripMetaDataExtensionsv1.xsd http://www.garmin.com/xmlschemas/ViaPointTransportationModeExtensions/v1 http://www.garmin.com/xmlschemas/ViaPointTransportationModeExtensionsv1.xsd http://www.garmin.com/xmlschemas/CreationTimeExtension/v1 http://www.garmin.com/xmlschemas/CreationTimeExtensionsv1.xsd http://www.garmin.com/xmlschemas/AccelerationExtension/v1 http://www.garmin.com/xmlschemas/AccelerationExtensionv1.xsd http://www.garmin.com/xmlschemas/PowerExtension/v1 http://www.garmin.com/xmlschemas/PowerExtensionv1.xsd http://www.garmin.com/xmlschemas/VideoExtension/v1 http://www.garmin.com/xmlschemas/VideoExtensionv1.xsd" xmlns="http://www.topografix.com/GPX/1/1" xmlns:xsi="http://www.w3.org/2001/XMLSchema-instance" xmlns:wptx1="http://www.garmin.com/xmlschemas/WaypointExtension/v1" xmlns:gpxtrx="http://www.garmin.com/xmlschemas/GpxExtensions/v3" xmlns:gpxtpx="http://www.garmin.com/xmlschemas/TrackPointExtension/v1" xmlns:gpxx="http://www.garmin.com/xmlschemas/GpxExtensions/v3" xmlns:trp="http://www.garmin.com/xmlschemas/TripExtensions/v1" xmlns:adv="http://www.garmin.com/xmlschemas/AdventuresExtensions/v1" xmlns:prs="http://www.garmin.com/xmlschemas/PressureExtension/v1" xmlns:tmd="http://www.garmin.com/xmlschemas/TripMetaDataExtensions/v1" xmlns:vptm="http://www.garmin.com/xmlschemas/ViaPointTransportationModeExtensions/v1" xmlns:ctx="http://www.garmin.com/xmlschemas/CreationTimeExtension/v1" xmlns:gpxacc="http://www.garmin.com/xmlschemas/AccelerationExtension/v1" xmlns:gpxpx="http://www.garmin.com/xmlschemas/PowerExtension/v1" xmlns:vidx1="http://www.garmin.com/xmlschemas/VideoExtension/v1">

  <metadata>
    <link href="http://www.garmin.com">
      <text>Garmin International</text>
    </link>
    <time>2023-01-21T11:38:36Z</time>
    <bounds maxlat="-33.907135035842657" maxlon="20.497829960659146" minlat="-33.927296027541161" minlon="20.403078999370337" />
  </metadata>

  <trk>
    <name>[134] Wildehondskloofhoogte Pass</name>
    <extensions>
      <gpxx:TrackExtension>
        <gpxx:DisplayColor>Blue</gpxx:DisplayColor>
      </gpxx:TrackExtension>
    </extensions>
    <trkseg>
      <trkpt lat="-33.919335985556245" lon="20.497829960659146">
        <ele>685.08000000000004</ele>
        <time>2020-03-09T14:05:35Z</time>
      </trkpt>
      <trkpt lat="-33.920749006792903" lon="20.492943981662393">
        <ele>684.12</ele>
        <time>2020-03-09T14:05:48Z</time>
      </trkpt>
      <trkpt lat="-33.921822980046272" lon="20.490679023787379">
        <ele>687</ele>
        <time>2020-03-09T14:05:55Z</time>
      </trkpt>
      <trkpt lat="-33.92517096363008" lon="20.48436401411891">
        <ele>669.22000000000003</ele>
        <time>2020-03-09T14:06:15Z</time>
      </trkpt>
      <trkpt lat="-33.927001990377903" lon="20.480542033910751">
        <ele>640.86000000000001</ele>
        <time>2020-03-09T14:06:27Z</time>
      </trkpt>
      <trkpt lat="-33.927296027541161" lon="20.478408001363277">
        <ele>637.97000000000003</ele>
        <time>2020-03-09T14:06:33Z</time>
      </trkpt>
      <trkpt lat="-33.926982041448355" lon="20.476233987137675">
        <ele>641.82000000000005</ele>
        <time>2020-03-09T14:06:39Z</time>
      </trkpt>
      <trkpt lat="-33.926627989858389" lon="20.474807973951101">
        <ele>652.38999999999999</ele>
        <time>2020-03-09T14:06:43Z</time>
      </trkpt>
      <trkpt lat="-33.92660703510046" lon="20.47443799674511">
        <ele>654.79999999999995</ele>
        <time>2020-03-09T14:06:44Z</time>
      </trkpt>
      <trkpt lat="-33.926617009565234" lon="20.474067013710737">
        <ele>657.20000000000005</ele>
        <time>2020-03-09T14:06:45Z</time>
      </trkpt>
      <trkpt lat="-33.926649028435349" lon="20.473697958514094">
        <ele>658.63999999999999</ele>
        <time>2020-03-09T14:06:46Z</time>
      </trkpt>
      <trkpt lat="-33.926693033427" lon="20.473326975479722">
        <ele>659.60000000000002</ele>
        <time>2020-03-09T14:06:47Z</time>
      </trkpt>
      <trkpt lat="-33.927199970930815" lon="20.468389028683305">
        <ele>660.08000000000004</ele>
        <time>2020-03-09T14:07:00Z</time>
      </trkpt>
      <trkpt lat="-33.927170969545841" lon="20.468032965436578">
        <ele>658.63999999999999</ele>
        <time>2020-03-09T14:07:01Z</time>
      </trkpt>
      <trkpt lat="-33.927110033109784" lon="20.467684026807547">
        <ele>656.72000000000003</ele>
        <time>2020-03-09T14:07:02Z</time>
      </trkpt>
      <trkpt lat="-33.927026968449354" lon="20.467341961339116">
        <ele>655.27999999999997</ele>
        <time>2020-03-09T14:07:03Z</time>
      </trkpt>
      <trkpt lat="-33.926924038678408" lon="20.466996040195227">
        <ele>653.83000000000004</ele>
        <time>2020-03-09T14:07:04Z</time>
      </trkpt>
      <trkpt lat="-33.925952995195985" lon="20.463746963068843">
        <ele>637.00999999999999</ele>
        <time>2020-03-09T14:07:13Z</time>
      </trkpt>
      <trkpt lat="-33.92592198215425" lon="20.461845025420189">
        <ele>626.44000000000005</ele>
        <time>2020-03-09T14:07:18Z</time>
      </trkpt>
      <trkpt lat="-33.92654400318861" lon="20.457820035517216">
        <ele>604.33000000000004</ele>
        <time>2020-03-09T14:07:28Z</time>
      </trkpt>
      <trkpt lat="-33.927130987867713" lon="20.452937996014953">
        <ele>586.53999999999996</ele>
        <time>2020-03-09T14:07:40Z</time>
      </trkpt>
      <trkpt lat="-33.926794035360217" lon="20.447754040360451">
        <ele>576.45000000000005</ele>
        <time>2020-03-09T14:07:53Z</time>
      </trkpt>
      <trkpt lat="-33.926369994878769" lon="20.442315023392439">
        <ele>538.48000000000002</ele>
        <time>2020-03-09T14:08:07Z</time>
      </trkpt>
      <trkpt lat="-33.925773035734892" lon="20.44062196277082">
        <ele>525.5</ele>
        <time>2020-03-09T14:08:12Z</time>
      </trkpt>
      <trkpt lat="-33.925390988588333" lon="20.440042018890381">
        <ele>523.09000000000003</ele>
        <time>2020-03-09T14:08:14Z</time>
      </trkpt>
      <trkpt lat="-33.925166018307209" lon="20.439787963405252">
        <ele>521.64999999999998</ele>
        <time>2020-03-09T14:08:15Z</time>
      </trkpt>
      <trkpt lat="-33.924921015277505" lon="20.439562993124127">
        <ele>519.73000000000002</ele>
        <time>2020-03-09T14:08:16Z</time>
      </trkpt>
      <trkpt lat="-33.92465204000473" lon="20.439363000914454">
        <ele>514.91999999999996</ele>
        <time>2020-03-09T14:08:17Z</time>
      </trkpt>
      <trkpt lat="-33.924375018104911" lon="20.439171977341175">
        <ele>512.03999999999996</ele>
        <time>2020-03-09T14:08:18Z</time>
      </trkpt>
      <trkpt lat="-33.922314997762442" lon="20.437702964991331">
        <ele>491.37</ele>
        <time>2020-03-09T14:08:25Z</time>
      </trkpt>
      <trkpt lat="-33.922068988904357" lon="20.43741999194026">
        <ele>490.88999999999999</ele>
        <time>2020-03-09T14:08:26Z</time>
      </trkpt>
      <trkpt lat="-33.92183898948133" lon="20.437115980312228">
        <ele>489.44999999999999</ele>
        <time>2020-03-09T14:08:27Z</time>
      </trkpt>
      <trkpt lat="-33.92162399366498" lon="20.436792019754648">
        <ele>488.49000000000001</ele>
        <time>2020-03-09T14:08:28Z</time>
      </trkpt>
      <trkpt lat="-33.921420983970165" lon="20.436456995084882">
        <ele>487.52999999999997</ele>
        <time>2020-03-09T14:08:29Z</time>
      </trkpt>
      <trkpt lat="-33.918617991730571" lon="20.431937975808978">
        <ele>460.61000000000001</ele>
        <time>2020-03-09T14:08:43Z</time>
      </trkpt>
      <trkpt lat="-33.916549002751708" lon="20.42813996784389">
        <ele>437.54000000000002</ele>
        <time>2020-03-09T14:08:54Z</time>
      </trkpt>
      <trkpt lat="-33.915631016716361" lon="20.425106976181269">
        <ele>445.23000000000002</ele>
        <time>2020-03-09T14:09:02Z</time>
      </trkpt>
      <trkpt lat="-33.914379011839628" lon="20.420573959127069">
        <ele>448.58999999999997</ele>
        <time>2020-03-09T14:09:14Z</time>
      </trkpt>
      <trkpt lat="-33.913390031084418" lon="20.418982990086079">
        <ele>444.75</ele>
        <time>2020-03-09T14:09:19Z</time>
      </trkpt>
      <trkpt lat="-33.911522962152958" lon="20.416205981746316">
        <ele>451</ele>
        <time>2020-03-09T14:09:28Z</time>
      </trkpt>
      <trkpt lat="-33.91073296777904" lon="20.413745976984501">
        <ele>455.31999999999999</ele>
        <time>2020-03-09T14:09:35Z</time>
      </trkpt>
      <trkpt lat="-33.908853996545076" lon="20.407314961776137">
        <ele>429.37</ele>
        <time>2020-03-09T14:09:52Z</time>
      </trkpt>
      <trkpt lat="-33.907135035842657" lon="20.403078999370337">
        <ele>411.10000000000002</ele>
        <time>2020-03-09T14:10:03Z</time>
      </trkpt>
    </trkseg>
  </trk>

</gpx>