<?xml version="1.0" encoding="utf-8"?><gpx creator="Garmin Desktop App" version="1.1" xsi:schemaLocation="http://www.topografix.com/GPX/1/1 http://www.topografix.com/GPX/1/1/gpx.xsd http://www.garmin.com/xmlschemas/WaypointExtension/v1 http://www8.garmin.com/xmlschemas/WaypointExtensionv1.xsd http://www.garmin.com/xmlschemas/TrackPointExtension/v1 http://www.garmin.com/xmlschemas/TrackPointExtensionv1.xsd http://www.garmin.com/xmlschemas/GpxExtensions/v3 http://www8.garmin.com/xmlschemas/GpxExtensionsv3.xsd http://www.garmin.com/xmlschemas/ActivityExtension/v1 http://www8.garmin.com/xmlschemas/ActivityExtensionv1.xsd http://www.garmin.com/xmlschemas/AdventuresExtensions/v1 http://www8.garmin.com/xmlschemas/AdventuresExtensionv1.xsd http://www.garmin.com/xmlschemas/PressureExtension/v1 http://www.garmin.com/xmlschemas/PressureExtensionv1.xsd http://www.garmin.com/xmlschemas/TripExtensions/v1 http://www.garmin.com/xmlschemas/TripExtensionsv1.xsd http://www.garmin.com/xmlschemas/TripMetaDataExtensions/v1 http://www.garmin.com/xmlschemas/TripMetaDataExtensionsv1.xsd http://www.garmin.com/xmlschemas/ViaPointTransportationModeExtensions/v1 http://www.garmin.com/xmlschemas/ViaPointTransportationModeExtensionsv1.xsd http://www.garmin.com/xmlschemas/CreationTimeExtension/v1 http://www.garmin.com/xmlschemas/CreationTimeExtensionsv1.xsd http://www.garmin.com/xmlschemas/AccelerationExtension/v1 http://www.garmin.com/xmlschemas/AccelerationExtensionv1.xsd http://www.garmin.com/xmlschemas/PowerExtension/v1 http://www.garmin.com/xmlschemas/PowerExtensionv1.xsd http://www.garmin.com/xmlschemas/VideoExtension/v1 http://www.garmin.com/xmlschemas/VideoExtensionv1.xsd" xmlns="http://www.topografix.com/GPX/1/1" xmlns:xsi="http://www.w3.org/2001/XMLSchema-instance" xmlns:wptx1="http://www.garmin.com/xmlschemas/WaypointExtension/v1" xmlns:gpxtrx="http://www.garmin.com/xmlschemas/GpxExtensions/v3" xmlns:gpxtpx="http://www.garmin.com/xmlschemas/TrackPointExtension/v1" xmlns:gpxx="http://www.garmin.com/xmlschemas/GpxExtensions/v3" xmlns:trp="http://www.garmin.com/xmlschemas/TripExtensions/v1" xmlns:adv="http://www.garmin.com/xmlschemas/AdventuresExtensions/v1" xmlns:prs="http://www.garmin.com/xmlschemas/PressureExtension/v1" xmlns:tmd="http://www.garmin.com/xmlschemas/TripMetaDataExtensions/v1" xmlns:vptm="http://www.garmin.com/xmlschemas/ViaPointTransportationModeExtensions/v1" xmlns:ctx="http://www.garmin.com/xmlschemas/CreationTimeExtension/v1" xmlns:gpxacc="http://www.garmin.com/xmlschemas/AccelerationExtension/v1" xmlns:gpxpx="http://www.garmin.com/xmlschemas/PowerExtension/v1" xmlns:vidx1="http://www.garmin.com/xmlschemas/VideoExtension/v1">

  <metadata>
    <link href="http://www.garmin.com">
      <text>Garmin International</text>
    </link>
    <time>2023-01-21T13:40:11Z</time>
    <bounds maxlat="-34.177762968465686" maxlon="18.425088990479708" minlat="-34.205737989395857" minlon="18.406103979796171" />
  </metadata>

  <trk>
    <name>[157] Red Hill Road</name>
    <extensions>
      <gpxx:TrackExtension>
        <gpxx:DisplayColor>Blue</gpxx:DisplayColor>
      </gpxx:TrackExtension>
    </extensions>
    <trkseg>
      <trkpt lat="-34.18009196408093" lon="18.425088990479708">
        <ele>8.789999999999999</ele>
        <time>2020-03-14T05:36:26Z</time>
      </trkpt>
      <trkpt lat="-34.180139992386103" lon="18.425031993538141">
        <ele>9.27</ele>
        <time>2020-03-14T05:36:27Z</time>
      </trkpt>
      <trkpt lat="-34.180214004591107" lon="18.425008021295071">
        <ele>10.710000000000001</ele>
        <time>2020-03-14T05:36:28Z</time>
      </trkpt>
      <trkpt lat="-34.180293967947364" lon="18.424997041001916">
        <ele>11.67</ele>
        <time>2020-03-14T05:36:29Z</time>
      </trkpt>
      <trkpt lat="-34.181218994781375" lon="18.424741979688406">
        <ele>15.52</ele>
        <time>2020-03-14T05:36:37Z</time>
      </trkpt>
      <trkpt lat="-34.18219699524343" lon="18.424203023314476">
        <ele>21.289999999999999</ele>
        <time>2020-03-14T05:36:45Z</time>
      </trkpt>
      <trkpt lat="-34.182293973863125" lon="18.424116019159555">
        <ele>22.25</ele>
        <time>2020-03-14T05:36:46Z</time>
      </trkpt>
      <trkpt lat="-34.182381983846426" lon="18.42401996254921">
        <ele>22.73</ele>
        <time>2020-03-14T05:36:47Z</time>
      </trkpt>
      <trkpt lat="-34.183238027617335" lon="18.422868037596345">
        <ele>29.460000000000001</ele>
        <time>2020-03-14T05:36:57Z</time>
      </trkpt>
      <trkpt lat="-34.183341963216662" lon="18.422770975157619">
        <ele>29.940000000000001</ele>
        <time>2020-03-14T05:36:58Z</time>
      </trkpt>
      <trkpt lat="-34.183447994291782" lon="18.422685982659459">
        <ele>30.420000000000002</ele>
        <time>2020-03-14T05:36:59Z</time>
      </trkpt>
      <trkpt lat="-34.183865999802947" lon="18.422356992959976">
        <ele>33.780000000000001</ele>
        <time>2020-03-14T05:37:04Z</time>
      </trkpt>
      <trkpt lat="-34.18389399535954" lon="18.422295972704887">
        <ele>33.780000000000001</ele>
        <time>2020-03-14T05:37:05Z</time>
      </trkpt>
      <trkpt lat="-34.183905981481075" lon="18.422224977985024">
        <ele>34.740000000000002</ele>
        <time>2020-03-14T05:37:06Z</time>
      </trkpt>
      <trkpt lat="-34.183887960389256" lon="18.422163035720587">
        <ele>35.229999999999997</ele>
        <time>2020-03-14T05:37:07Z</time>
      </trkpt>
      <trkpt lat="-34.183849990367889" lon="18.42214903794229">
        <ele>35.710000000000001</ele>
        <time>2020-03-14T05:37:08Z</time>
      </trkpt>
      <trkpt lat="-34.183786958456039" lon="18.422146020457149">
        <ele>36.189999999999998</ele>
        <time>2020-03-14T05:37:09Z</time>
      </trkpt>
      <trkpt lat="-34.183712024241686" lon="18.422183990478516">
        <ele>38.590000000000003</ele>
        <time>2020-03-14T05:37:10Z</time>
      </trkpt>
      <trkpt lat="-34.183645974844694" lon="18.422246016561985">
        <ele>38.590000000000003</ele>
        <time>2020-03-14T05:37:11Z</time>
      </trkpt>
      <trkpt lat="-34.183563999831676" lon="18.422319022938609">
        <ele>40.030000000000001</ele>
        <time>2020-03-14T05:37:12Z</time>
      </trkpt>
      <trkpt lat="-34.183373982086778" lon="18.422422958537936">
        <ele>40.990000000000002</ele>
        <time>2020-03-14T05:37:14Z</time>
      </trkpt>
      <trkpt lat="-34.183258982375264" lon="18.422456989064813">
        <ele>41.950000000000003</ele>
        <time>2020-03-14T05:37:15Z</time>
      </trkpt>
      <trkpt lat="-34.182211998850107" lon="18.422620017081499">
        <ele>51.090000000000003</ele>
        <time>2020-03-14T05:37:23Z</time>
      </trkpt>
      <trkpt lat="-34.181754011660814" lon="18.422727975994349">
        <ele>56.369999999999997</ele>
        <time>2020-03-14T05:37:27Z</time>
      </trkpt>
      <trkpt lat="-34.181644041091204" lon="18.422725964337587">
        <ele>56.859999999999999</ele>
        <time>2020-03-14T05:37:28Z</time>
      </trkpt>
      <trkpt lat="-34.181514959782362" lon="18.42271096073091">
        <ele>57.82</ele>
        <time>2020-03-14T05:37:29Z</time>
      </trkpt>
      <trkpt lat="-34.181393003091216" lon="18.422679025679827">
        <ele>58.780000000000001</ele>
        <time>2020-03-14T05:37:30Z</time>
      </trkpt>
      <trkpt lat="-34.181274985894561" lon="18.422634014859796">
        <ele>60.219999999999999</ele>
        <time>2020-03-14T05:37:31Z</time>
      </trkpt>
      <trkpt lat="-34.181160992011428" lon="18.422607025131583">
        <ele>60.700000000000003</ele>
        <time>2020-03-14T05:37:32Z</time>
      </trkpt>
      <trkpt lat="-34.180956976488233" lon="18.422599984332919">
        <ele>62.619999999999997</ele>
        <time>2020-03-14T05:37:34Z</time>
      </trkpt>
      <trkpt lat="-34.180869972333312" lon="18.422610964626074">
        <ele>63.100000000000001</ele>
        <time>2020-03-14T05:37:35Z</time>
      </trkpt>
      <trkpt lat="-34.180721025913954" lon="18.422595039010048">
        <ele>61.659999999999997</ele>
        <time>2020-03-14T05:37:37Z</time>
      </trkpt>
      <trkpt lat="-34.180667968466878" lon="18.422566037625074">
        <ele>60.700000000000003</ele>
        <time>2020-03-14T05:37:38Z</time>
      </trkpt>
      <trkpt lat="-34.180668974295259" lon="18.422498982399702">
        <ele>60.700000000000003</ele>
        <time>2020-03-14T05:37:39Z</time>
      </trkpt>
      <trkpt lat="-34.180677020922303" lon="18.422454977408051">
        <ele>61.18</ele>
        <time>2020-03-14T05:37:40Z</time>
      </trkpt>
      <trkpt lat="-34.180709961801767" lon="18.422408038750291">
        <ele>62.140000000000001</ele>
        <time>2020-03-14T05:37:41Z</time>
      </trkpt>
      <trkpt lat="-34.180766958743334" lon="18.42238700017333">
        <ele>62.619999999999997</ele>
        <time>2020-03-14T05:37:42Z</time>
      </trkpt>
      <trkpt lat="-34.180834013968706" lon="18.422383982688189">
        <ele>63.579999999999998</ele>
        <time>2020-03-14T05:37:43Z</time>
      </trkpt>
      <trkpt lat="-34.180911965668201" lon="18.422379037365317">
        <ele>64.069999999999993</ele>
        <time>2020-03-14T05:37:44Z</time>
      </trkpt>
      <trkpt lat="-34.181457040831447" lon="18.422373002395034">
        <ele>66.950000000000003</ele>
        <time>2020-03-14T05:37:50Z</time>
      </trkpt>
      <trkpt lat="-34.181543961167336" lon="18.422347018495202">
        <ele>69.349999999999994</ele>
        <time>2020-03-14T05:37:51Z</time>
      </trkpt>
      <trkpt lat="-34.181639011949301" lon="18.422295972704887">
        <ele>70.790000000000006</ele>
        <time>2020-03-14T05:37:52Z</time>
      </trkpt>
      <trkpt lat="-34.181725010275841" lon="18.422232018783689">
        <ele>72.719999999999999</ele>
        <time>2020-03-14T05:37:53Z</time>
      </trkpt>
      <trkpt lat="-34.181807991117239" lon="18.422164041548967">
        <ele>74.159999999999997</ele>
        <time>2020-03-14T05:37:54Z</time>
      </trkpt>
      <trkpt lat="-34.182294979691505" lon="18.421884002164006">
        <ele>80.409999999999997</ele>
        <time>2020-03-14T05:37:59Z</time>
      </trkpt>
      <trkpt lat="-34.183289995416999" lon="18.421458033844829">
        <ele>85.689999999999998</ele>
        <time>2020-03-14T05:38:08Z</time>
      </trkpt>
      <trkpt lat="-34.183372976258397" lon="18.421382009983063">
        <ele>86.180000000000007</ele>
        <time>2020-03-14T05:38:09Z</time>
      </trkpt>
      <trkpt lat="-34.183444976806641" lon="18.421286959201097">
        <ele>86.659999999999997</ele>
        <time>2020-03-14T05:38:10Z</time>
      </trkpt>
      <trkpt lat="-34.183496022596955" lon="18.421175982803106">
        <ele>86.659999999999997</ele>
        <time>2020-03-14T05:38:11Z</time>
      </trkpt>
      <trkpt lat="-34.183533992618322" lon="18.421068023890257">
        <ele>87.140000000000001</ele>
        <time>2020-03-14T05:38:12Z</time>
      </trkpt>
      <trkpt lat="-34.183557964861393" lon="18.42094799503684">
        <ele>87.620000000000005</ele>
        <time>2020-03-14T05:38:13Z</time>
      </trkpt>
      <trkpt lat="-34.183579003438354" lon="18.420821009203792">
        <ele>88.099999999999994</ele>
        <time>2020-03-14T05:38:14Z</time>
      </trkpt>
      <trkpt lat="-34.1836560331285" lon="18.420562008395791">
        <ele>86.659999999999997</ele>
        <time>2020-03-14T05:38:16Z</time>
      </trkpt>
      <trkpt lat="-34.183705989271402" lon="18.420438962057233">
        <ele>88.099999999999994</ele>
        <time>2020-03-14T05:38:17Z</time>
      </trkpt>
      <trkpt lat="-34.183756029233336" lon="18.420333014801145">
        <ele>89.540000000000006</ele>
        <time>2020-03-14T05:38:18Z</time>
      </trkpt>
      <trkpt lat="-34.183807997033" lon="18.420237964019179">
        <ele>90.019999999999996</ele>
        <time>2020-03-14T05:38:19Z</time>
      </trkpt>
      <trkpt lat="-34.183868011459708" lon="18.420158000662923">
        <ele>90.019999999999996</ele>
        <time>2020-03-14T05:38:20Z</time>
      </trkpt>
      <trkpt lat="-34.183922996744514" lon="18.420105027034879">
        <ele>90.5</ele>
        <time>2020-03-14T05:38:21Z</time>
      </trkpt>
      <trkpt lat="-34.183976976200938" lon="18.420078037306666">
        <ele>91.459999999999994</ele>
        <time>2020-03-14T05:38:22Z</time>
      </trkpt>
      <trkpt lat="-34.184046965092421" lon="18.420065967366099">
        <ele>88.579999999999998</ele>
        <time>2020-03-14T05:38:23Z</time>
      </trkpt>
      <trkpt lat="-34.184117959812284" lon="18.420095974579453">
        <ele>88.099999999999994</ele>
        <time>2020-03-14T05:38:24Z</time>
      </trkpt>
      <trkpt lat="-34.184213010594249" lon="18.420165963470936">
        <ele>89.540000000000006</ele>
        <time>2020-03-14T05:38:25Z</time>
      </trkpt>
      <trkpt lat="-34.184275958687067" lon="18.420257996767759">
        <ele>89.060000000000002</ele>
        <time>2020-03-14T05:38:26Z</time>
      </trkpt>
      <trkpt lat="-34.184333961457014" lon="18.420353969559073">
        <ele>88.579999999999998</ele>
        <time>2020-03-14T05:38:27Z</time>
      </trkpt>
      <trkpt lat="-34.184400010854006" lon="18.420460000634193">
        <ele>88.579999999999998</ele>
        <time>2020-03-14T05:38:28Z</time>
      </trkpt>
      <trkpt lat="-34.185153963044286" lon="18.421369018033147">
        <ele>94.349999999999994</ele>
        <time>2020-03-14T05:38:37Z</time>
      </trkpt>
      <trkpt lat="-34.185959966853261" lon="18.421760033816099">
        <ele>100.11</ele>
        <time>2020-03-14T05:38:45Z</time>
      </trkpt>
      <trkpt lat="-34.187447000294924" lon="18.422020962461829">
        <ele>107.31999999999999</ele>
        <time>2020-03-14T05:38:57Z</time>
      </trkpt>
      <trkpt lat="-34.187900964170694" lon="18.422169992700219">
        <ele>107.81</ele>
        <time>2020-03-14T05:39:02Z</time>
      </trkpt>
      <trkpt lat="-34.187963996082544" lon="18.422164041548967">
        <ele>108.77</ele>
        <time>2020-03-14T05:39:03Z</time>
      </trkpt>
      <trkpt lat="-34.18799702078104" lon="18.422149959951639">
        <ele>108.29000000000001</ele>
        <time>2020-03-14T05:39:04Z</time>
      </trkpt>
      <trkpt lat="-34.188017975538969" lon="18.422112995758653">
        <ele>108.29000000000001</ele>
        <time>2020-03-14T05:39:05Z</time>
      </trkpt>
      <trkpt lat="-34.188024010509253" lon="18.422063961625099">
        <ele>108.29000000000001</ele>
        <time>2020-03-14T05:39:06Z</time>
      </trkpt>
      <trkpt lat="-34.188008001074195" lon="18.422009982168674">
        <ele>108.29000000000001</ele>
        <time>2020-03-14T05:39:07Z</time>
      </trkpt>
      <trkpt lat="-34.187973970547318" lon="18.421963965520263">
        <ele>108.29000000000001</ele>
        <time>2020-03-14T05:39:08Z</time>
      </trkpt>
      <trkpt lat="-34.187908004969358" lon="18.421930018812418">
        <ele>109.73</ele>
        <time>2020-03-14T05:39:09Z</time>
      </trkpt>
      <trkpt lat="-34.187840027734637" lon="18.421903029084206">
        <ele>109.25</ele>
        <time>2020-03-14T05:39:10Z</time>
      </trkpt>
      <trkpt lat="-34.187752017751336" lon="18.421886013820767">
        <ele>111.17</ele>
        <time>2020-03-14T05:39:11Z</time>
      </trkpt>
      <trkpt lat="-34.187659984454513" lon="18.421868998557329">
        <ele>112.61</ele>
        <time>2020-03-14T05:39:12Z</time>
      </trkpt>
      <trkpt lat="-34.18666304089129" lon="18.42148401774466">
        <ele>119.81999999999999</ele>
        <time>2020-03-14T05:39:21Z</time>
      </trkpt>
      <trkpt lat="-34.185401983559132" lon="18.420558990910649">
        <ele>126.06999999999999</ele>
        <time>2020-03-14T05:39:31Z</time>
      </trkpt>
      <trkpt lat="-34.185089003294706" lon="18.42019597068429">
        <ele>127.98999999999999</ele>
        <time>2020-03-14T05:39:34Z</time>
      </trkpt>
      <trkpt lat="-34.185004010796547" lon="18.42006403952837">
        <ele>128.94999999999999</ele>
        <time>2020-03-14T05:39:35Z</time>
      </trkpt>
      <trkpt lat="-34.184830002486706" lon="18.419818030670285">
        <ele>130.88</ele>
        <time>2020-03-14T05:39:37Z</time>
      </trkpt>
      <trkpt lat="-34.184543006122112" lon="18.419456016272306">
        <ele>132.31999999999999</ele>
        <time>2020-03-14T05:39:40Z</time>
      </trkpt>
      <trkpt lat="-34.183944035321474" lon="18.41873399913311">
        <ele>137.13</ele>
        <time>2020-03-14T05:39:47Z</time>
      </trkpt>
      <trkpt lat="-34.183873040601611" lon="18.418703991919756">
        <ele>138.09</ele>
        <time>2020-03-14T05:39:48Z</time>
      </trkpt>
      <trkpt lat="-34.183807997033" lon="18.418703991919756">
        <ele>138.56999999999999</ele>
        <time>2020-03-14T05:39:49Z</time>
      </trkpt>
      <trkpt lat="-34.183746976777911" lon="18.418743973597884">
        <ele>139.05000000000001</ele>
        <time>2020-03-14T05:39:50Z</time>
      </trkpt>
      <trkpt lat="-34.183700038120151" lon="18.418815974146128">
        <ele>139.05000000000001</ele>
        <time>2020-03-14T05:39:51Z</time>
      </trkpt>
      <trkpt lat="-34.183661984279752" lon="18.418899960815907">
        <ele>139.05000000000001</ele>
        <time>2020-03-14T05:39:52Z</time>
      </trkpt>
      <trkpt lat="-34.183639017865062" lon="18.418998029083014">
        <ele>138.56999999999999</ele>
        <time>2020-03-14T05:39:53Z</time>
      </trkpt>
      <trkpt lat="-34.183604987338185" lon="18.419111017137766">
        <ele>139.05000000000001</ele>
        <time>2020-03-14T05:39:54Z</time>
      </trkpt>
      <trkpt lat="-34.183510020375252" lon="18.419319977983832">
        <ele>138.56999999999999</ele>
        <time>2020-03-14T05:39:56Z</time>
      </trkpt>
      <trkpt lat="-34.18344103731215" lon="18.419391978532076">
        <ele>138.09</ele>
        <time>2020-03-14T05:39:57Z</time>
      </trkpt>
      <trkpt lat="-34.183353027328849" lon="18.419455010443926">
        <ele>138.56999999999999</ele>
        <time>2020-03-14T05:39:58Z</time>
      </trkpt>
      <trkpt lat="-34.183105006814003" lon="18.419655002653599">
        <ele>139.53</ele>
        <time>2020-03-14T05:40:01Z</time>
      </trkpt>
      <trkpt lat="-34.183044992387295" lon="18.419736977666616">
        <ele>140.49000000000001</ele>
        <time>2020-03-14T05:40:02Z</time>
      </trkpt>
      <trkpt lat="-34.182834019884467" lon="18.419982986524701">
        <ele>141.44999999999999</ele>
        <time>2020-03-14T05:40:05Z</time>
      </trkpt>
      <trkpt lat="-34.182746009901166" lon="18.420021962374449">
        <ele>141.93000000000001</ele>
        <time>2020-03-14T05:40:06Z</time>
      </trkpt>
      <trkpt lat="-34.182648025453091" lon="18.420035960152745">
        <ele>142.88999999999999</ele>
        <time>2020-03-14T05:40:07Z</time>
      </trkpt>
      <trkpt lat="-34.182550963014364" lon="18.420026991516352">
        <ele>143.37</ele>
        <time>2020-03-14T05:40:08Z</time>
      </trkpt>
      <trkpt lat="-34.182445015758276" lon="18.420013999566436">
        <ele>143.84999999999999</ele>
        <time>2020-03-14T05:40:09Z</time>
      </trkpt>
      <trkpt lat="-34.18221996165812" lon="18.419977035373449">
        <ele>146.74000000000001</ele>
        <time>2020-03-14T05:40:11Z</time>
      </trkpt>
      <trkpt lat="-34.182114014402032" lon="18.419929007068276">
        <ele>147.69999999999999</ele>
        <time>2020-03-14T05:40:12Z</time>
      </trkpt>
      <trkpt lat="-34.182018041610718" lon="18.419849965721369">
        <ele>148.18000000000001</ele>
        <time>2020-03-14T05:40:13Z</time>
      </trkpt>
      <trkpt lat="-34.181942017748952" lon="18.419741000980139">
        <ele>148.18000000000001</ele>
        <time>2020-03-14T05:40:14Z</time>
      </trkpt>
      <trkpt lat="-34.18187496252358" lon="18.419617032632232">
        <ele>148.66</ele>
        <time>2020-03-14T05:40:15Z</time>
      </trkpt>
      <trkpt lat="-34.181812014430761" lon="18.419495997950435">
        <ele>149.13999999999999</ele>
        <time>2020-03-14T05:40:16Z</time>
      </trkpt>
      <trkpt lat="-34.181666001677513" lon="18.419279996305704">
        <ele>150.58000000000001</ele>
        <time>2020-03-14T05:40:18Z</time>
      </trkpt>
      <trkpt lat="-34.181583020836115" lon="18.419180000200868">
        <ele>151.06</ele>
        <time>2020-03-14T05:40:19Z</time>
      </trkpt>
      <trkpt lat="-34.18148797005415" lon="18.419094001874328">
        <ele>152.03</ele>
        <time>2020-03-14T05:40:20Z</time>
      </trkpt>
      <trkpt lat="-34.181388979777694" lon="18.419009009376168">
        <ele>152.50999999999999</ele>
        <time>2020-03-14T05:40:21Z</time>
      </trkpt>
      <trkpt lat="-34.1812729742378" lon="18.418941032141447">
        <ele>153.47</ele>
        <time>2020-03-14T05:40:22Z</time>
      </trkpt>
      <trkpt lat="-34.181155040860176" lon="18.418893003836274">
        <ele>154.43000000000001</ele>
        <time>2020-03-14T05:40:23Z</time>
      </trkpt>
      <trkpt lat="-34.181033000349998" lon="18.418858973309398">
        <ele>155.87</ele>
        <time>2020-03-14T05:40:24Z</time>
      </trkpt>
      <trkpt lat="-34.18090601451695" lon="18.418833995237947">
        <ele>156.34999999999999</ele>
        <time>2020-03-14T05:40:25Z</time>
      </trkpt>
      <trkpt lat="-34.180776011198759" lon="18.418822009116411">
        <ele>156.83000000000001</ele>
        <time>2020-03-14T05:40:26Z</time>
      </trkpt>
      <trkpt lat="-34.180645002052188" lon="18.418823014944792">
        <ele>157.31</ele>
        <time>2020-03-14T05:40:27Z</time>
      </trkpt>
      <trkpt lat="-34.180513992905617" lon="18.418831983581185">
        <ele>157.78999999999999</ele>
        <time>2020-03-14T05:40:28Z</time>
      </trkpt>
      <trkpt lat="-34.180116020143032" lon="18.418826032429934">
        <ele>161.16</ele>
        <time>2020-03-14T05:40:31Z</time>
      </trkpt>
      <trkpt lat="-34.179599024355412" lon="18.418660992756486">
        <ele>163.56</ele>
        <time>2020-03-14T05:40:35Z</time>
      </trkpt>
      <trkpt lat="-34.179484024643898" lon="18.418592009693384">
        <ele>165.47999999999999</ele>
        <time>2020-03-14T05:40:36Z</time>
      </trkpt>
      <trkpt lat="-34.178440980613232" lon="18.41768198646605">
        <ele>175.58000000000001</ele>
        <time>2020-03-14T05:40:45Z</time>
      </trkpt>
      <trkpt lat="-34.177774032577872" lon="18.417058037593961">
        <ele>182.31</ele>
        <time>2020-03-14T05:40:52Z</time>
      </trkpt>
      <trkpt lat="-34.177762968465686" lon="18.416980002075434">
        <ele>183.27000000000001</ele>
        <time>2020-03-14T05:40:53Z</time>
      </trkpt>
      <trkpt lat="-34.177781995385885" lon="18.416911019012332">
        <ele>184.71000000000001</ele>
        <time>2020-03-14T05:40:54Z</time>
      </trkpt>
      <trkpt lat="-34.177827006205916" lon="18.416866008192301">
        <ele>185.19</ele>
        <time>2020-03-14T05:40:55Z</time>
      </trkpt>
      <trkpt lat="-34.177893977612257" lon="18.416843041777611">
        <ele>185.19</ele>
        <time>2020-03-14T05:40:56Z</time>
      </trkpt>
      <trkpt lat="-34.177966983988881" lon="18.416849998757243">
        <ele>184.71000000000001</ele>
        <time>2020-03-14T05:40:57Z</time>
      </trkpt>
      <trkpt lat="-34.178034039214253" lon="18.416900038719177">
        <ele>184.71000000000001</ele>
        <time>2020-03-14T05:40:58Z</time>
      </trkpt>
      <trkpt lat="-34.178109979256988" lon="18.416958963498473">
        <ele>185.19</ele>
        <time>2020-03-14T05:40:59Z</time>
      </trkpt>
      <trkpt lat="-34.178988989442587" lon="18.417704030871391">
        <ele>192.40000000000001</ele>
        <time>2020-03-14T05:41:08Z</time>
      </trkpt>
      <trkpt lat="-34.179178001359105" lon="18.417835962027311">
        <ele>194.80000000000001</ele>
        <time>2020-03-14T05:41:10Z</time>
      </trkpt>
      <trkpt lat="-34.179279003292322" lon="18.417876027524471">
        <ele>196.25</ele>
        <time>2020-03-14T05:41:11Z</time>
      </trkpt>
      <trkpt lat="-34.179369024932384" lon="18.417904023081064">
        <ele>197.21000000000001</ele>
        <time>2020-03-14T05:41:12Z</time>
      </trkpt>
      <trkpt lat="-34.179628025740385" lon="18.417965965345502">
        <ele>200.09</ele>
        <time>2020-03-14T05:41:16Z</time>
      </trkpt>
      <trkpt lat="-34.179663984104991" lon="18.41798298060894">
        <ele>200.56999999999999</ele>
        <time>2020-03-14T05:41:17Z</time>
      </trkpt>
      <trkpt lat="-34.179730033501983" lon="18.418007036671042">
        <ele>201.53</ele>
        <time>2020-03-14T05:41:25Z</time>
      </trkpt>
      <trkpt lat="-34.179736990481615" lon="18.417976023629308">
        <ele>202.49000000000001</ele>
        <time>2020-03-14T05:41:54Z</time>
      </trkpt>
      <trkpt lat="-34.17976800352335" lon="18.417935958132148">
        <ele>202.97999999999999</ele>
        <time>2020-03-14T05:41:58Z</time>
      </trkpt>
      <trkpt lat="-34.179665995761752" lon="18.417884996160865">
        <ele>203.94</ele>
        <time>2020-03-14T05:42:02Z</time>
      </trkpt>
      <trkpt lat="-34.179615033790469" lon="18.417902011424303">
        <ele>203.94</ele>
        <time>2020-03-14T05:42:03Z</time>
      </trkpt>
      <trkpt lat="-34.179561976343393" lon="18.417931012809277">
        <ele>203.94</ele>
        <time>2020-03-14T05:42:04Z</time>
      </trkpt>
      <trkpt lat="-34.179506991058588" lon="18.417969988659024">
        <ele>202.97999999999999</ele>
        <time>2020-03-14T05:42:05Z</time>
      </trkpt>
      <trkpt lat="-34.179372964426875" lon="18.418006030842662">
        <ele>200.56999999999999</ele>
        <time>2020-03-14T05:42:08Z</time>
      </trkpt>
      <trkpt lat="-34.179347986355424" lon="18.41797904111445">
        <ele>200.09</ele>
        <time>2020-03-14T05:42:09Z</time>
      </trkpt>
      <trkpt lat="-34.179408000782132" lon="18.417851971462369">
        <ele>199.61000000000001</ele>
        <time>2020-03-14T05:42:14Z</time>
      </trkpt>
      <trkpt lat="-34.17946801520884" lon="18.417844008654356">
        <ele>199.61000000000001</ele>
        <time>2020-03-14T05:42:15Z</time>
      </trkpt>
      <trkpt lat="-34.179727016016841" lon="18.4177450183779">
        <ele>200.09</ele>
        <time>2020-03-14T05:42:18Z</time>
      </trkpt>
      <trkpt lat="-34.179817037656903" lon="18.417675029486418">
        <ele>200.09</ele>
        <time>2020-03-14T05:42:19Z</time>
      </trkpt>
      <trkpt lat="-34.179909992963076" lon="18.417582996189594">
        <ele>200.09</ele>
        <time>2020-03-14T05:42:20Z</time>
      </trkpt>
      <trkpt lat="-34.179995991289616" lon="18.417475037276745">
        <ele>200.09</ele>
        <time>2020-03-14T05:42:21Z</time>
      </trkpt>
      <trkpt lat="-34.180079977959394" lon="18.417356014251709">
        <ele>199.61000000000001</ele>
        <time>2020-03-14T05:42:22Z</time>
      </trkpt>
      <trkpt lat="-34.180253986269236" lon="18.41714202426374">
        <ele>200.56999999999999</ele>
        <time>2020-03-14T05:42:24Z</time>
      </trkpt>
      <trkpt lat="-34.180354988202453" lon="18.417060971260071">
        <ele>200.56999999999999</ele>
        <time>2020-03-14T05:42:25Z</time>
      </trkpt>
      <trkpt lat="-34.180465964600444" lon="18.417007997632027">
        <ele>201.05000000000001</ele>
        <time>2020-03-14T05:42:26Z</time>
      </trkpt>
      <trkpt lat="-34.18058599345386" lon="18.416966004297137">
        <ele>202.00999999999999</ele>
        <time>2020-03-14T05:42:27Z</time>
      </trkpt>
      <trkpt lat="-34.180710967630148" lon="18.416958041489124">
        <ele>202.97999999999999</ele>
        <time>2020-03-14T05:42:28Z</time>
      </trkpt>
      <trkpt lat="-34.180841976776719" lon="18.416964998468757">
        <ele>202.49000000000001</ele>
        <time>2020-03-14T05:42:29Z</time>
      </trkpt>
      <trkpt lat="-34.180968040600419" lon="18.416986037045717">
        <ele>202.97999999999999</ele>
        <time>2020-03-14T05:42:30Z</time>
      </trkpt>
      <trkpt lat="-34.181097038090229" lon="18.417020989581943">
        <ele>202.97999999999999</ele>
        <time>2020-03-14T05:42:31Z</time>
      </trkpt>
      <trkpt lat="-34.181755017489195" lon="18.417113022878766">
        <ele>204.41999999999999</ele>
        <time>2020-03-14T05:42:36Z</time>
      </trkpt>
      <trkpt lat="-34.181891977787018" lon="18.417095001786947">
        <ele>205.38</ele>
        <time>2020-03-14T05:42:37Z</time>
      </trkpt>
      <trkpt lat="-34.182031033560634" lon="18.417069017887115">
        <ele>206.81999999999999</ele>
        <time>2020-03-14T05:42:38Z</time>
      </trkpt>
      <trkpt lat="-34.182168999686837" lon="18.417027024552226">
        <ele>207.30000000000001</ele>
        <time>2020-03-14T05:42:39Z</time>
      </trkpt>
      <trkpt lat="-34.182305037975311" lon="18.41697103343904">
        <ele>207.30000000000001</ele>
        <time>2020-03-14T05:42:40Z</time>
      </trkpt>
      <trkpt lat="-34.182435963302851" lon="18.416903978213668">
        <ele>208.25999999999999</ele>
        <time>2020-03-14T05:42:41Z</time>
      </trkpt>
      <trkpt lat="-34.18256001546979" lon="18.416823009029031">
        <ele>208.74000000000001</ele>
        <time>2020-03-14T05:42:42Z</time>
      </trkpt>
      <trkpt lat="-34.182678032666445" lon="18.416724018752575">
        <ele>209.69999999999999</ele>
        <time>2020-03-14T05:42:43Z</time>
      </trkpt>
      <trkpt lat="-34.182793032377958" lon="18.416615976020694">
        <ele>209.22</ele>
        <time>2020-03-14T05:42:44Z</time>
      </trkpt>
      <trkpt lat="-34.182898979634047" lon="18.416492007672787">
        <ele>208.74000000000001</ele>
        <time>2020-03-14T05:42:45Z</time>
      </trkpt>
      <trkpt lat="-34.182995958253741" lon="18.416355969384313">
        <ele>209.22</ele>
        <time>2020-03-14T05:42:46Z</time>
      </trkpt>
      <trkpt lat="-34.184011006727815" lon="18.414971027523279">
        <ele>214.99000000000001</ele>
        <time>2020-03-14T05:42:58Z</time>
      </trkpt>
      <trkpt lat="-34.184962017461658" lon="18.413804015144706">
        <ele>222.19999999999999</ele>
        <time>2020-03-14T05:43:09Z</time>
      </trkpt>
      <trkpt lat="-34.185819989070296" lon="18.413266986608505">
        <ele>226.53</ele>
        <time>2020-03-14T05:43:17Z</time>
      </trkpt>
      <trkpt lat="-34.187415987253189" lon="18.413005974143744">
        <ele>234.69999999999999</ele>
        <time>2020-03-14T05:43:29Z</time>
      </trkpt>
      <trkpt lat="-34.189873980358243" lon="18.412545975297689">
        <ele>248.63999999999999</ele>
        <time>2020-03-14T05:43:47Z</time>
      </trkpt>
      <trkpt lat="-34.19128498993814" lon="18.411733014509082">
        <ele>257.76999999999998</ele>
        <time>2020-03-14T05:43:59Z</time>
      </trkpt>
      <trkpt lat="-34.192434987053275" lon="18.410835983231664">
        <ele>264.5</ele>
        <time>2020-03-14T05:44:09Z</time>
      </trkpt>
      <trkpt lat="-34.193887989968061" lon="18.409110987558961">
        <ele>252.96000000000001</ele>
        <time>2020-03-14T05:44:24Z</time>
      </trkpt>
      <trkpt lat="-34.194197030737996" lon="18.408797001466155">
        <ele>250.08000000000001</ele>
        <time>2020-03-14T05:44:27Z</time>
      </trkpt>
      <trkpt lat="-34.195315008983016" lon="18.408243041485548">
        <ele>240.47</ele>
        <time>2020-03-14T05:44:36Z</time>
      </trkpt>
      <trkpt lat="-34.196410020813346" lon="18.408294003456831">
        <ele>230.84999999999999</ele>
        <time>2020-03-14T05:44:45Z</time>
      </trkpt>
      <trkpt lat="-34.197605028748512" lon="18.40885098092258">
        <ele>220.75999999999999</ele>
        <time>2020-03-14T05:44:55Z</time>
      </trkpt>
      <trkpt lat="-34.198778998106718" lon="18.40988103300333">
        <ele>212.59</ele>
        <time>2020-03-14T05:45:06Z</time>
      </trkpt>
      <trkpt lat="-34.199904017150402" lon="18.410715032368898">
        <ele>202.00999999999999</ele>
        <time>2020-03-14T05:45:16Z</time>
      </trkpt>
      <trkpt lat="-34.200036032125354" lon="18.410743027925491">
        <ele>201.05000000000001</ele>
        <time>2020-03-14T05:45:17Z</time>
      </trkpt>
      <trkpt lat="-34.200171986594796" lon="18.410759037360549">
        <ele>200.56999999999999</ele>
        <time>2020-03-14T05:45:18Z</time>
      </trkpt>
      <trkpt lat="-34.201676035299897" lon="18.41093497350812">
        <ele>190.96000000000001</ele>
        <time>2020-03-14T05:45:29Z</time>
      </trkpt>
      <trkpt lat="-34.202812034636736" lon="18.411325989291072">
        <ele>183.75</ele>
        <time>2020-03-14T05:45:38Z</time>
      </trkpt>
      <trkpt lat="-34.204063033685088" lon="18.412001989781857">
        <ele>170.77000000000001</ele>
        <time>2020-03-14T05:45:47Z</time>
      </trkpt>
      <trkpt lat="-34.205157961696386" lon="18.412516973912716">
        <ele>163.56</ele>
        <time>2020-03-14T05:45:55Z</time>
      </trkpt>
      <trkpt lat="-34.205274973064661" lon="18.412538012489676">
        <ele>161.63999999999999</ele>
        <time>2020-03-14T05:45:56Z</time>
      </trkpt>
      <trkpt lat="-34.20537899248302" lon="18.412532983347774">
        <ele>161.16</ele>
        <time>2020-03-14T05:45:57Z</time>
      </trkpt>
      <trkpt lat="-34.205477982759476" lon="18.412495013326406">
        <ele>160.68000000000001</ele>
        <time>2020-03-14T05:45:58Z</time>
      </trkpt>
      <trkpt lat="-34.205565992742777" lon="18.412429969757795">
        <ele>159.24000000000001</ele>
        <time>2020-03-14T05:45:59Z</time>
      </trkpt>
      <trkpt lat="-34.205646039918065" lon="18.412337014451623">
        <ele>158.27000000000001</ele>
        <time>2020-03-14T05:46:00Z</time>
      </trkpt>
      <trkpt lat="-34.205705970525742" lon="18.412218997254968">
        <ele>157.31</ele>
        <time>2020-03-14T05:46:01Z</time>
      </trkpt>
      <trkpt lat="-34.205737989395857" lon="18.412085976451635">
        <ele>156.34999999999999</ele>
        <time>2020-03-14T05:46:02Z</time>
      </trkpt>
      <trkpt lat="-34.205733966082335" lon="18.411943987011909">
        <ele>154.91</ele>
        <time>2020-03-14T05:46:03Z</time>
      </trkpt>
      <trkpt lat="-34.20570001937449" lon="18.411801997572184">
        <ele>153.47</ele>
        <time>2020-03-14T05:46:04Z</time>
      </trkpt>
      <trkpt lat="-34.205646961927414" lon="18.411662019789219">
        <ele>152.50999999999999</ele>
        <time>2020-03-14T05:46:05Z</time>
      </trkpt>
      <trkpt lat="-34.20557496137917" lon="18.411508966237307">
        <ele>150.09999999999999</ele>
        <time>2020-03-14T05:46:06Z</time>
      </trkpt>
      <trkpt lat="-34.205489968881011" lon="18.411383992061019">
        <ele>149.13999999999999</ele>
        <time>2020-03-14T05:46:07Z</time>
      </trkpt>
      <trkpt lat="-34.205391984432936" lon="18.411254994571209">
        <ele>147.22</ele>
        <time>2020-03-14T05:46:08Z</time>
      </trkpt>
      <trkpt lat="-34.205296011641622" lon="18.411121973767877">
        <ele>146.25999999999999</ele>
        <time>2020-03-14T05:46:09Z</time>
      </trkpt>
      <trkpt lat="-34.205114962533116" lon="18.410863978788257">
        <ele>143.84999999999999</ele>
        <time>2020-03-14T05:46:11Z</time>
      </trkpt>
      <trkpt lat="-34.205042961984873" lon="18.410733975470066">
        <ele>143.37</ele>
        <time>2020-03-14T05:46:12Z</time>
      </trkpt>
      <trkpt lat="-34.204987976700068" lon="18.410578994080424">
        <ele>141.93000000000001</ele>
        <time>2020-03-14T05:46:13Z</time>
      </trkpt>
      <trkpt lat="-34.204947995021939" lon="18.410429041832685">
        <ele>140.49000000000001</ele>
        <time>2020-03-14T05:46:14Z</time>
      </trkpt>
      <trkpt lat="-34.204931985586882" lon="18.410256961360574">
        <ele>139.53</ele>
        <time>2020-03-14T05:46:15Z</time>
      </trkpt>
      <trkpt lat="-34.204916981980205" lon="18.410094017162919">
        <ele>138.56999999999999</ele>
        <time>2020-03-14T05:46:16Z</time>
      </trkpt>
      <trkpt lat="-34.204786978662014" lon="18.409436037763953">
        <ele>137.13</ele>
        <time>2020-03-14T05:46:20Z</time>
      </trkpt>
      <trkpt lat="-34.20471397228539" lon="18.40928197838366">
        <ele>136.16</ele>
        <time>2020-03-14T05:46:21Z</time>
      </trkpt>
      <trkpt lat="-34.204206028953195" lon="18.408332979306579">
        <ele>129.43000000000001</ele>
        <time>2020-03-14T05:46:27Z</time>
      </trkpt>
      <trkpt lat="-34.204153977334499" lon="18.408156959339976">
        <ele>127.51000000000001</ele>
        <time>2020-03-14T05:46:28Z</time>
      </trkpt>
      <trkpt lat="-34.20411198399961" lon="18.407982029020786">
        <ele>126.06999999999999</ele>
        <time>2020-03-14T05:46:29Z</time>
      </trkpt>
      <trkpt lat="-34.203941999003291" lon="18.407338969409466">
        <ele>121.26000000000001</ele>
        <time>2020-03-14T05:46:33Z</time>
      </trkpt>
      <trkpt lat="-34.203864969313145" lon="18.40719798579812">
        <ele>120.3</ele>
        <time>2020-03-14T05:46:34Z</time>
      </trkpt>
      <trkpt lat="-34.203762961551547" lon="18.407092038542032">
        <ele>120.3</ele>
        <time>2020-03-14T05:46:35Z</time>
      </trkpt>
      <trkpt lat="-34.203658020123839" lon="18.406996987760067">
        <ele>117.90000000000001</ele>
        <time>2020-03-14T05:46:36Z</time>
      </trkpt>
      <trkpt lat="-34.203536985442042" lon="18.406921969726682">
        <ele>116.45999999999999</ele>
        <time>2020-03-14T05:46:37Z</time>
      </trkpt>
      <trkpt lat="-34.203412011265755" lon="18.406861033290625">
        <ele>115.98</ele>
        <time>2020-03-14T05:46:38Z</time>
      </trkpt>
      <trkpt lat="-34.203201038762927" lon="18.40674402192235">
        <ele>112.61</ele>
        <time>2020-03-14T05:46:40Z</time>
      </trkpt>
      <trkpt lat="-34.203141024336219" lon="18.406655006110668">
        <ele>112.61</ele>
        <time>2020-03-14T05:46:41Z</time>
      </trkpt>
      <trkpt lat="-34.203104982152581" lon="18.406548975035548">
        <ele>111.17</ele>
        <time>2020-03-14T05:46:42Z</time>
      </trkpt>
      <trkpt lat="-34.20310297049582" lon="18.406435986980796">
        <ele>111.17</ele>
        <time>2020-03-14T05:46:43Z</time>
      </trkpt>
      <trkpt lat="-34.203125014901161" lon="18.406322998926044">
        <ele>109.73</ele>
        <time>2020-03-14T05:46:44Z</time>
      </trkpt>
      <trkpt lat="-34.203182011842728" lon="18.406227026134729">
        <ele>109.25</ele>
        <time>2020-03-14T05:46:45Z</time>
      </trkpt>
      <trkpt lat="-34.203261975198984" lon="18.406146978959441">
        <ele>109.25</ele>
        <time>2020-03-14T05:46:46Z</time>
      </trkpt>
      <trkpt lat="-34.203356020152569" lon="18.406113032251596">
        <ele>110.20999999999999</ele>
        <time>2020-03-14T05:46:47Z</time>
      </trkpt>
      <trkpt lat="-34.203472025692463" lon="18.406103979796171">
        <ele>109.73</ele>
        <time>2020-03-14T05:46:48Z</time>
      </trkpt>
      <trkpt lat="-34.203589037060738" lon="18.406113032251596">
        <ele>108.77</ele>
        <time>2020-03-14T05:46:49Z</time>
      </trkpt>
      <trkpt lat="-34.203710993751884" lon="18.406123006716371">
        <ele>108.29000000000001</ele>
        <time>2020-03-14T05:46:50Z</time>
      </trkpt>
      <trkpt lat="-34.20509803108871" lon="18.406213028356433">
        <ele>101.08</ele>
        <time>2020-03-14T05:47:00Z</time>
      </trkpt>
    </trkseg>
  </trk>

</gpx>