<?xml version="1.0" encoding="utf-8"?><gpx creator="Garmin Desktop App" version="1.1" xsi:schemaLocation="http://www.topografix.com/GPX/1/1 http://www.topografix.com/GPX/1/1/gpx.xsd http://www.garmin.com/xmlschemas/WaypointExtension/v1 http://www8.garmin.com/xmlschemas/WaypointExtensionv1.xsd http://www.garmin.com/xmlschemas/TrackPointExtension/v1 http://www.garmin.com/xmlschemas/TrackPointExtensionv1.xsd http://www.garmin.com/xmlschemas/GpxExtensions/v3 http://www8.garmin.com/xmlschemas/GpxExtensionsv3.xsd http://www.garmin.com/xmlschemas/ActivityExtension/v1 http://www8.garmin.com/xmlschemas/ActivityExtensionv1.xsd http://www.garmin.com/xmlschemas/AdventuresExtensions/v1 http://www8.garmin.com/xmlschemas/AdventuresExtensionv1.xsd http://www.garmin.com/xmlschemas/PressureExtension/v1 http://www.garmin.com/xmlschemas/PressureExtensionv1.xsd http://www.garmin.com/xmlschemas/TripExtensions/v1 http://www.garmin.com/xmlschemas/TripExtensionsv1.xsd http://www.garmin.com/xmlschemas/TripMetaDataExtensions/v1 http://www.garmin.com/xmlschemas/TripMetaDataExtensionsv1.xsd http://www.garmin.com/xmlschemas/ViaPointTransportationModeExtensions/v1 http://www.garmin.com/xmlschemas/ViaPointTransportationModeExtensionsv1.xsd http://www.garmin.com/xmlschemas/CreationTimeExtension/v1 http://www.garmin.com/xmlschemas/CreationTimeExtensionsv1.xsd http://www.garmin.com/xmlschemas/AccelerationExtension/v1 http://www.garmin.com/xmlschemas/AccelerationExtensionv1.xsd http://www.garmin.com/xmlschemas/PowerExtension/v1 http://www.garmin.com/xmlschemas/PowerExtensionv1.xsd http://www.garmin.com/xmlschemas/VideoExtension/v1 http://www.garmin.com/xmlschemas/VideoExtensionv1.xsd" xmlns="http://www.topografix.com/GPX/1/1" xmlns:xsi="http://www.w3.org/2001/XMLSchema-instance" xmlns:wptx1="http://www.garmin.com/xmlschemas/WaypointExtension/v1" xmlns:gpxtrx="http://www.garmin.com/xmlschemas/GpxExtensions/v3" xmlns:gpxtpx="http://www.garmin.com/xmlschemas/TrackPointExtension/v1" xmlns:gpxx="http://www.garmin.com/xmlschemas/GpxExtensions/v3" xmlns:trp="http://www.garmin.com/xmlschemas/TripExtensions/v1" xmlns:adv="http://www.garmin.com/xmlschemas/AdventuresExtensions/v1" xmlns:prs="http://www.garmin.com/xmlschemas/PressureExtension/v1" xmlns:tmd="http://www.garmin.com/xmlschemas/TripMetaDataExtensions/v1" xmlns:vptm="http://www.garmin.com/xmlschemas/ViaPointTransportationModeExtensions/v1" xmlns:ctx="http://www.garmin.com/xmlschemas/CreationTimeExtension/v1" xmlns:gpxacc="http://www.garmin.com/xmlschemas/AccelerationExtension/v1" xmlns:gpxpx="http://www.garmin.com/xmlschemas/PowerExtension/v1" xmlns:vidx1="http://www.garmin.com/xmlschemas/VideoExtension/v1">

  <metadata>
    <link href="http://www.garmin.com">
      <text>Garmin International</text>
    </link>
    <time>2023-01-21T13:42:43Z</time>
    <bounds maxlat="-33.935849005356431" maxlon="18.93416203558445" minlat="-33.968169959262013" minlon="18.890538001433015" />
  </metadata>

  <trk>
    <name>[166] Jonkers hoek (Out)</name>
    <extensions>
      <gpxx:TrackExtension>
        <gpxx:DisplayColor>Green</gpxx:DisplayColor>
      </gpxx:TrackExtension>
    </extensions>
    <trkseg>
      <trkpt lat="-33.968169959262013" lon="18.93416203558445">
        <ele>242.38999999999999</ele>
        <time>2020-03-17T08:52:24Z</time>
      </trkpt>
      <trkpt lat="-33.96811799146235" lon="18.934120964258909">
        <ele>241.91</ele>
        <time>2020-03-17T08:52:25Z</time>
      </trkpt>
      <trkpt lat="-33.967393040657043" lon="18.933487962931395">
        <ele>241.91</ele>
        <time>2020-03-17T08:52:35Z</time>
      </trkpt>
      <trkpt lat="-33.966136006638408" lon="18.932277029380202">
        <ele>240.94999999999999</ele>
        <time>2020-03-17T08:52:47Z</time>
      </trkpt>
      <trkpt lat="-33.965310975909233" lon="18.930875994265079">
        <ele>239.50999999999999</ele>
        <time>2020-03-17T08:52:58Z</time>
      </trkpt>
      <trkpt lat="-33.965284992009401" lon="18.930715983733535">
        <ele>238.53999999999999</ele>
        <time>2020-03-17T08:52:59Z</time>
      </trkpt>
      <trkpt lat="-33.96528197452426" lon="18.930553961545229">
        <ele>237.09999999999999</ele>
        <time>2020-03-17T08:53:00Z</time>
      </trkpt>
      <trkpt lat="-33.965293038636446" lon="18.930387999862432">
        <ele>236.13999999999999</ele>
        <time>2020-03-17T08:53:01Z</time>
      </trkpt>
      <trkpt lat="-33.965309970080853" lon="18.930222038179636">
        <ele>234.69999999999999</ele>
        <time>2020-03-17T08:53:02Z</time>
      </trkpt>
      <trkpt lat="-33.965335031971335" lon="18.930067978799343">
        <ele>233.74000000000001</ele>
        <time>2020-03-17T08:53:03Z</time>
      </trkpt>
      <trkpt lat="-33.965366967022419" lon="18.92991098575294">
        <ele>231.81</ele>
        <time>2020-03-17T08:53:04Z</time>
      </trkpt>
      <trkpt lat="-33.965409966185689" lon="18.929756004363298">
        <ele>230.37</ele>
        <time>2020-03-17T08:53:05Z</time>
      </trkpt>
      <trkpt lat="-33.965745996683836" lon="18.928425963968039">
        <ele>215.94999999999999</ele>
        <time>2020-03-17T08:53:14Z</time>
      </trkpt>
      <trkpt lat="-33.965748008340597" lon="18.928264025598764">
        <ele>214.03</ele>
        <time>2020-03-17T08:53:15Z</time>
      </trkpt>
      <trkpt lat="-33.965740967541933" lon="18.928100997582078">
        <ele>212.11000000000001</ele>
        <time>2020-03-17T08:53:16Z</time>
      </trkpt>
      <trkpt lat="-33.965716995298862" lon="18.927790028974414">
        <ele>208.25999999999999</ele>
        <time>2020-03-17T08:53:18Z</time>
      </trkpt>
      <trkpt lat="-33.965564025565982" lon="18.926437022164464">
        <ele>195.28</ele>
        <time>2020-03-17T08:53:27Z</time>
      </trkpt>
      <trkpt lat="-33.965451959520578" lon="18.926266031339765">
        <ele>194.31999999999999</ele>
        <time>2020-03-17T08:53:28Z</time>
      </trkpt>
      <trkpt lat="-33.965351963415742" lon="18.926125969737768">
        <ele>193.36000000000001</ele>
        <time>2020-03-17T08:53:29Z</time>
      </trkpt>
      <trkpt lat="-33.965222965925932" lon="18.926006024703383">
        <ele>191.91999999999999</ele>
        <time>2020-03-17T08:53:30Z</time>
      </trkpt>
      <trkpt lat="-33.965105032548308" lon="18.925920026376843">
        <ele>192.88</ele>
        <time>2020-03-17T08:53:31Z</time>
      </trkpt>
      <trkpt lat="-33.964919960126281" lon="18.925832016393542">
        <ele>191.91999999999999</ele>
        <time>2020-03-17T08:53:32Z</time>
      </trkpt>
      <trkpt lat="-33.964772019535303" lon="18.925768984481692">
        <ele>190.47999999999999</ele>
        <time>2020-03-17T08:53:33Z</time>
      </trkpt>
      <trkpt lat="-33.964635981246829" lon="18.925727996975183">
        <ele>190</ele>
        <time>2020-03-17T08:53:34Z</time>
      </trkpt>
      <trkpt lat="-33.964477982372046" lon="18.925712993368506">
        <ele>191.44</ele>
        <time>2020-03-17T08:53:35Z</time>
      </trkpt>
      <trkpt lat="-33.964301962405443" lon="18.925675023347139">
        <ele>192.88</ele>
        <time>2020-03-17T08:53:36Z</time>
      </trkpt>
      <trkpt lat="-33.96403499878943" lon="18.92563596367836">
        <ele>194.31999999999999</ele>
        <time>2020-03-17T08:53:38Z</time>
      </trkpt>
      <trkpt lat="-33.963911030441523" lon="18.925582990050316">
        <ele>196.25</ele>
        <time>2020-03-17T08:53:39Z</time>
      </trkpt>
      <trkpt lat="-33.963785972446203" lon="18.925494980067015">
        <ele>197.21000000000001</ele>
        <time>2020-03-17T08:53:40Z</time>
      </trkpt>
      <trkpt lat="-33.963702991604805" lon="18.925373023375869">
        <ele>197.69</ele>
        <time>2020-03-17T08:53:41Z</time>
      </trkpt>
      <trkpt lat="-33.963616993278265" lon="18.925240002572536">
        <ele>198.16999999999999</ele>
        <time>2020-03-17T08:53:42Z</time>
      </trkpt>
      <trkpt lat="-33.962599011138082" lon="18.923509977757931">
        <ele>198.16999999999999</ele>
        <time>2020-03-17T08:53:55Z</time>
      </trkpt>
      <trkpt lat="-33.962429026141763" lon="18.923252988606691">
        <ele>196.25</ele>
        <time>2020-03-17T08:53:57Z</time>
      </trkpt>
      <trkpt lat="-33.961640037596226" lon="18.922493001446128">
        <ele>187.59</ele>
        <time>2020-03-17T08:54:05Z</time>
      </trkpt>
      <trkpt lat="-33.960298011079431" lon="18.921569986268878">
        <ele>191.44</ele>
        <time>2020-03-17T08:54:16Z</time>
      </trkpt>
      <trkpt lat="-33.959923004731536" lon="18.921312997117639">
        <ele>191.91999999999999</ele>
        <time>2020-03-17T08:54:19Z</time>
      </trkpt>
      <trkpt lat="-33.959828959777951" lon="18.921189028769732">
        <ele>191.44</ele>
        <time>2020-03-17T08:54:20Z</time>
      </trkpt>
      <trkpt lat="-33.959750002250075" lon="18.921047039330006">
        <ele>190.96000000000001</ele>
        <time>2020-03-17T08:54:21Z</time>
      </trkpt>
      <trkpt lat="-33.959380025044084" lon="18.919733008369803">
        <ele>180.87</ele>
        <time>2020-03-17T08:54:29Z</time>
      </trkpt>
      <trkpt lat="-33.959339037537575" lon="18.918329039588571">
        <ele>173.16999999999999</ele>
        <time>2020-03-17T08:54:38Z</time>
      </trkpt>
      <trkpt lat="-33.959297966212034" lon="18.918174980208278">
        <ele>172.21000000000001</ele>
        <time>2020-03-17T08:54:39Z</time>
      </trkpt>
      <trkpt lat="-33.959216997027397" lon="18.918001977726817">
        <ele>172.21000000000001</ele>
        <time>2020-03-17T08:54:40Z</time>
      </trkpt>
      <trkpt lat="-33.959130998700857" lon="18.917843978852034">
        <ele>171.72999999999999</ele>
        <time>2020-03-17T08:54:41Z</time>
      </trkpt>
      <trkpt lat="-33.959040977060795" lon="18.917690003290772">
        <ele>171.25</ele>
        <time>2020-03-17T08:54:42Z</time>
      </trkpt>
      <trkpt lat="-33.958758004009724" lon="18.917250959202647">
        <ele>169.33000000000001</ele>
        <time>2020-03-17T08:54:45Z</time>
      </trkpt>
      <trkpt lat="-33.958675023168325" lon="18.917080974206328">
        <ele>168.84999999999999</ele>
        <time>2020-03-17T08:54:46Z</time>
      </trkpt>
      <trkpt lat="-33.958631018176675" lon="18.916904032230377">
        <ele>167.41</ele>
        <time>2020-03-17T08:54:47Z</time>
      </trkpt>
      <trkpt lat="-33.958564968779683" lon="18.916373960673809">
        <ele>164.03999999999999</ele>
        <time>2020-03-17T08:54:50Z</time>
      </trkpt>
      <trkpt lat="-33.958515012636781" lon="18.916215961799026">
        <ele>162.59999999999999</ele>
        <time>2020-03-17T08:54:51Z</time>
      </trkpt>
      <trkpt lat="-33.958436977118254" lon="18.916086964309216">
        <ele>161.16</ele>
        <time>2020-03-17T08:54:52Z</time>
      </trkpt>
      <trkpt lat="-33.958345027640462" lon="18.91596601344645">
        <ele>160.68000000000001</ele>
        <time>2020-03-17T08:54:53Z</time>
      </trkpt>
      <trkpt lat="-33.958231033757329" lon="18.915867023169994">
        <ele>161.63999999999999</ele>
        <time>2020-03-17T08:54:54Z</time>
      </trkpt>
      <trkpt lat="-33.958057025447488" lon="18.915763003751636">
        <ele>162.59999999999999</ele>
        <time>2020-03-17T08:54:55Z</time>
      </trkpt>
      <trkpt lat="-33.957892991602421" lon="18.915670970454812">
        <ele>163.08000000000001</ele>
        <time>2020-03-17T08:54:56Z</time>
      </trkpt>
      <trkpt lat="-33.956466978415847" lon="18.914764970541">
        <ele>163.56</ele>
        <time>2020-03-17T08:55:06Z</time>
      </trkpt>
      <trkpt lat="-33.955503981560469" lon="18.913869028910995">
        <ele>163.56</ele>
        <time>2020-03-17T08:55:14Z</time>
      </trkpt>
      <trkpt lat="-33.955413037911057" lon="18.913723016157746">
        <ele>163.08000000000001</ele>
        <time>2020-03-17T08:55:15Z</time>
      </trkpt>
      <trkpt lat="-33.955340031534433" lon="18.913572980090976">
        <ele>162.59999999999999</ele>
        <time>2020-03-17T08:55:16Z</time>
      </trkpt>
      <trkpt lat="-33.955282028764486" lon="18.913420010358095">
        <ele>162.59999999999999</ele>
        <time>2020-03-17T08:55:17Z</time>
      </trkpt>
      <trkpt lat="-33.955241041257977" lon="18.913252959027886">
        <ele>161.63999999999999</ele>
        <time>2020-03-17T08:55:18Z</time>
      </trkpt>
      <trkpt lat="-33.955221008509398" lon="18.913080040365458">
        <ele>161.63999999999999</ele>
        <time>2020-03-17T08:55:19Z</time>
      </trkpt>
      <trkpt lat="-33.955211034044623" lon="18.912896979600191">
        <ele>161.63999999999999</ele>
        <time>2020-03-17T08:55:20Z</time>
      </trkpt>
      <trkpt lat="-33.955231988802552" lon="18.912706039845943">
        <ele>163.56</ele>
        <time>2020-03-17T08:55:21Z</time>
      </trkpt>
      <trkpt lat="-33.955244980752468" lon="18.912517027929425">
        <ele>163.08000000000001</ele>
        <time>2020-03-17T08:55:22Z</time>
      </trkpt>
      <trkpt lat="-33.955245986580849" lon="18.910641996189952">
        <ele>163.08000000000001</ele>
        <time>2020-03-17T08:55:32Z</time>
      </trkpt>
      <trkpt lat="-33.95505697466433" lon="18.90960699878633">
        <ele>162.59999999999999</ele>
        <time>2020-03-17T08:55:38Z</time>
      </trkpt>
      <trkpt lat="-33.954983968287706" lon="18.909443970769644">
        <ele>163.08000000000001</ele>
        <time>2020-03-17T08:55:39Z</time>
      </trkpt>
      <trkpt lat="-33.95490400493145" lon="18.909292006865144">
        <ele>163.56</ele>
        <time>2020-03-17T08:55:40Z</time>
      </trkpt>
      <trkpt lat="-33.954366976395249" lon="18.908405033871531">
        <ele>165.47999999999999</ele>
        <time>2020-03-17T08:55:46Z</time>
      </trkpt>
      <trkpt lat="-33.953969003632665" lon="18.907220000401139">
        <ele>166.93000000000001</ele>
        <time>2020-03-17T08:55:53Z</time>
      </trkpt>
      <trkpt lat="-33.953900020569563" lon="18.907083040103316">
        <ele>167.41</ele>
        <time>2020-03-17T08:55:54Z</time>
      </trkpt>
      <trkpt lat="-33.953780997544527" lon="18.906971979886293">
        <ele>169.81</ele>
        <time>2020-03-17T08:55:55Z</time>
      </trkpt>
      <trkpt lat="-33.953682007268071" lon="18.906862009316683">
        <ele>169.81</ele>
        <time>2020-03-17T08:55:56Z</time>
      </trkpt>
      <trkpt lat="-33.953568013384938" lon="18.906773999333382">
        <ele>171.72999999999999</ele>
        <time>2020-03-17T08:55:57Z</time>
      </trkpt>
      <trkpt lat="-33.953435998409986" lon="18.906692024320364">
        <ele>171.25</ele>
        <time>2020-03-17T08:55:58Z</time>
      </trkpt>
      <trkpt lat="-33.953297026455402" lon="18.906612982973456">
        <ele>172.69</ele>
        <time>2020-03-17T08:55:59Z</time>
      </trkpt>
      <trkpt lat="-33.951730029657483" lon="18.905602041631937">
        <ele>182.31</ele>
        <time>2020-03-17T08:56:10Z</time>
      </trkpt>
      <trkpt lat="-33.950667036697268" lon="18.904652958735824">
        <ele>183.27000000000001</ele>
        <time>2020-03-17T08:56:20Z</time>
      </trkpt>
      <trkpt lat="-33.949894979596138" lon="18.903927002102137">
        <ele>180.87</ele>
        <time>2020-03-17T08:56:28Z</time>
      </trkpt>
      <trkpt lat="-33.948648003861308" lon="18.902750015258789">
        <ele>174.62</ele>
        <time>2020-03-17T08:56:37Z</time>
      </trkpt>
      <trkpt lat="-33.947205981239676" lon="18.902084995061159">
        <ele>172.21000000000001</ele>
        <time>2020-03-17T08:56:45Z</time>
      </trkpt>
      <trkpt lat="-33.94435697235167" lon="18.901619967073202">
        <ele>183.27000000000001</ele>
        <time>2020-03-17T08:56:59Z</time>
      </trkpt>
      <trkpt lat="-33.941979026421905" lon="18.900982020422816">
        <ele>187.11000000000001</ele>
        <time>2020-03-17T08:57:11Z</time>
      </trkpt>
      <trkpt lat="-33.939580963924527" lon="18.899437990039587">
        <ele>184.71000000000001</ele>
        <time>2020-03-17T08:57:26Z</time>
      </trkpt>
      <trkpt lat="-33.938530962914228" lon="18.899025013670325">
        <ele>189.52000000000001</ele>
        <time>2020-03-17T08:57:33Z</time>
      </trkpt>
      <trkpt lat="-33.937525972723961" lon="18.89852000400424">
        <ele>191.44</ele>
        <time>2020-03-17T08:57:43Z</time>
      </trkpt>
      <trkpt lat="-33.936791969463229" lon="18.897607969120145">
        <ele>189.52000000000001</ele>
        <time>2020-03-17T08:57:51Z</time>
      </trkpt>
      <trkpt lat="-33.936344962567091" lon="18.896361999213696">
        <ele>186.15000000000001</ele>
        <time>2020-03-17T08:57:59Z</time>
      </trkpt>
      <trkpt lat="-33.936214037239552" lon="18.894676985219121">
        <ele>177.5</ele>
        <time>2020-03-17T08:58:09Z</time>
      </trkpt>
      <trkpt lat="-33.93604002892971" lon="18.892616964876652">
        <ele>168.37</ele>
        <time>2020-03-17T08:58:20Z</time>
      </trkpt>
      <trkpt lat="-33.935873983427882" lon="18.890644032508135">
        <ele>156.34999999999999</ele>
        <time>2020-03-17T08:58:32Z</time>
      </trkpt>
      <trkpt lat="-33.935849005356431" lon="18.890538001433015">
        <ele>155.87</ele>
        <time>2020-03-17T08:58:33Z</time>
      </trkpt>
    </trkseg>
  </trk>

</gpx>