<?xml version="1.0" encoding="utf-8"?><gpx creator="Garmin Desktop App" version="1.1" xsi:schemaLocation="http://www.topografix.com/GPX/1/1 http://www.topografix.com/GPX/1/1/gpx.xsd http://www.garmin.com/xmlschemas/WaypointExtension/v1 http://www8.garmin.com/xmlschemas/WaypointExtensionv1.xsd http://www.garmin.com/xmlschemas/TrackPointExtension/v1 http://www.garmin.com/xmlschemas/TrackPointExtensionv1.xsd http://www.garmin.com/xmlschemas/GpxExtensions/v3 http://www8.garmin.com/xmlschemas/GpxExtensionsv3.xsd http://www.garmin.com/xmlschemas/ActivityExtension/v1 http://www8.garmin.com/xmlschemas/ActivityExtensionv1.xsd http://www.garmin.com/xmlschemas/AdventuresExtensions/v1 http://www8.garmin.com/xmlschemas/AdventuresExtensionv1.xsd http://www.garmin.com/xmlschemas/PressureExtension/v1 http://www.garmin.com/xmlschemas/PressureExtensionv1.xsd http://www.garmin.com/xmlschemas/TripExtensions/v1 http://www.garmin.com/xmlschemas/TripExtensionsv1.xsd http://www.garmin.com/xmlschemas/TripMetaDataExtensions/v1 http://www.garmin.com/xmlschemas/TripMetaDataExtensionsv1.xsd http://www.garmin.com/xmlschemas/ViaPointTransportationModeExtensions/v1 http://www.garmin.com/xmlschemas/ViaPointTransportationModeExtensionsv1.xsd http://www.garmin.com/xmlschemas/CreationTimeExtension/v1 http://www.garmin.com/xmlschemas/CreationTimeExtensionsv1.xsd http://www.garmin.com/xmlschemas/AccelerationExtension/v1 http://www.garmin.com/xmlschemas/AccelerationExtensionv1.xsd http://www.garmin.com/xmlschemas/PowerExtension/v1 http://www.garmin.com/xmlschemas/PowerExtensionv1.xsd http://www.garmin.com/xmlschemas/VideoExtension/v1 http://www.garmin.com/xmlschemas/VideoExtensionv1.xsd" xmlns="http://www.topografix.com/GPX/1/1" xmlns:xsi="http://www.w3.org/2001/XMLSchema-instance" xmlns:wptx1="http://www.garmin.com/xmlschemas/WaypointExtension/v1" xmlns:gpxtrx="http://www.garmin.com/xmlschemas/GpxExtensions/v3" xmlns:gpxtpx="http://www.garmin.com/xmlschemas/TrackPointExtension/v1" xmlns:gpxx="http://www.garmin.com/xmlschemas/GpxExtensions/v3" xmlns:trp="http://www.garmin.com/xmlschemas/TripExtensions/v1" xmlns:adv="http://www.garmin.com/xmlschemas/AdventuresExtensions/v1" xmlns:prs="http://www.garmin.com/xmlschemas/PressureExtension/v1" xmlns:tmd="http://www.garmin.com/xmlschemas/TripMetaDataExtensions/v1" xmlns:vptm="http://www.garmin.com/xmlschemas/ViaPointTransportationModeExtensions/v1" xmlns:ctx="http://www.garmin.com/xmlschemas/CreationTimeExtension/v1" xmlns:gpxacc="http://www.garmin.com/xmlschemas/AccelerationExtension/v1" xmlns:gpxpx="http://www.garmin.com/xmlschemas/PowerExtension/v1" xmlns:vidx1="http://www.garmin.com/xmlschemas/VideoExtension/v1">

  <metadata>
    <link href="http://www.garmin.com">
      <text>Garmin International</text>
    </link>
    <time>2022-07-02T19:24:04Z</time>
    <bounds maxlat="-31.594903981313109" maxlon="29.525784831494093" minlat="-31.606636131182313" minlon="29.48154279962182" />
  </metadata>

  <trk>
    <name>[231] Isinuka Poort</name>
    <extensions>
      <gpxx:TrackExtension>
        <gpxx:DisplayColor>Green</gpxx:DisplayColor>
      </gpxx:TrackExtension>
    </extensions>
    <trkseg>
      <trkpt lat="-31.605218499898911" lon="29.48154279962182">
        <ele>7.83</ele>
        <time>2022-01-22T08:29:48Z</time>
      </trkpt>
      <trkpt lat="-31.606443012133241" lon="29.483916470780969">
        <ele>8.789999999999999</ele>
        <time>2022-01-22T08:30:01Z</time>
      </trkpt>
      <trkpt lat="-31.606579218059778" lon="29.484320813789964">
        <ele>8.789999999999999</ele>
        <time>2022-01-22T08:30:03Z</time>
      </trkpt>
      <trkpt lat="-31.606617607176304" lon="29.484532037749887">
        <ele>8.789999999999999</ele>
        <time>2022-01-22T08:30:04Z</time>
      </trkpt>
      <trkpt lat="-31.606636131182313" lon="29.484747620299459">
        <ele>8.310000000000001</ele>
        <time>2022-01-22T08:30:05Z</time>
      </trkpt>
      <trkpt lat="-31.606632275506854" lon="29.48496320284903">
        <ele>8.310000000000001</ele>
        <time>2022-01-22T08:30:06Z</time>
      </trkpt>
      <trkpt lat="-31.606604866683483" lon="29.485176103189588">
        <ele>8.310000000000001</ele>
        <time>2022-01-22T08:30:07Z</time>
      </trkpt>
      <trkpt lat="-31.606552815064788" lon="29.485398307442665">
        <ele>8.310000000000001</ele>
        <time>2022-01-22T08:30:08Z</time>
      </trkpt>
      <trkpt lat="-31.606492130085826" lon="29.485591761767864">
        <ele>7.83</ele>
        <time>2022-01-22T08:30:09Z</time>
      </trkpt>
      <trkpt lat="-31.606412921100855" lon="29.485787395387888">
        <ele>7.83</ele>
        <time>2022-01-22T08:30:10Z</time>
      </trkpt>
      <trkpt lat="-31.606313763186336" lon="29.485970037057996">
        <ele>7.35</ele>
        <time>2022-01-22T08:30:11Z</time>
      </trkpt>
      <trkpt lat="-31.606193985790014" lon="29.486134489998221">
        <ele>7.35</ele>
        <time>2022-01-22T08:30:12Z</time>
      </trkpt>
      <trkpt lat="-31.606058031320572" lon="29.486280167475343">
        <ele>7.35</ele>
        <time>2022-01-22T08:30:13Z</time>
      </trkpt>
      <trkpt lat="-31.60590891726315" lon="29.486406315118074">
        <ele>6.87</ele>
        <time>2022-01-22T08:30:14Z</time>
      </trkpt>
      <trkpt lat="-31.605750164017081" lon="29.486512346193194">
        <ele>6.87</ele>
        <time>2022-01-22T08:30:15Z</time>
      </trkpt>
      <trkpt lat="-31.605581184849143" lon="29.486598176881671">
        <ele>6.87</ele>
        <time>2022-01-22T08:30:16Z</time>
      </trkpt>
      <trkpt lat="-31.605407176539302" lon="29.486667327582836">
        <ele>6.39</ele>
        <time>2022-01-22T08:30:17Z</time>
      </trkpt>
      <trkpt lat="-31.605234006419778" lon="29.4867261685431">
        <ele>6.39</ele>
        <time>2022-01-22T08:30:18Z</time>
      </trkpt>
      <trkpt lat="-31.604563789442182" lon="29.486995646730065">
        <ele>6.87</ele>
        <time>2022-01-22T08:30:22Z</time>
      </trkpt>
      <trkpt lat="-31.604413585737348" lon="29.487103689461946">
        <ele>6.87</ele>
        <time>2022-01-22T08:30:23Z</time>
      </trkpt>
      <trkpt lat="-31.604268159717321" lon="29.487228831276298">
        <ele>6.87</ele>
        <time>2022-01-22T08:30:24Z</time>
      </trkpt>
      <trkpt lat="-31.603612275794148" lon="29.487909441813827">
        <ele>6.87</ele>
        <time>2022-01-22T08:30:29Z</time>
      </trkpt>
      <trkpt lat="-31.603516219183803" lon="29.488059477880597">
        <ele>6.87</ele>
        <time>2022-01-22T08:30:30Z</time>
      </trkpt>
      <trkpt lat="-31.603444050997496" lon="29.488223092630506">
        <ele>6.87</ele>
        <time>2022-01-22T08:30:31Z</time>
      </trkpt>
      <trkpt lat="-31.60340272821486" lon="29.488397352397442">
        <ele>7.35</ele>
        <time>2022-01-22T08:30:32Z</time>
      </trkpt>
      <trkpt lat="-31.603391412645578" lon="29.488578233867884">
        <ele>7.35</ele>
        <time>2022-01-22T08:30:33Z</time>
      </trkpt>
      <trkpt lat="-31.603410020470619" lon="29.48876079171896">
        <ele>7.83</ele>
        <time>2022-01-22T08:30:34Z</time>
      </trkpt>
      <trkpt lat="-31.603457545861602" lon="29.488939074799418">
        <ele>7.83</ele>
        <time>2022-01-22T08:30:35Z</time>
      </trkpt>
      <trkpt lat="-31.603528121486306" lon="29.48910721577704">
        <ele>8.310000000000001</ele>
        <time>2022-01-22T08:30:36Z</time>
      </trkpt>
      <trkpt lat="-31.603617807850242" lon="29.489272003993392">
        <ele>8.789999999999999</ele>
        <time>2022-01-22T08:30:37Z</time>
      </trkpt>
      <trkpt lat="-31.60371595993638" lon="29.489433355629444">
        <ele>9.27</ele>
        <time>2022-01-22T08:30:38Z</time>
      </trkpt>
      <trkpt lat="-31.604342507198453" lon="29.490830870345235">
        <ele>13.119999999999999</ele>
        <time>2022-01-22T08:30:45Z</time>
      </trkpt>
      <trkpt lat="-31.604612823575735" lon="29.491680962964892">
        <ele>17.440000000000001</ele>
        <time>2022-01-22T08:30:49Z</time>
      </trkpt>
      <trkpt lat="-31.604639645665884" lon="29.491897551342845">
        <ele>18.399999999999999</ele>
        <time>2022-01-22T08:30:50Z</time>
      </trkpt>
      <trkpt lat="-31.604652469977736" lon="29.492104584351182">
        <ele>19.359999999999999</ele>
        <time>2022-01-22T08:30:51Z</time>
      </trkpt>
      <trkpt lat="-31.604640232399106" lon="29.495050068944693">
        <ele>21.289999999999999</ele>
        <time>2022-01-22T08:31:05Z</time>
      </trkpt>
      <trkpt lat="-31.604601675644517" lon="29.495257437229156">
        <ele>20.809999999999999</ele>
        <time>2022-01-22T08:31:06Z</time>
      </trkpt>
      <trkpt lat="-31.60454316996038" lon="29.495465895161033">
        <ele>20.809999999999999</ele>
        <time>2022-01-22T08:31:07Z</time>
      </trkpt>
      <trkpt lat="-31.604469241574407" lon="29.495675358921289">
        <ele>20.32</ele>
        <time>2022-01-22T08:31:08Z</time>
      </trkpt>
      <trkpt lat="-31.604391122236848" lon="29.495881469920278">
        <ele>20.32</ele>
        <time>2022-01-22T08:31:09Z</time>
      </trkpt>
      <trkpt lat="-31.604080740362406" lon="29.497446035966277">
        <ele>20.32</ele>
        <time>2022-01-22T08:31:16Z</time>
      </trkpt>
      <trkpt lat="-31.603679582476616" lon="29.498999202623963">
        <ele>18.399999999999999</ele>
        <time>2022-01-22T08:31:23Z</time>
      </trkpt>
      <trkpt lat="-31.603578496724367" lon="29.4991734623909">
        <ele>17.440000000000001</ele>
        <time>2022-01-22T08:31:24Z</time>
      </trkpt>
      <trkpt lat="-31.603457629680634" lon="29.499326767399907">
        <ele>16.960000000000001</ele>
        <time>2022-01-22T08:31:25Z</time>
      </trkpt>
      <trkpt lat="-31.603317148983479" lon="29.49945249594748">
        <ele>16</ele>
        <time>2022-01-22T08:31:26Z</time>
      </trkpt>
      <trkpt lat="-31.603172225877643" lon="29.49954972602427">
        <ele>15.039999999999999</ele>
        <time>2022-01-22T08:31:27Z</time>
      </trkpt>
      <trkpt lat="-31.603024201467633" lon="29.499639412388206">
        <ele>13.6</ele>
        <time>2022-01-22T08:31:28Z</time>
      </trkpt>
      <trkpt lat="-31.602881206199527" lon="29.499738989397883">
        <ele>12.630000000000001</ele>
        <time>2022-01-22T08:31:29Z</time>
      </trkpt>
      <trkpt lat="-31.602749275043607" lon="29.499852815642953">
        <ele>11.67</ele>
        <time>2022-01-22T08:31:30Z</time>
      </trkpt>
      <trkpt lat="-31.602177545428276" lon="29.500536862760782">
        <ele>10.23</ele>
        <time>2022-01-22T08:31:35Z</time>
      </trkpt>
      <trkpt lat="-31.602088194340467" lon="29.500711960718036">
        <ele>9.75</ele>
        <time>2022-01-22T08:31:36Z</time>
      </trkpt>
      <trkpt lat="-31.601218739524484" lon="29.502445925027132">
        <ele>9.27</ele>
        <time>2022-01-22T08:31:46Z</time>
      </trkpt>
      <trkpt lat="-31.600108304992318" lon="29.504227247089148">
        <ele>7.35</ele>
        <time>2022-01-22T08:31:58Z</time>
      </trkpt>
      <trkpt lat="-31.599237006157637" lon="29.505453687161207">
        <ele>10.23</ele>
        <time>2022-01-22T08:32:09Z</time>
      </trkpt>
      <trkpt lat="-31.598887983709574" lon="29.505977472290397">
        <ele>9.75</ele>
        <time>2022-01-22T08:32:16Z</time>
      </trkpt>
      <trkpt lat="-31.598072089254856" lon="29.5072534494102">
        <ele>8.789999999999999</ele>
        <time>2022-01-22T08:32:27Z</time>
      </trkpt>
      <trkpt lat="-31.597185786813498" lon="29.509015409275889">
        <ele>7.83</ele>
        <time>2022-01-22T08:32:38Z</time>
      </trkpt>
      <trkpt lat="-31.59620326012373" lon="29.511800883337855">
        <ele>6.87</ele>
        <time>2022-01-22T08:32:53Z</time>
      </trkpt>
      <trkpt lat="-31.59574150107801" lon="29.514092663303018">
        <ele>5.42</ele>
        <time>2022-01-22T08:33:04Z</time>
      </trkpt>
      <trkpt lat="-31.595153259113431" lon="29.517444921657443">
        <ele>4.94</ele>
        <time>2022-01-22T08:33:21Z</time>
      </trkpt>
      <trkpt lat="-31.594909597188234" lon="29.519784143194556">
        <ele>4.46</ele>
        <time>2022-01-22T08:33:34Z</time>
      </trkpt>
      <trkpt lat="-31.594903981313109" lon="29.520645383745432">
        <ele>3.98</ele>
        <time>2022-01-22T08:33:41Z</time>
      </trkpt>
      <trkpt lat="-31.594911273568869" lon="29.520763233304024">
        <ele>3.98</ele>
        <time>2022-01-22T08:33:43Z</time>
      </trkpt>
      <trkpt lat="-31.594977825880051" lon="29.521535206586123">
        <ele>3.98</ele>
        <time>2022-01-22T08:33:52Z</time>
      </trkpt>
      <trkpt lat="-31.59504521638155" lon="29.522329140454531">
        <ele>4.46</ele>
        <time>2022-01-22T08:34:00Z</time>
      </trkpt>
      <trkpt lat="-31.595050413161516" lon="29.522497365251184">
        <ele>4.46</ele>
        <time>2022-01-22T08:34:03Z</time>
      </trkpt>
      <trkpt lat="-31.595129957422614" lon="29.523196667432785">
        <ele>3.98</ele>
        <time>2022-01-22T08:34:10Z</time>
      </trkpt>
      <trkpt lat="-31.595602864399552" lon="29.524674145504832">
        <ele>4.94</ele>
        <time>2022-01-22T08:34:22Z</time>
      </trkpt>
      <trkpt lat="-31.596385315060616" lon="29.525784831494093">
        <ele>4.94</ele>
        <time>2022-01-22T08:34:34Z</time>
      </trkpt>
    </trkseg>
  </trk>

</gpx>