<?xml version="1.0" encoding="utf-8"?><gpx creator="Garmin Desktop App" version="1.1" xsi:schemaLocation="http://www.topografix.com/GPX/1/1 http://www.topografix.com/GPX/1/1/gpx.xsd http://www.garmin.com/xmlschemas/WaypointExtension/v1 http://www8.garmin.com/xmlschemas/WaypointExtensionv1.xsd http://www.garmin.com/xmlschemas/TrackPointExtension/v1 http://www.garmin.com/xmlschemas/TrackPointExtensionv1.xsd http://www.garmin.com/xmlschemas/GpxExtensions/v3 http://www8.garmin.com/xmlschemas/GpxExtensionsv3.xsd http://www.garmin.com/xmlschemas/ActivityExtension/v1 http://www8.garmin.com/xmlschemas/ActivityExtensionv1.xsd http://www.garmin.com/xmlschemas/AdventuresExtensions/v1 http://www8.garmin.com/xmlschemas/AdventuresExtensionv1.xsd http://www.garmin.com/xmlschemas/PressureExtension/v1 http://www.garmin.com/xmlschemas/PressureExtensionv1.xsd http://www.garmin.com/xmlschemas/TripExtensions/v1 http://www.garmin.com/xmlschemas/TripExtensionsv1.xsd http://www.garmin.com/xmlschemas/TripMetaDataExtensions/v1 http://www.garmin.com/xmlschemas/TripMetaDataExtensionsv1.xsd http://www.garmin.com/xmlschemas/ViaPointTransportationModeExtensions/v1 http://www.garmin.com/xmlschemas/ViaPointTransportationModeExtensionsv1.xsd http://www.garmin.com/xmlschemas/CreationTimeExtension/v1 http://www.garmin.com/xmlschemas/CreationTimeExtensionsv1.xsd http://www.garmin.com/xmlschemas/AccelerationExtension/v1 http://www.garmin.com/xmlschemas/AccelerationExtensionv1.xsd http://www.garmin.com/xmlschemas/PowerExtension/v1 http://www.garmin.com/xmlschemas/PowerExtensionv1.xsd http://www.garmin.com/xmlschemas/VideoExtension/v1 http://www.garmin.com/xmlschemas/VideoExtensionv1.xsd" xmlns="http://www.topografix.com/GPX/1/1" xmlns:xsi="http://www.w3.org/2001/XMLSchema-instance" xmlns:wptx1="http://www.garmin.com/xmlschemas/WaypointExtension/v1" xmlns:gpxtrx="http://www.garmin.com/xmlschemas/GpxExtensions/v3" xmlns:gpxtpx="http://www.garmin.com/xmlschemas/TrackPointExtension/v1" xmlns:gpxx="http://www.garmin.com/xmlschemas/GpxExtensions/v3" xmlns:trp="http://www.garmin.com/xmlschemas/TripExtensions/v1" xmlns:adv="http://www.garmin.com/xmlschemas/AdventuresExtensions/v1" xmlns:prs="http://www.garmin.com/xmlschemas/PressureExtension/v1" xmlns:tmd="http://www.garmin.com/xmlschemas/TripMetaDataExtensions/v1" xmlns:vptm="http://www.garmin.com/xmlschemas/ViaPointTransportationModeExtensions/v1" xmlns:ctx="http://www.garmin.com/xmlschemas/CreationTimeExtension/v1" xmlns:gpxacc="http://www.garmin.com/xmlschemas/AccelerationExtension/v1" xmlns:gpxpx="http://www.garmin.com/xmlschemas/PowerExtension/v1" xmlns:vidx1="http://www.garmin.com/xmlschemas/VideoExtension/v1">

  <metadata>
    <link href="http://www.garmin.com">
      <text>Garmin International</text>
    </link>
    <time>2022-11-06T19:33:55Z</time>
    <bounds maxlat="-27.823195997625589" maxlon="29.650145033374429" minlat="-27.930889036506414" minlon="29.625428980216384" />
  </metadata>

  <trk>
    <name>[276] Dirt Road</name>
    <extensions>
      <gpxx:TrackExtension>
        <gpxx:DisplayColor>Blue</gpxx:DisplayColor>
      </gpxx:TrackExtension>
    </extensions>
    <trkseg>
      <trkpt lat="-27.930889036506414" lon="29.645926002413034">
        <ele>1862.21</ele>
        <time>2022-08-07T08:41:29Z</time>
      </trkpt>
      <trkpt lat="-27.930889036506414" lon="29.645926002413034">
        <ele>1861.73</ele>
        <time>2022-08-07T08:41:30Z</time>
      </trkpt>
      <trkpt lat="-27.930734977126122" lon="29.64583002962172">
        <ele>1861.25</ele>
        <time>2022-08-07T08:41:33Z</time>
      </trkpt>
      <trkpt lat="-27.929956968873739" lon="29.645284032449126">
        <ele>1859.3299999999999</ele>
        <time>2022-08-07T08:41:46Z</time>
      </trkpt>
      <trkpt lat="-27.929385993629694" lon="29.644824033603072">
        <ele>1857.8900000000001</ele>
        <time>2022-08-07T08:41:54Z</time>
      </trkpt>
      <trkpt lat="-27.928750980645418" lon="29.644280970096588">
        <ele>1854.52</ele>
        <time>2022-08-07T08:42:03Z</time>
      </trkpt>
      <trkpt lat="-27.928297016769648" lon="29.643849972635508">
        <ele>1850.6800000000001</ele>
        <time>2022-08-07T08:42:10Z</time>
      </trkpt>
      <trkpt lat="-27.928003985434771" lon="29.64357596822083">
        <ele>1847.3099999999999</ele>
        <time>2022-08-07T08:42:14Z</time>
      </trkpt>
      <trkpt lat="-27.927809022367001" lon="29.643401959910989">
        <ele>1845.8699999999999</ele>
        <time>2022-08-07T08:42:17Z</time>
      </trkpt>
      <trkpt lat="-27.9269939661026" lon="29.642669968307018">
        <ele>1847.79</ele>
        <time>2022-08-07T08:42:28Z</time>
      </trkpt>
      <trkpt lat="-27.926586018875241" lon="29.642304014414549">
        <ele>1851.1600000000001</ele>
        <time>2022-08-07T08:42:32Z</time>
      </trkpt>
      <trkpt lat="-27.925870036706328" lon="29.641573028638959">
        <ele>1848.75</ele>
        <time>2022-08-07T08:42:42Z</time>
      </trkpt>
      <trkpt lat="-27.925510033965111" lon="29.641193998977542">
        <ele>1845.3900000000001</ele>
        <time>2022-08-07T08:42:49Z</time>
      </trkpt>
      <trkpt lat="-27.92492900043726" lon="29.640525039285421">
        <ele>1844.4300000000001</ele>
        <time>2022-08-07T08:43:01Z</time>
      </trkpt>
      <trkpt lat="-27.924342015758157" lon="29.63975097052753">
        <ele>1841.0599999999999</ele>
        <time>2022-08-07T08:43:10Z</time>
      </trkpt>
      <trkpt lat="-27.923856033012271" lon="29.638988971710205">
        <ele>1838.1800000000001</ele>
        <time>2022-08-07T08:43:21Z</time>
      </trkpt>
      <trkpt lat="-27.923713959753513" lon="29.638766013085842">
        <ele>1834.8099999999999</ele>
        <time>2022-08-07T08:43:28Z</time>
      </trkpt>
      <trkpt lat="-27.923544980585575" lon="29.638558980077505">
        <ele>1830.97</ele>
        <time>2022-08-07T08:43:33Z</time>
      </trkpt>
      <trkpt lat="-27.923335013911128" lon="29.638305008411407">
        <ele>1827.5999999999999</ele>
        <time>2022-08-07T08:43:38Z</time>
      </trkpt>
      <trkpt lat="-27.923180032521486" lon="29.63811800815165">
        <ele>1824.24</ele>
        <time>2022-08-07T08:43:41Z</time>
      </trkpt>
      <trkpt lat="-27.922908961772919" lon="29.637791030108929">
        <ele>1822.3199999999999</ele>
        <time>2022-08-07T08:43:45Z</time>
      </trkpt>
      <trkpt lat="-27.922143023461103" lon="29.637002041563392">
        <ele>1820.3900000000001</ele>
        <time>2022-08-07T08:43:57Z</time>
      </trkpt>
      <trkpt lat="-27.921829959377646" lon="29.636725019663572">
        <ele>1820.8699999999999</ele>
        <time>2022-08-07T08:44:05Z</time>
      </trkpt>
      <trkpt lat="-27.921178014948964" lon="29.636148009449244">
        <ele>1822.8</ele>
        <time>2022-08-07T08:44:13Z</time>
      </trkpt>
      <trkpt lat="-27.920390032231808" lon="29.635506039485335">
        <ele>1819.9100000000001</ele>
        <time>2022-08-07T08:44:22Z</time>
      </trkpt>
      <trkpt lat="-27.919950988143682" lon="29.635167997330427">
        <ele>1817.03</ele>
        <time>2022-08-07T08:44:28Z</time>
      </trkpt>
      <trkpt lat="-27.919715037569404" lon="29.63500396348536">
        <ele>1815.5899999999999</ele>
        <time>2022-08-07T08:44:32Z</time>
      </trkpt>
      <trkpt lat="-27.919366015121341" lon="29.63487396016717">
        <ele>1812.22</ele>
        <time>2022-08-07T08:44:37Z</time>
      </trkpt>
      <trkpt lat="-27.919288985431194" lon="29.634845964610577">
        <ele>1812.22</ele>
        <time>2022-08-07T08:44:38Z</time>
      </trkpt>
      <trkpt lat="-27.919132998213172" lon="29.63478796184063">
        <ele>1810.78</ele>
        <time>2022-08-07T08:44:40Z</time>
      </trkpt>
      <trkpt lat="-27.918764026835561" lon="29.634673967957497">
        <ele>1807.9000000000001</ele>
        <time>2022-08-07T08:44:48Z</time>
      </trkpt>
      <trkpt lat="-27.918281983584166" lon="29.634540025144815">
        <ele>1804.53</ele>
        <time>2022-08-07T08:44:56Z</time>
      </trkpt>
      <trkpt lat="-27.917634984478354" lon="29.634361993521452">
        <ele>1803.0899999999999</ele>
        <time>2022-08-07T08:45:08Z</time>
      </trkpt>
      <trkpt lat="-27.916925959289074" lon="29.634165018796921">
        <ele>1806.9400000000001</ele>
        <time>2022-08-07T08:45:15Z</time>
      </trkpt>
      <trkpt lat="-27.916408041492105" lon="29.634022023528814">
        <ele>1809.8199999999999</ele>
        <time>2022-08-07T08:45:20Z</time>
      </trkpt>
      <trkpt lat="-27.916071005165577" lon="29.633966032415628">
        <ele>1806.45</ele>
        <time>2022-08-07T08:45:27Z</time>
      </trkpt>
      <trkpt lat="-27.915872018784285" lon="29.633936025202274">
        <ele>1803.0899999999999</ele>
        <time>2022-08-07T08:45:33Z</time>
      </trkpt>
      <trkpt lat="-27.915639001876116" lon="29.633900988847017">
        <ele>1799.73</ele>
        <time>2022-08-07T08:45:38Z</time>
      </trkpt>
      <trkpt lat="-27.915057968348265" lon="29.633812978863716">
        <ele>1796.3599999999999</ele>
        <time>2022-08-07T08:45:43Z</time>
      </trkpt>
      <trkpt lat="-27.913228031247854" lon="29.633918004110456">
        <ele>1794.4400000000001</ele>
        <time>2022-08-07T08:45:58Z</time>
      </trkpt>
      <trkpt lat="-27.912363018840551" lon="29.633997967466712">
        <ele>1791.55</ele>
        <time>2022-08-07T08:46:08Z</time>
      </trkpt>
      <trkpt lat="-27.911905031651258" lon="29.634090000763535">
        <ele>1791.0699999999999</ele>
        <time>2022-08-07T08:46:15Z</time>
      </trkpt>
      <trkpt lat="-27.911817021667957" lon="29.634148003533483">
        <ele>1791.0699999999999</ele>
        <time>2022-08-07T08:46:16Z</time>
      </trkpt>
      <trkpt lat="-27.911817021667957" lon="29.634148003533483">
        <ele>1790.5899999999999</ele>
        <time>2022-08-07T08:46:17Z</time>
      </trkpt>
      <trkpt lat="-27.911775028333068" lon="29.634183961898088">
        <ele>1790.5899999999999</ele>
        <time>2022-08-07T08:46:18Z</time>
      </trkpt>
      <trkpt lat="-27.911728005856276" lon="29.634234001860023">
        <ele>1790.5899999999999</ele>
        <time>2022-08-07T08:46:19Z</time>
      </trkpt>
      <trkpt lat="-27.910908004269004" lon="29.63480900041759">
        <ele>1791.0699999999999</ele>
        <time>2022-08-07T08:46:33Z</time>
      </trkpt>
      <trkpt lat="-27.910074004903436" lon="29.635030031204224">
        <ele>1790.5899999999999</ele>
        <time>2022-08-07T08:46:40Z</time>
      </trkpt>
      <trkpt lat="-27.909780973568559" lon="29.635056015104055">
        <ele>1792.03</ele>
        <time>2022-08-07T08:46:43Z</time>
      </trkpt>
      <trkpt lat="-27.909607971087098" lon="29.635048974305391">
        <ele>1791.55</ele>
        <time>2022-08-07T08:46:45Z</time>
      </trkpt>
      <trkpt lat="-27.909521972760558" lon="29.635045034810901">
        <ele>1791.0699999999999</ele>
        <time>2022-08-07T08:46:46Z</time>
      </trkpt>
      <trkpt lat="-27.908467026427388" lon="29.634676985442638">
        <ele>1788.1900000000001</ele>
        <time>2022-08-07T08:46:56Z</time>
      </trkpt>
      <trkpt lat="-27.907971991226077" lon="29.634384037926793">
        <ele>1787.23</ele>
        <time>2022-08-07T08:47:03Z</time>
      </trkpt>
      <trkpt lat="-27.90750696323812" lon="29.634000984951854">
        <ele>1788.1900000000001</ele>
        <time>2022-08-07T08:47:09Z</time>
      </trkpt>
      <trkpt lat="-27.906770026311278" lon="29.633564036339521">
        <ele>1786.75</ele>
        <time>2022-08-07T08:47:17Z</time>
      </trkpt>
      <trkpt lat="-27.9066860396415" lon="29.633531011641026">
        <ele>1786.27</ele>
        <time>2022-08-07T08:47:18Z</time>
      </trkpt>
      <trkpt lat="-27.905665962025523" lon="29.633367983624339">
        <ele>1786.75</ele>
        <time>2022-08-07T08:47:27Z</time>
      </trkpt>
      <trkpt lat="-27.904612021520734" lon="29.633258013054729">
        <ele>1787.23</ele>
        <time>2022-08-07T08:47:36Z</time>
      </trkpt>
      <trkpt lat="-27.904183035716414" lon="29.633202021941543">
        <ele>1786.27</ele>
        <time>2022-08-07T08:47:43Z</time>
      </trkpt>
      <trkpt lat="-27.903576018288732" lon="29.63319799862802">
        <ele>1786.27</ele>
        <time>2022-08-07T08:47:51Z</time>
      </trkpt>
      <trkpt lat="-27.902237009257078" lon="29.633185006678104">
        <ele>1785.79</ele>
        <time>2022-08-07T08:48:04Z</time>
      </trkpt>
      <trkpt lat="-27.901133028790355" lon="29.633224988356233">
        <ele>1785.79</ele>
        <time>2022-08-07T08:48:14Z</time>
      </trkpt>
      <trkpt lat="-27.900583008304238" lon="29.633294977247715">
        <ele>1787.71</ele>
        <time>2022-08-07T08:48:18Z</time>
      </trkpt>
      <trkpt lat="-27.899070996791124" lon="29.633486000820994">
        <ele>1786.75</ele>
        <time>2022-08-07T08:48:30Z</time>
      </trkpt>
      <trkpt lat="-27.897881017997861" lon="29.633636036887765">
        <ele>1785.79</ele>
        <time>2022-08-07T08:48:40Z</time>
      </trkpt>
      <trkpt lat="-27.897467035800219" lon="29.633688004687428">
        <ele>1789.6300000000001</ele>
        <time>2022-08-07T08:48:44Z</time>
      </trkpt>
      <trkpt lat="-27.897356981411576" lon="29.633702002465725">
        <ele>1789.6300000000001</ele>
        <time>2022-08-07T08:48:45Z</time>
      </trkpt>
      <trkpt lat="-27.896031970158219" lon="29.633763022720814">
        <ele>1790.5899999999999</ele>
        <time>2022-08-07T08:48:54Z</time>
      </trkpt>
      <trkpt lat="-27.895143991336226" lon="29.633788000792265">
        <ele>1791.0699999999999</ele>
        <time>2022-08-07T08:49:03Z</time>
      </trkpt>
      <trkpt lat="-27.894285013899207" lon="29.633592031896114">
        <ele>1788.1900000000001</ele>
        <time>2022-08-07T08:49:13Z</time>
      </trkpt>
      <trkpt lat="-27.89308900013566" lon="29.633043017238379">
        <ele>1790.5899999999999</ele>
        <time>2022-08-07T08:49:27Z</time>
      </trkpt>
      <trkpt lat="-27.892864029854536" lon="29.632883006706834">
        <ele>1792.03</ele>
        <time>2022-08-07T08:49:30Z</time>
      </trkpt>
      <trkpt lat="-27.892116028815508" lon="29.631911963224411">
        <ele>1795.4000000000001</ele>
        <time>2022-08-07T08:49:41Z</time>
      </trkpt>
      <trkpt lat="-27.891858033835888" lon="29.631553972139955">
        <ele>1798.28</ele>
        <time>2022-08-07T08:49:44Z</time>
      </trkpt>
      <trkpt lat="-27.891505993902683" lon="29.631067989394069">
        <ele>1801.6500000000001</ele>
        <time>2022-08-07T08:49:48Z</time>
      </trkpt>
      <trkpt lat="-27.890937030315399" lon="29.630281012505293">
        <ele>1804.05</ele>
        <time>2022-08-07T08:49:56Z</time>
      </trkpt>
      <trkpt lat="-27.890490023419261" lon="29.629663014784455">
        <ele>1805.49</ele>
        <time>2022-08-07T08:50:04Z</time>
      </trkpt>
      <trkpt lat="-27.890452975407243" lon="29.629612974822521">
        <ele>1805.49</ele>
        <time>2022-08-07T08:50:05Z</time>
      </trkpt>
      <trkpt lat="-27.890072017908096" lon="29.629084998741746">
        <ele>1808.8599999999999</ele>
        <time>2022-08-07T08:50:12Z</time>
      </trkpt>
      <trkpt lat="-27.889732969924808" lon="29.628617037087679">
        <ele>1812.7</ele>
        <time>2022-08-07T08:50:17Z</time>
      </trkpt>
      <trkpt lat="-27.889661975204945" lon="29.628517962992191">
        <ele>1812.7</ele>
        <time>2022-08-07T08:50:18Z</time>
      </trkpt>
      <trkpt lat="-27.889426024630666" lon="29.62819098494947">
        <ele>1814.1500000000001</ele>
        <time>2022-08-07T08:50:21Z</time>
      </trkpt>
      <trkpt lat="-27.888494040817022" lon="29.6268580108881">
        <ele>1816.55</ele>
        <time>2022-08-07T08:50:33Z</time>
      </trkpt>
      <trkpt lat="-27.887959023937583" lon="29.626061981543899">
        <ele>1819.4300000000001</ele>
        <time>2022-08-07T08:50:39Z</time>
      </trkpt>
      <trkpt lat="-27.887788033112884" lon="29.62580700404942">
        <ele>1820.8699999999999</ele>
        <time>2022-08-07T08:50:43Z</time>
      </trkpt>
      <trkpt lat="-27.887476980686188" lon="29.625511961057782">
        <ele>1817.51</ele>
        <time>2022-08-07T08:50:50Z</time>
      </trkpt>
      <trkpt lat="-27.887442028149962" lon="29.625492012128234">
        <ele>1817.51</ele>
        <time>2022-08-07T08:50:51Z</time>
      </trkpt>
      <trkpt lat="-27.887401962652802" lon="29.625468039885163">
        <ele>1817.99</ele>
        <time>2022-08-07T08:50:52Z</time>
      </trkpt>
      <trkpt lat="-27.887358963489532" lon="29.6254419721663">
        <ele>1817.51</ele>
        <time>2022-08-07T08:50:53Z</time>
      </trkpt>
      <trkpt lat="-27.887317975983024" lon="29.625428980216384">
        <ele>1817.51</ele>
        <time>2022-08-07T08:50:54Z</time>
      </trkpt>
      <trkpt lat="-27.887256033718586" lon="29.625429986044765">
        <ele>1817.51</ele>
        <time>2022-08-07T08:50:55Z</time>
      </trkpt>
      <trkpt lat="-27.886542985215783" lon="29.625450018793344">
        <ele>1813.1800000000001</ele>
        <time>2022-08-07T08:51:04Z</time>
      </trkpt>
      <trkpt lat="-27.88629999384284" lon="29.625455969944596">
        <ele>1809.8199999999999</ele>
        <time>2022-08-07T08:51:07Z</time>
      </trkpt>
      <trkpt lat="-27.885979972779751" lon="29.625465022400022">
        <ele>1806.45</ele>
        <time>2022-08-07T08:51:11Z</time>
      </trkpt>
      <trkpt lat="-27.885430036112666" lon="29.625480026006699">
        <ele>1803.0899999999999</ele>
        <time>2022-08-07T08:51:18Z</time>
      </trkpt>
      <trkpt lat="-27.885012030601501" lon="29.625491006299853">
        <ele>1800.6900000000001</ele>
        <time>2022-08-07T08:51:24Z</time>
      </trkpt>
      <trkpt lat="-27.884138971567154" lon="29.625514978542924">
        <ele>1797.8</ele>
        <time>2022-08-07T08:51:32Z</time>
      </trkpt>
      <trkpt lat="-27.883905032649636" lon="29.625522019341588">
        <ele>1797.3199999999999</ele>
        <time>2022-08-07T08:51:34Z</time>
      </trkpt>
      <trkpt lat="-27.88357000797987" lon="29.625530987977982">
        <ele>1795.4000000000001</ele>
        <time>2022-08-07T08:51:37Z</time>
      </trkpt>
      <trkpt lat="-27.883046977221966" lon="29.625544985756278">
        <ele>1792.52</ele>
        <time>2022-08-07T08:51:42Z</time>
      </trkpt>
      <trkpt lat="-27.882224963977933" lon="29.625567030161619">
        <ele>1788.6700000000001</ele>
        <time>2022-08-07T08:51:49Z</time>
      </trkpt>
      <trkpt lat="-27.881308989599347" lon="29.62559200823307">
        <ele>1787.71</ele>
        <time>2022-08-07T08:51:59Z</time>
      </trkpt>
      <trkpt lat="-27.881092987954617" lon="29.625597959384322">
        <ele>1788.1900000000001</ele>
        <time>2022-08-07T08:52:02Z</time>
      </trkpt>
      <trkpt lat="-27.880356973037124" lon="29.625617992132902">
        <ele>1787.23</ele>
        <time>2022-08-07T08:52:08Z</time>
      </trkpt>
      <trkpt lat="-27.879881970584393" lon="29.625621009618044">
        <ele>1787.23</ele>
        <time>2022-08-07T08:52:14Z</time>
      </trkpt>
      <trkpt lat="-27.879403028637171" lon="29.625621009618044">
        <ele>1787.23</ele>
        <time>2022-08-07T08:52:22Z</time>
      </trkpt>
      <trkpt lat="-27.878086986020207" lon="29.625638024881482">
        <ele>1788.1900000000001</ele>
        <time>2022-08-07T08:52:32Z</time>
      </trkpt>
      <trkpt lat="-27.877266984432936" lon="29.625658979639411">
        <ele>1790.1099999999999</ele>
        <time>2022-08-07T08:52:38Z</time>
      </trkpt>
      <trkpt lat="-27.876725010573864" lon="29.625673983246088">
        <ele>1793.48</ele>
        <time>2022-08-07T08:52:42Z</time>
      </trkpt>
      <trkpt lat="-27.875846000388265" lon="29.62569703347981">
        <ele>1796.3599999999999</ele>
        <time>2022-08-07T08:52:47Z</time>
      </trkpt>
      <trkpt lat="-27.87497797049582" lon="29.6257199998945">
        <ele>1795.8800000000001</ele>
        <time>2022-08-07T08:52:54Z</time>
      </trkpt>
      <trkpt lat="-27.87409502081573" lon="29.62574397213757">
        <ele>1793</ele>
        <time>2022-08-07T08:53:01Z</time>
      </trkpt>
      <trkpt lat="-27.873968034982681" lon="29.625746989622712">
        <ele>1793</ele>
        <time>2022-08-07T08:53:02Z</time>
      </trkpt>
      <trkpt lat="-27.87233398295939" lon="29.625692004337907">
        <ele>1789.6300000000001</ele>
        <time>2022-08-07T08:53:14Z</time>
      </trkpt>
      <trkpt lat="-27.871440974995494" lon="29.625689992681146">
        <ele>1793.48</ele>
        <time>2022-08-07T08:53:20Z</time>
      </trkpt>
      <trkpt lat="-27.870845021679997" lon="29.625694015994668">
        <ele>1796.8399999999999</ele>
        <time>2022-08-07T08:53:24Z</time>
      </trkpt>
      <trkpt lat="-27.870703032240272" lon="29.625695021823049">
        <ele>1796.8399999999999</ele>
        <time>2022-08-07T08:53:25Z</time>
      </trkpt>
      <trkpt lat="-27.870277985930443" lon="29.62569803930819">
        <ele>1798.28</ele>
        <time>2022-08-07T08:53:28Z</time>
      </trkpt>
      <trkpt lat="-27.868830012157559" lon="29.625712959095836">
        <ele>1794.9200000000001</ele>
        <time>2022-08-07T08:53:39Z</time>
      </trkpt>
      <trkpt lat="-27.868614010512829" lon="29.625730980187654">
        <ele>1793.96</ele>
        <time>2022-08-07T08:53:41Z</time>
      </trkpt>
      <trkpt lat="-27.867885036394" lon="29.625792000442743">
        <ele>1790.1099999999999</ele>
        <time>2022-08-07T08:53:47Z</time>
      </trkpt>
      <trkpt lat="-27.866979958489537" lon="29.625867018476129">
        <ele>1787.71</ele>
        <time>2022-08-07T08:53:55Z</time>
      </trkpt>
      <trkpt lat="-27.866634037345648" lon="29.625896019861102">
        <ele>1786.27</ele>
        <time>2022-08-07T08:53:58Z</time>
      </trkpt>
      <trkpt lat="-27.866281997412443" lon="29.625925021246076">
        <ele>1784.8199999999999</ele>
        <time>2022-08-07T08:54:01Z</time>
      </trkpt>
      <trkpt lat="-27.865687971934676" lon="29.625974977388978">
        <ele>1781.46</ele>
        <time>2022-08-07T08:54:06Z</time>
      </trkpt>
      <trkpt lat="-27.865562997758389" lon="29.625985035672784">
        <ele>1780.98</ele>
        <time>2022-08-07T08:54:07Z</time>
      </trkpt>
      <trkpt lat="-27.864812985062599" lon="29.626047983765602">
        <ele>1778.0999999999999</ele>
        <time>2022-08-07T08:54:13Z</time>
      </trkpt>
      <trkpt lat="-27.864244021475315" lon="29.626095006242394">
        <ele>1774.73</ele>
        <time>2022-08-07T08:54:18Z</time>
      </trkpt>
      <trkpt lat="-27.863899022340775" lon="29.626124007627368">
        <ele>1772.8099999999999</ele>
        <time>2022-08-07T08:54:21Z</time>
      </trkpt>
      <trkpt lat="-27.861757026985288" lon="29.626302039250731">
        <ele>1771.8499999999999</ele>
        <time>2022-08-07T08:54:37Z</time>
      </trkpt>
      <trkpt lat="-27.860651034861803" lon="29.6264280192554">
        <ele>1768.96</ele>
        <time>2022-08-07T08:54:46Z</time>
      </trkpt>
      <trkpt lat="-27.860169997438788" lon="29.626484010368586">
        <ele>1769.4400000000001</ele>
        <time>2022-08-07T08:54:54Z</time>
      </trkpt>
      <trkpt lat="-27.859460972249508" lon="29.626546036452055">
        <ele>1768.96</ele>
        <time>2022-08-07T08:55:00Z</time>
      </trkpt>
      <trkpt lat="-27.858782038092613" lon="29.626602027565241">
        <ele>1769.4400000000001</ele>
        <time>2022-08-07T08:55:08Z</time>
      </trkpt>
      <trkpt lat="-27.858048034831882" lon="29.626661036163568">
        <ele>1769.4400000000001</ele>
        <time>2022-08-07T08:55:18Z</time>
      </trkpt>
      <trkpt lat="-27.857203977182508" lon="29.626770000904799">
        <ele>1772.8099999999999</ele>
        <time>2022-08-07T08:55:26Z</time>
      </trkpt>
      <trkpt lat="-27.856937013566494" lon="29.626852981746197">
        <ele>1775.6900000000001</ele>
        <time>2022-08-07T08:55:28Z</time>
      </trkpt>
      <trkpt lat="-27.856567036360502" lon="29.626982985064387">
        <ele>1778.5799999999999</ele>
        <time>2022-08-07T08:55:31Z</time>
      </trkpt>
      <trkpt lat="-27.855264991521835" lon="29.627490006387234">
        <ele>1777.6099999999999</ele>
        <time>2022-08-07T08:55:43Z</time>
      </trkpt>
      <trkpt lat="-27.85359900444746" lon="29.628139017149806">
        <ele>1780.02</ele>
        <time>2022-08-07T08:55:57Z</time>
      </trkpt>
      <trkpt lat="-27.852711025625467" lon="29.628486027941108">
        <ele>1776.1700000000001</ele>
        <time>2022-08-07T08:56:06Z</time>
      </trkpt>
      <trkpt lat="-27.852410031482577" lon="29.628603039309382">
        <ele>1772.8099999999999</ele>
        <time>2022-08-07T08:56:09Z</time>
      </trkpt>
      <trkpt lat="-27.852057991549373" lon="29.62877101264894">
        <ele>1770.8900000000001</ele>
        <time>2022-08-07T08:56:13Z</time>
      </trkpt>
      <trkpt lat="-27.851627999916673" lon="29.629164040088654">
        <ele>1769.9200000000001</ele>
        <time>2022-08-07T08:56:22Z</time>
      </trkpt>
      <trkpt lat="-27.851505959406495" lon="29.629337964579463">
        <ele>1770.4100000000001</ele>
        <time>2022-08-07T08:56:30Z</time>
      </trkpt>
      <trkpt lat="-27.85149497911334" lon="29.629353974014521">
        <ele>1770.4100000000001</ele>
        <time>2022-08-07T08:56:31Z</time>
      </trkpt>
      <trkpt lat="-27.851482992991805" lon="29.629370989277959">
        <ele>1770.4100000000001</ele>
        <time>2022-08-07T08:56:32Z</time>
      </trkpt>
      <trkpt lat="-27.851329017430544" lon="29.629591014236212">
        <ele>1769.9200000000001</ele>
        <time>2022-08-07T08:56:40Z</time>
      </trkpt>
      <trkpt lat="-27.851283000782132" lon="29.629566958174109">
        <ele>1769.9200000000001</ele>
        <time>2022-08-07T08:56:41Z</time>
      </trkpt>
      <trkpt lat="-27.851269003003836" lon="29.629560001194477">
        <ele>1769.9200000000001</ele>
        <time>2022-08-07T08:56:42Z</time>
      </trkpt>
      <trkpt lat="-27.85125601105392" lon="29.629552960395813">
        <ele>1769.9200000000001</ele>
        <time>2022-08-07T08:56:43Z</time>
      </trkpt>
      <trkpt lat="-27.851317031309009" lon="29.629611968994141">
        <ele>1769.9200000000001</ele>
        <time>2022-08-07T08:56:44Z</time>
      </trkpt>
      <trkpt lat="-27.851309990510345" lon="29.629624960944057">
        <ele>1769.9200000000001</ele>
        <time>2022-08-07T08:56:45Z</time>
      </trkpt>
      <trkpt lat="-27.85130001604557" lon="29.629641976207495">
        <ele>1769.9200000000001</ele>
        <time>2022-08-07T08:56:46Z</time>
      </trkpt>
      <trkpt lat="-27.851276965811849" lon="29.629682963714004">
        <ele>1769.9200000000001</ele>
        <time>2022-08-07T08:56:47Z</time>
      </trkpt>
      <trkpt lat="-27.851168001070619" lon="29.629875998944044">
        <ele>1770.8900000000001</ele>
        <time>2022-08-07T08:56:57Z</time>
      </trkpt>
      <trkpt lat="-27.85110798664391" lon="29.629983035847545">
        <ele>1770.8900000000001</ele>
        <time>2022-08-07T08:57:05Z</time>
      </trkpt>
      <trkpt lat="-27.850944958627224" lon="29.6306830085814">
        <ele>1770.8900000000001</ele>
        <time>2022-08-07T08:57:15Z</time>
      </trkpt>
      <trkpt lat="-27.850929033011198" lon="29.631516002118587">
        <ele>1770.8900000000001</ele>
        <time>2022-08-07T08:57:27Z</time>
      </trkpt>
      <trkpt lat="-27.850886033847928" lon="29.631992010399699">
        <ele>1770.4100000000001</ele>
        <time>2022-08-07T08:57:36Z</time>
      </trkpt>
      <trkpt lat="-27.850858960300684" lon="29.632176999002695">
        <ele>1771.8499999999999</ele>
        <time>2022-08-07T09:01:25Z</time>
      </trkpt>
      <trkpt lat="-27.850816966965795" lon="29.632426025345922">
        <ele>1775.6900000000001</ele>
        <time>2022-08-07T09:01:28Z</time>
      </trkpt>
      <trkpt lat="-27.850769022479653" lon="29.632715033367276">
        <ele>1778.5799999999999</ele>
        <time>2022-08-07T09:01:31Z</time>
      </trkpt>
      <trkpt lat="-27.850709008052945" lon="29.633075958117843">
        <ele>1781.9400000000001</ele>
        <time>2022-08-07T09:01:35Z</time>
      </trkpt>
      <trkpt lat="-27.850694004446268" lon="29.633162962272763">
        <ele>1782.9000000000001</ele>
        <time>2022-08-07T09:01:36Z</time>
      </trkpt>
      <trkpt lat="-27.850681012496352" lon="29.633245021104813">
        <ele>1783.3800000000001</ele>
        <time>2022-08-07T09:01:37Z</time>
      </trkpt>
      <trkpt lat="-27.850669026374817" lon="29.633317021653056">
        <ele>1783.8599999999999</ele>
        <time>2022-08-07T09:01:38Z</time>
      </trkpt>
      <trkpt lat="-27.85065796226263" lon="29.633379969745874">
        <ele>1784.3399999999999</ele>
        <time>2022-08-07T09:01:39Z</time>
      </trkpt>
      <trkpt lat="-27.850600965321064" lon="29.633480971679091">
        <ele>1784.8199999999999</ele>
        <time>2022-08-07T09:01:40Z</time>
      </trkpt>
      <trkpt lat="-27.850550003349781" lon="29.633489018306136">
        <ele>1785.3099999999999</ele>
        <time>2022-08-07T09:01:41Z</time>
      </trkpt>
      <trkpt lat="-27.850488983094692" lon="29.63349798694253">
        <ele>1784.8199999999999</ele>
        <time>2022-08-07T09:01:42Z</time>
      </trkpt>
      <trkpt lat="-27.850413965061307" lon="29.633509973064065">
        <ele>1784.3399999999999</ele>
        <time>2022-08-07T09:01:43Z</time>
      </trkpt>
      <trkpt lat="-27.849924964830279" lon="29.633585996925831">
        <ele>1781.9400000000001</ele>
        <time>2022-08-07T09:01:47Z</time>
      </trkpt>
      <trkpt lat="-27.849157014861703" lon="29.633705019950867">
        <ele>1779.0599999999999</ele>
        <time>2022-08-07T09:01:54Z</time>
      </trkpt>
      <trkpt lat="-27.848757030442357" lon="29.633780959993601">
        <ele>1775.21</ele>
        <time>2022-08-07T09:01:59Z</time>
      </trkpt>
      <trkpt lat="-27.847909033298492" lon="29.634064016863704">
        <ele>1778.0999999999999</ele>
        <time>2022-08-07T09:02:09Z</time>
      </trkpt>
      <trkpt lat="-27.847637040540576" lon="29.634154960513115">
        <ele>1780.5</ele>
        <time>2022-08-07T09:02:12Z</time>
      </trkpt>
      <trkpt lat="-27.846742020919919" lon="29.634413961321115">
        <ele>1778.5799999999999</ele>
        <time>2022-08-07T09:02:24Z</time>
      </trkpt>
      <trkpt lat="-27.846256960183382" lon="29.634495014324784">
        <ele>1781.46</ele>
        <time>2022-08-07T09:02:32Z</time>
      </trkpt>
      <trkpt lat="-27.845892012119293" lon="29.634556034579873">
        <ele>1783.8599999999999</ele>
        <time>2022-08-07T09:02:35Z</time>
      </trkpt>
      <trkpt lat="-27.845354983583093" lon="29.634645972400904">
        <ele>1787.23</ele>
        <time>2022-08-07T09:02:39Z</time>
      </trkpt>
      <trkpt lat="-27.844914011657238" lon="29.634718978777528">
        <ele>1790.1099999999999</ele>
        <time>2022-08-07T09:02:43Z</time>
      </trkpt>
      <trkpt lat="-27.844550991430879" lon="29.634779999032617">
        <ele>1793.48</ele>
        <time>2022-08-07T09:02:47Z</time>
      </trkpt>
      <trkpt lat="-27.844291990622878" lon="29.634822998195887">
        <ele>1794.4400000000001</ele>
        <time>2022-08-07T09:02:49Z</time>
      </trkpt>
      <trkpt lat="-27.843378027901053" lon="29.63498099707067">
        <ele>1797.3199999999999</ele>
        <time>2022-08-07T09:02:57Z</time>
      </trkpt>
      <trkpt lat="-27.842718036845326" lon="29.635120974853635">
        <ele>1797.3199999999999</ele>
        <time>2022-08-07T09:03:07Z</time>
      </trkpt>
      <trkpt lat="-27.842209003865719" lon="29.63528098538518">
        <ele>1795.8800000000001</ele>
        <time>2022-08-07T09:03:18Z</time>
      </trkpt>
      <trkpt lat="-27.841251036152244" lon="29.635664960369468">
        <ele>1793</ele>
        <time>2022-08-07T09:03:27Z</time>
      </trkpt>
      <trkpt lat="-27.840479984879494" lon="29.636076008901">
        <ele>1790.1099999999999</ele>
        <time>2022-08-07T09:03:34Z</time>
      </trkpt>
      <trkpt lat="-27.839870033785701" lon="29.63644296862185">
        <ele>1786.75</ele>
        <time>2022-08-07T09:03:39Z</time>
      </trkpt>
      <trkpt lat="-27.839614972472191" lon="29.636597028002143">
        <ele>1786.27</ele>
        <time>2022-08-07T09:03:41Z</time>
      </trkpt>
      <trkpt lat="-27.838836964219809" lon="29.637065995484591">
        <ele>1783.3800000000001</ele>
        <time>2022-08-07T09:03:47Z</time>
      </trkpt>
      <trkpt lat="-27.837674980983138" lon="29.637764962390065">
        <ele>1781.9400000000001</ele>
        <time>2022-08-07T09:03:57Z</time>
      </trkpt>
      <trkpt lat="-27.836800999939442" lon="29.638214986771345">
        <ele>1779.0599999999999</ele>
        <time>2022-08-07T09:04:03Z</time>
      </trkpt>
      <trkpt lat="-27.836035983636975" lon="29.638560991734266">
        <ele>1775.21</ele>
        <time>2022-08-07T09:04:07Z</time>
      </trkpt>
      <trkpt lat="-27.835198966786265" lon="29.638940021395683">
        <ele>1772.3299999999999</ele>
        <time>2022-08-07T09:04:11Z</time>
      </trkpt>
      <trkpt lat="-27.834979025647044" lon="29.63904001750052">
        <ele>1772.3299999999999</ele>
        <time>2022-08-07T09:04:12Z</time>
      </trkpt>
      <trkpt lat="-27.833778988569975" lon="29.639584003016353">
        <ele>1768.96</ele>
        <time>2022-08-07T09:04:19Z</time>
      </trkpt>
      <trkpt lat="-27.83318798057735" lon="29.639981975778937">
        <ele>1765.1199999999999</ele>
        <time>2022-08-07T09:04:24Z</time>
      </trkpt>
      <trkpt lat="-27.832971978932619" lon="29.64013896882534">
        <ele>1764.1600000000001</ele>
        <time>2022-08-07T09:04:26Z</time>
      </trkpt>
      <trkpt lat="-27.832433022558689" lon="29.640539037063718">
        <ele>1764.6400000000001</ele>
        <time>2022-08-07T09:04:33Z</time>
      </trkpt>
      <trkpt lat="-27.831606986001134" lon="29.641158040612936">
        <ele>1766.5599999999999</ele>
        <time>2022-08-07T09:04:40Z</time>
      </trkpt>
      <trkpt lat="-27.831135001033545" lon="29.641523994505405">
        <ele>1769.4400000000001</ele>
        <time>2022-08-07T09:04:45Z</time>
      </trkpt>
      <trkpt lat="-27.830210980027914" lon="29.642296973615885">
        <ele>1770.8900000000001</ele>
        <time>2022-08-07T09:04:52Z</time>
      </trkpt>
      <trkpt lat="-27.829444035887718" lon="29.642938021570444">
        <ele>1774.73</ele>
        <time>2022-08-07T09:04:57Z</time>
      </trkpt>
      <trkpt lat="-27.828812040388584" lon="29.643486030399799">
        <ele>1778.5799999999999</ele>
        <time>2022-08-07T09:05:02Z</time>
      </trkpt>
      <trkpt lat="-27.82781501300633" lon="29.644509041681886">
        <ele>1779.0599999999999</ele>
        <time>2022-08-07T09:05:12Z</time>
      </trkpt>
      <trkpt lat="-27.827670006081462" lon="29.644739963114262">
        <ele>1778.0999999999999</ele>
        <time>2022-08-07T09:05:14Z</time>
      </trkpt>
      <trkpt lat="-27.827285025268793" lon="29.645599024370313">
        <ele>1774.73</ele>
        <time>2022-08-07T09:05:23Z</time>
      </trkpt>
      <trkpt lat="-27.827166002243757" lon="29.645962966606021">
        <ele>1770.8900000000001</ele>
        <time>2022-08-07T09:05:29Z</time>
      </trkpt>
      <trkpt lat="-27.827028958126903" lon="29.64638801291585">
        <ele>1768</ele>
        <time>2022-08-07T09:05:32Z</time>
      </trkpt>
      <trkpt lat="-27.827028958126903" lon="29.64638801291585">
        <ele>1767.52</ele>
        <time>2022-08-07T09:05:33Z</time>
      </trkpt>
      <trkpt lat="-27.826640037819743" lon="29.647585032507777">
        <ele>1769.4400000000001</ele>
        <time>2022-08-07T09:05:42Z</time>
      </trkpt>
      <trkpt lat="-27.826046012341976" lon="29.648434035480022">
        <ele>1770.8900000000001</ele>
        <time>2022-08-07T09:05:50Z</time>
      </trkpt>
      <trkpt lat="-27.825633035972714" lon="29.648791020736098">
        <ele>1775.6900000000001</ele>
        <time>2022-08-07T09:05:54Z</time>
      </trkpt>
      <trkpt lat="-27.825364982709289" lon="29.649022025987506">
        <ele>1780.02</ele>
        <time>2022-08-07T09:05:57Z</time>
      </trkpt>
      <trkpt lat="-27.825275966897607" lon="29.649098971858621">
        <ele>1780.5</ele>
        <time>2022-08-07T09:05:58Z</time>
      </trkpt>
      <trkpt lat="-27.82422998920083" lon="29.649842027574778">
        <ele>1780.5</ele>
        <time>2022-08-07T09:06:09Z</time>
      </trkpt>
      <trkpt lat="-27.823502020910382" lon="29.650095999240875">
        <ele>1779.0599999999999</ele>
        <time>2022-08-07T09:06:18Z</time>
      </trkpt>
      <trkpt lat="-27.823195997625589" lon="29.650145033374429">
        <ele>1776.6500000000001</ele>
        <time>2022-08-07T09:06:26Z</time>
      </trkpt>
    </trkseg>
  </trk>

</gpx>