<?xml version="1.0" encoding="utf-8"?><gpx creator="Garmin Desktop App" version="1.1" xsi:schemaLocation="http://www.topografix.com/GPX/1/1 http://www.topografix.com/GPX/1/1/gpx.xsd http://www.garmin.com/xmlschemas/WaypointExtension/v1 http://www8.garmin.com/xmlschemas/WaypointExtensionv1.xsd http://www.garmin.com/xmlschemas/TrackPointExtension/v1 http://www.garmin.com/xmlschemas/TrackPointExtensionv1.xsd http://www.garmin.com/xmlschemas/GpxExtensions/v3 http://www8.garmin.com/xmlschemas/GpxExtensionsv3.xsd http://www.garmin.com/xmlschemas/ActivityExtension/v1 http://www8.garmin.com/xmlschemas/ActivityExtensionv1.xsd http://www.garmin.com/xmlschemas/AdventuresExtensions/v1 http://www8.garmin.com/xmlschemas/AdventuresExtensionv1.xsd http://www.garmin.com/xmlschemas/PressureExtension/v1 http://www.garmin.com/xmlschemas/PressureExtensionv1.xsd http://www.garmin.com/xmlschemas/TripExtensions/v1 http://www.garmin.com/xmlschemas/TripExtensionsv1.xsd http://www.garmin.com/xmlschemas/TripMetaDataExtensions/v1 http://www.garmin.com/xmlschemas/TripMetaDataExtensionsv1.xsd http://www.garmin.com/xmlschemas/ViaPointTransportationModeExtensions/v1 http://www.garmin.com/xmlschemas/ViaPointTransportationModeExtensionsv1.xsd http://www.garmin.com/xmlschemas/CreationTimeExtension/v1 http://www.garmin.com/xmlschemas/CreationTimeExtensionsv1.xsd http://www.garmin.com/xmlschemas/AccelerationExtension/v1 http://www.garmin.com/xmlschemas/AccelerationExtensionv1.xsd http://www.garmin.com/xmlschemas/PowerExtension/v1 http://www.garmin.com/xmlschemas/PowerExtensionv1.xsd http://www.garmin.com/xmlschemas/VideoExtension/v1 http://www.garmin.com/xmlschemas/VideoExtensionv1.xsd" xmlns="http://www.topografix.com/GPX/1/1" xmlns:xsi="http://www.w3.org/2001/XMLSchema-instance" xmlns:wptx1="http://www.garmin.com/xmlschemas/WaypointExtension/v1" xmlns:gpxtrx="http://www.garmin.com/xmlschemas/GpxExtensions/v3" xmlns:gpxtpx="http://www.garmin.com/xmlschemas/TrackPointExtension/v1" xmlns:gpxx="http://www.garmin.com/xmlschemas/GpxExtensions/v3" xmlns:trp="http://www.garmin.com/xmlschemas/TripExtensions/v1" xmlns:adv="http://www.garmin.com/xmlschemas/AdventuresExtensions/v1" xmlns:prs="http://www.garmin.com/xmlschemas/PressureExtension/v1" xmlns:tmd="http://www.garmin.com/xmlschemas/TripMetaDataExtensions/v1" xmlns:vptm="http://www.garmin.com/xmlschemas/ViaPointTransportationModeExtensions/v1" xmlns:ctx="http://www.garmin.com/xmlschemas/CreationTimeExtension/v1" xmlns:gpxacc="http://www.garmin.com/xmlschemas/AccelerationExtension/v1" xmlns:gpxpx="http://www.garmin.com/xmlschemas/PowerExtension/v1" xmlns:vidx1="http://www.garmin.com/xmlschemas/VideoExtension/v1">

  <metadata>
    <link href="http://www.garmin.com">
      <text>Garmin International</text>
    </link>
    <time>2023-04-15T10:24:37Z</time>
    <bounds maxlat="-28.35982471704483" maxlon="28.964436873793602" minlat="-28.363716183230281" minlon="28.954010540619493" />
  </metadata>

  <trk>
    <name>[341] Mount Paul Pass (Ascend)</name>
    <extensions>
      <gpxx:TrackExtension>
        <gpxx:DisplayColor>Red</gpxx:DisplayColor>
      </gpxx:TrackExtension>
    </extensions>
    <trkseg>
      <trkpt lat="-28.35982471704483" lon="28.964346433058381">
        <ele>1745.8900000000001</ele>
        <time>2023-04-07T08:59:27Z</time>
      </trkpt>
      <trkpt lat="-28.359850952401757" lon="28.964340481907129">
        <ele>1746.3699999999999</ele>
        <time>2023-04-07T08:59:28Z</time>
      </trkpt>
      <trkpt lat="-28.359885485842824" lon="28.964337464421988">
        <ele>1746.8499999999999</ele>
        <time>2023-04-07T08:59:29Z</time>
      </trkpt>
      <trkpt lat="-28.359978692606091" lon="28.964323466643691">
        <ele>1747.3299999999999</ele>
        <time>2023-04-07T08:59:31Z</time>
      </trkpt>
      <trkpt lat="-28.360309107229114" lon="28.964436873793602">
        <ele>1749.74</ele>
        <time>2023-04-07T08:59:40Z</time>
      </trkpt>
      <trkpt lat="-28.360427878797054" lon="28.964379290118814">
        <ele>1749.74</ele>
        <time>2023-04-07T08:59:44Z</time>
      </trkpt>
      <trkpt lat="-28.360522678121924" lon="28.964126575738192">
        <ele>1753.0999999999999</ele>
        <time>2023-04-07T08:59:50Z</time>
      </trkpt>
      <trkpt lat="-28.360776146873832" lon="28.96390906535089">
        <ele>1755.5</ele>
        <time>2023-04-07T08:59:57Z</time>
      </trkpt>
      <trkpt lat="-28.360930709168315" lon="28.963719047605991">
        <ele>1758.3900000000001</ele>
        <time>2023-04-07T09:00:02Z</time>
      </trkpt>
      <trkpt lat="-28.361104466021061" lon="28.963599689304829">
        <ele>1760.79</ele>
        <time>2023-04-07T09:00:06Z</time>
      </trkpt>
      <trkpt lat="-28.361687511205673" lon="28.963235076516867">
        <ele>1766.5599999999999</ele>
        <time>2023-04-07T09:00:19Z</time>
      </trkpt>
      <trkpt lat="-28.361802008002996" lon="28.963184114545584">
        <ele>1769.4400000000001</ele>
        <time>2023-04-07T09:00:27Z</time>
      </trkpt>
      <trkpt lat="-28.361958581954241" lon="28.963142540305853">
        <ele>1769.9200000000001</ele>
        <time>2023-04-07T09:00:33Z</time>
      </trkpt>
      <trkpt lat="-28.362364433705807" lon="28.962901476770639">
        <ele>1777.6099999999999</ele>
        <time>2023-04-07T09:00:45Z</time>
      </trkpt>
      <trkpt lat="-28.362569035962224" lon="28.962852526456118">
        <ele>1780.5</ele>
        <time>2023-04-07T09:00:55Z</time>
      </trkpt>
      <trkpt lat="-28.3630002848804" lon="28.962485902011395">
        <ele>1791.55</ele>
        <time>2023-04-07T09:01:05Z</time>
      </trkpt>
      <trkpt lat="-28.363311588764191" lon="28.962147608399391">
        <ele>1803.0899999999999</ele>
        <time>2023-04-07T09:01:14Z</time>
      </trkpt>
      <trkpt lat="-28.363712662830949" lon="28.961728345602751">
        <ele>1820.3900000000001</ele>
        <time>2023-04-07T09:01:24Z</time>
      </trkpt>
      <trkpt lat="-28.363716183230281" lon="28.96161443553865">
        <ele>1821.3499999999999</ele>
        <time>2023-04-07T09:01:27Z</time>
      </trkpt>
      <trkpt lat="-28.363659186288714" lon="28.961186958476901">
        <ele>1822.3199999999999</ele>
        <time>2023-04-07T09:01:39Z</time>
      </trkpt>
      <trkpt lat="-28.363522896543145" lon="28.960888981819153">
        <ele>1824.24</ele>
        <time>2023-04-07T09:01:44Z</time>
      </trkpt>
      <trkpt lat="-28.363470677286386" lon="28.96062252111733">
        <ele>1826.6400000000001</ele>
        <time>2023-04-07T09:01:47Z</time>
      </trkpt>
      <trkpt lat="-28.363441675901413" lon="28.959887763485312">
        <ele>1841.54</ele>
        <time>2023-04-07T09:01:55Z</time>
      </trkpt>
      <trkpt lat="-28.363409740850329" lon="28.959620296955109">
        <ele>1845.3900000000001</ele>
        <time>2023-04-07T09:02:02Z</time>
      </trkpt>
      <trkpt lat="-28.363322233781219" lon="28.958840779960155">
        <ele>1854.52</ele>
        <time>2023-04-07T09:02:09Z</time>
      </trkpt>
      <trkpt lat="-28.363155433908105" lon="28.95849946886301">
        <ele>1865.5799999999999</ele>
        <time>2023-04-07T09:02:15Z</time>
      </trkpt>
      <trkpt lat="-28.363137328997254" lon="28.958474239334464">
        <ele>1866.54</ele>
        <time>2023-04-07T09:02:16Z</time>
      </trkpt>
      <trkpt lat="-28.362894337624311" lon="28.957938719540834">
        <ele>1876.6300000000001</ele>
        <time>2023-04-07T09:02:25Z</time>
      </trkpt>
      <trkpt lat="-28.362763077020645" lon="28.957687262445688">
        <ele>1880.96</ele>
        <time>2023-04-07T09:02:31Z</time>
      </trkpt>
      <trkpt lat="-28.362607592716813" lon="28.957385178655386">
        <ele>1888.6500000000001</ele>
        <time>2023-04-07T09:02:37Z</time>
      </trkpt>
      <trkpt lat="-28.362437607720494" lon="28.95721435546875">
        <ele>1892.49</ele>
        <time>2023-04-07T09:02:41Z</time>
      </trkpt>
      <trkpt lat="-28.362227138131857" lon="28.956971447914839">
        <ele>1898.26</ele>
        <time>2023-04-07T09:02:46Z</time>
      </trkpt>
      <trkpt lat="-28.361556082963943" lon="28.95640323869884">
        <ele>1907.3900000000001</ele>
        <time>2023-04-07T09:02:58Z</time>
      </trkpt>
      <trkpt lat="-28.361572008579969" lon="28.956098221242428">
        <ele>1914.1199999999999</ele>
        <time>2023-04-07T09:03:04Z</time>
      </trkpt>
      <trkpt lat="-28.361941818147898" lon="28.95504042506218">
        <ele>1947.77</ele>
        <time>2023-04-07T09:03:20Z</time>
      </trkpt>
      <trkpt lat="-28.361962018534541" lon="28.954983092844486">
        <ele>1950.1700000000001</ele>
        <time>2023-04-07T09:03:21Z</time>
      </trkpt>
      <trkpt lat="-28.361841822043061" lon="28.954655360430479">
        <ele>1962.1900000000001</ele>
        <time>2023-04-07T09:03:27Z</time>
      </trkpt>
      <trkpt lat="-28.36115668527782" lon="28.954301308840513">
        <ele>1978.05</ele>
        <time>2023-04-07T09:03:37Z</time>
      </trkpt>
      <trkpt lat="-28.360752845183015" lon="28.954080110415816">
        <ele>1983.3399999999999</ele>
        <time>2023-04-07T09:03:48Z</time>
      </trkpt>
      <trkpt lat="-28.36064069531858" lon="28.954011043533683">
        <ele>1985.26</ele>
        <time>2023-04-07T09:03:56Z</time>
      </trkpt>
      <trkpt lat="-28.360669277608395" lon="28.954010540619493">
        <ele>1981.4100000000001</ele>
        <time>2023-04-07T09:04:31Z</time>
      </trkpt>
    </trkseg>
  </trk>

</gpx>