<?xml version="1.0" encoding="utf-8"?><gpx creator="Garmin Desktop App" version="1.1" xsi:schemaLocation="http://www.topografix.com/GPX/1/1 http://www.topografix.com/GPX/1/1/gpx.xsd http://www.garmin.com/xmlschemas/WaypointExtension/v1 http://www8.garmin.com/xmlschemas/WaypointExtensionv1.xsd http://www.garmin.com/xmlschemas/TrackPointExtension/v1 http://www.garmin.com/xmlschemas/TrackPointExtensionv1.xsd http://www.garmin.com/xmlschemas/GpxExtensions/v3 http://www8.garmin.com/xmlschemas/GpxExtensionsv3.xsd http://www.garmin.com/xmlschemas/ActivityExtension/v1 http://www8.garmin.com/xmlschemas/ActivityExtensionv1.xsd http://www.garmin.com/xmlschemas/AdventuresExtensions/v1 http://www8.garmin.com/xmlschemas/AdventuresExtensionv1.xsd http://www.garmin.com/xmlschemas/PressureExtension/v1 http://www.garmin.com/xmlschemas/PressureExtensionv1.xsd http://www.garmin.com/xmlschemas/TripExtensions/v1 http://www.garmin.com/xmlschemas/TripExtensionsv1.xsd http://www.garmin.com/xmlschemas/TripMetaDataExtensions/v1 http://www.garmin.com/xmlschemas/TripMetaDataExtensionsv1.xsd http://www.garmin.com/xmlschemas/ViaPointTransportationModeExtensions/v1 http://www.garmin.com/xmlschemas/ViaPointTransportationModeExtensionsv1.xsd http://www.garmin.com/xmlschemas/CreationTimeExtension/v1 http://www.garmin.com/xmlschemas/CreationTimeExtensionsv1.xsd http://www.garmin.com/xmlschemas/AccelerationExtension/v1 http://www.garmin.com/xmlschemas/AccelerationExtensionv1.xsd http://www.garmin.com/xmlschemas/PowerExtension/v1 http://www.garmin.com/xmlschemas/PowerExtensionv1.xsd http://www.garmin.com/xmlschemas/VideoExtension/v1 http://www.garmin.com/xmlschemas/VideoExtensionv1.xsd" xmlns="http://www.topografix.com/GPX/1/1" xmlns:xsi="http://www.w3.org/2001/XMLSchema-instance" xmlns:wptx1="http://www.garmin.com/xmlschemas/WaypointExtension/v1" xmlns:gpxtrx="http://www.garmin.com/xmlschemas/GpxExtensions/v3" xmlns:gpxtpx="http://www.garmin.com/xmlschemas/TrackPointExtension/v1" xmlns:gpxx="http://www.garmin.com/xmlschemas/GpxExtensions/v3" xmlns:trp="http://www.garmin.com/xmlschemas/TripExtensions/v1" xmlns:adv="http://www.garmin.com/xmlschemas/AdventuresExtensions/v1" xmlns:prs="http://www.garmin.com/xmlschemas/PressureExtension/v1" xmlns:tmd="http://www.garmin.com/xmlschemas/TripMetaDataExtensions/v1" xmlns:vptm="http://www.garmin.com/xmlschemas/ViaPointTransportationModeExtensions/v1" xmlns:ctx="http://www.garmin.com/xmlschemas/CreationTimeExtension/v1" xmlns:gpxacc="http://www.garmin.com/xmlschemas/AccelerationExtension/v1" xmlns:gpxpx="http://www.garmin.com/xmlschemas/PowerExtension/v1" xmlns:vidx1="http://www.garmin.com/xmlschemas/VideoExtension/v1">

  <metadata>
    <link href="http://www.garmin.com">
      <text>Garmin International</text>
    </link>
    <time>2022-03-25T19:37:00Z</time>
    <bounds maxlat="-33.783701872453094" maxlon="24.882297981530428" minlat="-33.824805803596973" minlon="24.838996566832066" />
  </metadata>

  <trk>
    <name>[9] RocklandHeights</name>
    <extensions>
      <gpxx:TrackExtension>
        <gpxx:DisplayColor>Blue</gpxx:DisplayColor>
      </gpxx:TrackExtension>
    </extensions>
    <trkseg>
      <trkpt lat="-33.783932710066438" lon="24.838996566832066">
        <ele>67.909999999999997</ele>
        <time>2013-12-15T13:18:50Z</time>
      </trkpt>
      <trkpt lat="-33.783944780007005" lon="24.839071584865451">
        <ele>67.909999999999997</ele>
        <time>2013-12-15T13:18:51Z</time>
      </trkpt>
      <trkpt lat="-33.783966572955251" lon="24.839161103591323">
        <ele>67.909999999999997</ele>
        <time>2013-12-15T13:18:52Z</time>
      </trkpt>
      <trkpt lat="-33.784264801070094" lon="24.840308502316475">
        <ele>68.390000000000001</ele>
        <time>2013-12-15T13:19:01Z</time>
      </trkpt>
      <trkpt lat="-33.784507289528847" lon="24.841464785858989">
        <ele>63.100000000000001</ele>
        <time>2013-12-15T13:19:08Z</time>
      </trkpt>
      <trkpt lat="-33.784504188224673" lon="24.841653043404222">
        <ele>61.659999999999997</ele>
        <time>2013-12-15T13:19:09Z</time>
      </trkpt>
      <trkpt lat="-33.784479796886444" lon="24.841844402253628">
        <ele>60.219999999999999</ele>
        <time>2013-12-15T13:19:10Z</time>
      </trkpt>
      <trkpt lat="-33.784437971189618" lon="24.842035509645939">
        <ele>59.259999999999998</ele>
        <time>2013-12-15T13:19:11Z</time>
      </trkpt>
      <trkpt lat="-33.784378040581942" lon="24.842222845181823">
        <ele>57.82</ele>
        <time>2013-12-15T13:19:12Z</time>
      </trkpt>
      <trkpt lat="-33.784299921244383" lon="24.84240397810936">
        <ele>56.369999999999997</ele>
        <time>2013-12-15T13:19:13Z</time>
      </trkpt>
      <trkpt lat="-33.784209648147225" lon="24.842582261189818">
        <ele>54.93</ele>
        <time>2013-12-15T13:19:14Z</time>
      </trkpt>
      <trkpt lat="-33.78376523964107" lon="24.843489266932011">
        <ele>47.719999999999999</ele>
        <time>2013-12-15T13:19:19Z</time>
      </trkpt>
      <trkpt lat="-33.783717295154929" lon="24.843679536134005">
        <ele>46.280000000000001</ele>
        <time>2013-12-15T13:19:20Z</time>
      </trkpt>
      <trkpt lat="-33.783701872453094" lon="24.843871314078569">
        <ele>45.32</ele>
        <time>2013-12-15T13:19:21Z</time>
      </trkpt>
      <trkpt lat="-33.783719139173627" lon="24.844062756747007">
        <ele>43.880000000000003</ele>
        <time>2013-12-15T13:19:22Z</time>
      </trkpt>
      <trkpt lat="-33.783770268782973" lon="24.844250092282891">
        <ele>42.920000000000002</ele>
        <time>2013-12-15T13:19:23Z</time>
      </trkpt>
      <trkpt lat="-33.78385266289115" lon="24.844428543001413">
        <ele>42.439999999999998</ele>
        <time>2013-12-15T13:19:24Z</time>
      </trkpt>
      <trkpt lat="-33.783958442509174" lon="24.844598192721605">
        <ele>42.439999999999998</ele>
        <time>2013-12-15T13:19:25Z</time>
      </trkpt>
      <trkpt lat="-33.784077884629369" lon="24.844761975109577">
        <ele>42.920000000000002</ele>
        <time>2013-12-15T13:19:26Z</time>
      </trkpt>
      <trkpt lat="-33.784702504053712" lon="24.845963101834059">
        <ele>50.609999999999999</ele>
        <time>2013-12-15T13:19:32Z</time>
      </trkpt>
      <trkpt lat="-33.784875171259046" lon="24.847436724230647">
        <ele>60.700000000000003</ele>
        <time>2013-12-15T13:19:38Z</time>
      </trkpt>
      <trkpt lat="-33.784854551777244" lon="24.848187994211912">
        <ele>65.989999999999995</ele>
        <time>2013-12-15T13:19:41Z</time>
      </trkpt>
      <trkpt lat="-33.784877434372902" lon="24.848435930907726">
        <ele>67.430000000000007</ele>
        <time>2013-12-15T13:19:42Z</time>
      </trkpt>
      <trkpt lat="-33.784921523183584" lon="24.84868093393743">
        <ele>69.349999999999994</ele>
        <time>2013-12-15T13:19:43Z</time>
      </trkpt>
      <trkpt lat="-33.78518907353282" lon="24.849822884425521">
        <ele>77.040000000000006</ele>
        <time>2013-12-15T13:19:48Z</time>
      </trkpt>
      <trkpt lat="-33.78519443795085" lon="24.850034192204475">
        <ele>78.480000000000004</ele>
        <time>2013-12-15T13:19:49Z</time>
      </trkpt>
      <trkpt lat="-33.785169208422303" lon="24.850240889936686">
        <ele>79.930000000000007</ele>
        <time>2013-12-15T13:19:50Z</time>
      </trkpt>
      <trkpt lat="-33.785120761021972" lon="24.850442809984088">
        <ele>81.370000000000005</ele>
        <time>2013-12-15T13:19:51Z</time>
      </trkpt>
      <trkpt lat="-33.785063428804278" lon="24.850642299279571">
        <ele>82.810000000000002</ele>
        <time>2013-12-15T13:19:52Z</time>
      </trkpt>
      <trkpt lat="-33.784919930621982" lon="24.851458109915257">
        <ele>88.099999999999994</ele>
        <time>2013-12-15T13:19:56Z</time>
      </trkpt>
      <trkpt lat="-33.784931162372231" lon="24.851652486249804">
        <ele>89.060000000000002</ele>
        <time>2013-12-15T13:19:57Z</time>
      </trkpt>
      <trkpt lat="-33.784971479326487" lon="24.85183990560472">
        <ele>90.5</ele>
        <time>2013-12-15T13:19:58Z</time>
      </trkpt>
      <trkpt lat="-33.785032415762544" lon="24.852020451799035">
        <ele>91.939999999999998</ele>
        <time>2013-12-15T13:19:59Z</time>
      </trkpt>
      <trkpt lat="-33.785099387168884" lon="24.852197896689177">
        <ele>93.390000000000001</ele>
        <time>2013-12-15T13:20:00Z</time>
      </trkpt>
      <trkpt lat="-33.785207010805607" lon="24.852563515305519">
        <ele>95.790000000000006</ele>
        <time>2013-12-15T13:20:02Z</time>
      </trkpt>
      <trkpt lat="-33.785234587267041" lon="24.852756718173623">
        <ele>97.230000000000004</ele>
        <time>2013-12-15T13:20:03Z</time>
      </trkpt>
      <trkpt lat="-33.785239532589912" lon="24.852956542745233">
        <ele>98.670000000000002</ele>
        <time>2013-12-15T13:20:04Z</time>
      </trkpt>
      <trkpt lat="-33.78510307520628" lon="24.854837022721767">
        <ele>109.25</ele>
        <time>2013-12-15T13:20:12Z</time>
      </trkpt>
      <trkpt lat="-33.784818425774574" lon="24.858257425948977">
        <ele>129.43000000000001</ele>
        <time>2013-12-15T13:20:24Z</time>
      </trkpt>
      <trkpt lat="-33.784611644223332" lon="24.860834777355194">
        <ele>147.22</ele>
        <time>2013-12-15T13:20:34Z</time>
      </trkpt>
      <trkpt lat="-33.784668138250709" lon="24.862558096647263">
        <ele>158.27000000000001</ele>
        <time>2013-12-15T13:20:43Z</time>
      </trkpt>
      <trkpt lat="-33.78466771915555" lon="24.863160671666265">
        <ele>161.16</ele>
        <time>2013-12-15T13:20:46Z</time>
      </trkpt>
      <trkpt lat="-33.78463838249445" lon="24.863361502066255">
        <ele>162.12</ele>
        <time>2013-12-15T13:20:47Z</time>
      </trkpt>
      <trkpt lat="-33.784593120217323" lon="24.863556632772088">
        <ele>163.08000000000001</ele>
        <time>2013-12-15T13:20:48Z</time>
      </trkpt>
      <trkpt lat="-33.784534530714154" lon="24.86374631524086">
        <ele>164.03999999999999</ele>
        <time>2013-12-15T13:20:49Z</time>
      </trkpt>
      <trkpt lat="-33.784463033080101" lon="24.863929208368063">
        <ele>165</ele>
        <time>2013-12-15T13:20:50Z</time>
      </trkpt>
      <trkpt lat="-33.784379214048386" lon="24.864102713763714">
        <ele>165.96000000000001</ele>
        <time>2013-12-15T13:20:51Z</time>
      </trkpt>
      <trkpt lat="-33.784285336732864" lon="24.864266663789749">
        <ele>166.93000000000001</ele>
        <time>2013-12-15T13:20:52Z</time>
      </trkpt>
      <trkpt lat="-33.784185340628028" lon="24.864425333216786">
        <ele>167.88999999999999</ele>
        <time>2013-12-15T13:20:53Z</time>
      </trkpt>
      <trkpt lat="-33.784002615138888" lon="24.864750718697906">
        <ele>170.28999999999999</ele>
        <time>2013-12-15T13:20:55Z</time>
      </trkpt>
      <trkpt lat="-33.78393966704607" lon="24.864926151931286">
        <ele>171.72999999999999</ele>
        <time>2013-12-15T13:20:56Z</time>
      </trkpt>
      <trkpt lat="-33.783897422254086" lon="24.865108793601394">
        <ele>172.69</ele>
        <time>2013-12-15T13:20:57Z</time>
      </trkpt>
      <trkpt lat="-33.783872779458761" lon="24.86529822461307">
        <ele>173.66</ele>
        <time>2013-12-15T13:20:58Z</time>
      </trkpt>
      <trkpt lat="-33.783863727003336" lon="24.86548924818635">
        <ele>175.09999999999999</ele>
        <time>2013-12-15T13:20:59Z</time>
      </trkpt>
      <trkpt lat="-33.783872360363603" lon="24.865679433569312">
        <ele>176.53999999999999</ele>
        <time>2013-12-15T13:21:00Z</time>
      </trkpt>
      <trkpt lat="-33.783902199938893" lon="24.865865176543593">
        <ele>177.5</ele>
        <time>2013-12-15T13:21:01Z</time>
      </trkpt>
      <trkpt lat="-33.783952072262764" lon="24.866047063842416">
        <ele>178.46000000000001</ele>
        <time>2013-12-15T13:21:02Z</time>
      </trkpt>
      <trkpt lat="-33.784016110002995" lon="24.86622610129416">
        <ele>178.94</ele>
        <time>2013-12-15T13:21:03Z</time>
      </trkpt>
      <trkpt lat="-33.784089954569936" lon="24.866404049098492">
        <ele>179.90000000000001</ele>
        <time>2013-12-15T13:21:04Z</time>
      </trkpt>
      <trkpt lat="-33.785006683319807" lon="24.868130385875702">
        <ele>179.41999999999999</ele>
        <time>2013-12-15T13:21:14Z</time>
      </trkpt>
      <trkpt lat="-33.78514314070344" lon="24.868251169100404">
        <ele>178.46000000000001</ele>
        <time>2013-12-15T13:21:15Z</time>
      </trkpt>
      <trkpt lat="-33.785290578380227" lon="24.868355020880699">
        <ele>177.02000000000001</ele>
        <time>2013-12-15T13:21:16Z</time>
      </trkpt>
      <trkpt lat="-33.785444302484393" lon="24.868444455787539">
        <ele>175.58000000000001</ele>
        <time>2013-12-15T13:21:17Z</time>
      </trkpt>
      <trkpt lat="-33.785602301359177" lon="24.868515701964498">
        <ele>174.62</ele>
        <time>2013-12-15T13:21:18Z</time>
      </trkpt>
      <trkpt lat="-33.785766251385212" lon="24.868566580116749">
        <ele>173.16999999999999</ele>
        <time>2013-12-15T13:21:19Z</time>
      </trkpt>
      <trkpt lat="-33.785938080400229" lon="24.868600694462657">
        <ele>171.72999999999999</ele>
        <time>2013-12-15T13:21:20Z</time>
      </trkpt>
      <trkpt lat="-33.78611845895648" lon="24.868618547916412">
        <ele>170.77000000000001</ele>
        <time>2013-12-15T13:21:21Z</time>
      </trkpt>
      <trkpt lat="-33.786303531378508" lon="24.868619721382856">
        <ele>169.33000000000001</ele>
        <time>2013-12-15T13:21:22Z</time>
      </trkpt>
      <trkpt lat="-33.78649078309536" lon="24.868597593158484">
        <ele>168.37</ele>
        <time>2013-12-15T13:21:23Z</time>
      </trkpt>
      <trkpt lat="-33.786677364259958" lon="24.868553671985865">
        <ele>166.93000000000001</ele>
        <time>2013-12-15T13:21:24Z</time>
      </trkpt>
      <trkpt lat="-33.786860508844256" lon="24.868494244292378">
        <ele>165.47999999999999</ele>
        <time>2013-12-15T13:21:25Z</time>
      </trkpt>
      <trkpt lat="-33.787038875743747" lon="24.868426099419594">
        <ele>164.03999999999999</ele>
        <time>2013-12-15T13:21:26Z</time>
      </trkpt>
      <trkpt lat="-33.788811983540654" lon="24.867989402264357">
        <ele>150.09999999999999</ele>
        <time>2013-12-15T13:21:36Z</time>
      </trkpt>
      <trkpt lat="-33.789002252742648" lon="24.86802326515317">
        <ele>149.13999999999999</ele>
        <time>2013-12-15T13:21:37Z</time>
      </trkpt>
      <trkpt lat="-33.789192102849483" lon="24.868074897676706">
        <ele>148.18000000000001</ele>
        <time>2013-12-15T13:21:38Z</time>
      </trkpt>
      <trkpt lat="-33.789378767833114" lon="24.868141198530793">
        <ele>147.22</ele>
        <time>2013-12-15T13:21:39Z</time>
      </trkpt>
      <trkpt lat="-33.789564846083522" lon="24.868222922086716">
        <ele>146.25999999999999</ele>
        <time>2013-12-15T13:21:40Z</time>
      </trkpt>
      <trkpt lat="-33.789750756695867" lon="24.868317218497396">
        <ele>145.78</ele>
        <time>2013-12-15T13:21:41Z</time>
      </trkpt>
      <trkpt lat="-33.791868109256029" lon="24.869582382962108">
        <ele>135.68000000000001</ele>
        <time>2013-12-15T13:21:52Z</time>
      </trkpt>
      <trkpt lat="-33.793131094425917" lon="24.87107670865953">
        <ele>129.43000000000001</ele>
        <time>2013-12-15T13:22:00Z</time>
      </trkpt>
      <trkpt lat="-33.794392151758075" lon="24.873524056747556">
        <ele>123.19</ele>
        <time>2013-12-15T13:22:10Z</time>
      </trkpt>
      <trkpt lat="-33.79588027484715" lon="24.876454705372453">
        <ele>114.53</ele>
        <time>2013-12-15T13:22:21Z</time>
      </trkpt>
      <trkpt lat="-33.797051394358277" lon="24.878434929996729">
        <ele>106.36</ele>
        <time>2013-12-15T13:22:30Z</time>
      </trkpt>
      <trkpt lat="-33.798445891588926" lon="24.879897488281131">
        <ele>97.709999999999994</ele>
        <time>2013-12-15T13:22:38Z</time>
      </trkpt>
      <trkpt lat="-33.799900989979506" lon="24.880851013585925">
        <ele>90.980000000000004</ele>
        <time>2013-12-15T13:22:45Z</time>
      </trkpt>
      <trkpt lat="-33.80162850022316" lon="24.881897661834955">
        <ele>84.25</ele>
        <time>2013-12-15T13:22:52Z</time>
      </trkpt>
      <trkpt lat="-33.802976310253143" lon="24.882297981530428">
        <ele>82.329999999999998</ele>
        <time>2013-12-15T13:22:58Z</time>
      </trkpt>
      <trkpt lat="-33.80439218133688" lon="24.882137048989534">
        <ele>78</ele>
        <time>2013-12-15T13:23:04Z</time>
      </trkpt>
      <trkpt lat="-33.805938474833965" lon="24.881343366578221">
        <ele>77.040000000000006</ele>
        <time>2013-12-15T13:23:11Z</time>
      </trkpt>
      <trkpt lat="-33.809796832501888" lon="24.879300529137254">
        <ele>65.989999999999995</ele>
        <time>2013-12-15T13:23:28Z</time>
      </trkpt>
      <trkpt lat="-33.811939917504787" lon="24.878755118697882">
        <ele>62.619999999999997</ele>
        <time>2013-12-15T13:23:37Z</time>
      </trkpt>
      <trkpt lat="-33.815475823357701" lon="24.877970907837152">
        <ele>58.299999999999997</ele>
        <time>2013-12-15T13:23:53Z</time>
      </trkpt>
      <trkpt lat="-33.817668026313186" lon="24.877286357805133">
        <ele>48.68</ele>
        <time>2013-12-15T13:24:04Z</time>
      </trkpt>
      <trkpt lat="-33.819045843556523" lon="24.876812528818846">
        <ele>46.280000000000001</ele>
        <time>2013-12-15T13:24:13Z</time>
      </trkpt>
      <trkpt lat="-33.820559112355113" lon="24.876346411183476">
        <ele>36.189999999999998</ele>
        <time>2013-12-15T13:24:20Z</time>
      </trkpt>
      <trkpt lat="-33.82213281467557" lon="24.875833690166473">
        <ele>24.170000000000002</ele>
        <time>2013-12-15T13:24:29Z</time>
      </trkpt>
      <trkpt lat="-33.823947077617049" lon="24.8752520699054">
        <ele>26.57</ele>
        <time>2013-12-15T13:24:42Z</time>
      </trkpt>
      <trkpt lat="-33.824379416182637" lon="24.875105554237962">
        <ele>28.5</ele>
        <time>2013-12-15T13:24:49Z</time>
      </trkpt>
      <trkpt lat="-33.824805803596973" lon="24.874971192330122">
        <ele>29.460000000000001</ele>
        <time>2013-12-15T13:24:57Z</time>
      </trkpt>
    </trkseg>
  </trk>

</gpx>