<?xml version="1.0" encoding="utf-8"?><gpx creator="Garmin Desktop App" version="1.1" xsi:schemaLocation="http://www.topografix.com/GPX/1/1 http://www.topografix.com/GPX/1/1/gpx.xsd http://www.garmin.com/xmlschemas/WaypointExtension/v1 http://www8.garmin.com/xmlschemas/WaypointExtensionv1.xsd http://www.garmin.com/xmlschemas/TrackPointExtension/v1 http://www.garmin.com/xmlschemas/TrackPointExtensionv1.xsd http://www.garmin.com/xmlschemas/GpxExtensions/v3 http://www8.garmin.com/xmlschemas/GpxExtensionsv3.xsd http://www.garmin.com/xmlschemas/ActivityExtension/v1 http://www8.garmin.com/xmlschemas/ActivityExtensionv1.xsd http://www.garmin.com/xmlschemas/AdventuresExtensions/v1 http://www8.garmin.com/xmlschemas/AdventuresExtensionv1.xsd http://www.garmin.com/xmlschemas/PressureExtension/v1 http://www.garmin.com/xmlschemas/PressureExtensionv1.xsd http://www.garmin.com/xmlschemas/TripExtensions/v1 http://www.garmin.com/xmlschemas/TripExtensionsv1.xsd http://www.garmin.com/xmlschemas/TripMetaDataExtensions/v1 http://www.garmin.com/xmlschemas/TripMetaDataExtensionsv1.xsd http://www.garmin.com/xmlschemas/ViaPointTransportationModeExtensions/v1 http://www.garmin.com/xmlschemas/ViaPointTransportationModeExtensionsv1.xsd http://www.garmin.com/xmlschemas/CreationTimeExtension/v1 http://www.garmin.com/xmlschemas/CreationTimeExtensionsv1.xsd http://www.garmin.com/xmlschemas/AccelerationExtension/v1 http://www.garmin.com/xmlschemas/AccelerationExtensionv1.xsd http://www.garmin.com/xmlschemas/PowerExtension/v1 http://www.garmin.com/xmlschemas/PowerExtensionv1.xsd http://www.garmin.com/xmlschemas/VideoExtension/v1 http://www.garmin.com/xmlschemas/VideoExtensionv1.xsd" xmlns="http://www.topografix.com/GPX/1/1" xmlns:xsi="http://www.w3.org/2001/XMLSchema-instance" xmlns:wptx1="http://www.garmin.com/xmlschemas/WaypointExtension/v1" xmlns:gpxtrx="http://www.garmin.com/xmlschemas/GpxExtensions/v3" xmlns:gpxtpx="http://www.garmin.com/xmlschemas/TrackPointExtension/v1" xmlns:gpxx="http://www.garmin.com/xmlschemas/GpxExtensions/v3" xmlns:trp="http://www.garmin.com/xmlschemas/TripExtensions/v1" xmlns:adv="http://www.garmin.com/xmlschemas/AdventuresExtensions/v1" xmlns:prs="http://www.garmin.com/xmlschemas/PressureExtension/v1" xmlns:tmd="http://www.garmin.com/xmlschemas/TripMetaDataExtensions/v1" xmlns:vptm="http://www.garmin.com/xmlschemas/ViaPointTransportationModeExtensions/v1" xmlns:ctx="http://www.garmin.com/xmlschemas/CreationTimeExtension/v1" xmlns:gpxacc="http://www.garmin.com/xmlschemas/AccelerationExtension/v1" xmlns:gpxpx="http://www.garmin.com/xmlschemas/PowerExtension/v1" xmlns:vidx1="http://www.garmin.com/xmlschemas/VideoExtension/v1">

  <metadata>
    <link href="http://www.garmin.com">
      <text>Garmin International</text>
    </link>
    <time>2022-07-02T14:15:58Z</time>
    <bounds maxlat="-28.235876066610217" maxlon="27.088485807180405" minlat="-28.271076958626509" minlon="27.069659633561969" />
  </metadata>

  <trk>
    <name>[17] Sand River Heights</name>
    <extensions>
      <gpxx:TrackExtension>
        <gpxx:DisplayColor>Blue</gpxx:DisplayColor>
      </gpxx:TrackExtension>
    </extensions>
    <trkseg>
      <trkpt lat="-28.235876066610217" lon="27.087771249935031">
        <ele>1330.1199999999999</ele>
        <time>2014-09-11T09:26:29Z</time>
      </trkpt>
      <trkpt lat="-28.239128831773996" lon="27.087706038728356">
        <ele>1335.4100000000001</ele>
        <time>2014-09-11T09:26:40Z</time>
      </trkpt>
      <trkpt lat="-28.242516461759806" lon="27.088178023695946">
        <ele>1342.1400000000001</ele>
        <time>2014-09-11T09:26:52Z</time>
      </trkpt>
      <trkpt lat="-28.246605824679136" lon="27.088485807180405">
        <ele>1354.1500000000001</ele>
        <time>2014-09-11T09:27:06Z</time>
      </trkpt>
      <trkpt lat="-28.247987581416965" lon="27.087957244366407">
        <ele>1358.48</ele>
        <time>2014-09-11T09:27:11Z</time>
      </trkpt>
      <trkpt lat="-28.249139841645956" lon="27.0869664195925">
        <ele>1367.1300000000001</ele>
        <time>2014-09-11T09:27:16Z</time>
      </trkpt>
      <trkpt lat="-28.2501563988626" lon="27.085390957072377">
        <ele>1379.6300000000001</ele>
        <time>2014-09-11T09:27:22Z</time>
      </trkpt>
      <trkpt lat="-28.251349059864879" lon="27.083922699093819">
        <ele>1391.6500000000001</ele>
        <time>2014-09-11T09:27:28Z</time>
      </trkpt>
      <trkpt lat="-28.252779515460134" lon="27.082191249355674">
        <ele>1405.0999999999999</ele>
        <time>2014-09-11T09:27:35Z</time>
      </trkpt>
      <trkpt lat="-28.254682878032327" lon="27.07881367765367">
        <ele>1424.8099999999999</ele>
        <time>2014-09-11T09:27:47Z</time>
      </trkpt>
      <trkpt lat="-28.255945947021246" lon="27.077108882367611">
        <ele>1428.6600000000001</ele>
        <time>2014-09-11T09:27:54Z</time>
      </trkpt>
      <trkpt lat="-28.257625512778759" lon="27.075750175863504">
        <ele>1430.0999999999999</ele>
        <time>2014-09-11T09:28:01Z</time>
      </trkpt>
      <trkpt lat="-28.259833892807364" lon="27.074710903689265">
        <ele>1432.02</ele>
        <time>2014-09-11T09:28:09Z</time>
      </trkpt>
      <trkpt lat="-28.265458904206753" lon="27.072189040482044">
        <ele>1432.02</ele>
        <time>2014-09-11T09:28:29Z</time>
      </trkpt>
      <trkpt lat="-28.271076958626509" lon="27.069659633561969">
        <ele>1432.02</ele>
        <time>2014-09-11T09:28:49Z</time>
      </trkpt>
    </trkseg>
  </trk>

</gpx>