<?xml version="1.0" encoding="utf-8"?><gpx creator="Garmin Desktop App" version="1.1" xsi:schemaLocation="http://www.topografix.com/GPX/1/1 http://www.topografix.com/GPX/1/1/gpx.xsd http://www.garmin.com/xmlschemas/WaypointExtension/v1 http://www8.garmin.com/xmlschemas/WaypointExtensionv1.xsd http://www.garmin.com/xmlschemas/TrackPointExtension/v1 http://www.garmin.com/xmlschemas/TrackPointExtensionv1.xsd http://www.garmin.com/xmlschemas/GpxExtensions/v3 http://www8.garmin.com/xmlschemas/GpxExtensionsv3.xsd http://www.garmin.com/xmlschemas/ActivityExtension/v1 http://www8.garmin.com/xmlschemas/ActivityExtensionv1.xsd http://www.garmin.com/xmlschemas/AdventuresExtensions/v1 http://www8.garmin.com/xmlschemas/AdventuresExtensionv1.xsd http://www.garmin.com/xmlschemas/PressureExtension/v1 http://www.garmin.com/xmlschemas/PressureExtensionv1.xsd http://www.garmin.com/xmlschemas/TripExtensions/v1 http://www.garmin.com/xmlschemas/TripExtensionsv1.xsd http://www.garmin.com/xmlschemas/TripMetaDataExtensions/v1 http://www.garmin.com/xmlschemas/TripMetaDataExtensionsv1.xsd http://www.garmin.com/xmlschemas/ViaPointTransportationModeExtensions/v1 http://www.garmin.com/xmlschemas/ViaPointTransportationModeExtensionsv1.xsd http://www.garmin.com/xmlschemas/CreationTimeExtension/v1 http://www.garmin.com/xmlschemas/CreationTimeExtensionsv1.xsd http://www.garmin.com/xmlschemas/AccelerationExtension/v1 http://www.garmin.com/xmlschemas/AccelerationExtensionv1.xsd http://www.garmin.com/xmlschemas/PowerExtension/v1 http://www.garmin.com/xmlschemas/PowerExtensionv1.xsd http://www.garmin.com/xmlschemas/VideoExtension/v1 http://www.garmin.com/xmlschemas/VideoExtensionv1.xsd" xmlns="http://www.topografix.com/GPX/1/1" xmlns:xsi="http://www.w3.org/2001/XMLSchema-instance" xmlns:wptx1="http://www.garmin.com/xmlschemas/WaypointExtension/v1" xmlns:gpxtrx="http://www.garmin.com/xmlschemas/GpxExtensions/v3" xmlns:gpxtpx="http://www.garmin.com/xmlschemas/TrackPointExtension/v1" xmlns:gpxx="http://www.garmin.com/xmlschemas/GpxExtensions/v3" xmlns:trp="http://www.garmin.com/xmlschemas/TripExtensions/v1" xmlns:adv="http://www.garmin.com/xmlschemas/AdventuresExtensions/v1" xmlns:prs="http://www.garmin.com/xmlschemas/PressureExtension/v1" xmlns:tmd="http://www.garmin.com/xmlschemas/TripMetaDataExtensions/v1" xmlns:vptm="http://www.garmin.com/xmlschemas/ViaPointTransportationModeExtensions/v1" xmlns:ctx="http://www.garmin.com/xmlschemas/CreationTimeExtension/v1" xmlns:gpxacc="http://www.garmin.com/xmlschemas/AccelerationExtension/v1" xmlns:gpxpx="http://www.garmin.com/xmlschemas/PowerExtension/v1" xmlns:vidx1="http://www.garmin.com/xmlschemas/VideoExtension/v1">

  <metadata>
    <link href="http://www.garmin.com">
      <text>Garmin International</text>
    </link>
    <time>2022-07-02T14:22:09Z</time>
    <bounds maxlat="-25.098585030063987" maxlon="30.590763296931982" minlat="-25.131720118224621" minlon="30.481099169701338" />
  </metadata>

  <trk>
    <name>[50] Masjiennek Pass</name>
    <extensions>
      <gpxx:TrackExtension>
        <gpxx:DisplayColor>Blue</gpxx:DisplayColor>
      </gpxx:TrackExtension>
    </extensions>
    <trkseg>
      <trkpt lat="-25.103780385106802" lon="30.481099169701338">
        <ele>1475.76</ele>
        <time>2016-07-14T09:51:08Z</time>
      </trkpt>
      <trkpt lat="-25.103850373998284" lon="30.481733847409487">
        <ele>1476.72</ele>
        <time>2016-07-14T09:51:13Z</time>
      </trkpt>
      <trkpt lat="-25.103836040943861" lon="30.481826970353723">
        <ele>1476.72</ele>
        <time>2016-07-14T09:51:14Z</time>
      </trkpt>
      <trkpt lat="-25.103798657655716" lon="30.482005840167403">
        <ele>1477.2</ele>
        <time>2016-07-14T09:51:16Z</time>
      </trkpt>
      <trkpt lat="-25.103816008195281" lon="30.482095442712307">
        <ele>1477.2</ele>
        <time>2016-07-14T09:51:17Z</time>
      </trkpt>
      <trkpt lat="-25.103857582435012" lon="30.48218009993434">
        <ele>1477.6800000000001</ele>
        <time>2016-07-14T09:51:18Z</time>
      </trkpt>
      <trkpt lat="-25.103910304605961" lon="30.482279425486922">
        <ele>1478.1600000000001</ele>
        <time>2016-07-14T09:51:19Z</time>
      </trkpt>
      <trkpt lat="-25.103956656530499" lon="30.482423510402441">
        <ele>1478.6500000000001</ele>
        <time>2016-07-14T09:51:20Z</time>
      </trkpt>
      <trkpt lat="-25.103983310982585" lon="30.482562398537993">
        <ele>1478.6500000000001</ele>
        <time>2016-07-14T09:51:21Z</time>
      </trkpt>
      <trkpt lat="-25.104012647643685" lon="30.482749063521624">
        <ele>1479.1300000000001</ele>
        <time>2016-07-14T09:51:22Z</time>
      </trkpt>
      <trkpt lat="-25.104253962635994" lon="30.484371213242412">
        <ele>1486.3399999999999</ele>
        <time>2016-07-14T09:51:30Z</time>
      </trkpt>
      <trkpt lat="-25.104869613423944" lon="30.488304505124688">
        <ele>1515.1800000000001</ele>
        <time>2016-07-14T09:51:47Z</time>
      </trkpt>
      <trkpt lat="-25.105477385222912" lon="30.490069147199392">
        <ele>1528.6300000000001</ele>
        <time>2016-07-14T09:51:55Z</time>
      </trkpt>
      <trkpt lat="-25.106515986844897" lon="30.491973264142871">
        <ele>1544.98</ele>
        <time>2016-07-14T09:52:05Z</time>
      </trkpt>
      <trkpt lat="-25.108068231493235" lon="30.493748467415571">
        <ele>1562.76</ele>
        <time>2016-07-14T09:52:16Z</time>
      </trkpt>
      <trkpt lat="-25.109681161120534" lon="30.495410012081265">
        <ele>1579.5799999999999</ele>
        <time>2016-07-14T09:52:26Z</time>
      </trkpt>
      <trkpt lat="-25.109814768657088" lon="30.495617631822824">
        <ele>1581.51</ele>
        <time>2016-07-14T09:52:27Z</time>
      </trkpt>
      <trkpt lat="-25.10991794988513" lon="30.495827933773398">
        <ele>1583.4300000000001</ele>
        <time>2016-07-14T09:52:28Z</time>
      </trkpt>
      <trkpt lat="-25.110000930726528" lon="30.496059358119965">
        <ele>1585.3499999999999</ele>
        <time>2016-07-14T09:52:29Z</time>
      </trkpt>
      <trkpt lat="-25.110057843849063" lon="30.496286256238818">
        <ele>1586.79</ele>
        <time>2016-07-14T09:52:30Z</time>
      </trkpt>
      <trkpt lat="-25.110098663717508" lon="30.496531343087554">
        <ele>1588.72</ele>
        <time>2016-07-14T09:52:31Z</time>
      </trkpt>
      <trkpt lat="-25.110121294856071" lon="30.49676519818604">
        <ele>1590.6400000000001</ele>
        <time>2016-07-14T09:52:32Z</time>
      </trkpt>
      <trkpt lat="-25.110134454444051" lon="30.496994527056813">
        <ele>1592.5599999999999</ele>
        <time>2016-07-14T09:52:33Z</time>
      </trkpt>
      <trkpt lat="-25.110213998705149" lon="30.497687542811036">
        <ele>1597.3699999999999</ele>
        <time>2016-07-14T09:52:36Z</time>
      </trkpt>
      <trkpt lat="-25.110280551016331" lon="30.4978914745152">
        <ele>1599.29</ele>
        <time>2016-07-14T09:52:37Z</time>
      </trkpt>
      <trkpt lat="-25.110384067520499" lon="30.498087611049414">
        <ele>1600.73</ele>
        <time>2016-07-14T09:52:38Z</time>
      </trkpt>
      <trkpt lat="-25.110511556267738" lon="30.498250219970942">
        <ele>1602.6600000000001</ele>
        <time>2016-07-14T09:52:39Z</time>
      </trkpt>
      <trkpt lat="-25.110670225694776" lon="30.498407883569598">
        <ele>1604.0999999999999</ele>
        <time>2016-07-14T09:52:40Z</time>
      </trkpt>
      <trkpt lat="-25.110845323652029" lon="30.498557249084115">
        <ele>1605.54</ele>
        <time>2016-07-14T09:52:41Z</time>
      </trkpt>
      <trkpt lat="-25.111419064924121" lon="30.49911548383534">
        <ele>1611.3099999999999</ele>
        <time>2016-07-14T09:52:45Z</time>
      </trkpt>
      <trkpt lat="-25.11152702383697" lon="30.499306255951524">
        <ele>1612.75</ele>
        <time>2016-07-14T09:52:46Z</time>
      </trkpt>
      <trkpt lat="-25.111594162881374" lon="30.499490993097425">
        <ele>1614.1900000000001</ele>
        <time>2016-07-14T09:52:47Z</time>
      </trkpt>
      <trkpt lat="-25.111638084053993" lon="30.499701295047998">
        <ele>1616.1099999999999</ele>
        <time>2016-07-14T09:52:48Z</time>
      </trkpt>
      <trkpt lat="-25.111650824546814" lon="30.499930791556835">
        <ele>1617.5599999999999</ele>
        <time>2016-07-14T09:52:49Z</time>
      </trkpt>
      <trkpt lat="-25.111629869788885" lon="30.500137573108077">
        <ele>1619</ele>
        <time>2016-07-14T09:52:50Z</time>
      </trkpt>
      <trkpt lat="-25.111575722694397" lon="30.500368745997548">
        <ele>1620.9200000000001</ele>
        <time>2016-07-14T09:52:51Z</time>
      </trkpt>
      <trkpt lat="-25.11150942184031" lon="30.500579467043281">
        <ele>1622.3599999999999</ele>
        <time>2016-07-14T09:52:52Z</time>
      </trkpt>
      <trkpt lat="-25.111281014978886" lon="30.501426123082638">
        <ele>1629.0899999999999</ele>
        <time>2016-07-14T09:52:56Z</time>
      </trkpt>
      <trkpt lat="-25.111276069656014" lon="30.501660313457251">
        <ele>1630.53</ele>
        <time>2016-07-14T09:52:57Z</time>
      </trkpt>
      <trkpt lat="-25.11130222119391" lon="30.50186256878078">
        <ele>1631.98</ele>
        <time>2016-07-14T09:52:58Z</time>
      </trkpt>
      <trkpt lat="-25.111363744363189" lon="30.502078402787447">
        <ele>1633.4200000000001</ele>
        <time>2016-07-14T09:52:59Z</time>
      </trkpt>
      <trkpt lat="-25.111452592536807" lon="30.502265403047204">
        <ele>1634.8599999999999</ele>
        <time>2016-07-14T09:53:00Z</time>
      </trkpt>
      <trkpt lat="-25.111578069627285" lon="30.502456342801452">
        <ele>1636.78</ele>
        <time>2016-07-14T09:53:01Z</time>
      </trkpt>
      <trkpt lat="-25.111710587516427" lon="30.502619370818138">
        <ele>1638.22</ele>
        <time>2016-07-14T09:53:02Z</time>
      </trkpt>
      <trkpt lat="-25.11187101714313" lon="30.502801174297929">
        <ele>1640.1500000000001</ele>
        <time>2016-07-14T09:53:03Z</time>
      </trkpt>
      <trkpt lat="-25.113129392266273" lon="30.504273790866137">
        <ele>1653.5999999999999</ele>
        <time>2016-07-14T09:53:11Z</time>
      </trkpt>
      <trkpt lat="-25.113239614292979" lon="30.504489960148931">
        <ele>1655.53</ele>
        <time>2016-07-14T09:53:12Z</time>
      </trkpt>
      <trkpt lat="-25.11331295594573" lon="30.504698334261775">
        <ele>1656.97</ele>
        <time>2016-07-14T09:53:13Z</time>
      </trkpt>
      <trkpt lat="-25.113360900431871" lon="30.504904193803668">
        <ele>1658.8900000000001</ele>
        <time>2016-07-14T09:53:14Z</time>
      </trkpt>
      <trkpt lat="-25.113386213779449" lon="30.505135785788298">
        <ele>1660.8099999999999</ele>
        <time>2016-07-14T09:53:15Z</time>
      </trkpt>
      <trkpt lat="-25.113380430266261" lon="30.505349272862077">
        <ele>1662.26</ele>
        <time>2016-07-14T09:53:16Z</time>
      </trkpt>
      <trkpt lat="-25.11335008777678" lon="30.505554461851716">
        <ele>1663.7</ele>
        <time>2016-07-14T09:53:17Z</time>
      </trkpt>
      <trkpt lat="-25.113288732245564" lon="30.505782281979918">
        <ele>1665.6199999999999</ele>
        <time>2016-07-14T09:53:18Z</time>
      </trkpt>
      <trkpt lat="-25.113210948184133" lon="30.505989985540509">
        <ele>1667.0599999999999</ele>
        <time>2016-07-14T09:53:19Z</time>
      </trkpt>
      <trkpt lat="-25.11312679387629" lon="30.506190145388246">
        <ele>1668.99</ele>
        <time>2016-07-14T09:53:20Z</time>
      </trkpt>
      <trkpt lat="-25.112580796703696" lon="30.507425051182508">
        <ele>1678.5999999999999</ele>
        <time>2016-07-14T09:53:26Z</time>
      </trkpt>
      <trkpt lat="-25.112446937710047" lon="30.50759076140821">
        <ele>1680.04</ele>
        <time>2016-07-14T09:53:27Z</time>
      </trkpt>
      <trkpt lat="-25.112283071503043" lon="30.507734008133411">
        <ele>1681.48</ele>
        <time>2016-07-14T09:53:28Z</time>
      </trkpt>
      <trkpt lat="-25.11211384087801" lon="30.507834758609533">
        <ele>1682.9300000000001</ele>
        <time>2016-07-14T09:53:29Z</time>
      </trkpt>
      <trkpt lat="-25.111918291077018" lon="30.507906591519713">
        <ele>1684.3699999999999</ele>
        <time>2016-07-14T09:53:30Z</time>
      </trkpt>
      <trkpt lat="-25.111730871722102" lon="30.507936347275972">
        <ele>1685.8099999999999</ele>
        <time>2016-07-14T09:53:31Z</time>
      </trkpt>
      <trkpt lat="-25.111519731581211" lon="30.507930899038911">
        <ele>1687.25</ele>
        <time>2016-07-14T09:53:32Z</time>
      </trkpt>
      <trkpt lat="-25.111318901181221" lon="30.507895862683654">
        <ele>1688.6900000000001</ele>
        <time>2016-07-14T09:53:33Z</time>
      </trkpt>
      <trkpt lat="-25.111119830980897" lon="30.507841715589166">
        <ele>1690.1400000000001</ele>
        <time>2016-07-14T09:53:34Z</time>
      </trkpt>
      <trkpt lat="-25.110897123813629" lon="30.507771978154778">
        <ele>1692.0599999999999</ele>
        <time>2016-07-14T09:53:35Z</time>
      </trkpt>
      <trkpt lat="-25.110272755846381" lon="30.507606854662299">
        <ele>1695.9000000000001</ele>
        <time>2016-07-14T09:53:38Z</time>
      </trkpt>
      <trkpt lat="-25.110076786950231" lon="30.507595036178827">
        <ele>1697.3399999999999</ele>
        <time>2016-07-14T09:53:39Z</time>
      </trkpt>
      <trkpt lat="-25.109893893823028" lon="30.507613308727741">
        <ele>1697.8299999999999</ele>
        <time>2016-07-14T09:53:40Z</time>
      </trkpt>
      <trkpt lat="-25.109704295173287" lon="30.507666114717722">
        <ele>1698.79</ele>
        <time>2016-07-14T09:53:41Z</time>
      </trkpt>
      <trkpt lat="-25.109531125053763" lon="30.507753621786833">
        <ele>1699.27</ele>
        <time>2016-07-14T09:53:42Z</time>
      </trkpt>
      <trkpt lat="-25.109389638528228" lon="30.507859485223889">
        <ele>1699.27</ele>
        <time>2016-07-14T09:53:43Z</time>
      </trkpt>
      <trkpt lat="-25.109252678230405" lon="30.507997116073966">
        <ele>1699.75</ele>
        <time>2016-07-14T09:53:44Z</time>
      </trkpt>
      <trkpt lat="-25.109136002138257" lon="30.508155198767781">
        <ele>1699.75</ele>
        <time>2016-07-14T09:53:45Z</time>
      </trkpt>
      <trkpt lat="-25.109040783718228" lon="30.508340941742063">
        <ele>1700.23</ele>
        <time>2016-07-14T09:53:46Z</time>
      </trkpt>
      <trkpt lat="-25.108976829797029" lon="30.508541017770767">
        <ele>1700.71</ele>
        <time>2016-07-14T09:53:47Z</time>
      </trkpt>
      <trkpt lat="-25.108945062384009" lon="30.508728856220841">
        <ele>1700.71</ele>
        <time>2016-07-14T09:53:48Z</time>
      </trkpt>
      <trkpt lat="-25.108936093747616" lon="30.508955083787441">
        <ele>1701.1900000000001</ele>
        <time>2016-07-14T09:53:49Z</time>
      </trkpt>
      <trkpt lat="-25.108948582783341" lon="30.509166140109301">
        <ele>1701.6700000000001</ele>
        <time>2016-07-14T09:53:50Z</time>
      </trkpt>
      <trkpt lat="-25.108970040455461" lon="30.50937426276505">
        <ele>1702.1500000000001</ele>
        <time>2016-07-14T09:53:51Z</time>
      </trkpt>
      <trkpt lat="-25.109150251373649" lon="30.511490609496832">
        <ele>1705.52</ele>
        <time>2016-07-14T09:54:00Z</time>
      </trkpt>
      <trkpt lat="-25.109127117320895" lon="30.511709293350577">
        <ele>1706.48</ele>
        <time>2016-07-14T09:54:01Z</time>
      </trkpt>
      <trkpt lat="-25.109068527817726" lon="30.511915320530534">
        <ele>1706.96</ele>
        <time>2016-07-14T09:54:02Z</time>
      </trkpt>
      <trkpt lat="-25.108975153416395" lon="30.51210324279964">
        <ele>1708.4000000000001</ele>
        <time>2016-07-14T09:54:03Z</time>
      </trkpt>
      <trkpt lat="-25.108853196725249" lon="30.512267611920834">
        <ele>1709.3599999999999</ele>
        <time>2016-07-14T09:54:04Z</time>
      </trkpt>
      <trkpt lat="-25.108693270012736" lon="30.51241840235889">
        <ele>1710.8</ele>
        <time>2016-07-14T09:54:05Z</time>
      </trkpt>
      <trkpt lat="-25.108527392148972" lon="30.512528624385595">
        <ele>1712.25</ele>
        <time>2016-07-14T09:54:06Z</time>
      </trkpt>
      <trkpt lat="-25.108355730772018" lon="30.512608671560884">
        <ele>1713.21</ele>
        <time>2016-07-14T09:54:07Z</time>
      </trkpt>
      <trkpt lat="-25.108145428821445" lon="30.512675559148192">
        <ele>1714.6500000000001</ele>
        <time>2016-07-14T09:54:08Z</time>
      </trkpt>
      <trkpt lat="-25.107950298115611" lon="30.512720318511128">
        <ele>1716.0899999999999</ele>
        <time>2016-07-14T09:54:09Z</time>
      </trkpt>
      <trkpt lat="-25.107189808040857" lon="30.512914443388581">
        <ele>1721.8599999999999</ele>
        <time>2016-07-14T09:54:13Z</time>
      </trkpt>
      <trkpt lat="-25.107003813609481" lon="30.513006309047341">
        <ele>1723.3</ele>
        <time>2016-07-14T09:54:14Z</time>
      </trkpt>
      <trkpt lat="-25.10685964487493" lon="30.513104209676385">
        <ele>1724.26</ele>
        <time>2016-07-14T09:54:15Z</time>
      </trkpt>
      <trkpt lat="-25.106704914942384" lon="30.51323832012713">
        <ele>1725.7</ele>
        <time>2016-07-14T09:54:16Z</time>
      </trkpt>
      <trkpt lat="-25.106582036241889" lon="30.513373855501413">
        <ele>1726.6700000000001</ele>
        <time>2016-07-14T09:54:17Z</time>
      </trkpt>
      <trkpt lat="-25.10648044757545" lon="30.513511905446649">
        <ele>1727.6300000000001</ele>
        <time>2016-07-14T09:54:18Z</time>
      </trkpt>
      <trkpt lat="-25.106381457298994" lon="30.513687171041965">
        <ele>1729.0699999999999</ele>
        <time>2016-07-14T09:54:19Z</time>
      </trkpt>
      <trkpt lat="-25.106310965493321" lon="30.513857156038284">
        <ele>1730.03</ele>
        <time>2016-07-14T09:54:20Z</time>
      </trkpt>
      <trkpt lat="-25.106261093169451" lon="30.51402747631073">
        <ele>1730.99</ele>
        <time>2016-07-14T09:54:21Z</time>
      </trkpt>
      <trkpt lat="-25.106223961338401" lon="30.514235515147448">
        <ele>1732.4300000000001</ele>
        <time>2016-07-14T09:54:22Z</time>
      </trkpt>
      <trkpt lat="-25.106206191703677" lon="30.514420419931412">
        <ele>1733.3900000000001</ele>
        <time>2016-07-14T09:54:23Z</time>
      </trkpt>
      <trkpt lat="-25.106197642162442" lon="30.514640025794506">
        <ele>1734.8399999999999</ele>
        <time>2016-07-14T09:54:24Z</time>
      </trkpt>
      <trkpt lat="-25.106173837557435" lon="30.517548713833094">
        <ele>1754.0599999999999</ele>
        <time>2016-07-14T09:54:38Z</time>
      </trkpt>
      <trkpt lat="-25.106001505628228" lon="30.52127480506897">
        <ele>1778.5799999999999</ele>
        <time>2016-07-14T09:54:55Z</time>
      </trkpt>
      <trkpt lat="-25.105664804577827" lon="30.525112375617027">
        <ele>1797.8</ele>
        <time>2016-07-14T09:55:11Z</time>
      </trkpt>
      <trkpt lat="-25.105183012783527" lon="30.5272844620049">
        <ele>1814.6300000000001</ele>
        <time>2016-07-14T09:55:20Z</time>
      </trkpt>
      <trkpt lat="-25.104250442236662" lon="30.528648616746068">
        <ele>1825.2</ele>
        <time>2016-07-14T09:55:27Z</time>
      </trkpt>
      <trkpt lat="-25.102207269519567" lon="30.531252538785338">
        <ele>1840.5799999999999</ele>
        <time>2016-07-14T09:55:41Z</time>
      </trkpt>
      <trkpt lat="-25.102122444659472" lon="30.53145345300436">
        <ele>1842.02</ele>
        <time>2016-07-14T09:55:42Z</time>
      </trkpt>
      <trkpt lat="-25.102071398869157" lon="30.531662497669458">
        <ele>1843.47</ele>
        <time>2016-07-14T09:55:43Z</time>
      </trkpt>
      <trkpt lat="-25.102056143805385" lon="30.531875900924206">
        <ele>1844.9100000000001</ele>
        <time>2016-07-14T09:55:44Z</time>
      </trkpt>
      <trkpt lat="-25.102074164897203" lon="30.532089387997985">
        <ele>1846.8299999999999</ele>
        <time>2016-07-14T09:55:45Z</time>
      </trkpt>
      <trkpt lat="-25.102120684459805" lon="30.532301031053066">
        <ele>1848.27</ele>
        <time>2016-07-14T09:55:46Z</time>
      </trkpt>
      <trkpt lat="-25.102195283398032" lon="30.532507644966245">
        <ele>1849.71</ele>
        <time>2016-07-14T09:55:47Z</time>
      </trkpt>
      <trkpt lat="-25.102291256189346" lon="30.532707385718822">
        <ele>1851.6400000000001</ele>
        <time>2016-07-14T09:55:48Z</time>
      </trkpt>
      <trkpt lat="-25.102403657510877" lon="30.532900169491768">
        <ele>1853.0799999999999</ele>
        <time>2016-07-14T09:55:49Z</time>
      </trkpt>
      <trkpt lat="-25.102515975013375" lon="30.533091947436333">
        <ele>1855</ele>
        <time>2016-07-14T09:55:50Z</time>
      </trkpt>
      <trkpt lat="-25.102615552023053" lon="30.53328724578023">
        <ele>1856.4400000000001</ele>
        <time>2016-07-14T09:55:51Z</time>
      </trkpt>
      <trkpt lat="-25.102695431560278" lon="30.533489333465695">
        <ele>1857.4000000000001</ele>
        <time>2016-07-14T09:55:52Z</time>
      </trkpt>
      <trkpt lat="-25.102758044376969" lon="30.533730229362845">
        <ele>1859.3299999999999</ele>
        <time>2016-07-14T09:55:53Z</time>
      </trkpt>
      <trkpt lat="-25.102777238935232" lon="30.533911446109414">
        <ele>1860.77</ele>
        <time>2016-07-14T09:55:54Z</time>
      </trkpt>
      <trkpt lat="-25.102769443765283" lon="30.534131973981857">
        <ele>1861.73</ele>
        <time>2016-07-14T09:55:55Z</time>
      </trkpt>
      <trkpt lat="-25.10272971354425" lon="30.534353340044618">
        <ele>1863.1700000000001</ele>
        <time>2016-07-14T09:55:56Z</time>
      </trkpt>
      <trkpt lat="-25.102665675804019" lon="30.534572610631585">
        <ele>1864.6099999999999</ele>
        <time>2016-07-14T09:55:57Z</time>
      </trkpt>
      <trkpt lat="-25.102584371343255" lon="30.534787438809872">
        <ele>1866.0599999999999</ele>
        <time>2016-07-14T09:55:58Z</time>
      </trkpt>
      <trkpt lat="-25.102497953921556" lon="30.534998746588826">
        <ele>1867.5</ele>
        <time>2016-07-14T09:55:59Z</time>
      </trkpt>
      <trkpt lat="-25.10242871940136" lon="30.535214077681303">
        <ele>1868.9400000000001</ele>
        <time>2016-07-14T09:56:00Z</time>
      </trkpt>
      <trkpt lat="-25.102389492094517" lon="30.535434102639556">
        <ele>1869.9000000000001</ele>
        <time>2016-07-14T09:56:01Z</time>
      </trkpt>
      <trkpt lat="-25.102384546771646" lon="30.535656223073602">
        <ele>1871.3399999999999</ele>
        <time>2016-07-14T09:56:02Z</time>
      </trkpt>
      <trkpt lat="-25.102414470165968" lon="30.535878343507648">
        <ele>1872.3</ele>
        <time>2016-07-14T09:56:03Z</time>
      </trkpt>
      <trkpt lat="-25.102477418258786" lon="30.536096440628171">
        <ele>1873.75</ele>
        <time>2016-07-14T09:56:04Z</time>
      </trkpt>
      <trkpt lat="-25.102567775174975" lon="30.536308838054538">
        <ele>1875.1900000000001</ele>
        <time>2016-07-14T09:56:05Z</time>
      </trkpt>
      <trkpt lat="-25.102678583934903" lon="30.53651662543416">
        <ele>1876.6300000000001</ele>
        <time>2016-07-14T09:56:06Z</time>
      </trkpt>
      <trkpt lat="-25.102802300825715" lon="30.536724580451846">
        <ele>1878.0699999999999</ele>
        <time>2016-07-14T09:56:07Z</time>
      </trkpt>
      <trkpt lat="-25.103986915200949" lon="30.538533730432391">
        <ele>1893.9300000000001</ele>
        <time>2016-07-14T09:56:16Z</time>
      </trkpt>
      <trkpt lat="-25.104159247130156" lon="30.538699356839061">
        <ele>1895.8599999999999</ele>
        <time>2016-07-14T09:56:17Z</time>
      </trkpt>
      <trkpt lat="-25.105546535924077" lon="30.539983799681067">
        <ele>1908.8299999999999</ele>
        <time>2016-07-14T09:56:25Z</time>
      </trkpt>
      <trkpt lat="-25.105662122368813" lon="30.540188988670707">
        <ele>1910.28</ele>
        <time>2016-07-14T09:56:26Z</time>
      </trkpt>
      <trkpt lat="-25.105755496770144" lon="30.540410187095404">
        <ele>1912.2</ele>
        <time>2016-07-14T09:56:27Z</time>
      </trkpt>
      <trkpt lat="-25.105823054909706" lon="30.540640018880367">
        <ele>1913.6400000000001</ele>
        <time>2016-07-14T09:56:28Z</time>
      </trkpt>
      <trkpt lat="-25.105867898091674" lon="30.540882339701056">
        <ele>1915.5599999999999</ele>
        <time>2016-07-14T09:56:29Z</time>
      </trkpt>
      <trkpt lat="-25.105886338278651" lon="30.541132371872663">
        <ele>1917.01</ele>
        <time>2016-07-14T09:56:30Z</time>
      </trkpt>
      <trkpt lat="-25.105877202004194" lon="30.54137947037816">
        <ele>1918.9300000000001</ele>
        <time>2016-07-14T09:56:31Z</time>
      </trkpt>
      <trkpt lat="-25.105840153992176" lon="30.541628412902355">
        <ele>1920.8499999999999</ele>
        <time>2016-07-14T09:56:32Z</time>
      </trkpt>
      <trkpt lat="-25.105775110423565" lon="30.541878025978804">
        <ele>1922.29</ele>
        <time>2016-07-14T09:56:33Z</time>
      </trkpt>
      <trkpt lat="-25.105684502050281" lon="30.542116742581129">
        <ele>1924.22</ele>
        <time>2016-07-14T09:56:34Z</time>
      </trkpt>
      <trkpt lat="-25.105564389377832" lon="30.542353698983788">
        <ele>1926.1400000000001</ele>
        <time>2016-07-14T09:56:35Z</time>
      </trkpt>
      <trkpt lat="-25.105422819033265" lon="30.542588476091623">
        <ele>1928.0599999999999</ele>
        <time>2016-07-14T09:56:36Z</time>
      </trkpt>
      <trkpt lat="-25.1052759680897" lon="30.542816715314984">
        <ele>1929.98</ele>
        <time>2016-07-14T09:56:37Z</time>
      </trkpt>
      <trkpt lat="-25.103811817243695" lon="30.545170102268457">
        <ele>1935.27</ele>
        <time>2016-07-14T09:56:48Z</time>
      </trkpt>
      <trkpt lat="-25.102642709389329" lon="30.546594271436334">
        <ele>1923.25</ele>
        <time>2016-07-14T09:56:56Z</time>
      </trkpt>
      <trkpt lat="-25.101387519389391" lon="30.547344284132123">
        <ele>1913.6400000000001</ele>
        <time>2016-07-14T09:57:03Z</time>
      </trkpt>
      <trkpt lat="-25.101245194673538" lon="30.547449728474021">
        <ele>1912.6800000000001</ele>
        <time>2016-07-14T09:57:04Z</time>
      </trkpt>
      <trkpt lat="-25.101120807230473" lon="30.547562381252646">
        <ele>1911.72</ele>
        <time>2016-07-14T09:57:05Z</time>
      </trkpt>
      <trkpt lat="-25.101026594638824" lon="30.547671932727098">
        <ele>1910.28</ele>
        <time>2016-07-14T09:57:06Z</time>
      </trkpt>
      <trkpt lat="-25.100946631282568" lon="30.547793637961149">
        <ele>1909.3199999999999</ele>
        <time>2016-07-14T09:57:07Z</time>
      </trkpt>
      <trkpt lat="-25.100871194154024" lon="30.547926239669323">
        <ele>1908.3499999999999</ele>
        <time>2016-07-14T09:57:08Z</time>
      </trkpt>
      <trkpt lat="-25.100389905273914" lon="30.548718580976129">
        <ele>1904.03</ele>
        <time>2016-07-14T09:57:13Z</time>
      </trkpt>
      <trkpt lat="-25.100261578336358" lon="30.54886082187295">
        <ele>1903.0699999999999</ele>
        <time>2016-07-14T09:57:14Z</time>
      </trkpt>
      <trkpt lat="-25.100132245570421" lon="30.548977414146066">
        <ele>1902.1099999999999</ele>
        <time>2016-07-14T09:57:15Z</time>
      </trkpt>
      <trkpt lat="-25.099137648940086" lon="30.549779059365392">
        <ele>1895.8599999999999</ele>
        <time>2016-07-14T09:57:22Z</time>
      </trkpt>
      <trkpt lat="-25.099022733047605" lon="30.549922054633498">
        <ele>1894.9000000000001</ele>
        <time>2016-07-14T09:57:23Z</time>
      </trkpt>
      <trkpt lat="-25.098917540162802" lon="30.550077622756362">
        <ele>1893.9300000000001</ele>
        <time>2016-07-14T09:57:24Z</time>
      </trkpt>
      <trkpt lat="-25.098826847970486" lon="30.550241321325302">
        <ele>1892.97</ele>
        <time>2016-07-14T09:57:25Z</time>
      </trkpt>
      <trkpt lat="-25.098744872957468" lon="30.550422873347998">
        <ele>1892.01</ele>
        <time>2016-07-14T09:57:26Z</time>
      </trkpt>
      <trkpt lat="-25.098681421950459" lon="30.550604593008757">
        <ele>1891.05</ele>
        <time>2016-07-14T09:57:27Z</time>
      </trkpt>
      <trkpt lat="-25.09863062761724" lon="30.550802741199732">
        <ele>1890.0899999999999</ele>
        <time>2016-07-14T09:57:28Z</time>
      </trkpt>
      <trkpt lat="-25.098598441109061" lon="30.550996530801058">
        <ele>1889.1300000000001</ele>
        <time>2016-07-14T09:57:29Z</time>
      </trkpt>
      <trkpt lat="-25.098585030063987" lon="30.551196271553636">
        <ele>1888.1700000000001</ele>
        <time>2016-07-14T09:57:30Z</time>
      </trkpt>
      <trkpt lat="-25.098592489957809" lon="30.551404561847448">
        <ele>1887.21</ele>
        <time>2016-07-14T09:57:31Z</time>
      </trkpt>
      <trkpt lat="-25.09861989878118" lon="30.551603715866804">
        <ele>1886.24</ele>
        <time>2016-07-14T09:57:32Z</time>
      </trkpt>
      <trkpt lat="-25.098666083067656" lon="30.551807312294841">
        <ele>1885.28</ele>
        <time>2016-07-14T09:57:33Z</time>
      </trkpt>
      <trkpt lat="-25.098726181313396" lon="30.551995569840074">
        <ele>1884.3199999999999</ele>
        <time>2016-07-14T09:57:34Z</time>
      </trkpt>
      <trkpt lat="-25.098806312307715" lon="30.552185503765941">
        <ele>1883.3599999999999</ele>
        <time>2016-07-14T09:57:35Z</time>
      </trkpt>
      <trkpt lat="-25.098903961479664" lon="30.552369402721524">
        <ele>1882.4000000000001</ele>
        <time>2016-07-14T09:57:36Z</time>
      </trkpt>
      <trkpt lat="-25.099018961191177" lon="30.552544919773936">
        <ele>1881.4400000000001</ele>
        <time>2016-07-14T09:57:37Z</time>
      </trkpt>
      <trkpt lat="-25.099154831841588" lon="30.552711552008986">
        <ele>1880.96</ele>
        <time>2016-07-14T09:57:38Z</time>
      </trkpt>
      <trkpt lat="-25.099304867908359" lon="30.552860414609313">
        <ele>1880.48</ele>
        <time>2016-07-14T09:57:39Z</time>
      </trkpt>
      <trkpt lat="-25.099477032199502" lon="30.553004080429673">
        <ele>1880.48</ele>
        <time>2016-07-14T09:57:40Z</time>
      </trkpt>
      <trkpt lat="-25.099659003317356" lon="30.553143639117479">
        <ele>1880.48</ele>
        <time>2016-07-14T09:57:41Z</time>
      </trkpt>
      <trkpt lat="-25.101578291505575" lon="30.554822534322739">
        <ele>1893.9300000000001</ele>
        <time>2016-07-14T09:57:52Z</time>
      </trkpt>
      <trkpt lat="-25.102834487333894" lon="30.556420711800456">
        <ele>1908.8299999999999</ele>
        <time>2016-07-14T09:58:00Z</time>
      </trkpt>
      <trkpt lat="-25.103841908276081" lon="30.557997180148959">
        <ele>1922.29</ele>
        <time>2016-07-14T09:58:09Z</time>
      </trkpt>
      <trkpt lat="-25.104127898812294" lon="30.558525072410703">
        <ele>1927.0999999999999</ele>
        <time>2016-07-14T09:58:14Z</time>
      </trkpt>
      <trkpt lat="-25.104369968175888" lon="30.559331579133868">
        <ele>1933.8299999999999</ele>
        <time>2016-07-14T09:58:21Z</time>
      </trkpt>
      <trkpt lat="-25.104328477755189" lon="30.560346376150846">
        <ele>1941.04</ele>
        <time>2016-07-14T09:58:26Z</time>
      </trkpt>
      <trkpt lat="-25.104265697300434" lon="30.560573525726795">
        <ele>1942.48</ele>
        <time>2016-07-14T09:58:27Z</time>
      </trkpt>
      <trkpt lat="-25.104182632640004" lon="30.560805201530457">
        <ele>1943.9200000000001</ele>
        <time>2016-07-14T09:58:28Z</time>
      </trkpt>
      <trkpt lat="-25.104081127792597" lon="30.561029836535454">
        <ele>1945.8499999999999</ele>
        <time>2016-07-14T09:58:29Z</time>
      </trkpt>
      <trkpt lat="-25.1039600931108" lon="30.561253549531102">
        <ele>1947.77</ele>
        <time>2016-07-14T09:58:30Z</time>
      </trkpt>
      <trkpt lat="-25.103834280744195" lon="30.56146988645196">
        <ele>1949.21</ele>
        <time>2016-07-14T09:58:31Z</time>
      </trkpt>
      <trkpt lat="-25.103219887241721" lon="30.562619548290968">
        <ele>1955.46</ele>
        <time>2016-07-14T09:58:37Z</time>
      </trkpt>
      <trkpt lat="-25.103166494518518" lon="30.562814343720675">
        <ele>1956.4200000000001</ele>
        <time>2016-07-14T09:58:38Z</time>
      </trkpt>
      <trkpt lat="-25.103139420971274" lon="30.563012072816491">
        <ele>1957.3800000000001</ele>
        <time>2016-07-14T09:58:39Z</time>
      </trkpt>
      <trkpt lat="-25.103136990219355" lon="30.563208712264895">
        <ele>1958.3399999999999</ele>
        <time>2016-07-14T09:58:40Z</time>
      </trkpt>
      <trkpt lat="-25.103155765682459" lon="30.563402669504285">
        <ele>1959.3</ele>
        <time>2016-07-14T09:58:41Z</time>
      </trkpt>
      <trkpt lat="-25.10319490917027" lon="30.56359201669693">
        <ele>1960.75</ele>
        <time>2016-07-14T09:58:42Z</time>
      </trkpt>
      <trkpt lat="-25.103253833949566" lon="30.563774239271879">
        <ele>1961.71</ele>
        <time>2016-07-14T09:58:43Z</time>
      </trkpt>
      <trkpt lat="-25.103328600525856" lon="30.563949923962355">
        <ele>1963.1500000000001</ele>
        <time>2016-07-14T09:58:44Z</time>
      </trkpt>
      <trkpt lat="-25.103408815339208" lon="30.56412317790091">
        <ele>1964.1099999999999</ele>
        <time>2016-07-14T09:58:45Z</time>
      </trkpt>
      <trkpt lat="-25.104015078395605" lon="30.565742058679461">
        <ele>1977.0899999999999</ele>
        <time>2016-07-14T09:58:54Z</time>
      </trkpt>
      <trkpt lat="-25.104272486642003" lon="30.566984424367547">
        <ele>1987.1800000000001</ele>
        <time>2016-07-14T09:59:02Z</time>
      </trkpt>
      <trkpt lat="-25.104382373392582" lon="30.568191250786185">
        <ele>1995.8299999999999</ele>
        <time>2016-07-14T09:59:11Z</time>
      </trkpt>
      <trkpt lat="-25.103998398408294" lon="30.569211915135384">
        <ele>2004.97</ele>
        <time>2016-07-14T09:59:19Z</time>
      </trkpt>
      <trkpt lat="-25.103768901899457" lon="30.569738131016493">
        <ele>2009.29</ele>
        <time>2016-07-14T09:59:23Z</time>
      </trkpt>
      <trkpt lat="-25.103731518611312" lon="30.569879868999124">
        <ele>2010.25</ele>
        <time>2016-07-14T09:59:24Z</time>
      </trkpt>
      <trkpt lat="-25.103709222748876" lon="30.570024875923991">
        <ele>2011.22</ele>
        <time>2016-07-14T09:59:25Z</time>
      </trkpt>
      <trkpt lat="-25.103702181950212" lon="30.570173319429159">
        <ele>2012.1800000000001</ele>
        <time>2016-07-14T09:59:26Z</time>
      </trkpt>
      <trkpt lat="-25.103712072595954" lon="30.570324948057532">
        <ele>2013.1400000000001</ele>
        <time>2016-07-14T09:59:27Z</time>
      </trkpt>
      <trkpt lat="-25.103737721219659" lon="30.570478672161698">
        <ele>2014.5799999999999</ele>
        <time>2016-07-14T09:59:28Z</time>
      </trkpt>
      <trkpt lat="-25.103777283802629" lon="30.570631390437484">
        <ele>2015.54</ele>
        <time>2016-07-14T09:59:29Z</time>
      </trkpt>
      <trkpt lat="-25.10383109562099" lon="30.570781594142318">
        <ele>2016.98</ele>
        <time>2016-07-14T09:59:30Z</time>
      </trkpt>
      <trkpt lat="-25.103901587426662" lon="30.570930959656835">
        <ele>2018.4300000000001</ele>
        <time>2016-07-14T09:59:31Z</time>
      </trkpt>
      <trkpt lat="-25.103988004848361" lon="30.571084097027779">
        <ele>2019.8699999999999</ele>
        <time>2016-07-14T09:59:32Z</time>
      </trkpt>
      <trkpt lat="-25.104086240753531" lon="30.571245532482862">
        <ele>2021.3099999999999</ele>
        <time>2016-07-14T09:59:33Z</time>
      </trkpt>
      <trkpt lat="-25.10531360283494" lon="30.57329373434186">
        <ele>2036.6900000000001</ele>
        <time>2016-07-14T09:59:44Z</time>
      </trkpt>
      <trkpt lat="-25.106379445642233" lon="30.575088802725077">
        <ele>2049.6700000000001</ele>
        <time>2016-07-14T09:59:52Z</time>
      </trkpt>
      <trkpt lat="-25.10766975581646" lon="30.576812876388431">
        <ele>2065.0500000000002</ele>
        <time>2016-07-14T10:00:01Z</time>
      </trkpt>
      <trkpt lat="-25.107861366122961" lon="30.576947405934334">
        <ele>2066.4899999999998</ele>
        <time>2016-07-14T10:00:02Z</time>
      </trkpt>
      <trkpt lat="-25.108060603961349" lon="30.577067602425814">
        <ele>2067.9299999999998</ele>
        <time>2016-07-14T10:00:03Z</time>
      </trkpt>
      <trkpt lat="-25.108264703303576" lon="30.577174220234156">
        <ele>2069.8600000000001</ele>
        <time>2016-07-14T10:00:04Z</time>
      </trkpt>
      <trkpt lat="-25.108472323045135" lon="30.577263990417123">
        <ele>2071.3000000000002</ele>
        <time>2016-07-14T10:00:05Z</time>
      </trkpt>
      <trkpt lat="-25.10868220590055" lon="30.577336996793747">
        <ele>2073.2199999999998</ele>
        <time>2016-07-14T10:00:06Z</time>
      </trkpt>
      <trkpt lat="-25.108893513679504" lon="30.577394580468535">
        <ele>2074.6599999999999</ele>
        <time>2016-07-14T10:00:07Z</time>
      </trkpt>
      <trkpt lat="-25.109107503667474" lon="30.577437411993742">
        <ele>2076.0999999999999</ele>
        <time>2016-07-14T10:00:08Z</time>
      </trkpt>
      <trkpt lat="-25.109323505312204" lon="30.577467251569033">
        <ele>2078.0300000000002</ele>
        <time>2016-07-14T10:00:09Z</time>
      </trkpt>
      <trkpt lat="-25.112069249153137" lon="30.577611168846488">
        <ele>2083.79</ele>
        <time>2016-07-14T10:00:21Z</time>
      </trkpt>
      <trkpt lat="-25.1152278855443" lon="30.577796241268516">
        <ele>2071.3000000000002</ele>
        <time>2016-07-14T10:00:33Z</time>
      </trkpt>
      <trkpt lat="-25.119656380265951" lon="30.578175438567996">
        <ele>2076.0999999999999</ele>
        <time>2016-07-14T10:00:50Z</time>
      </trkpt>
      <trkpt lat="-25.120792966336012" lon="30.578802740201354">
        <ele>2079.4699999999998</ele>
        <time>2016-07-14T10:00:55Z</time>
      </trkpt>
      <trkpt lat="-25.122133987024426" lon="30.580276027321815">
        <ele>2088.1199999999999</ele>
        <time>2016-07-14T10:01:02Z</time>
      </trkpt>
      <trkpt lat="-25.124860368669033" lon="30.58333408087492">
        <ele>2105.4200000000001</ele>
        <time>2016-07-14T10:01:16Z</time>
      </trkpt>
      <trkpt lat="-25.128317149356008" lon="30.587203837931156">
        <ele>2129.9400000000001</ele>
        <time>2016-07-14T10:01:35Z</time>
      </trkpt>
      <trkpt lat="-25.131123661994934" lon="30.590331461280584">
        <ele>2124.1700000000001</ele>
        <time>2016-07-14T10:01:51Z</time>
      </trkpt>
      <trkpt lat="-25.131306136026978" lon="30.590491387993097">
        <ele>2122.73</ele>
        <time>2016-07-14T10:01:52Z</time>
      </trkpt>
      <trkpt lat="-25.131506966426969" lon="30.590636478736997">
        <ele>2121.29</ele>
        <time>2016-07-14T10:01:53Z</time>
      </trkpt>
      <trkpt lat="-25.131720118224621" lon="30.590763296931982">
        <ele>2120.3200000000002</ele>
        <time>2016-07-14T10:01:54Z</time>
      </trkpt>
    </trkseg>
  </trk>

</gpx>