<?xml version="1.0" encoding="utf-8"?><gpx creator="Garmin Desktop App" version="1.1" xsi:schemaLocation="http://www.topografix.com/GPX/1/1 http://www.topografix.com/GPX/1/1/gpx.xsd http://www.garmin.com/xmlschemas/WaypointExtension/v1 http://www8.garmin.com/xmlschemas/WaypointExtensionv1.xsd http://www.garmin.com/xmlschemas/TrackPointExtension/v1 http://www.garmin.com/xmlschemas/TrackPointExtensionv1.xsd http://www.garmin.com/xmlschemas/GpxExtensions/v3 http://www8.garmin.com/xmlschemas/GpxExtensionsv3.xsd http://www.garmin.com/xmlschemas/ActivityExtension/v1 http://www8.garmin.com/xmlschemas/ActivityExtensionv1.xsd http://www.garmin.com/xmlschemas/AdventuresExtensions/v1 http://www8.garmin.com/xmlschemas/AdventuresExtensionv1.xsd http://www.garmin.com/xmlschemas/PressureExtension/v1 http://www.garmin.com/xmlschemas/PressureExtensionv1.xsd http://www.garmin.com/xmlschemas/TripExtensions/v1 http://www.garmin.com/xmlschemas/TripExtensionsv1.xsd http://www.garmin.com/xmlschemas/TripMetaDataExtensions/v1 http://www.garmin.com/xmlschemas/TripMetaDataExtensionsv1.xsd http://www.garmin.com/xmlschemas/ViaPointTransportationModeExtensions/v1 http://www.garmin.com/xmlschemas/ViaPointTransportationModeExtensionsv1.xsd http://www.garmin.com/xmlschemas/CreationTimeExtension/v1 http://www.garmin.com/xmlschemas/CreationTimeExtensionsv1.xsd http://www.garmin.com/xmlschemas/AccelerationExtension/v1 http://www.garmin.com/xmlschemas/AccelerationExtensionv1.xsd http://www.garmin.com/xmlschemas/PowerExtension/v1 http://www.garmin.com/xmlschemas/PowerExtensionv1.xsd http://www.garmin.com/xmlschemas/VideoExtension/v1 http://www.garmin.com/xmlschemas/VideoExtensionv1.xsd" xmlns="http://www.topografix.com/GPX/1/1" xmlns:xsi="http://www.w3.org/2001/XMLSchema-instance" xmlns:wptx1="http://www.garmin.com/xmlschemas/WaypointExtension/v1" xmlns:gpxtrx="http://www.garmin.com/xmlschemas/GpxExtensions/v3" xmlns:gpxtpx="http://www.garmin.com/xmlschemas/TrackPointExtension/v1" xmlns:gpxx="http://www.garmin.com/xmlschemas/GpxExtensions/v3" xmlns:trp="http://www.garmin.com/xmlschemas/TripExtensions/v1" xmlns:adv="http://www.garmin.com/xmlschemas/AdventuresExtensions/v1" xmlns:prs="http://www.garmin.com/xmlschemas/PressureExtension/v1" xmlns:tmd="http://www.garmin.com/xmlschemas/TripMetaDataExtensions/v1" xmlns:vptm="http://www.garmin.com/xmlschemas/ViaPointTransportationModeExtensions/v1" xmlns:ctx="http://www.garmin.com/xmlschemas/CreationTimeExtension/v1" xmlns:gpxacc="http://www.garmin.com/xmlschemas/AccelerationExtension/v1" xmlns:gpxpx="http://www.garmin.com/xmlschemas/PowerExtension/v1" xmlns:vidx1="http://www.garmin.com/xmlschemas/VideoExtension/v1">

  <metadata>
    <link href="http://www.garmin.com">
      <text>Garmin International</text>
    </link>
    <time>2022-07-02T18:58:53Z</time>
    <bounds maxlat="-28.608529279008508" maxlon="27.9976936429739" minlat="-28.662552488967776" minlon="27.968463683500886" />
  </metadata>

  <trk>
    <name>[58] Langersnek Pass</name>
    <extensions>
      <gpxx:TrackExtension>
        <gpxx:DisplayColor>Red</gpxx:DisplayColor>
      </gpxx:TrackExtension>
    </extensions>
    <trkseg>
      <trkpt lat="-28.662552488967776" lon="27.989419782534242">
        <ele>1678.5999999999999</ele>
        <time>2016-11-08T15:53:06Z</time>
      </trkpt>
      <trkpt lat="-28.660586178302765" lon="27.98979596234858">
        <ele>1683.4100000000001</ele>
        <time>2016-11-08T15:53:19Z</time>
      </trkpt>
      <trkpt lat="-28.6590526252985" lon="27.990508172661066">
        <ele>1688.21</ele>
        <time>2016-11-08T15:53:29Z</time>
      </trkpt>
      <trkpt lat="-28.657038789242506" lon="27.991559179499745">
        <ele>1689.1700000000001</ele>
        <time>2016-11-08T15:53:44Z</time>
      </trkpt>
      <trkpt lat="-28.656206130981445" lon="27.992145074531436">
        <ele>1689.6500000000001</ele>
        <time>2016-11-08T15:53:53Z</time>
      </trkpt>
      <trkpt lat="-28.655200973153114" lon="27.993298256769776">
        <ele>1689.1700000000001</ele>
        <time>2016-11-08T15:54:06Z</time>
      </trkpt>
      <trkpt lat="-28.654065644368529" lon="27.994647240266204">
        <ele>1691.5799999999999</ele>
        <time>2016-11-08T15:54:18Z</time>
      </trkpt>
      <trkpt lat="-28.653819048777223" lon="27.994887214154005">
        <ele>1692.0599999999999</ele>
        <time>2016-11-08T15:54:21Z</time>
      </trkpt>
      <trkpt lat="-28.653734056279063" lon="27.994939601048827">
        <ele>1691.5799999999999</ele>
        <time>2016-11-08T15:54:22Z</time>
      </trkpt>
      <trkpt lat="-28.653637580573559" lon="27.994984360411763">
        <ele>1691.0999999999999</ele>
        <time>2016-11-08T15:54:23Z</time>
      </trkpt>
      <trkpt lat="-28.653533896431327" lon="27.995018810033798">
        <ele>1690.6199999999999</ele>
        <time>2016-11-08T15:54:24Z</time>
      </trkpt>
      <trkpt lat="-28.653420405462384" lon="27.995046805590391">
        <ele>1689.6500000000001</ele>
        <time>2016-11-08T15:54:25Z</time>
      </trkpt>
      <trkpt lat="-28.65330096334219" lon="27.995069939643145">
        <ele>1688.6900000000001</ele>
        <time>2016-11-08T15:54:26Z</time>
      </trkpt>
      <trkpt lat="-28.651820383965969" lon="27.995395911857486">
        <ele>1689.1700000000001</ele>
        <time>2016-11-08T15:54:37Z</time>
      </trkpt>
      <trkpt lat="-28.650310132652521" lon="27.995964791625738">
        <ele>1699.75</ele>
        <time>2016-11-08T15:54:49Z</time>
      </trkpt>
      <trkpt lat="-28.649192154407501" lon="27.996876407414675">
        <ele>1707.9200000000001</ele>
        <time>2016-11-08T15:54:58Z</time>
      </trkpt>
      <trkpt lat="-28.648293949663639" lon="27.997554838657379">
        <ele>1716.0899999999999</ele>
        <time>2016-11-08T15:55:07Z</time>
      </trkpt>
      <trkpt lat="-28.648182973265648" lon="27.997601358219981">
        <ele>1716.5699999999999</ele>
        <time>2016-11-08T15:55:08Z</time>
      </trkpt>
      <trkpt lat="-28.647083686664701" lon="27.9976936429739">
        <ele>1715.1300000000001</ele>
        <time>2016-11-08T15:55:18Z</time>
      </trkpt>
      <trkpt lat="-28.645790442824364" lon="27.997340010479093">
        <ele>1712.25</ele>
        <time>2016-11-08T15:55:28Z</time>
      </trkpt>
      <trkpt lat="-28.64442746154964" lon="27.996551776304841">
        <ele>1715.6099999999999</ele>
        <time>2016-11-08T15:55:38Z</time>
      </trkpt>
      <trkpt lat="-28.643487431108952" lon="27.995959175750613">
        <ele>1725.7</ele>
        <time>2016-11-08T15:55:46Z</time>
      </trkpt>
      <trkpt lat="-28.641844745725393" lon="27.99492652527988">
        <ele>1737.72</ele>
        <time>2016-11-08T15:56:00Z</time>
      </trkpt>
      <trkpt lat="-28.640120252966881" lon="27.993988674134016">
        <ele>1742.53</ele>
        <time>2016-11-08T15:56:13Z</time>
      </trkpt>
      <trkpt lat="-28.638743944466114" lon="27.993745012208819">
        <ele>1746.3699999999999</ele>
        <time>2016-11-08T15:56:21Z</time>
      </trkpt>
      <trkpt lat="-28.636748380959034" lon="27.993569914251566">
        <ele>1753.5799999999999</ele>
        <time>2016-11-08T15:56:32Z</time>
      </trkpt>
      <trkpt lat="-28.634727504104376" lon="27.993322648108006">
        <ele>1750.22</ele>
        <time>2016-11-08T15:56:45Z</time>
      </trkpt>
      <trkpt lat="-28.633490167558193" lon="27.992807663977146">
        <ele>1745.4100000000001</ele>
        <time>2016-11-08T15:56:55Z</time>
      </trkpt>
      <trkpt lat="-28.631679425016046" lon="27.991906609386206">
        <ele>1759.8299999999999</ele>
        <time>2016-11-08T15:57:10Z</time>
      </trkpt>
      <trkpt lat="-28.631103923544288" lon="27.991604274138808">
        <ele>1765.5999999999999</ele>
        <time>2016-11-08T15:57:18Z</time>
      </trkpt>
      <trkpt lat="-28.630255674943328" lon="27.991231782361865">
        <ele>1773.77</ele>
        <time>2016-11-08T15:57:31Z</time>
      </trkpt>
      <trkpt lat="-28.629265269264579" lon="27.99087974242866">
        <ele>1778.0999999999999</ele>
        <time>2016-11-08T15:57:39Z</time>
      </trkpt>
      <trkpt lat="-28.627307843416929" lon="27.99025671556592">
        <ele>1780.98</ele>
        <time>2016-11-08T15:57:53Z</time>
      </trkpt>
      <trkpt lat="-28.626542240381241" lon="27.98981892876327">
        <ele>1781.46</ele>
        <time>2016-11-08T15:58:01Z</time>
      </trkpt>
      <trkpt lat="-28.626231104135513" lon="27.989594209939241">
        <ele>1781.46</ele>
        <time>2016-11-08T15:58:07Z</time>
      </trkpt>
      <trkpt lat="-28.626201264560223" lon="27.989596473053098">
        <ele>1780.98</ele>
        <time>2016-11-08T15:58:08Z</time>
      </trkpt>
      <trkpt lat="-28.625827766954899" lon="27.989250384271145">
        <ele>1780.98</ele>
        <time>2016-11-09T07:48:44Z</time>
      </trkpt>
      <trkpt lat="-28.625189149752259" lon="27.988482769578695">
        <ele>1782.4200000000001</ele>
        <time>2016-11-09T07:48:52Z</time>
      </trkpt>
      <trkpt lat="-28.624164462089539" lon="27.987254066392779">
        <ele>1778.5799999999999</ele>
        <time>2016-11-09T07:49:05Z</time>
      </trkpt>
      <trkpt lat="-28.623317554593086" lon="27.986023770645261">
        <ele>1773.77</ele>
        <time>2016-11-09T07:49:19Z</time>
      </trkpt>
      <trkpt lat="-28.622284736484289" lon="27.984945103526115">
        <ele>1765.5999999999999</ele>
        <time>2016-11-09T07:49:32Z</time>
      </trkpt>
      <trkpt lat="-28.620839444920421" lon="27.983909603208303">
        <ele>1759.8299999999999</ele>
        <time>2016-11-09T07:49:48Z</time>
      </trkpt>
      <trkpt lat="-28.619777457788587" lon="27.983521772548556">
        <ele>1758.3900000000001</ele>
        <time>2016-11-09T07:50:01Z</time>
      </trkpt>
      <trkpt lat="-28.618652438744903" lon="27.982860272750258">
        <ele>1755.5</ele>
        <time>2016-11-09T07:50:15Z</time>
      </trkpt>
      <trkpt lat="-28.617418119683862" lon="27.98192803747952">
        <ele>1751.1800000000001</ele>
        <time>2016-11-09T07:50:32Z</time>
      </trkpt>
      <trkpt lat="-28.616532739251852" lon="27.981223622336984">
        <ele>1748.78</ele>
        <time>2016-11-09T07:50:46Z</time>
      </trkpt>
      <trkpt lat="-28.615877693518996" lon="27.980684414505959">
        <ele>1748.78</ele>
        <time>2016-11-09T07:51:00Z</time>
      </trkpt>
      <trkpt lat="-28.615327253937721" lon="27.980019813403487">
        <ele>1748.29</ele>
        <time>2016-11-09T07:51:10Z</time>
      </trkpt>
      <trkpt lat="-28.614618899300694" lon="27.978899152949452">
        <ele>1744.9300000000001</ele>
        <time>2016-11-09T07:51:25Z</time>
      </trkpt>
      <trkpt lat="-28.614276666194201" lon="27.978319292888045">
        <ele>1741.5699999999999</ele>
        <time>2016-11-09T07:51:37Z</time>
      </trkpt>
      <trkpt lat="-28.613835275173187" lon="27.977557880803943">
        <ele>1742.05</ele>
        <time>2016-11-09T07:51:52Z</time>
      </trkpt>
      <trkpt lat="-28.613805184140801" lon="27.977507589384913">
        <ele>1742.05</ele>
        <time>2016-11-09T07:51:53Z</time>
      </trkpt>
      <trkpt lat="-28.613350130617619" lon="27.976762689650059">
        <ele>1743.49</ele>
        <time>2016-11-09T07:52:07Z</time>
      </trkpt>
      <trkpt lat="-28.612924832850695" lon="27.976052993908525">
        <ele>1744.9300000000001</ele>
        <time>2016-11-09T07:52:18Z</time>
      </trkpt>
      <trkpt lat="-28.612493751570582" lon="27.975273057818413">
        <ele>1746.3699999999999</ele>
        <time>2016-11-09T07:52:30Z</time>
      </trkpt>
      <trkpt lat="-28.61213450320065" lon="27.974511226639152">
        <ele>1744.9300000000001</ele>
        <time>2016-11-09T07:52:42Z</time>
      </trkpt>
      <trkpt lat="-28.611579872667789" lon="27.973203146830201">
        <ele>1738.2</ele>
        <time>2016-11-09T07:52:59Z</time>
      </trkpt>
      <trkpt lat="-28.611335121095181" lon="27.972605684772134">
        <ele>1735.3199999999999</ele>
        <time>2016-11-09T07:53:11Z</time>
      </trkpt>
      <trkpt lat="-28.611151892691851" lon="27.972152726724744">
        <ele>1735.8</ele>
        <time>2016-11-09T07:53:22Z</time>
      </trkpt>
      <trkpt lat="-28.610874451696873" lon="27.971532046794891">
        <ele>1737.24</ele>
        <time>2016-11-09T07:53:34Z</time>
      </trkpt>
      <trkpt lat="-28.610417135059834" lon="27.970461929216981">
        <ele>1739.6400000000001</ele>
        <time>2016-11-09T07:53:50Z</time>
      </trkpt>
      <trkpt lat="-28.610045649111271" lon="27.969717029482126">
        <ele>1740.5999999999999</ele>
        <time>2016-11-09T07:53:57Z</time>
      </trkpt>
      <trkpt lat="-28.609453048557043" lon="27.969037592411041">
        <ele>1743.97</ele>
        <time>2016-11-09T07:54:07Z</time>
      </trkpt>
      <trkpt lat="-28.608529279008508" lon="27.968463683500886">
        <ele>1750.22</ele>
        <time>2016-11-09T07:54:23Z</time>
      </trkpt>
    </trkseg>
  </trk>

</gpx>