<?xml version="1.0" encoding="utf-8"?><gpx creator="Garmin Desktop App" version="1.1" xsi:schemaLocation="http://www.topografix.com/GPX/1/1 http://www.topografix.com/GPX/1/1/gpx.xsd http://www.garmin.com/xmlschemas/WaypointExtension/v1 http://www8.garmin.com/xmlschemas/WaypointExtensionv1.xsd http://www.garmin.com/xmlschemas/TrackPointExtension/v1 http://www.garmin.com/xmlschemas/TrackPointExtensionv1.xsd http://www.garmin.com/xmlschemas/GpxExtensions/v3 http://www8.garmin.com/xmlschemas/GpxExtensionsv3.xsd http://www.garmin.com/xmlschemas/ActivityExtension/v1 http://www8.garmin.com/xmlschemas/ActivityExtensionv1.xsd http://www.garmin.com/xmlschemas/AdventuresExtensions/v1 http://www8.garmin.com/xmlschemas/AdventuresExtensionv1.xsd http://www.garmin.com/xmlschemas/PressureExtension/v1 http://www.garmin.com/xmlschemas/PressureExtensionv1.xsd http://www.garmin.com/xmlschemas/TripExtensions/v1 http://www.garmin.com/xmlschemas/TripExtensionsv1.xsd http://www.garmin.com/xmlschemas/TripMetaDataExtensions/v1 http://www.garmin.com/xmlschemas/TripMetaDataExtensionsv1.xsd http://www.garmin.com/xmlschemas/ViaPointTransportationModeExtensions/v1 http://www.garmin.com/xmlschemas/ViaPointTransportationModeExtensionsv1.xsd http://www.garmin.com/xmlschemas/CreationTimeExtension/v1 http://www.garmin.com/xmlschemas/CreationTimeExtensionsv1.xsd http://www.garmin.com/xmlschemas/AccelerationExtension/v1 http://www.garmin.com/xmlschemas/AccelerationExtensionv1.xsd http://www.garmin.com/xmlschemas/PowerExtension/v1 http://www.garmin.com/xmlschemas/PowerExtensionv1.xsd http://www.garmin.com/xmlschemas/VideoExtension/v1 http://www.garmin.com/xmlschemas/VideoExtensionv1.xsd" xmlns="http://www.topografix.com/GPX/1/1" xmlns:xsi="http://www.w3.org/2001/XMLSchema-instance" xmlns:wptx1="http://www.garmin.com/xmlschemas/WaypointExtension/v1" xmlns:gpxtrx="http://www.garmin.com/xmlschemas/GpxExtensions/v3" xmlns:gpxtpx="http://www.garmin.com/xmlschemas/TrackPointExtension/v1" xmlns:gpxx="http://www.garmin.com/xmlschemas/GpxExtensions/v3" xmlns:trp="http://www.garmin.com/xmlschemas/TripExtensions/v1" xmlns:adv="http://www.garmin.com/xmlschemas/AdventuresExtensions/v1" xmlns:prs="http://www.garmin.com/xmlschemas/PressureExtension/v1" xmlns:tmd="http://www.garmin.com/xmlschemas/TripMetaDataExtensions/v1" xmlns:vptm="http://www.garmin.com/xmlschemas/ViaPointTransportationModeExtensions/v1" xmlns:ctx="http://www.garmin.com/xmlschemas/CreationTimeExtension/v1" xmlns:gpxacc="http://www.garmin.com/xmlschemas/AccelerationExtension/v1" xmlns:gpxpx="http://www.garmin.com/xmlschemas/PowerExtension/v1" xmlns:vidx1="http://www.garmin.com/xmlschemas/VideoExtension/v1">

  <metadata>
    <link href="http://www.garmin.com">
      <text>Garmin International</text>
    </link>
    <time>2022-07-02T18:59:13Z</time>
    <bounds maxlat="-28.780965730547905" maxlon="28.037996515631676" minlat="-28.805419765412807" minlon="28.018850572407246" />
  </metadata>

  <trk>
    <name>[60] Kommandonek</name>
    <extensions>
      <gpxx:TrackExtension>
        <gpxx:DisplayColor>Blue</gpxx:DisplayColor>
      </gpxx:TrackExtension>
    </extensions>
    <trkseg>
      <trkpt lat="-28.805419765412807" lon="28.018850572407246">
        <ele>1646.8800000000001</ele>
        <time>2016-11-09T08:24:36Z</time>
      </trkpt>
      <trkpt lat="-28.80380792543292" lon="28.019825387746096">
        <ele>1648.3199999999999</ele>
        <time>2016-11-09T08:24:45Z</time>
      </trkpt>
      <trkpt lat="-28.802250735461712" lon="28.020436596125364">
        <ele>1655.53</ele>
        <time>2016-11-09T08:24:54Z</time>
      </trkpt>
      <trkpt lat="-28.800997976213694" lon="28.021274618804455">
        <ele>1664.6600000000001</ele>
        <time>2016-11-09T08:25:03Z</time>
      </trkpt>
      <trkpt lat="-28.799214726313949" lon="28.022566186264157">
        <ele>1678.1199999999999</ele>
        <time>2016-11-09T08:25:16Z</time>
      </trkpt>
      <trkpt lat="-28.797951657325029" lon="28.02383872680366">
        <ele>1689.1700000000001</ele>
        <time>2016-11-09T08:25:26Z</time>
      </trkpt>
      <trkpt lat="-28.796745417639613" lon="28.025404466316104">
        <ele>1701.1900000000001</ele>
        <time>2016-11-09T08:25:38Z</time>
      </trkpt>
      <trkpt lat="-28.795650154352188" lon="28.02733825519681">
        <ele>1712.73</ele>
        <time>2016-11-09T08:25:51Z</time>
      </trkpt>
      <trkpt lat="-28.794103609398007" lon="28.02920582704246">
        <ele>1718.49</ele>
        <time>2016-11-09T08:26:04Z</time>
      </trkpt>
      <trkpt lat="-28.791980892419815" lon="28.031613947823644">
        <ele>1718.97</ele>
        <time>2016-11-09T08:26:20Z</time>
      </trkpt>
      <trkpt lat="-28.790553705766797" lon="28.032669397071004">
        <ele>1711.28</ele>
        <time>2016-11-09T08:26:30Z</time>
      </trkpt>
      <trkpt lat="-28.788692923262715" lon="28.033707663416862">
        <ele>1699.27</ele>
        <time>2016-11-09T08:26:40Z</time>
      </trkpt>
      <trkpt lat="-28.786809844896197" lon="28.034751880913973">
        <ele>1692.54</ele>
        <time>2016-11-09T08:26:49Z</time>
      </trkpt>
      <trkpt lat="-28.783509973436594" lon="28.036590535193682">
        <ele>1689.6500000000001</ele>
        <time>2016-11-09T08:27:03Z</time>
      </trkpt>
      <trkpt lat="-28.780965730547905" lon="28.037996515631676">
        <ele>1686.29</ele>
        <time>2016-11-09T08:27:13Z</time>
      </trkpt>
    </trkseg>
  </trk>

</gpx>