<?xml version="1.0" encoding="utf-8"?><gpx creator="Garmin Desktop App" version="1.1" xsi:schemaLocation="http://www.topografix.com/GPX/1/1 http://www.topografix.com/GPX/1/1/gpx.xsd http://www.garmin.com/xmlschemas/WaypointExtension/v1 http://www8.garmin.com/xmlschemas/WaypointExtensionv1.xsd http://www.garmin.com/xmlschemas/TrackPointExtension/v1 http://www.garmin.com/xmlschemas/TrackPointExtensionv1.xsd http://www.garmin.com/xmlschemas/GpxExtensions/v3 http://www8.garmin.com/xmlschemas/GpxExtensionsv3.xsd http://www.garmin.com/xmlschemas/ActivityExtension/v1 http://www8.garmin.com/xmlschemas/ActivityExtensionv1.xsd http://www.garmin.com/xmlschemas/AdventuresExtensions/v1 http://www8.garmin.com/xmlschemas/AdventuresExtensionv1.xsd http://www.garmin.com/xmlschemas/PressureExtension/v1 http://www.garmin.com/xmlschemas/PressureExtensionv1.xsd http://www.garmin.com/xmlschemas/TripExtensions/v1 http://www.garmin.com/xmlschemas/TripExtensionsv1.xsd http://www.garmin.com/xmlschemas/TripMetaDataExtensions/v1 http://www.garmin.com/xmlschemas/TripMetaDataExtensionsv1.xsd http://www.garmin.com/xmlschemas/ViaPointTransportationModeExtensions/v1 http://www.garmin.com/xmlschemas/ViaPointTransportationModeExtensionsv1.xsd http://www.garmin.com/xmlschemas/CreationTimeExtension/v1 http://www.garmin.com/xmlschemas/CreationTimeExtensionsv1.xsd http://www.garmin.com/xmlschemas/AccelerationExtension/v1 http://www.garmin.com/xmlschemas/AccelerationExtensionv1.xsd http://www.garmin.com/xmlschemas/PowerExtension/v1 http://www.garmin.com/xmlschemas/PowerExtensionv1.xsd http://www.garmin.com/xmlschemas/VideoExtension/v1 http://www.garmin.com/xmlschemas/VideoExtensionv1.xsd" xmlns="http://www.topografix.com/GPX/1/1" xmlns:xsi="http://www.w3.org/2001/XMLSchema-instance" xmlns:wptx1="http://www.garmin.com/xmlschemas/WaypointExtension/v1" xmlns:gpxtrx="http://www.garmin.com/xmlschemas/GpxExtensions/v3" xmlns:gpxtpx="http://www.garmin.com/xmlschemas/TrackPointExtension/v1" xmlns:gpxx="http://www.garmin.com/xmlschemas/GpxExtensions/v3" xmlns:trp="http://www.garmin.com/xmlschemas/TripExtensions/v1" xmlns:adv="http://www.garmin.com/xmlschemas/AdventuresExtensions/v1" xmlns:prs="http://www.garmin.com/xmlschemas/PressureExtension/v1" xmlns:tmd="http://www.garmin.com/xmlschemas/TripMetaDataExtensions/v1" xmlns:vptm="http://www.garmin.com/xmlschemas/ViaPointTransportationModeExtensions/v1" xmlns:ctx="http://www.garmin.com/xmlschemas/CreationTimeExtension/v1" xmlns:gpxacc="http://www.garmin.com/xmlschemas/AccelerationExtension/v1" xmlns:gpxpx="http://www.garmin.com/xmlschemas/PowerExtension/v1" xmlns:vidx1="http://www.garmin.com/xmlschemas/VideoExtension/v1">

  <metadata>
    <link href="http://www.garmin.com">
      <text>Garmin International</text>
    </link>
    <time>2022-07-02T19:00:07Z</time>
    <bounds maxlat="-25.618922263383865" maxlon="30.403595482930541" minlat="-25.647747628390789" minlon="30.318024968728423" />
  </metadata>

  <trk>
    <name>[64] Elands Pass</name>
    <extensions>
      <gpxx:TrackExtension>
        <gpxx:DisplayColor>Blue</gpxx:DisplayColor>
      </gpxx:TrackExtension>
    </extensions>
    <trkseg>
      <trkpt lat="-25.628938637673855" lon="30.318024968728423">
        <ele>1482.49</ele>
        <time>2017-04-27T08:33:39Z</time>
      </trkpt>
      <trkpt lat="-25.630281083285809" lon="30.320976488292217">
        <ele>1457.02</ele>
        <time>2017-04-27T08:33:48Z</time>
      </trkpt>
      <trkpt lat="-25.630447128787637" lon="30.321653746068478">
        <ele>1453.1700000000001</ele>
        <time>2017-04-27T08:33:50Z</time>
      </trkpt>
      <trkpt lat="-25.630491720512509" lon="30.322000505402684">
        <ele>1451.25</ele>
        <time>2017-04-27T08:33:51Z</time>
      </trkpt>
      <trkpt lat="-25.63051376491785" lon="30.32236092723906">
        <ele>1449.8099999999999</ele>
        <time>2017-04-27T08:33:52Z</time>
      </trkpt>
      <trkpt lat="-25.630515022203326" lon="30.322712883353233">
        <ele>1448.8399999999999</ele>
        <time>2017-04-27T08:33:53Z</time>
      </trkpt>
      <trkpt lat="-25.630496414378285" lon="30.323064336553216">
        <ele>1448.3599999999999</ele>
        <time>2017-04-27T08:33:54Z</time>
      </trkpt>
      <trkpt lat="-25.630457019433379" lon="30.323420315980911">
        <ele>1448.8399999999999</ele>
        <time>2017-04-27T08:33:55Z</time>
      </trkpt>
      <trkpt lat="-25.630395831540227" lon="30.323771517723799">
        <ele>1449.3199999999999</ele>
        <time>2017-04-27T08:33:56Z</time>
      </trkpt>
      <trkpt lat="-25.630310755223036" lon="30.324123306199908">
        <ele>1450.29</ele>
        <time>2017-04-27T08:33:57Z</time>
      </trkpt>
      <trkpt lat="-25.630207238718867" lon="30.324455145746469">
        <ele>1450.77</ele>
        <time>2017-04-27T08:33:58Z</time>
      </trkpt>
      <trkpt lat="-25.630083857104182" lon="30.32477667555213">
        <ele>1451.25</ele>
        <time>2017-04-27T08:33:59Z</time>
      </trkpt>
      <trkpt lat="-25.629938933998346" lon="30.325089320540428">
        <ele>1451.25</ele>
        <time>2017-04-27T08:34:00Z</time>
      </trkpt>
      <trkpt lat="-25.629774648696184" lon="30.325397355481982">
        <ele>1451.25</ele>
        <time>2017-04-27T08:34:01Z</time>
      </trkpt>
      <trkpt lat="-25.628847358748317" lon="30.32659538090229">
        <ele>1447.4000000000001</ele>
        <time>2017-04-27T08:34:06Z</time>
      </trkpt>
      <trkpt lat="-25.62724138610065" lon="30.327750658616424">
        <ele>1435.3900000000001</ele>
        <time>2017-04-27T08:34:13Z</time>
      </trkpt>
      <trkpt lat="-25.626411410048604" lon="30.328401094302535">
        <ele>1427.21</ele>
        <time>2017-04-27T08:34:17Z</time>
      </trkpt>
      <trkpt lat="-25.62624461017549" lon="30.328592285513878">
        <ele>1424.8099999999999</ele>
        <time>2017-04-27T08:34:18Z</time>
      </trkpt>
      <trkpt lat="-25.62608091160655" lon="30.32881616614759">
        <ele>1422.8900000000001</ele>
        <time>2017-04-27T08:34:19Z</time>
      </trkpt>
      <trkpt lat="-25.625923248007894" lon="30.329072400927544">
        <ele>1420.97</ele>
        <time>2017-04-27T08:34:20Z</time>
      </trkpt>
      <trkpt lat="-25.625774720683694" lon="30.329360403120518">
        <ele>1419.04</ele>
        <time>2017-04-27T08:34:21Z</time>
      </trkpt>
      <trkpt lat="-25.625642286613584" lon="30.329669108614326">
        <ele>1417.5999999999999</ele>
        <time>2017-04-27T08:34:22Z</time>
      </trkpt>
      <trkpt lat="-25.6255360879004" lon="30.329988375306129">
        <ele>1416.1600000000001</ele>
        <time>2017-04-27T08:34:23Z</time>
      </trkpt>
      <trkpt lat="-25.625464087352157" lon="30.330314263701439">
        <ele>1414.72</ele>
        <time>2017-04-27T08:34:24Z</time>
      </trkpt>
      <trkpt lat="-25.625428380444646" lon="30.330645851790905">
        <ele>1413.76</ele>
        <time>2017-04-27T08:34:25Z</time>
      </trkpt>
      <trkpt lat="-25.625427374616265" lon="30.33098473213613">
        <ele>1412.79</ele>
        <time>2017-04-27T08:34:26Z</time>
      </trkpt>
      <trkpt lat="-25.625455034896731" lon="30.33133995719254">
        <ele>1412.3099999999999</ele>
        <time>2017-04-27T08:34:27Z</time>
      </trkpt>
      <trkpt lat="-25.62550188973546" lon="30.331684872508049">
        <ele>1411.3499999999999</ele>
        <time>2017-04-27T08:34:28Z</time>
      </trkpt>
      <trkpt lat="-25.625945627689362" lon="30.334827331826091">
        <ele>1403.1800000000001</ele>
        <time>2017-04-27T08:34:36Z</time>
      </trkpt>
      <trkpt lat="-25.626385342329741" lon="30.337814809754491">
        <ele>1399.3399999999999</ele>
        <time>2017-04-27T08:34:44Z</time>
      </trkpt>
      <trkpt lat="-25.62648793682456" lon="30.338133154436946">
        <ele>1399.3399999999999</ele>
        <time>2017-04-27T08:34:45Z</time>
      </trkpt>
      <trkpt lat="-25.626619197428226" lon="30.338433980941772">
        <ele>1399.3399999999999</ele>
        <time>2017-04-27T08:34:46Z</time>
      </trkpt>
      <trkpt lat="-25.62678063288331" lon="30.338728269562125">
        <ele>1399.3399999999999</ele>
        <time>2017-04-27T08:34:47Z</time>
      </trkpt>
      <trkpt lat="-25.62695455737412" lon="30.338986348360777">
        <ele>1399.3399999999999</ele>
        <time>2017-04-27T08:34:48Z</time>
      </trkpt>
      <trkpt lat="-25.627144575119019" lon="30.339214503765106">
        <ele>1399.3399999999999</ele>
        <time>2017-04-27T08:34:49Z</time>
      </trkpt>
      <trkpt lat="-25.627360995858908" lon="30.339428326115012">
        <ele>1399.3399999999999</ele>
        <time>2017-04-27T08:34:50Z</time>
      </trkpt>
      <trkpt lat="-25.627588899806142" lon="30.339616416022182">
        <ele>1399.3399999999999</ele>
        <time>2017-04-27T08:34:51Z</time>
      </trkpt>
      <trkpt lat="-25.627833567559719" lon="30.339781707152724">
        <ele>1399.3399999999999</ele>
        <time>2017-04-27T08:34:52Z</time>
      </trkpt>
      <trkpt lat="-25.628075636923313" lon="30.339913805946708">
        <ele>1399.3399999999999</ele>
        <time>2017-04-27T08:34:53Z</time>
      </trkpt>
      <trkpt lat="-25.628328435122967" lon="30.340022686868906">
        <ele>1399.3399999999999</ele>
        <time>2017-04-27T08:34:54Z</time>
      </trkpt>
      <trkpt lat="-25.628583580255508" lon="30.340103823691607">
        <ele>1399.3399999999999</ele>
        <time>2017-04-27T08:34:55Z</time>
      </trkpt>
      <trkpt lat="-25.62883579172194" lon="30.340158808976412">
        <ele>1399.3399999999999</ele>
        <time>2017-04-27T08:34:56Z</time>
      </trkpt>
      <trkpt lat="-25.629082471132278" lon="30.340188229456544">
        <ele>1398.8599999999999</ele>
        <time>2017-04-27T08:34:57Z</time>
      </trkpt>
      <trkpt lat="-25.629324121400714" lon="30.340197365731001">
        <ele>1398.3699999999999</ele>
        <time>2017-04-27T08:34:58Z</time>
      </trkpt>
      <trkpt lat="-25.629562167450786" lon="30.340191414579749">
        <ele>1397.8900000000001</ele>
        <time>2017-04-27T08:34:59Z</time>
      </trkpt>
      <trkpt lat="-25.631270818412304" lon="30.340202394872904">
        <ele>1389.72</ele>
        <time>2017-04-27T08:35:07Z</time>
      </trkpt>
      <trkpt lat="-25.632725330069661" lon="30.340812848880887">
        <ele>1381.55</ele>
        <time>2017-04-27T08:35:15Z</time>
      </trkpt>
      <trkpt lat="-25.633823946118355" lon="30.341898389160633">
        <ele>1372.9000000000001</ele>
        <time>2017-04-27T08:35:22Z</time>
      </trkpt>
      <trkpt lat="-25.634648222476244" lon="30.34319113008678">
        <ele>1365.6900000000001</ele>
        <time>2017-04-27T08:35:28Z</time>
      </trkpt>
      <trkpt lat="-25.635314583778381" lon="30.344143230468035">
        <ele>1359.9200000000001</ele>
        <time>2017-04-27T08:35:32Z</time>
      </trkpt>
      <trkpt lat="-25.635502757504582" lon="30.344329224899411">
        <ele>1358.48</ele>
        <time>2017-04-27T08:35:33Z</time>
      </trkpt>
      <trkpt lat="-25.635700151324272" lon="30.344489235430956">
        <ele>1357.52</ele>
        <time>2017-04-27T08:35:34Z</time>
      </trkpt>
      <trkpt lat="-25.635904585942626" lon="30.344624603167176">
        <ele>1356.0799999999999</ele>
        <time>2017-04-27T08:35:35Z</time>
      </trkpt>
      <trkpt lat="-25.636112876236439" lon="30.344737423583865">
        <ele>1355.1199999999999</ele>
        <time>2017-04-27T08:35:36Z</time>
      </trkpt>
      <trkpt lat="-25.636323262006044" lon="30.344833647832274">
        <ele>1353.6700000000001</ele>
        <time>2017-04-27T08:35:37Z</time>
      </trkpt>
      <trkpt lat="-25.636533899232745" lon="30.344915371388197">
        <ele>1352.23</ele>
        <time>2017-04-27T08:35:38Z</time>
      </trkpt>
      <trkpt lat="-25.6367452070117" lon="30.344986114650965">
        <ele>1351.27</ele>
        <time>2017-04-27T08:35:39Z</time>
      </trkpt>
      <trkpt lat="-25.642255721613765" lon="30.346072660759091">
        <ele>1340.7</ele>
        <time>2017-04-27T08:36:05Z</time>
      </trkpt>
      <trkpt lat="-25.64335148781538" lon="30.346631733700633">
        <ele>1329.6400000000001</ele>
        <time>2017-04-27T08:36:10Z</time>
      </trkpt>
      <trkpt lat="-25.644300235435367" lon="30.347820874303579">
        <ele>1312.8199999999999</ele>
        <time>2017-04-27T08:36:16Z</time>
      </trkpt>
      <trkpt lat="-25.644683204591274" lon="30.349308997392654">
        <ele>1300.8</ele>
        <time>2017-04-27T08:36:22Z</time>
      </trkpt>
      <trkpt lat="-25.644766520708799" lon="30.351617960259318">
        <ele>1292.6300000000001</ele>
        <time>2017-04-27T08:36:30Z</time>
      </trkpt>
      <trkpt lat="-25.644810190424323" lon="30.354027505964041">
        <ele>1284.46</ele>
        <time>2017-04-27T08:36:37Z</time>
      </trkpt>
      <trkpt lat="-25.644730310887098" lon="30.356355831027031">
        <ele>1270.52</ele>
        <time>2017-04-27T08:36:44Z</time>
      </trkpt>
      <trkpt lat="-25.644769622012973" lon="30.356671577319503">
        <ele>1269.0799999999999</ele>
        <time>2017-04-27T08:36:45Z</time>
      </trkpt>
      <trkpt lat="-25.644834581762552" lon="30.356981037184596">
        <ele>1267.6400000000001</ele>
        <time>2017-04-27T08:36:46Z</time>
      </trkpt>
      <trkpt lat="-25.644928542897105" lon="30.357290161773562">
        <ele>1266.1900000000001</ele>
        <time>2017-04-27T08:36:47Z</time>
      </trkpt>
      <trkpt lat="-25.645038178190589" lon="30.357558550313115">
        <ele>1264.75</ele>
        <time>2017-04-27T08:36:48Z</time>
      </trkpt>
      <trkpt lat="-25.64517505466938" lon="30.357830207794905">
        <ele>1263.3099999999999</ele>
        <time>2017-04-27T08:36:49Z</time>
      </trkpt>
      <trkpt lat="-25.645328527316451" lon="30.358076887205243">
        <ele>1262.3499999999999</ele>
        <time>2017-04-27T08:36:50Z</time>
      </trkpt>
      <trkpt lat="-25.645501781255007" lon="30.358306635171175">
        <ele>1260.4300000000001</ele>
        <time>2017-04-27T08:36:51Z</time>
      </trkpt>
      <trkpt lat="-25.645695487037301" lon="30.358521714806557">
        <ele>1258.98</ele>
        <time>2017-04-27T08:36:52Z</time>
      </trkpt>
      <trkpt lat="-25.645904950797558" lon="30.358720365911722">
        <ele>1258.02</ele>
        <time>2017-04-27T08:36:53Z</time>
      </trkpt>
      <trkpt lat="-25.64612883143127" lon="30.358915077522397">
        <ele>1256.0999999999999</ele>
        <time>2017-04-27T08:36:54Z</time>
      </trkpt>
      <trkpt lat="-25.647125104442239" lon="30.359912356361747">
        <ele>1249.8499999999999</ele>
        <time>2017-04-27T08:36:59Z</time>
      </trkpt>
      <trkpt lat="-25.6472790800035" lon="30.360156269744039">
        <ele>1248.8900000000001</ele>
        <time>2017-04-27T08:37:00Z</time>
      </trkpt>
      <trkpt lat="-25.647414699196815" lon="30.360414851456881">
        <ele>1247.45</ele>
        <time>2017-04-27T08:37:01Z</time>
      </trkpt>
      <trkpt lat="-25.647528022527695" lon="30.360688101500273">
        <ele>1246.01</ele>
        <time>2017-04-27T08:37:02Z</time>
      </trkpt>
      <trkpt lat="-25.647619804367423" lon="30.360975936055183">
        <ele>1245.04</ele>
        <time>2017-04-27T08:37:03Z</time>
      </trkpt>
      <trkpt lat="-25.647689709439874" lon="30.36128749139607">
        <ele>1243.5999999999999</ele>
        <time>2017-04-27T08:37:04Z</time>
      </trkpt>
      <trkpt lat="-25.647733295336366" lon="30.361605333164334">
        <ele>1242.6400000000001</ele>
        <time>2017-04-27T08:37:05Z</time>
      </trkpt>
      <trkpt lat="-25.647747628390789" lon="30.361937088891864">
        <ele>1241.6800000000001</ele>
        <time>2017-04-27T08:37:06Z</time>
      </trkpt>
      <trkpt lat="-25.647734133526683" lon="30.362280327826738">
        <ele>1241.2</ele>
        <time>2017-04-27T08:37:07Z</time>
      </trkpt>
      <trkpt lat="-25.647693900391459" lon="30.362632870674133">
        <ele>1240.24</ele>
        <time>2017-04-27T08:37:08Z</time>
      </trkpt>
      <trkpt lat="-25.647636316716671" lon="30.362993208691478">
        <ele>1239.76</ele>
        <time>2017-04-27T08:37:09Z</time>
      </trkpt>
      <trkpt lat="-25.646993005648255" lon="30.365828135982156">
        <ele>1236.8699999999999</ele>
        <time>2017-04-27T08:37:17Z</time>
      </trkpt>
      <trkpt lat="-25.645952811464667" lon="30.367620270699263">
        <ele>1237.8299999999999</ele>
        <time>2017-04-27T08:37:23Z</time>
      </trkpt>
      <trkpt lat="-25.645062737166882" lon="30.369372675195336">
        <ele>1241.2</ele>
        <time>2017-04-27T08:37:29Z</time>
      </trkpt>
      <trkpt lat="-25.644850926473737" lon="30.370826683938503">
        <ele>1237.8299999999999</ele>
        <time>2017-04-27T08:37:34Z</time>
      </trkpt>
      <trkpt lat="-25.645012697204947" lon="30.372307011857629">
        <ele>1231.1099999999999</ele>
        <time>2017-04-27T08:37:40Z</time>
      </trkpt>
      <trkpt lat="-25.645404467359185" lon="30.373784741386771">
        <ele>1225.3399999999999</ele>
        <time>2017-04-27T08:37:45Z</time>
      </trkpt>
      <trkpt lat="-25.646503334864974" lon="30.376117341220379">
        <ele>1221.49</ele>
        <time>2017-04-27T08:37:52Z</time>
      </trkpt>
      <trkpt lat="-25.647442108020186" lon="30.378078538924456">
        <ele>1218.1300000000001</ele>
        <time>2017-04-27T08:37:58Z</time>
      </trkpt>
      <trkpt lat="-25.647538164630532" lon="30.378405181691051">
        <ele>1217.6500000000001</ele>
        <time>2017-04-27T08:37:59Z</time>
      </trkpt>
      <trkpt lat="-25.647598011419177" lon="30.378736602142453">
        <ele>1217.1700000000001</ele>
        <time>2017-04-27T08:38:00Z</time>
      </trkpt>
      <trkpt lat="-25.647622989490628" lon="30.379082607105374">
        <ele>1217.1700000000001</ele>
        <time>2017-04-27T08:38:01Z</time>
      </trkpt>
      <trkpt lat="-25.647612847387791" lon="30.379411932080984">
        <ele>1216.6900000000001</ele>
        <time>2017-04-27T08:38:02Z</time>
      </trkpt>
      <trkpt lat="-25.64757077023387" lon="30.379751147702336">
        <ele>1216.21</ele>
        <time>2017-04-27T08:38:03Z</time>
      </trkpt>
      <trkpt lat="-25.647499021142721" lon="30.380091788247228">
        <ele>1215.72</ele>
        <time>2017-04-27T08:38:04Z</time>
      </trkpt>
      <trkpt lat="-25.647400617599487" lon="30.380430752411485">
        <ele>1214.28</ele>
        <time>2017-04-27T08:38:05Z</time>
      </trkpt>
      <trkpt lat="-25.647281929850578" lon="30.380769800394773">
        <ele>1213.3199999999999</ele>
        <time>2017-04-27T08:38:06Z</time>
      </trkpt>
      <trkpt lat="-25.646066553890705" lon="30.384137816727161">
        <ele>1206.1099999999999</ele>
        <time>2017-04-27T08:38:16Z</time>
      </trkpt>
      <trkpt lat="-25.646005533635616" lon="30.384449539706111">
        <ele>1205.6300000000001</ele>
        <time>2017-04-27T08:38:17Z</time>
      </trkpt>
      <trkpt lat="-25.645970245823264" lon="30.38476025685668">
        <ele>1205.6300000000001</ele>
        <time>2017-04-27T08:38:18Z</time>
      </trkpt>
      <trkpt lat="-25.645958930253983" lon="30.385069716721773">
        <ele>1205.6300000000001</ele>
        <time>2017-04-27T08:38:19Z</time>
      </trkpt>
      <trkpt lat="-25.645970664918423" lon="30.385379260405898">
        <ele>1205.1500000000001</ele>
        <time>2017-04-27T08:38:20Z</time>
      </trkpt>
      <trkpt lat="-25.646008970215917" lon="30.385688887909055">
        <ele>1204.6700000000001</ele>
        <time>2017-04-27T08:38:21Z</time>
      </trkpt>
      <trkpt lat="-25.646080551669002" lon="30.386005472391844">
        <ele>1204.1900000000001</ele>
        <time>2017-04-27T08:38:22Z</time>
      </trkpt>
      <trkpt lat="-25.646173423156142" lon="30.386305041611195">
        <ele>1203.71</ele>
        <time>2017-04-27T08:38:23Z</time>
      </trkpt>
      <trkpt lat="-25.64628129824996" lon="30.386625817045569">
        <ele>1203.23</ele>
        <time>2017-04-27T08:38:24Z</time>
      </trkpt>
      <trkpt lat="-25.646892841905355" lon="30.388616602867842">
        <ele>1200.3399999999999</ele>
        <time>2017-04-27T08:38:30Z</time>
      </trkpt>
      <trkpt lat="-25.646993005648255" lon="30.38917064666748">
        <ele>1199.3800000000001</ele>
        <time>2017-04-27T08:38:32Z</time>
      </trkpt>
      <trkpt lat="-25.647006332874298" lon="30.38946283981204">
        <ele>1198.9000000000001</ele>
        <time>2017-04-27T08:38:33Z</time>
      </trkpt>
      <trkpt lat="-25.646989149972796" lon="30.38977263495326">
        <ele>1198.4200000000001</ele>
        <time>2017-04-27T08:38:34Z</time>
      </trkpt>
      <trkpt lat="-25.646946486085653" lon="30.390094164758921">
        <ele>1198.4200000000001</ele>
        <time>2017-04-27T08:38:35Z</time>
      </trkpt>
      <trkpt lat="-25.646879263222218" lon="30.390424663200974">
        <ele>1197.9400000000001</ele>
        <time>2017-04-27T08:38:36Z</time>
      </trkpt>
      <trkpt lat="-25.646785134449601" lon="30.390752898529172">
        <ele>1197.9400000000001</ele>
        <time>2017-04-27T08:38:37Z</time>
      </trkpt>
      <trkpt lat="-25.64666342921555" lon="30.391069063916802">
        <ele>1197.46</ele>
        <time>2017-04-27T08:38:38Z</time>
      </trkpt>
      <trkpt lat="-25.646518841385841" lon="30.39136553183198">
        <ele>1197.46</ele>
        <time>2017-04-27T08:38:39Z</time>
      </trkpt>
      <trkpt lat="-25.646358914673328" lon="30.391637608408928">
        <ele>1196.98</ele>
        <time>2017-04-27T08:38:40Z</time>
      </trkpt>
      <trkpt lat="-25.64618993550539" lon="30.391880013048649">
        <ele>1196.5</ele>
        <time>2017-04-27T08:38:41Z</time>
      </trkpt>
      <trkpt lat="-25.646018190309405" lon="30.392089895904064">
        <ele>1196.5</ele>
        <time>2017-04-27T08:38:42Z</time>
      </trkpt>
      <trkpt lat="-25.645835716277361" lon="30.392279326915741">
        <ele>1196.02</ele>
        <time>2017-04-27T08:38:43Z</time>
      </trkpt>
      <trkpt lat="-25.645649386569858" lon="30.392442019656301">
        <ele>1195.54</ele>
        <time>2017-04-27T08:38:44Z</time>
      </trkpt>
      <trkpt lat="-25.645445873960853" lon="30.392591049894691">
        <ele>1195.54</ele>
        <time>2017-04-27T08:38:45Z</time>
      </trkpt>
      <trkpt lat="-25.645212857052684" lon="30.392732452601194">
        <ele>1195.0599999999999</ele>
        <time>2017-04-27T08:38:46Z</time>
      </trkpt>
      <trkpt lat="-25.644963327795267" lon="30.392856085672975">
        <ele>1195.0599999999999</ele>
        <time>2017-04-27T08:38:47Z</time>
      </trkpt>
      <trkpt lat="-25.644700722768903" lon="30.39295943453908">
        <ele>1194.5799999999999</ele>
        <time>2017-04-27T08:38:48Z</time>
      </trkpt>
      <trkpt lat="-25.64442403614521" lon="30.393041241914034">
        <ele>1194.5799999999999</ele>
        <time>2017-04-27T08:38:49Z</time>
      </trkpt>
      <trkpt lat="-25.644139219075441" lon="30.393100921064615">
        <ele>1194.0899999999999</ele>
        <time>2017-04-27T08:38:50Z</time>
      </trkpt>
      <trkpt lat="-25.643849289044738" lon="30.393145764246583">
        <ele>1194.0899999999999</ele>
        <time>2017-04-27T08:38:51Z</time>
      </trkpt>
      <trkpt lat="-25.641872584819794" lon="30.393346846103668">
        <ele>1188.8099999999999</ele>
        <time>2017-04-27T08:38:57Z</time>
      </trkpt>
      <trkpt lat="-25.638120677322149" lon="30.393643984571099">
        <ele>1179.1900000000001</ele>
        <time>2017-04-27T08:39:08Z</time>
      </trkpt>
      <trkpt lat="-25.636479249224067" lon="30.393489422276616">
        <ele>1176.79</ele>
        <time>2017-04-27T08:39:14Z</time>
      </trkpt>
      <trkpt lat="-25.634887106716633" lon="30.393692180514336">
        <ele>1174.8699999999999</ele>
        <time>2017-04-27T08:39:21Z</time>
      </trkpt>
      <trkpt lat="-25.633400827646255" lon="30.394395003095269">
        <ele>1173.4300000000001</ele>
        <time>2017-04-27T08:39:28Z</time>
      </trkpt>
      <trkpt lat="-25.631767781451344" lon="30.395773742347956">
        <ele>1172.47</ele>
        <time>2017-04-27T08:39:37Z</time>
      </trkpt>
      <trkpt lat="-25.630443021655083" lon="30.39635444059968">
        <ele>1171.98</ele>
        <time>2017-04-27T08:39:43Z</time>
      </trkpt>
      <trkpt lat="-25.62794060446322" lon="30.397195564582944">
        <ele>1166.7</ele>
        <time>2017-04-27T08:39:54Z</time>
      </trkpt>
      <trkpt lat="-25.625310279428959" lon="30.398176833987236">
        <ele>1161.4100000000001</ele>
        <time>2017-04-27T08:40:05Z</time>
      </trkpt>
      <trkpt lat="-25.623164009302855" lon="30.398885942995548">
        <ele>1158.53</ele>
        <time>2017-04-27T08:40:13Z</time>
      </trkpt>
      <trkpt lat="-25.621419064700603" lon="30.400020014494658">
        <ele>1157.5599999999999</ele>
        <time>2017-04-27T08:40:20Z</time>
      </trkpt>
      <trkpt lat="-25.619956674054265" lon="30.401668651029468">
        <ele>1154.6800000000001</ele>
        <time>2017-04-27T08:40:27Z</time>
      </trkpt>
      <trkpt lat="-25.618922263383865" lon="30.403595482930541">
        <ele>1152.28</ele>
        <time>2017-04-27T08:40:33Z</time>
      </trkpt>
    </trkseg>
  </trk>

</gpx>