<?xml version="1.0" encoding="utf-8"?><gpx creator="Garmin Desktop App" version="1.1" xsi:schemaLocation="http://www.topografix.com/GPX/1/1 http://www.topografix.com/GPX/1/1/gpx.xsd http://www.garmin.com/xmlschemas/WaypointExtension/v1 http://www8.garmin.com/xmlschemas/WaypointExtensionv1.xsd http://www.garmin.com/xmlschemas/TrackPointExtension/v1 http://www.garmin.com/xmlschemas/TrackPointExtensionv1.xsd http://www.garmin.com/xmlschemas/GpxExtensions/v3 http://www8.garmin.com/xmlschemas/GpxExtensionsv3.xsd http://www.garmin.com/xmlschemas/ActivityExtension/v1 http://www8.garmin.com/xmlschemas/ActivityExtensionv1.xsd http://www.garmin.com/xmlschemas/AdventuresExtensions/v1 http://www8.garmin.com/xmlschemas/AdventuresExtensionv1.xsd http://www.garmin.com/xmlschemas/PressureExtension/v1 http://www.garmin.com/xmlschemas/PressureExtensionv1.xsd http://www.garmin.com/xmlschemas/TripExtensions/v1 http://www.garmin.com/xmlschemas/TripExtensionsv1.xsd http://www.garmin.com/xmlschemas/TripMetaDataExtensions/v1 http://www.garmin.com/xmlschemas/TripMetaDataExtensionsv1.xsd http://www.garmin.com/xmlschemas/ViaPointTransportationModeExtensions/v1 http://www.garmin.com/xmlschemas/ViaPointTransportationModeExtensionsv1.xsd http://www.garmin.com/xmlschemas/CreationTimeExtension/v1 http://www.garmin.com/xmlschemas/CreationTimeExtensionsv1.xsd http://www.garmin.com/xmlschemas/AccelerationExtension/v1 http://www.garmin.com/xmlschemas/AccelerationExtensionv1.xsd http://www.garmin.com/xmlschemas/PowerExtension/v1 http://www.garmin.com/xmlschemas/PowerExtensionv1.xsd http://www.garmin.com/xmlschemas/VideoExtension/v1 http://www.garmin.com/xmlschemas/VideoExtensionv1.xsd" xmlns="http://www.topografix.com/GPX/1/1" xmlns:xsi="http://www.w3.org/2001/XMLSchema-instance" xmlns:wptx1="http://www.garmin.com/xmlschemas/WaypointExtension/v1" xmlns:gpxtrx="http://www.garmin.com/xmlschemas/GpxExtensions/v3" xmlns:gpxtpx="http://www.garmin.com/xmlschemas/TrackPointExtension/v1" xmlns:gpxx="http://www.garmin.com/xmlschemas/GpxExtensions/v3" xmlns:trp="http://www.garmin.com/xmlschemas/TripExtensions/v1" xmlns:adv="http://www.garmin.com/xmlschemas/AdventuresExtensions/v1" xmlns:prs="http://www.garmin.com/xmlschemas/PressureExtension/v1" xmlns:tmd="http://www.garmin.com/xmlschemas/TripMetaDataExtensions/v1" xmlns:vptm="http://www.garmin.com/xmlschemas/ViaPointTransportationModeExtensions/v1" xmlns:ctx="http://www.garmin.com/xmlschemas/CreationTimeExtension/v1" xmlns:gpxacc="http://www.garmin.com/xmlschemas/AccelerationExtension/v1" xmlns:gpxpx="http://www.garmin.com/xmlschemas/PowerExtension/v1" xmlns:vidx1="http://www.garmin.com/xmlschemas/VideoExtension/v1">

  <metadata>
    <link href="http://www.garmin.com">
      <text>Garmin International</text>
    </link>
    <time>2023-01-21T09:55:32Z</time>
    <bounds maxlat="-33.060491988435388" maxlon="23.507241988554597" minlat="-33.080974007025361" minlon="23.489042026922107" />
  </metadata>

  <trk>
    <name>[102] Windheuwel Poort</name>
    <extensions>
      <gpxx:TrackExtension>
        <gpxx:DisplayColor>Blue</gpxx:DisplayColor>
      </gpxx:TrackExtension>
    </extensions>
    <trkseg>
      <trkpt lat="-33.060491988435388" lon="23.507241988554597">
        <ele>715.36000000000001</ele>
        <time>2020-02-24T06:27:35Z</time>
      </trkpt>
      <trkpt lat="-33.063005972653627" lon="23.503008037805557">
        <ele>711.99000000000001</ele>
        <time>2020-02-24T06:27:50Z</time>
      </trkpt>
      <trkpt lat="-33.066463004797697" lon="23.497190997004509">
        <ele>716.32000000000005</ele>
        <time>2020-02-24T06:28:10Z</time>
      </trkpt>
      <trkpt lat="-33.068869030103087" lon="23.493365999311209">
        <ele>719.67999999999995</ele>
        <time>2020-02-24T06:28:24Z</time>
      </trkpt>
      <trkpt lat="-33.070131009444594" lon="23.492470979690552">
        <ele>717.27999999999997</ele>
        <time>2020-02-24T06:28:30Z</time>
      </trkpt>
      <trkpt lat="-33.070798041298985" lon="23.492228994145989">
        <ele>716.32000000000005</ele>
        <time>2020-02-24T06:28:33Z</time>
      </trkpt>
      <trkpt lat="-33.071018988266587" lon="23.492198986932635">
        <ele>715.84000000000003</ele>
        <time>2020-02-24T06:28:34Z</time>
      </trkpt>
      <trkpt lat="-33.071241024881601" lon="23.492211978882551">
        <ele>713.44000000000005</ele>
        <time>2020-02-24T06:28:35Z</time>
      </trkpt>
      <trkpt lat="-33.071456020697951" lon="23.492236034944654">
        <ele>712.47000000000003</ele>
        <time>2020-02-24T06:28:36Z</time>
      </trkpt>
      <trkpt lat="-33.071670010685921" lon="23.492290014401078">
        <ele>710.54999999999995</ele>
        <time>2020-02-24T06:28:37Z</time>
      </trkpt>
      <trkpt lat="-33.071876037865877" lon="23.492347011342645">
        <ele>710.07000000000005</ele>
        <time>2020-02-24T06:28:38Z</time>
      </trkpt>
      <trkpt lat="-33.072087010368705" lon="23.492435021325946">
        <ele>707.66999999999996</ele>
        <time>2020-02-24T06:28:39Z</time>
      </trkpt>
      <trkpt lat="-33.07229395955801" lon="23.492515990510583">
        <ele>706.71000000000004</ele>
        <time>2020-02-24T06:28:40Z</time>
      </trkpt>
      <trkpt lat="-33.073496008291841" lon="23.492826959118247">
        <ele>703.82000000000005</ele>
        <time>2020-02-24T06:28:46Z</time>
      </trkpt>
      <trkpt lat="-33.073694994673133" lon="23.492806004360318">
        <ele>703.34000000000003</ele>
        <time>2020-02-24T06:28:47Z</time>
      </trkpt>
      <trkpt lat="-33.073890963569283" lon="23.492768034338951">
        <ele>703.34000000000003</ele>
        <time>2020-02-24T06:28:48Z</time>
      </trkpt>
      <trkpt lat="-33.074862007051706" lon="23.492687987163663">
        <ele>705.25999999999999</ele>
        <time>2020-02-24T06:28:53Z</time>
      </trkpt>
      <trkpt lat="-33.075058981776237" lon="23.492741966620088">
        <ele>704.77999999999997</ele>
        <time>2020-02-24T06:28:54Z</time>
      </trkpt>
      <trkpt lat="-33.077058987691998" lon="23.493478987365961">
        <ele>698.04999999999995</ele>
        <time>2020-02-24T06:29:04Z</time>
      </trkpt>
      <trkpt lat="-33.077838001772761" lon="23.493576971814036">
        <ele>695.16999999999996</ele>
        <time>2020-02-24T06:29:08Z</time>
      </trkpt>
      <trkpt lat="-33.078041011467576" lon="23.493550987914205">
        <ele>694.69000000000005</ele>
        <time>2020-02-24T06:29:09Z</time>
      </trkpt>
      <trkpt lat="-33.078244021162391" lon="23.493512012064457">
        <ele>693.73000000000002</ele>
        <time>2020-02-24T06:29:10Z</time>
      </trkpt>
      <trkpt lat="-33.078440995886922" lon="23.493451997637749">
        <ele>693.25</ele>
        <time>2020-02-24T06:29:11Z</time>
      </trkpt>
      <trkpt lat="-33.078640988096595" lon="23.493376979604363">
        <ele>692.28999999999996</ele>
        <time>2020-02-24T06:29:12Z</time>
      </trkpt>
      <trkpt lat="-33.078835029155016" lon="23.493285030126572">
        <ele>691.80999999999995</ele>
        <time>2020-02-24T06:29:13Z</time>
      </trkpt>
      <trkpt lat="-33.079026974737644" lon="23.493172964081168">
        <ele>690.84000000000003</ele>
        <time>2020-02-24T06:29:14Z</time>
      </trkpt>
      <trkpt lat="-33.079210035502911" lon="23.493044972419739">
        <ele>690.84000000000003</ele>
        <time>2020-02-24T06:29:15Z</time>
      </trkpt>
      <trkpt lat="-33.079386977478862" lon="23.492898959666491">
        <ele>690.36000000000001</ele>
        <time>2020-02-24T06:29:16Z</time>
      </trkpt>
      <trkpt lat="-33.07955302298069" lon="23.492739032953978">
        <ele>690.36000000000001</ele>
        <time>2020-02-24T06:29:17Z</time>
      </trkpt>
      <trkpt lat="-33.079710016027093" lon="23.492554966360331">
        <ele>690.36000000000001</ele>
        <time>2020-02-24T06:29:18Z</time>
      </trkpt>
      <trkpt lat="-33.079856028780341" lon="23.492350028827786">
        <ele>689.88</ele>
        <time>2020-02-24T06:29:19Z</time>
      </trkpt>
      <trkpt lat="-33.079985026270151" lon="23.492128998041153">
        <ele>689.88</ele>
        <time>2020-02-24T06:29:20Z</time>
      </trkpt>
      <trkpt lat="-33.080107988789678" lon="23.491887012496591">
        <ele>690.36000000000001</ele>
        <time>2020-02-24T06:29:21Z</time>
      </trkpt>
      <trkpt lat="-33.08022097684443" lon="23.491624994203448">
        <ele>690.36000000000001</ele>
        <time>2020-02-24T06:29:22Z</time>
      </trkpt>
      <trkpt lat="-33.080318961292505" lon="23.491355013102293">
        <ele>689.88</ele>
        <time>2020-02-24T06:29:23Z</time>
      </trkpt>
      <trkpt lat="-33.080405965447426" lon="23.49106902256608">
        <ele>689.39999999999998</ele>
        <time>2020-02-24T06:29:24Z</time>
      </trkpt>
      <trkpt lat="-33.080974007025361" lon="23.489042026922107">
        <ele>689.88</ele>
        <time>2020-02-24T06:29:30Z</time>
      </trkpt>
    </trkseg>
  </trk>

</gpx>