<?xml version="1.0" encoding="utf-8"?><gpx creator="Garmin Desktop App" version="1.1" xsi:schemaLocation="http://www.topografix.com/GPX/1/1 http://www.topografix.com/GPX/1/1/gpx.xsd http://www.garmin.com/xmlschemas/WaypointExtension/v1 http://www8.garmin.com/xmlschemas/WaypointExtensionv1.xsd http://www.garmin.com/xmlschemas/TrackPointExtension/v1 http://www.garmin.com/xmlschemas/TrackPointExtensionv1.xsd http://www.garmin.com/xmlschemas/GpxExtensions/v3 http://www8.garmin.com/xmlschemas/GpxExtensionsv3.xsd http://www.garmin.com/xmlschemas/ActivityExtension/v1 http://www8.garmin.com/xmlschemas/ActivityExtensionv1.xsd http://www.garmin.com/xmlschemas/AdventuresExtensions/v1 http://www8.garmin.com/xmlschemas/AdventuresExtensionv1.xsd http://www.garmin.com/xmlschemas/PressureExtension/v1 http://www.garmin.com/xmlschemas/PressureExtensionv1.xsd http://www.garmin.com/xmlschemas/TripExtensions/v1 http://www.garmin.com/xmlschemas/TripExtensionsv1.xsd http://www.garmin.com/xmlschemas/TripMetaDataExtensions/v1 http://www.garmin.com/xmlschemas/TripMetaDataExtensionsv1.xsd http://www.garmin.com/xmlschemas/ViaPointTransportationModeExtensions/v1 http://www.garmin.com/xmlschemas/ViaPointTransportationModeExtensionsv1.xsd http://www.garmin.com/xmlschemas/CreationTimeExtension/v1 http://www.garmin.com/xmlschemas/CreationTimeExtensionsv1.xsd http://www.garmin.com/xmlschemas/AccelerationExtension/v1 http://www.garmin.com/xmlschemas/AccelerationExtensionv1.xsd http://www.garmin.com/xmlschemas/PowerExtension/v1 http://www.garmin.com/xmlschemas/PowerExtensionv1.xsd http://www.garmin.com/xmlschemas/VideoExtension/v1 http://www.garmin.com/xmlschemas/VideoExtensionv1.xsd" xmlns="http://www.topografix.com/GPX/1/1" xmlns:xsi="http://www.w3.org/2001/XMLSchema-instance" xmlns:wptx1="http://www.garmin.com/xmlschemas/WaypointExtension/v1" xmlns:gpxtrx="http://www.garmin.com/xmlschemas/GpxExtensions/v3" xmlns:gpxtpx="http://www.garmin.com/xmlschemas/TrackPointExtension/v1" xmlns:gpxx="http://www.garmin.com/xmlschemas/GpxExtensions/v3" xmlns:trp="http://www.garmin.com/xmlschemas/TripExtensions/v1" xmlns:adv="http://www.garmin.com/xmlschemas/AdventuresExtensions/v1" xmlns:prs="http://www.garmin.com/xmlschemas/PressureExtension/v1" xmlns:tmd="http://www.garmin.com/xmlschemas/TripMetaDataExtensions/v1" xmlns:vptm="http://www.garmin.com/xmlschemas/ViaPointTransportationModeExtensions/v1" xmlns:ctx="http://www.garmin.com/xmlschemas/CreationTimeExtension/v1" xmlns:gpxacc="http://www.garmin.com/xmlschemas/AccelerationExtension/v1" xmlns:gpxpx="http://www.garmin.com/xmlschemas/PowerExtension/v1" xmlns:vidx1="http://www.garmin.com/xmlschemas/VideoExtension/v1">

  <metadata>
    <link href="http://www.garmin.com">
      <text>Garmin International</text>
    </link>
    <time>2023-01-21T09:57:45Z</time>
    <bounds maxlat="-33.692554961889982" maxlon="23.055869964882731" minlat="-33.768291994929314" minlon="22.944977972656488" />
  </metadata>

  <trk>
    <name>[107] Potjiesberg Pass</name>
    <extensions>
      <gpxx:TrackExtension>
        <gpxx:DisplayColor>Blue</gpxx:DisplayColor>
      </gpxx:TrackExtension>
    </extensions>
    <trkseg>
      <trkpt lat="-33.692554961889982" lon="23.048417028039694">
        <ele>712.95000000000005</ele>
        <time>2020-02-24T08:03:37Z</time>
      </trkpt>
      <trkpt lat="-33.693104982376099" lon="23.046286012977362">
        <ele>725.45000000000005</ele>
        <time>2020-02-24T08:03:44Z</time>
      </trkpt>
      <trkpt lat="-33.693202966824174" lon="23.046055007725954">
        <ele>726.40999999999997</ele>
        <time>2020-02-24T08:03:45Z</time>
      </trkpt>
      <trkpt lat="-33.693320984020829" lon="23.045845041051507">
        <ele>727.86000000000001</ele>
        <time>2020-02-24T08:03:46Z</time>
      </trkpt>
      <trkpt lat="-33.693458028137684" lon="23.045656029134989">
        <ele>728.82000000000005</ele>
        <time>2020-02-24T08:03:47Z</time>
      </trkpt>
      <trkpt lat="-33.693614015355706" lon="23.045489983633161">
        <ele>729.77999999999997</ele>
        <time>2020-02-24T08:03:48Z</time>
      </trkpt>
      <trkpt lat="-33.693789029493928" lon="23.045352017506957">
        <ele>730.25999999999999</ele>
        <time>2020-02-24T08:03:49Z</time>
      </trkpt>
      <trkpt lat="-33.693981980904937" lon="23.045235006138682">
        <ele>731.70000000000005</ele>
        <time>2020-02-24T08:03:50Z</time>
      </trkpt>
      <trkpt lat="-33.694185996428132" lon="23.045131992548704">
        <ele>732.65999999999997</ele>
        <time>2020-02-24T08:03:51Z</time>
      </trkpt>
      <trkpt lat="-33.694584975019097" lon="23.044924959540367">
        <ele>735.07000000000005</ele>
        <time>2020-02-24T08:03:53Z</time>
      </trkpt>
      <trkpt lat="-33.694769041612744" lon="23.044792022556067">
        <ele>736.02999999999997</ele>
        <time>2020-02-24T08:03:54Z</time>
      </trkpt>
      <trkpt lat="-33.694929974153638" lon="23.04462899453938">
        <ele>736.99000000000001</ele>
        <time>2020-02-24T08:03:55Z</time>
      </trkpt>
      <trkpt lat="-33.695066012442112" lon="23.044449035078287">
        <ele>738.42999999999995</ele>
        <time>2020-02-24T08:03:56Z</time>
      </trkpt>
      <trkpt lat="-33.695186041295528" lon="23.04426396265626">
        <ele>739.38999999999999</ele>
        <time>2020-02-24T08:03:57Z</time>
      </trkpt>
      <trkpt lat="-33.695306992158294" lon="23.044088026508689">
        <ele>740.35000000000002</ele>
        <time>2020-02-24T08:03:58Z</time>
      </trkpt>
      <trkpt lat="-33.695436995476484" lon="23.043932961300015">
        <ele>741.78999999999996</ele>
        <time>2020-02-24T08:03:59Z</time>
      </trkpt>
      <trkpt lat="-33.695584014058113" lon="23.043803041800857">
        <ele>743.72000000000003</ele>
        <time>2020-02-24T08:04:00Z</time>
      </trkpt>
      <trkpt lat="-33.695738995447755" lon="23.043697010725737">
        <ele>744.67999999999995</ele>
        <time>2020-02-24T08:04:01Z</time>
      </trkpt>
      <trkpt lat="-33.6958990059793" lon="23.04361897520721">
        <ele>746.60000000000002</ele>
        <time>2020-02-24T08:04:02Z</time>
      </trkpt>
      <trkpt lat="-33.696066979318857" lon="23.043578993529081">
        <ele>747.55999999999995</ele>
        <time>2020-02-24T08:04:03Z</time>
      </trkpt>
      <trkpt lat="-33.696241993457079" lon="23.04357597604394">
        <ele>749.49000000000001</ele>
        <time>2020-02-24T08:04:04Z</time>
      </trkpt>
      <trkpt lat="-33.696410972625017" lon="23.043601959943771">
        <ele>750.92999999999995</ele>
        <time>2020-02-24T08:04:05Z</time>
      </trkpt>
      <trkpt lat="-33.696580035611987" lon="23.043663986027241">
        <ele>751.88999999999999</ele>
        <time>2020-02-24T08:04:06Z</time>
      </trkpt>
      <trkpt lat="-33.696745997294784" lon="23.043763982132077">
        <ele>753.80999999999995</ele>
        <time>2020-02-24T08:04:07Z</time>
      </trkpt>
      <trkpt lat="-33.696900978684425" lon="23.043903959915042">
        <ele>754.76999999999998</ele>
        <time>2020-02-24T08:04:08Z</time>
      </trkpt>
      <trkpt lat="-33.697033999487758" lon="23.044072017073631">
        <ele>756.69000000000005</ele>
        <time>2020-02-24T08:04:09Z</time>
      </trkpt>
      <trkpt lat="-33.697148999199271" lon="23.044274020940065">
        <ele>755.73000000000002</ele>
        <time>2020-02-24T08:04:10Z</time>
      </trkpt>
      <trkpt lat="-33.697246983647346" lon="23.044488010928035">
        <ele>757.17999999999995</ele>
        <time>2020-02-24T08:04:11Z</time>
      </trkpt>
      <trkpt lat="-33.697338011115789" lon="23.044698983430862">
        <ele>757.65999999999997</ele>
        <time>2020-02-24T08:04:12Z</time>
      </trkpt>
      <trkpt lat="-33.697536997497082" lon="23.045064015313983">
        <ele>760.05999999999995</ele>
        <time>2020-02-24T08:04:14Z</time>
      </trkpt>
      <trkpt lat="-33.697658032178879" lon="23.045213967561722">
        <ele>761.5</ele>
        <time>2020-02-24T08:04:15Z</time>
      </trkpt>
      <trkpt lat="-33.69779197499156" lon="23.045338019728661">
        <ele>763.41999999999996</ele>
        <time>2020-02-24T08:04:16Z</time>
      </trkpt>
      <trkpt lat="-33.697948968037963" lon="23.045424018055201">
        <ele>764.87</ele>
        <time>2020-02-24T08:04:17Z</time>
      </trkpt>
      <trkpt lat="-33.698110990226269" lon="23.04548897780478">
        <ele>765.83000000000004</ele>
        <time>2020-02-24T08:04:18Z</time>
      </trkpt>
      <trkpt lat="-33.698274018242955" lon="23.045529965311289">
        <ele>766.78999999999996</ele>
        <time>2020-02-24T08:04:19Z</time>
      </trkpt>
      <trkpt lat="-33.698439979925752" lon="23.045546980574727">
        <ele>767.75</ele>
        <time>2020-02-24T08:04:20Z</time>
      </trkpt>
      <trkpt lat="-33.698618011549115" lon="23.045523008331656">
        <ele>769.19000000000005</ele>
        <time>2020-02-24T08:04:21Z</time>
      </trkpt>
      <trkpt lat="-33.698793025687337" lon="23.045465005561709">
        <ele>770.63</ele>
        <time>2020-02-24T08:04:22Z</time>
      </trkpt>
      <trkpt lat="-33.69897399097681" lon="23.045375989750028">
        <ele>772.55999999999995</ele>
        <time>2020-02-24T08:04:23Z</time>
      </trkpt>
      <trkpt lat="-33.699169037863612" lon="23.045269036665559">
        <ele>773.03999999999996</ele>
        <time>2020-02-24T08:04:24Z</time>
      </trkpt>
      <trkpt lat="-33.699583020061255" lon="23.045071978121996">
        <ele>775.44000000000005</ele>
        <time>2020-02-24T08:04:26Z</time>
      </trkpt>
      <trkpt lat="-33.699812013655901" lon="23.045017998665571">
        <ele>777.36000000000001</ele>
        <time>2020-02-24T08:04:27Z</time>
      </trkpt>
      <trkpt lat="-33.70004796423018" lon="23.044988997280598">
        <ele>780.25</ele>
        <time>2020-02-24T08:04:28Z</time>
      </trkpt>
      <trkpt lat="-33.700741985812783" lon="23.044918002560735">
        <ele>783.13</ele>
        <time>2020-02-24T08:04:31Z</time>
      </trkpt>
      <trkpt lat="-33.700947007164359" lon="23.044851031154394">
        <ele>784.09000000000003</ele>
        <time>2020-02-24T08:04:32Z</time>
      </trkpt>
      <trkpt lat="-33.701144987717271" lon="23.044743994250894">
        <ele>785.04999999999995</ele>
        <time>2020-02-24T08:04:33Z</time>
      </trkpt>
      <trkpt lat="-33.701320001855493" lon="23.044623965397477">
        <ele>785.52999999999997</ele>
        <time>2020-02-24T08:04:34Z</time>
      </trkpt>
      <trkpt lat="-33.701491998508573" lon="23.044475018978119">
        <ele>786.98000000000002</ele>
        <time>2020-02-24T08:04:35Z</time>
      </trkpt>
      <trkpt lat="-33.701660977676511" lon="23.044310985133052">
        <ele>789.86000000000001</ele>
        <time>2020-02-24T08:04:36Z</time>
      </trkpt>
      <trkpt lat="-33.702147966250777" lon="23.043900020420551">
        <ele>793.71000000000004</ele>
        <time>2020-02-24T08:04:39Z</time>
      </trkpt>
      <trkpt lat="-33.70232398621738" lon="23.043814022094011">
        <ele>795.63</ele>
        <time>2020-02-24T08:04:40Z</time>
      </trkpt>
      <trkpt lat="-33.702505035325885" lon="23.043761970475316">
        <ele>797.54999999999995</ele>
        <time>2020-02-24T08:04:41Z</time>
      </trkpt>
      <trkpt lat="-33.702693963423371" lon="23.0437489785254">
        <ele>798.99000000000001</ele>
        <time>2020-02-24T08:04:42Z</time>
      </trkpt>
      <trkpt lat="-33.702879035845399" lon="23.043777979910374">
        <ele>801.39999999999998</ele>
        <time>2020-02-24T08:04:43Z</time>
      </trkpt>
      <trkpt lat="-33.703061006963253" lon="23.043848974630237">
        <ele>802.36000000000001</ele>
        <time>2020-02-24T08:04:44Z</time>
      </trkpt>
      <trkpt lat="-33.703239960595965" lon="23.043945031240582">
        <ele>804.27999999999997</ele>
        <time>2020-02-24T08:04:45Z</time>
      </trkpt>
      <trkpt lat="-33.703425033017993" lon="23.044044021517038">
        <ele>806.20000000000005</ele>
        <time>2020-02-24T08:04:46Z</time>
      </trkpt>
      <trkpt lat="-33.704018974676728" lon="23.044266980141401">
        <ele>809.57000000000005</ele>
        <time>2020-02-24T08:04:49Z</time>
      </trkpt>
      <trkpt lat="-33.704240005463362" lon="23.044291958212852">
        <ele>811.49000000000001</ele>
        <time>2020-02-24T08:04:50Z</time>
      </trkpt>
      <trkpt lat="-33.706271024420857" lon="23.044119961559772">
        <ele>828.30999999999995</ele>
        <time>2020-02-24T08:04:59Z</time>
      </trkpt>
      <trkpt lat="-33.708804035559297" lon="23.043269030749798">
        <ele>849.46000000000004</ele>
        <time>2020-02-24T08:05:10Z</time>
      </trkpt>
      <trkpt lat="-33.709917990490794" lon="23.043239023536444">
        <ele>857.14999999999998</ele>
        <time>2020-02-24T08:05:15Z</time>
      </trkpt>
      <trkpt lat="-33.710134997963905" lon="23.043300965800881">
        <ele>858.11000000000001</ele>
        <time>2020-02-24T08:05:16Z</time>
      </trkpt>
      <trkpt lat="-33.710343958809972" lon="23.043389981612563">
        <ele>860.03999999999996</ele>
        <time>2020-02-24T08:05:17Z</time>
      </trkpt>
      <trkpt lat="-33.710543029010296" lon="23.043502969667315">
        <ele>861</ele>
        <time>2020-02-24T08:05:18Z</time>
      </trkpt>
      <trkpt lat="-33.710741009563208" lon="23.043631967157125">
        <ele>861.48000000000002</ele>
        <time>2020-02-24T08:05:19Z</time>
      </trkpt>
      <trkpt lat="-33.710925998166203" lon="23.043783009052277">
        <ele>862.44000000000005</ele>
        <time>2020-02-24T08:05:20Z</time>
      </trkpt>
      <trkpt lat="-33.711097994819283" lon="23.043956011533737">
        <ele>863.39999999999998</ele>
        <time>2020-02-24T08:05:21Z</time>
      </trkpt>
      <trkpt lat="-33.711260017007589" lon="23.044148040935397">
        <ele>864.84000000000003</ele>
        <time>2020-02-24T08:05:22Z</time>
      </trkpt>
      <trkpt lat="-33.711408963426948" lon="23.044363958761096">
        <ele>866.28999999999996</ele>
        <time>2020-02-24T08:05:23Z</time>
      </trkpt>
      <trkpt lat="-33.711542990058661" lon="23.044609967619181">
        <ele>868.21000000000004</ele>
        <time>2020-02-24T08:05:24Z</time>
      </trkpt>
      <trkpt lat="-33.711666958406568" lon="23.044868968427181">
        <ele>869.64999999999998</ele>
        <time>2020-02-24T08:05:25Z</time>
      </trkpt>
      <trkpt lat="-33.711779024451971" lon="23.045150013640523">
        <ele>871.09000000000003</ele>
        <time>2020-02-24T08:05:26Z</time>
      </trkpt>
      <trkpt lat="-33.711876003071666" lon="23.045453019440174">
        <ele>872.52999999999997</ele>
        <time>2020-02-24T08:05:27Z</time>
      </trkpt>
      <trkpt lat="-33.711967030540109" lon="23.045772034674883">
        <ele>874.46000000000004</ele>
        <time>2020-02-24T08:05:28Z</time>
      </trkpt>
      <trkpt lat="-33.712943019345403" lon="23.049043994396925">
        <ele>892.24000000000001</ele>
        <time>2020-02-24T08:05:38Z</time>
      </trkpt>
      <trkpt lat="-33.713792022317648" lon="23.050748035311699">
        <ele>904.25999999999999</ele>
        <time>2020-02-24T08:05:44Z</time>
      </trkpt>
      <trkpt lat="-33.714367020875216" lon="23.051660992205143">
        <ele>910.99000000000001</ele>
        <time>2020-02-24T08:05:48Z</time>
      </trkpt>
      <trkpt lat="-33.714523008093238" lon="23.051819996908307">
        <ele>911.95000000000005</ele>
        <time>2020-02-24T08:05:49Z</time>
      </trkpt>
      <trkpt lat="-33.714689975604415" lon="23.051940025761724">
        <ele>913.38999999999999</ele>
        <time>2020-02-24T08:05:50Z</time>
      </trkpt>
      <trkpt lat="-33.714873036369681" lon="23.052015965804458">
        <ele>915.30999999999995</ele>
        <time>2020-02-24T08:05:51Z</time>
      </trkpt>
      <trkpt lat="-33.715067999437451" lon="23.052058964967728">
        <ele>916.75</ele>
        <time>2020-02-24T08:05:52Z</time>
      </trkpt>
      <trkpt lat="-33.715274026617408" lon="23.052066005766392">
        <ele>918.20000000000005</ele>
        <time>2020-02-24T08:05:53Z</time>
      </trkpt>
      <trkpt lat="-33.715477958321571" lon="23.052058964967728">
        <ele>919.63999999999999</ele>
        <time>2020-02-24T08:05:54Z</time>
      </trkpt>
      <trkpt lat="-33.715896969661117" lon="23.052081009373069">
        <ele>922.51999999999998</ele>
        <time>2020-02-24T08:05:56Z</time>
      </trkpt>
      <trkpt lat="-33.716094028204679" lon="23.052129959687591">
        <ele>924.45000000000005</ele>
        <time>2020-02-24T08:05:57Z</time>
      </trkpt>
      <trkpt lat="-33.716278010979295" lon="23.052214030176401">
        <ele>925.88999999999999</ele>
        <time>2020-02-24T08:05:58Z</time>
      </trkpt>
      <trkpt lat="-33.716453025117517" lon="23.052342021837831">
        <ele>927.33000000000004</ele>
        <time>2020-02-24T08:05:59Z</time>
      </trkpt>
      <trkpt lat="-33.716604989022017" lon="23.052504966035485">
        <ele>928.76999999999998</ele>
        <time>2020-02-24T08:06:00Z</time>
      </trkpt>
      <trkpt lat="-33.716735998168588" lon="23.052700012922287">
        <ele>930.69000000000005</ele>
        <time>2020-02-24T08:06:01Z</time>
      </trkpt>
      <trkpt lat="-33.716852003708482" lon="23.052915008738637">
        <ele>932.13999999999999</ele>
        <time>2020-02-24T08:06:02Z</time>
      </trkpt>
      <trkpt lat="-33.716961974278092" lon="23.053134027868509">
        <ele>934.05999999999995</ele>
        <time>2020-02-24T08:06:03Z</time>
      </trkpt>
      <trkpt lat="-33.717077979817986" lon="23.053338965401053">
        <ele>935.5</ele>
        <time>2020-02-24T08:06:04Z</time>
      </trkpt>
      <trkpt lat="-33.717211000621319" lon="23.053519008681178">
        <ele>936.94000000000005</ele>
        <time>2020-02-24T08:06:05Z</time>
      </trkpt>
      <trkpt lat="-33.717366987839341" lon="23.053679019212723">
        <ele>937.89999999999998</ele>
        <time>2020-02-24T08:06:06Z</time>
      </trkpt>
      <trkpt lat="-33.717544013634324" lon="23.053813967853785">
        <ele>939.35000000000002</ele>
        <time>2020-02-24T08:06:07Z</time>
      </trkpt>
      <trkpt lat="-33.717738976702094" lon="23.053912036120892">
        <ele>940.78999999999996</ele>
        <time>2020-02-24T08:06:08Z</time>
      </trkpt>
      <trkpt lat="-33.71794399805367" lon="23.053972972556949">
        <ele>942.23000000000002</ele>
        <time>2020-02-24T08:06:09Z</time>
      </trkpt>
      <trkpt lat="-33.718156982213259" lon="23.054000968113542">
        <ele>943.66999999999996</ele>
        <time>2020-02-24T08:06:10Z</time>
      </trkpt>
      <trkpt lat="-33.718383964151144" lon="23.053993005305529">
        <ele>945.59000000000003</ele>
        <time>2020-02-24T08:06:11Z</time>
      </trkpt>
      <trkpt lat="-33.718607006594539" lon="23.0539530236274">
        <ele>948</ele>
        <time>2020-02-24T08:06:12Z</time>
      </trkpt>
      <trkpt lat="-33.718826025724411" lon="23.053892003372312">
        <ele>950.39999999999998</ele>
        <time>2020-02-24T08:06:13Z</time>
      </trkpt>
      <trkpt lat="-33.719053007662296" lon="23.053816985338926">
        <ele>953.27999999999997</ele>
        <time>2020-02-24T08:06:14Z</time>
      </trkpt>
      <trkpt lat="-33.72071597725153" lon="23.05330803617835">
        <ele>962.89999999999998</ele>
        <time>2020-02-24T08:06:22Z</time>
      </trkpt>
      <trkpt lat="-33.72088797390461" lon="23.053315998986363">
        <ele>964.34000000000003</ele>
        <time>2020-02-24T08:06:23Z</time>
      </trkpt>
      <trkpt lat="-33.721053013578057" lon="23.053357992321253">
        <ele>964.82000000000005</ele>
        <time>2020-02-24T08:06:24Z</time>
      </trkpt>
      <trkpt lat="-33.721222998574376" lon="23.053434016183019">
        <ele>964.34000000000003</ele>
        <time>2020-02-24T08:06:25Z</time>
      </trkpt>
      <trkpt lat="-33.721364988014102" lon="23.053552033379674">
        <ele>965.29999999999995</ele>
        <time>2020-02-24T08:06:26Z</time>
      </trkpt>
      <trkpt lat="-33.721486022695899" lon="23.053705003112555">
        <ele>966.25999999999999</ele>
        <time>2020-02-24T08:06:27Z</time>
      </trkpt>
      <trkpt lat="-33.721600016579032" lon="23.053873982280493">
        <ele>964.82000000000005</ele>
        <time>2020-02-24T08:06:28Z</time>
      </trkpt>
      <trkpt lat="-33.721693977713585" lon="23.054075986146927">
        <ele>965.29999999999995</ele>
        <time>2020-02-24T08:06:29Z</time>
      </trkpt>
      <trkpt lat="-33.72178802266717" lon="23.054298022761941">
        <ele>965.29999999999995</ele>
        <time>2020-02-24T08:06:30Z</time>
      </trkpt>
      <trkpt lat="-33.721872009336948" lon="23.054540008306503">
        <ele>966.25999999999999</ele>
        <time>2020-02-24T08:06:31Z</time>
      </trkpt>
      <trkpt lat="-33.722222037613392" lon="23.055374007672071">
        <ele>969.14999999999998</ele>
        <time>2020-02-24T08:06:35Z</time>
      </trkpt>
      <trkpt lat="-33.722336031496525" lon="23.055525971576571">
        <ele>970.59000000000003</ele>
        <time>2020-02-24T08:06:36Z</time>
      </trkpt>
      <trkpt lat="-33.722459999844432" lon="23.055653041228652">
        <ele>971.54999999999995</ele>
        <time>2020-02-24T08:06:37Z</time>
      </trkpt>
      <trkpt lat="-33.722600983455777" lon="23.055753959342837">
        <ele>973.95000000000005</ele>
        <time>2020-02-24T08:06:38Z</time>
      </trkpt>
      <trkpt lat="-33.722755964845419" lon="23.05582101456821">
        <ele>975.38999999999999</ele>
        <time>2020-02-24T08:06:39Z</time>
      </trkpt>
      <trkpt lat="-33.722919998690486" lon="23.055860996246338">
        <ele>977.79999999999995</ele>
        <time>2020-02-24T08:06:40Z</time>
      </trkpt>
      <trkpt lat="-33.723093001171947" lon="23.055869964882731">
        <ele>978.75999999999999</ele>
        <time>2020-02-24T08:06:41Z</time>
      </trkpt>
      <trkpt lat="-33.723269021138549" lon="23.055854039266706">
        <ele>980.20000000000005</ele>
        <time>2020-02-24T08:06:42Z</time>
      </trkpt>
      <trkpt lat="-33.723447974771261" lon="23.055811962112784">
        <ele>981.63999999999999</ele>
        <time>2020-02-24T08:06:43Z</time>
      </trkpt>
      <trkpt lat="-33.723628018051386" lon="23.055741973221302">
        <ele>983.09000000000003</ele>
        <time>2020-02-24T08:06:44Z</time>
      </trkpt>
      <trkpt lat="-33.723810994997621" lon="23.055643988773227">
        <ele>985.00999999999999</ele>
        <time>2020-02-24T08:06:45Z</time>
      </trkpt>
      <trkpt lat="-33.723994977772236" lon="23.055536029860377">
        <ele>986.45000000000005</ele>
        <time>2020-02-24T08:06:46Z</time>
      </trkpt>
      <trkpt lat="-33.724505016580224" lon="23.055193964391947">
        <ele>989.33000000000004</ele>
        <time>2020-02-24T08:06:49Z</time>
      </trkpt>
      <trkpt lat="-33.724619010463357" lon="23.055038983002305">
        <ele>988.85000000000002</ele>
        <time>2020-02-24T08:06:50Z</time>
      </trkpt>
      <trkpt lat="-33.724718000739813" lon="23.05487603880465">
        <ele>988.85000000000002</ele>
        <time>2020-02-24T08:06:51Z</time>
      </trkpt>
      <trkpt lat="-33.724794024601579" lon="23.054690966382623">
        <ele>987.88999999999999</ele>
        <time>2020-02-24T08:06:52Z</time>
      </trkpt>
      <trkpt lat="-33.724851021543145" lon="23.054492985829711">
        <ele>987.88999999999999</ele>
        <time>2020-02-24T08:06:53Z</time>
      </trkpt>
      <trkpt lat="-33.724891003221273" lon="23.054272038862109">
        <ele>986.45000000000005</ele>
        <time>2020-02-24T08:06:54Z</time>
      </trkpt>
      <trkpt lat="-33.72492796741426" lon="23.054046984761953">
        <ele>985.97000000000003</ele>
        <time>2020-02-24T08:06:55Z</time>
      </trkpt>
      <trkpt lat="-33.725024024024606" lon="23.053610036149621">
        <ele>985.49000000000001</ele>
        <time>2020-02-24T08:06:57Z</time>
      </trkpt>
      <trkpt lat="-33.725103987380862" lon="23.053397973999381">
        <ele>985.00999999999999</ele>
        <time>2020-02-24T08:06:58Z</time>
      </trkpt>
      <trkpt lat="-33.725214041769505" lon="23.053208962082863">
        <ele>985.49000000000001</ele>
        <time>2020-02-24T08:06:59Z</time>
      </trkpt>
      <trkpt lat="-33.725349996238947" lon="23.053036965429783">
        <ele>985.97000000000003</ele>
        <time>2020-02-24T08:07:00Z</time>
      </trkpt>
      <trkpt lat="-33.725497014820576" lon="23.052876032888889">
        <ele>985.97000000000003</ele>
        <time>2020-02-24T08:07:01Z</time>
      </trkpt>
      <trkpt lat="-33.72591401450336" lon="23.05236398242414">
        <ele>985.00999999999999</ele>
        <time>2020-02-24T08:07:04Z</time>
      </trkpt>
      <trkpt lat="-33.726959992200136" lon="23.050403958186507">
        <ele>972.50999999999999</ele>
        <time>2020-02-24T08:07:13Z</time>
      </trkpt>
      <trkpt lat="-33.727026041597128" lon="23.050174964591861">
        <ele>971.54999999999995</ele>
        <time>2020-02-24T08:07:14Z</time>
      </trkpt>
      <trkpt lat="-33.727064011618495" lon="23.049929961562157">
        <ele>970.59000000000003</ele>
        <time>2020-02-24T08:07:15Z</time>
      </trkpt>
      <trkpt lat="-33.727081026881933" lon="23.049672972410917">
        <ele>968.17999999999995</ele>
        <time>2020-02-24T08:07:16Z</time>
      </trkpt>
      <trkpt lat="-33.727083038538694" lon="23.049402991309762">
        <ele>966.74000000000001</ele>
        <time>2020-02-24T08:07:17Z</time>
      </trkpt>
      <trkpt lat="-33.727077003568411" lon="23.049126975238323">
        <ele>965.77999999999997</ele>
        <time>2020-02-24T08:07:18Z</time>
      </trkpt>
      <trkpt lat="-33.727168031036854" lon="23.048234973102808">
        <ele>960.98000000000002</ele>
        <time>2020-02-24T08:07:21Z</time>
      </trkpt>
      <trkpt lat="-33.72724799439311" lon="23.047948982566595">
        <ele>959.52999999999997</ele>
        <time>2020-02-24T08:07:22Z</time>
      </trkpt>
      <trkpt lat="-33.727360982447863" lon="23.047686964273453">
        <ele>958.57000000000005</ele>
        <time>2020-02-24T08:07:23Z</time>
      </trkpt>
      <trkpt lat="-33.727503977715969" lon="23.047439027577639">
        <ele>958.09000000000003</ele>
        <time>2020-02-24T08:07:24Z</time>
      </trkpt>
      <trkpt lat="-33.727670023217797" lon="23.047202993184328">
        <ele>956.64999999999998</ele>
        <time>2020-02-24T08:07:25Z</time>
      </trkpt>
      <trkpt lat="-33.727855011820793" lon="23.046980034559965">
        <ele>955.69000000000005</ele>
        <time>2020-02-24T08:07:26Z</time>
      </trkpt>
      <trkpt lat="-33.728059027343988" lon="23.046768978238106">
        <ele>953.76999999999998</ele>
        <time>2020-02-24T08:07:27Z</time>
      </trkpt>
      <trkpt lat="-33.72956701554358" lon="23.045066026970744">
        <ele>943.66999999999996</ele>
        <time>2020-02-24T08:07:35Z</time>
      </trkpt>
      <trkpt lat="-33.730253996327519" lon="23.043430969119072">
        <ele>931.16999999999996</ele>
        <time>2020-02-24T08:07:41Z</time>
      </trkpt>
      <trkpt lat="-33.73038399964571" lon="23.043170962482691">
        <ele>929.25</ele>
        <time>2020-02-24T08:07:42Z</time>
      </trkpt>
      <trkpt lat="-33.73053596355021" lon="23.042927971109748">
        <ele>927.80999999999995</ele>
        <time>2020-02-24T08:07:43Z</time>
      </trkpt>
      <trkpt lat="-33.73070796020329" lon="23.042703000828624">
        <ele>925.88999999999999</ele>
        <time>2020-02-24T08:07:44Z</time>
      </trkpt>
      <trkpt lat="-33.730900995433331" lon="23.042494961991906">
        <ele>923.48000000000002</ele>
        <time>2020-02-24T08:07:45Z</time>
      </trkpt>
      <trkpt lat="-33.731119008734822" lon="23.042297987267375">
        <ele>921.55999999999995</ele>
        <time>2020-02-24T08:07:46Z</time>
      </trkpt>
      <trkpt lat="-33.731358982622623" lon="23.042104030027986">
        <ele>919.15999999999997</ele>
        <time>2020-02-24T08:07:47Z</time>
      </trkpt>
      <trkpt lat="-33.733845977112651" lon="23.040150962769985">
        <ele>897.04999999999995</ele>
        <time>2020-02-24T08:07:57Z</time>
      </trkpt>
      <trkpt lat="-33.734092991799116" lon="23.039997993037105">
        <ele>895.12</ele>
        <time>2020-02-24T08:07:58Z</time>
      </trkpt>
      <trkpt lat="-33.734351992607117" lon="23.039879975840449">
        <ele>893.20000000000005</ele>
        <time>2020-02-24T08:07:59Z</time>
      </trkpt>
      <trkpt lat="-33.734619040042162" lon="23.03979498334229">
        <ele>890.32000000000005</ele>
        <time>2020-02-24T08:08:00Z</time>
      </trkpt>
      <trkpt lat="-33.734892960637808" lon="23.039736980572343">
        <ele>887.90999999999997</ele>
        <time>2020-02-24T08:08:01Z</time>
      </trkpt>
      <trkpt lat="-33.735171994194388" lon="23.039700016379356">
        <ele>886.47000000000003</ele>
        <time>2020-02-24T08:08:02Z</time>
      </trkpt>
      <trkpt lat="-33.73545597307384" lon="23.039683001115918">
        <ele>885.02999999999997</ele>
        <time>2020-02-24T08:08:03Z</time>
      </trkpt>
      <trkpt lat="-33.737768959254026" lon="23.039474962279201">
        <ele>882.14999999999998</ele>
        <time>2020-02-24T08:08:12Z</time>
      </trkpt>
      <trkpt lat="-33.739089025184512" lon="23.038782030344009">
        <ele>885.99000000000001</ele>
        <time>2020-02-24T08:08:18Z</time>
      </trkpt>
      <trkpt lat="-33.74013802036643" lon="23.037585010752082">
        <ele>886.95000000000005</ele>
        <time>2020-02-24T08:08:24Z</time>
      </trkpt>
      <trkpt lat="-33.740795999765396" lon="23.036000998690724">
        <ele>885.02999999999997</ele>
        <time>2020-02-24T08:08:30Z</time>
      </trkpt>
      <trkpt lat="-33.742145989090204" lon="23.031726982444525">
        <ele>881.66999999999996</ele>
        <time>2020-02-24T08:08:46Z</time>
      </trkpt>
      <trkpt lat="-33.742491994053125" lon="23.029709961265326">
        <ele>873.98000000000002</ele>
        <time>2020-02-24T08:08:54Z</time>
      </trkpt>
      <trkpt lat="-33.742331983521581" lon="23.027887986972928">
        <ele>869.16999999999996</ele>
        <time>2020-02-24T08:09:02Z</time>
      </trkpt>
      <trkpt lat="-33.742110030725598" lon="23.026342028751969">
        <ele>866.76999999999998</ele>
        <time>2020-02-24T08:09:11Z</time>
      </trkpt>
      <trkpt lat="-33.74202998355031" lon="23.025924023240805">
        <ele>864.84000000000003</ele>
        <time>2020-02-24T08:09:17Z</time>
      </trkpt>
      <trkpt lat="-33.742012968286872" lon="23.025904996320605">
        <ele>864.84000000000003</ele>
        <time>2020-02-24T08:09:27Z</time>
      </trkpt>
      <trkpt lat="-33.741999976336956" lon="23.025894016027451">
        <ele>864.84000000000003</ele>
        <time>2020-02-24T08:10:04Z</time>
      </trkpt>
      <trkpt lat="-33.742001987993717" lon="23.025898039340973">
        <ele>864.84000000000003</ele>
        <time>2020-02-24T08:11:29Z</time>
      </trkpt>
      <trkpt lat="-33.742003999650478" lon="23.025902984663844">
        <ele>864.84000000000003</ele>
        <time>2020-02-24T08:12:35Z</time>
      </trkpt>
      <trkpt lat="-33.741999976336956" lon="23.025827966630459">
        <ele>865.32000000000005</ele>
        <time>2020-02-24T08:14:17Z</time>
      </trkpt>
      <trkpt lat="-33.741958988830447" lon="23.025113996118307">
        <ele>863.88</ele>
        <time>2020-02-24T08:14:22Z</time>
      </trkpt>
      <trkpt lat="-33.742237016558647" lon="23.023712961003184">
        <ele>858.59000000000003</ele>
        <time>2020-02-24T08:14:28Z</time>
      </trkpt>
      <trkpt lat="-33.742818972095847" lon="23.021600972861052">
        <ele>848.5</ele>
        <time>2020-02-24T08:14:35Z</time>
      </trkpt>
      <trkpt lat="-33.742827018722892" lon="23.01964002661407">
        <ele>839.37</ele>
        <time>2020-02-24T08:14:41Z</time>
      </trkpt>
      <trkpt lat="-33.742639012634754" lon="23.014025995507836">
        <ele>821.10000000000002</ele>
        <time>2020-02-24T08:14:57Z</time>
      </trkpt>
      <trkpt lat="-33.742500962689519" lon="23.009636979550123">
        <ele>816.29999999999995</ele>
        <time>2020-02-24T08:15:09Z</time>
      </trkpt>
      <trkpt lat="-33.742563994601369" lon="23.006759975105524">
        <ele>809.09000000000003</ele>
        <time>2020-02-24T08:15:18Z</time>
      </trkpt>
      <trkpt lat="-33.742505991831422" lon="23.004792993888259">
        <ele>799.95000000000005</ele>
        <time>2020-02-24T08:15:25Z</time>
      </trkpt>
      <trkpt lat="-33.742053033784032" lon="23.003013012930751">
        <ele>790.82000000000005</ele>
        <time>2020-02-24T08:15:32Z</time>
      </trkpt>
      <trkpt lat="-33.742211032658815" lon="23.001461019739509">
        <ele>783.61000000000001</ele>
        <time>2020-02-24T08:15:38Z</time>
      </trkpt>
      <trkpt lat="-33.74293003231287" lon="22.999927969649434">
        <ele>775.91999999999996</ele>
        <time>2020-02-24T08:15:44Z</time>
      </trkpt>
      <trkpt lat="-33.743022987619042" lon="22.999663017690182">
        <ele>775.44000000000005</ele>
        <time>2020-02-24T08:15:45Z</time>
      </trkpt>
      <trkpt lat="-33.743092976510525" lon="22.999385995790362">
        <ele>774.48000000000002</ele>
        <time>2020-02-24T08:15:46Z</time>
      </trkpt>
      <trkpt lat="-33.743435963988304" lon="22.997485985979438">
        <ele>768.23000000000002</ele>
        <time>2020-02-24T08:15:52Z</time>
      </trkpt>
      <trkpt lat="-33.744138032197952" lon="22.993445992469788">
        <ele>757.17999999999995</ele>
        <time>2020-02-24T08:16:03Z</time>
      </trkpt>
      <trkpt lat="-33.744525024667382" lon="22.991411034017801">
        <ele>759.10000000000002</ele>
        <time>2020-02-24T08:16:10Z</time>
      </trkpt>
      <trkpt lat="-33.745262967422605" lon="22.989027975127101">
        <ele>756.69000000000005</ele>
        <time>2020-02-24T08:16:18Z</time>
      </trkpt>
      <trkpt lat="-33.746576998382807" lon="22.985016983002424">
        <ele>760.05999999999995</ele>
        <time>2020-02-24T08:16:31Z</time>
      </trkpt>
      <trkpt lat="-33.74671102501452" lon="22.983364993706346">
        <ele>762.94000000000005</ele>
        <time>2020-02-24T08:16:36Z</time>
      </trkpt>
      <trkpt lat="-33.746962985023856" lon="22.981489961966872">
        <ele>763.41999999999996</ele>
        <time>2020-02-24T08:16:42Z</time>
      </trkpt>
      <trkpt lat="-33.7478500418365" lon="22.979663964360952">
        <ele>756.69000000000005</ele>
        <time>2020-02-24T08:16:49Z</time>
      </trkpt>
      <trkpt lat="-33.748057996854186" lon="22.979088965803385">
        <ele>753.80999999999995</ele>
        <time>2020-02-24T08:16:51Z</time>
      </trkpt>
      <trkpt lat="-33.748127985745668" lon="22.978785960003734">
        <ele>752.37</ele>
        <time>2020-02-24T08:16:52Z</time>
      </trkpt>
      <trkpt lat="-33.748178025707603" lon="22.978471973910928">
        <ele>751.40999999999997</ele>
        <time>2020-02-24T08:16:53Z</time>
      </trkpt>
      <trkpt lat="-33.748207027092576" lon="22.9781539645046">
        <ele>751.40999999999997</ele>
        <time>2020-02-24T08:16:54Z</time>
      </trkpt>
      <trkpt lat="-33.748221024870872" lon="22.97783000394702">
        <ele>751.88999999999999</ele>
        <time>2020-02-24T08:16:55Z</time>
      </trkpt>
      <trkpt lat="-33.748349016532302" lon="22.97544602304697">
        <ele>747.08000000000004</ele>
        <time>2020-02-24T08:17:02Z</time>
      </trkpt>
      <trkpt lat="-33.749251998960972" lon="22.970039024949074">
        <ele>733.62</ele>
        <time>2020-02-24T08:17:18Z</time>
      </trkpt>
      <trkpt lat="-33.749843006953597" lon="22.967943968251348">
        <ele>725.92999999999995</ele>
        <time>2020-02-24T08:17:25Z</time>
      </trkpt>
      <trkpt lat="-33.750162022188306" lon="22.966104978695512">
        <ele>720.64999999999998</ele>
        <time>2020-02-24T08:17:31Z</time>
      </trkpt>
      <trkpt lat="-33.750216001644731" lon="22.964008999988437">
        <ele>717.27999999999997</ele>
        <time>2020-02-24T08:17:38Z</time>
      </trkpt>
      <trkpt lat="-33.750283978879452" lon="22.963729966431856">
        <ele>716.79999999999995</ele>
        <time>2020-02-24T08:17:39Z</time>
      </trkpt>
      <trkpt lat="-33.750375006347895" lon="22.963455962017179">
        <ele>715.84000000000003</ele>
        <time>2020-02-24T08:17:40Z</time>
      </trkpt>
      <trkpt lat="-33.750486988574266" lon="22.963190004229546">
        <ele>714.39999999999998</ele>
        <time>2020-02-24T08:17:41Z</time>
      </trkpt>
      <trkpt lat="-33.750615986064076" lon="22.962925974279642">
        <ele>712.95000000000005</ele>
        <time>2020-02-24T08:17:42Z</time>
      </trkpt>
      <trkpt lat="-33.751369016245008" lon="22.96100702136755">
        <ele>705.25999999999999</ele>
        <time>2020-02-24T08:17:49Z</time>
      </trkpt>
      <trkpt lat="-33.751402962952852" lon="22.960709966719151">
        <ele>704.77999999999997</ele>
        <time>2020-02-24T08:17:50Z</time>
      </trkpt>
      <trkpt lat="-33.751416960731149" lon="22.960410984233022">
        <ele>704.29999999999995</ele>
        <time>2020-02-24T08:17:51Z</time>
      </trkpt>
      <trkpt lat="-33.751471024006605" lon="22.958926968276501">
        <ele>702.38</ele>
        <time>2020-02-24T08:17:56Z</time>
      </trkpt>
      <trkpt lat="-33.751534977927804" lon="22.958639971911907">
        <ele>701.89999999999998</ele>
        <time>2020-02-24T08:17:57Z</time>
      </trkpt>
      <trkpt lat="-33.751619970425963" lon="22.958356998860836">
        <ele>700.94000000000005</ele>
        <time>2020-02-24T08:17:58Z</time>
      </trkpt>
      <trkpt lat="-33.751727007329464" lon="22.958084000274539">
        <ele>699.98000000000002</ele>
        <time>2020-02-24T08:17:59Z</time>
      </trkpt>
      <trkpt lat="-33.75184996984899" lon="22.957817036658525">
        <ele>698.52999999999997</ele>
        <time>2020-02-24T08:18:00Z</time>
      </trkpt>
      <trkpt lat="-33.752323966473341" lon="22.956446008756757">
        <ele>692.28999999999996</ele>
        <time>2020-02-24T08:18:05Z</time>
      </trkpt>
      <trkpt lat="-33.752383980900049" lon="22.955828011035919">
        <ele>691.33000000000004</ele>
        <time>2020-02-24T08:18:07Z</time>
      </trkpt>
      <trkpt lat="-33.752382975071669" lon="22.955506984144449">
        <ele>690.36000000000001</ele>
        <time>2020-02-24T08:18:08Z</time>
      </trkpt>
      <trkpt lat="-33.752359002828598" lon="22.955171959474683">
        <ele>690.36000000000001</ele>
        <time>2020-02-24T08:18:09Z</time>
      </trkpt>
      <trkpt lat="-33.752115005627275" lon="22.952683037146926">
        <ele>685.08000000000004</ele>
        <time>2020-02-24T08:18:16Z</time>
      </trkpt>
      <trkpt lat="-33.752173008397222" lon="22.95088998042047">
        <ele>680.75</ele>
        <time>2020-02-24T08:18:22Z</time>
      </trkpt>
      <trkpt lat="-33.752253977581859" lon="22.950604995712638">
        <ele>680.26999999999998</ele>
        <time>2020-02-24T08:18:23Z</time>
      </trkpt>
      <trkpt lat="-33.752355985343456" lon="22.950311964377761">
        <ele>679.30999999999995</ele>
        <time>2020-02-24T08:18:24Z</time>
      </trkpt>
      <trkpt lat="-33.753129970282316" lon="22.947594970464706">
        <ele>661.51999999999998</ele>
        <time>2020-02-24T08:18:33Z</time>
      </trkpt>
      <trkpt lat="-33.753496007993817" lon="22.945959996432066">
        <ele>651.42999999999995</ele>
        <time>2020-02-24T08:18:39Z</time>
      </trkpt>
      <trkpt lat="-33.75358703546226" lon="22.945742988958955">
        <ele>648.07000000000005</ele>
        <time>2020-02-24T08:18:40Z</time>
      </trkpt>
      <trkpt lat="-33.753701029345393" lon="22.945542996749282">
        <ele>646.13999999999999</ele>
        <time>2020-02-24T08:18:41Z</time>
      </trkpt>
      <trkpt lat="-33.753838995471597" lon="22.945364965125918">
        <ele>643.74000000000001</ele>
        <time>2020-02-24T08:18:42Z</time>
      </trkpt>
      <trkpt lat="-33.754003029316664" lon="22.945213001221418">
        <ele>641.82000000000005</ele>
        <time>2020-02-24T08:18:43Z</time>
      </trkpt>
      <trkpt lat="-33.754186006262898" lon="22.945095989853144">
        <ele>639.88999999999999</ele>
        <time>2020-02-24T08:18:44Z</time>
      </trkpt>
      <trkpt lat="-33.75438298098743" lon="22.945018038153648">
        <ele>637.97000000000003</ele>
        <time>2020-02-24T08:18:45Z</time>
      </trkpt>
      <trkpt lat="-33.754586996510625" lon="22.944978978484869">
        <ele>636.52999999999997</ele>
        <time>2020-02-24T08:18:46Z</time>
      </trkpt>
      <trkpt lat="-33.754797969013453" lon="22.944977972656488">
        <ele>634.61000000000001</ele>
        <time>2020-02-24T08:18:47Z</time>
      </trkpt>
      <trkpt lat="-33.754999972879887" lon="22.945006974041462">
        <ele>633.16999999999996</ele>
        <time>2020-02-24T08:18:48Z</time>
      </trkpt>
      <trkpt lat="-33.755198959261179" lon="22.945067994296551">
        <ele>630.75999999999999</ele>
        <time>2020-02-24T08:18:49Z</time>
      </trkpt>
      <trkpt lat="-33.755383025854826" lon="22.945163967087865">
        <ele>628.84000000000003</ele>
        <time>2020-02-24T08:18:50Z</time>
      </trkpt>
      <trkpt lat="-33.755557034164667" lon="22.945300005376339">
        <ele>627.39999999999998</ele>
        <time>2020-02-24T08:18:51Z</time>
      </trkpt>
      <trkpt lat="-33.755721990019083" lon="22.945468984544277">
        <ele>625.96000000000004</ele>
        <time>2020-02-24T08:18:52Z</time>
      </trkpt>
      <trkpt lat="-33.755878983065486" lon="22.94566897675395">
        <ele>624.99000000000001</ele>
        <time>2020-02-24T08:18:53Z</time>
      </trkpt>
      <trkpt lat="-33.756028013303876" lon="22.945892019197345">
        <ele>623.07000000000005</ele>
        <time>2020-02-24T08:18:54Z</time>
      </trkpt>
      <trkpt lat="-33.756179977208376" lon="22.946132998913527">
        <ele>621.14999999999998</ele>
        <time>2020-02-24T08:18:55Z</time>
      </trkpt>
      <trkpt lat="-33.756675012409687" lon="22.946808999404311">
        <ele>616.34000000000003</ele>
        <time>2020-02-24T08:18:58Z</time>
      </trkpt>
      <trkpt lat="-33.756861006841063" lon="22.946983007714152">
        <ele>614.89999999999998</ele>
        <time>2020-02-24T08:18:59Z</time>
      </trkpt>
      <trkpt lat="-33.757054964080453" lon="22.947134971618652">
        <ele>613.46000000000004</ele>
        <time>2020-02-24T08:19:00Z</time>
      </trkpt>
      <trkpt lat="-33.757613031193614" lon="22.947564041242003">
        <ele>609.13</ele>
        <time>2020-02-24T08:19:03Z</time>
      </trkpt>
      <trkpt lat="-33.757784022018313" lon="22.947738971561193">
        <ele>607.21000000000004</ele>
        <time>2020-02-24T08:19:04Z</time>
      </trkpt>
      <trkpt lat="-33.757944032549858" lon="22.947940975427628">
        <ele>605.28999999999996</ele>
        <time>2020-02-24T08:19:05Z</time>
      </trkpt>
      <trkpt lat="-33.758080992847681" lon="22.948162006214261">
        <ele>603.85000000000002</ele>
        <time>2020-02-24T08:19:06Z</time>
      </trkpt>
      <trkpt lat="-33.758198004215956" lon="22.948409020900726">
        <ele>602.39999999999998</ele>
        <time>2020-02-24T08:19:07Z</time>
      </trkpt>
      <trkpt lat="-33.758287020027637" lon="22.948691993951797">
        <ele>600.96000000000004</ele>
        <time>2020-02-24T08:19:08Z</time>
      </trkpt>
      <trkpt lat="-33.758385004475713" lon="22.948985025286674">
        <ele>599.03999999999996</ele>
        <time>2020-02-24T08:19:09Z</time>
      </trkpt>
      <trkpt lat="-33.759050024673343" lon="22.951325001195073">
        <ele>584.13999999999999</ele>
        <time>2020-02-24T08:19:16Z</time>
      </trkpt>
      <trkpt lat="-33.759930040687323" lon="22.953389966860414">
        <ele>570.20000000000005</ele>
        <time>2020-02-24T08:19:23Z</time>
      </trkpt>
      <trkpt lat="-33.760236985981464" lon="22.955093001946807">
        <ele>559.62</ele>
        <time>2020-02-24T08:19:29Z</time>
      </trkpt>
      <trkpt lat="-33.760116035118699" lon="22.957341028377414">
        <ele>547.61000000000001</ele>
        <time>2020-02-24T08:19:36Z</time>
      </trkpt>
      <trkpt lat="-33.759973961859941" lon="22.959491992369294">
        <ele>535.59000000000003</ele>
        <time>2020-02-24T08:19:44Z</time>
      </trkpt>
      <trkpt lat="-33.760116035118699" lon="22.960798982530832">
        <ele>527.89999999999998</ele>
        <time>2020-02-24T08:19:50Z</time>
      </trkpt>
      <trkpt lat="-33.760667983442545" lon="22.96188997104764">
        <ele>520.69000000000005</ele>
        <time>2020-02-24T08:19:57Z</time>
      </trkpt>
      <trkpt lat="-33.761498965322971" lon="22.962634032592177">
        <ele>513.48000000000002</ele>
        <time>2020-02-24T08:20:05Z</time>
      </trkpt>
      <trkpt lat="-33.761874977499247" lon="22.96279395930469">
        <ele>511.56</ele>
        <time>2020-02-24T08:20:11Z</time>
      </trkpt>
      <trkpt lat="-33.761921999976039" lon="22.962782979011536">
        <ele>511.07999999999998</ele>
        <time>2020-02-24T08:20:19Z</time>
      </trkpt>
      <trkpt lat="-33.762084022164345" lon="22.962765963748097">
        <ele>510.12</ele>
        <time>2020-02-24T08:20:37Z</time>
      </trkpt>
      <trkpt lat="-33.762759016826749" lon="22.962809968739748">
        <ele>509.16000000000003</ele>
        <time>2020-02-24T08:20:42Z</time>
      </trkpt>
      <trkpt lat="-33.763897027820349" lon="22.962572006508708">
        <ele>513.96000000000004</ele>
        <time>2020-02-24T08:20:48Z</time>
      </trkpt>
      <trkpt lat="-33.765500988811255" lon="22.9621890373528">
        <ele>525.5</ele>
        <time>2020-02-24T08:20:56Z</time>
      </trkpt>
      <trkpt lat="-33.768291994929314" lon="22.961724009364843">
        <ele>545.69000000000005</ele>
        <time>2020-02-24T08:21:11Z</time>
      </trkpt>
    </trkseg>
  </trk>

</gpx>