<?xml version="1.0" encoding="utf-8"?><gpx creator="Garmin Desktop App" version="1.1" xsi:schemaLocation="http://www.topografix.com/GPX/1/1 http://www.topografix.com/GPX/1/1/gpx.xsd http://www.garmin.com/xmlschemas/WaypointExtension/v1 http://www8.garmin.com/xmlschemas/WaypointExtensionv1.xsd http://www.garmin.com/xmlschemas/TrackPointExtension/v1 http://www.garmin.com/xmlschemas/TrackPointExtensionv1.xsd http://www.garmin.com/xmlschemas/GpxExtensions/v3 http://www8.garmin.com/xmlschemas/GpxExtensionsv3.xsd http://www.garmin.com/xmlschemas/ActivityExtension/v1 http://www8.garmin.com/xmlschemas/ActivityExtensionv1.xsd http://www.garmin.com/xmlschemas/AdventuresExtensions/v1 http://www8.garmin.com/xmlschemas/AdventuresExtensionv1.xsd http://www.garmin.com/xmlschemas/PressureExtension/v1 http://www.garmin.com/xmlschemas/PressureExtensionv1.xsd http://www.garmin.com/xmlschemas/TripExtensions/v1 http://www.garmin.com/xmlschemas/TripExtensionsv1.xsd http://www.garmin.com/xmlschemas/TripMetaDataExtensions/v1 http://www.garmin.com/xmlschemas/TripMetaDataExtensionsv1.xsd http://www.garmin.com/xmlschemas/ViaPointTransportationModeExtensions/v1 http://www.garmin.com/xmlschemas/ViaPointTransportationModeExtensionsv1.xsd http://www.garmin.com/xmlschemas/CreationTimeExtension/v1 http://www.garmin.com/xmlschemas/CreationTimeExtensionsv1.xsd http://www.garmin.com/xmlschemas/AccelerationExtension/v1 http://www.garmin.com/xmlschemas/AccelerationExtensionv1.xsd http://www.garmin.com/xmlschemas/PowerExtension/v1 http://www.garmin.com/xmlschemas/PowerExtensionv1.xsd http://www.garmin.com/xmlschemas/VideoExtension/v1 http://www.garmin.com/xmlschemas/VideoExtensionv1.xsd" xmlns="http://www.topografix.com/GPX/1/1" xmlns:xsi="http://www.w3.org/2001/XMLSchema-instance" xmlns:wptx1="http://www.garmin.com/xmlschemas/WaypointExtension/v1" xmlns:gpxtrx="http://www.garmin.com/xmlschemas/GpxExtensions/v3" xmlns:gpxtpx="http://www.garmin.com/xmlschemas/TrackPointExtension/v1" xmlns:gpxx="http://www.garmin.com/xmlschemas/GpxExtensions/v3" xmlns:trp="http://www.garmin.com/xmlschemas/TripExtensions/v1" xmlns:adv="http://www.garmin.com/xmlschemas/AdventuresExtensions/v1" xmlns:prs="http://www.garmin.com/xmlschemas/PressureExtension/v1" xmlns:tmd="http://www.garmin.com/xmlschemas/TripMetaDataExtensions/v1" xmlns:vptm="http://www.garmin.com/xmlschemas/ViaPointTransportationModeExtensions/v1" xmlns:ctx="http://www.garmin.com/xmlschemas/CreationTimeExtension/v1" xmlns:gpxacc="http://www.garmin.com/xmlschemas/AccelerationExtension/v1" xmlns:gpxpx="http://www.garmin.com/xmlschemas/PowerExtension/v1" xmlns:vidx1="http://www.garmin.com/xmlschemas/VideoExtension/v1">

  <metadata>
    <link href="http://www.garmin.com">
      <text>Garmin International</text>
    </link>
    <time>2023-01-21T10:00:22Z</time>
    <bounds maxlat="-34.151476984843612" maxlon="19.129537995904684" minlat="-34.197514001280069" minlon="18.949330011382699" />
  </metadata>

  <trk>
    <name>[119] Cole's Pass</name>
    <extensions>
      <gpxx:TrackExtension>
        <gpxx:DisplayColor>Blue</gpxx:DisplayColor>
      </gpxx:TrackExtension>
    </extensions>
    <trkseg>
      <trkpt lat="-34.197514001280069" lon="19.129537995904684">
        <ele>316.88999999999999</ele>
        <time>2020-02-25T09:42:46Z</time>
      </trkpt>
      <trkpt lat="-34.196284040808678" lon="19.128489000722766">
        <ele>319.77999999999997</ele>
        <time>2020-02-25T09:42:52Z</time>
      </trkpt>
      <trkpt lat="-34.194131987169385" lon="19.126829970628023">
        <ele>320.25999999999999</ele>
        <time>2020-02-25T09:43:03Z</time>
      </trkpt>
      <trkpt lat="-34.192756013944745" lon="19.12559699267149">
        <ele>314.97000000000003</ele>
        <time>2020-02-25T09:43:09Z</time>
      </trkpt>
      <trkpt lat="-34.191185999661684" lon="19.123796978965402">
        <ele>306.31999999999999</ele>
        <time>2020-02-25T09:43:17Z</time>
      </trkpt>
      <trkpt lat="-34.190477980300784" lon="19.122190000489354">
        <ele>301.02999999999997</ele>
        <time>2020-02-25T09:43:23Z</time>
      </trkpt>
      <trkpt lat="-34.190328028053045" lon="19.120452012866735">
        <ele>296.22000000000003</ele>
        <time>2020-02-25T09:43:29Z</time>
      </trkpt>
      <trkpt lat="-34.190650982782245" lon="19.118772028014064">
        <ele>285.17000000000002</ele>
        <time>2020-02-25T09:43:34Z</time>
      </trkpt>
      <trkpt lat="-34.191368976607919" lon="19.115519011393189">
        <ele>268.35000000000002</ele>
        <time>2020-02-25T09:43:43Z</time>
      </trkpt>
      <trkpt lat="-34.191872980445623" lon="19.112650975584984">
        <ele>255.37</ele>
        <time>2020-02-25T09:43:52Z</time>
      </trkpt>
      <trkpt lat="-34.192012958228588" lon="19.109872039407492">
        <ele>249.12</ele>
        <time>2020-02-25T09:44:00Z</time>
      </trkpt>
      <trkpt lat="-34.192688958719373" lon="19.107166025787592">
        <ele>245.27000000000001</ele>
        <time>2020-02-25T09:44:08Z</time>
      </trkpt>
      <trkpt lat="-34.193539973348379" lon="19.103889036923647">
        <ele>242.87</ele>
        <time>2020-02-25T09:44:18Z</time>
      </trkpt>
      <trkpt lat="-34.193840967491269" lon="19.102086005732417">
        <ele>245.75</ele>
        <time>2020-02-25T09:44:25Z</time>
      </trkpt>
      <trkpt lat="-34.193806014955044" lon="19.101347979158163">
        <ele>247.19999999999999</ele>
        <time>2020-02-25T09:44:28Z</time>
      </trkpt>
      <trkpt lat="-34.193322965875268" lon="19.099648967385292">
        <ele>246.72</ele>
        <time>2020-02-25T09:44:35Z</time>
      </trkpt>
      <trkpt lat="-34.192471029236913" lon="19.098414983600378">
        <ele>246.22999999999999</ele>
        <time>2020-02-25T09:44:41Z</time>
      </trkpt>
      <trkpt lat="-34.191138977184892" lon="19.097456010058522">
        <ele>241.43000000000001</ele>
        <time>2020-02-25T09:44:48Z</time>
      </trkpt>
      <trkpt lat="-34.188924981281161" lon="19.096015999093652">
        <ele>240.94999999999999</ele>
        <time>2020-02-25T09:45:00Z</time>
      </trkpt>
      <trkpt lat="-34.187832986935973" lon="19.094800036400557">
        <ele>248.63999999999999</ele>
        <time>2020-02-25T09:45:06Z</time>
      </trkpt>
      <trkpt lat="-34.186911983415484" lon="19.092913018539548">
        <ele>262.10000000000002</ele>
        <time>2020-02-25T09:45:13Z</time>
      </trkpt>
      <trkpt lat="-34.185746982693672" lon="19.089272003620863">
        <ele>277.48000000000002</ele>
        <time>2020-02-25T09:45:26Z</time>
      </trkpt>
      <trkpt lat="-34.184835031628609" lon="19.087394960224628">
        <ele>289.49000000000001</ele>
        <time>2020-02-25T09:45:33Z</time>
      </trkpt>
      <trkpt lat="-34.182822033762932" lon="19.084127023816109">
        <ele>308.72000000000003</ele>
        <time>2020-02-25T09:45:46Z</time>
      </trkpt>
      <trkpt lat="-34.179600030183792" lon="19.078861009329557">
        <ele>330.82999999999998</ele>
        <time>2020-02-25T09:46:07Z</time>
      </trkpt>
      <trkpt lat="-34.178873989731073" lon="19.077107012271881">
        <ele>331.79000000000002</ele>
        <time>2020-02-25T09:46:14Z</time>
      </trkpt>
      <trkpt lat="-34.178431006148458" lon="19.075213959440589">
        <ele>328.91000000000003</ele>
        <time>2020-02-25T09:46:23Z</time>
      </trkpt>
      <trkpt lat="-34.178241994231939" lon="19.072881024330854">
        <ele>333.23000000000002</ele>
        <time>2020-02-25T09:46:33Z</time>
      </trkpt>
      <trkpt lat="-34.178170999512076" lon="19.070856962352991">
        <ele>338.04000000000002</ele>
        <time>2020-02-25T09:46:39Z</time>
      </trkpt>
      <trkpt lat="-34.177976958453655" lon="19.066204000264406">
        <ele>334.68000000000001</ele>
        <time>2020-02-25T09:46:54Z</time>
      </trkpt>
      <trkpt lat="-34.177639000117779" lon="19.061983963474631">
        <ele>336.60000000000002</ele>
        <time>2020-02-25T09:47:08Z</time>
      </trkpt>
      <trkpt lat="-34.176893010735512" lon="19.059696961194277">
        <ele>339.48000000000002</ele>
        <time>2020-02-25T09:47:16Z</time>
      </trkpt>
      <trkpt lat="-34.174549011513591" lon="19.054576959460974">
        <ele>339.95999999999998</ele>
        <time>2020-02-25T09:47:35Z</time>
      </trkpt>
      <trkpt lat="-34.171675024554133" lon="19.04898296110332">
        <ele>329.87</ele>
        <time>2020-02-25T09:47:56Z</time>
      </trkpt>
      <trkpt lat="-34.168408010154963" lon="19.042631993070245">
        <ele>321.69999999999999</ele>
        <time>2020-02-25T09:48:20Z</time>
      </trkpt>
      <trkpt lat="-34.16726203635335" lon="19.040425037965178">
        <ele>316.88999999999999</ele>
        <time>2020-02-25T09:48:29Z</time>
      </trkpt>
      <trkpt lat="-34.165926966816187" lon="19.038331992924213">
        <ele>311.60000000000002</ele>
        <time>2020-02-25T09:48:39Z</time>
      </trkpt>
      <trkpt lat="-34.163169991225004" lon="19.034204995259643">
        <ele>321.69999999999999</ele>
        <time>2020-02-25T09:49:00Z</time>
      </trkpt>
      <trkpt lat="-34.162616031244397" lon="19.032491985708475">
        <ele>325.06</ele>
        <time>2020-02-25T09:49:07Z</time>
      </trkpt>
      <trkpt lat="-34.162560040131211" lon="19.030607985332608">
        <ele>325.54000000000002</ele>
        <time>2020-02-25T09:49:14Z</time>
      </trkpt>
      <trkpt lat="-34.163019033148885" lon="19.028719961643219">
        <ele>319.30000000000001</ele>
        <time>2020-02-25T09:49:21Z</time>
      </trkpt>
      <trkpt lat="-34.164043972268701" lon="19.026968982070684">
        <ele>308.72000000000003</ele>
        <time>2020-02-25T09:49:28Z</time>
      </trkpt>
      <trkpt lat="-34.164869002997875" lon="19.025117000564933">
        <ele>297.18000000000001</ele>
        <time>2020-02-25T09:49:35Z</time>
      </trkpt>
      <trkpt lat="-34.164990959689021" lon="19.023318998515606">
        <ele>285.64999999999998</ele>
        <time>2020-02-25T09:49:41Z</time>
      </trkpt>
      <trkpt lat="-34.164500031620264" lon="19.021485960111022">
        <ele>274.58999999999997</ele>
        <time>2020-02-25T09:49:47Z</time>
      </trkpt>
      <trkpt lat="-34.163436032831669" lon="19.018856976181269">
        <ele>274.58999999999997</ele>
        <time>2020-02-25T09:49:55Z</time>
      </trkpt>
      <trkpt lat="-34.162627011537552" lon="19.01602397672832">
        <ele>285.17000000000002</ele>
        <time>2020-02-25T09:50:04Z</time>
      </trkpt>
      <trkpt lat="-34.16236499324441" lon="19.013098021969199">
        <ele>288.52999999999997</ele>
        <time>2020-02-25T09:50:13Z</time>
      </trkpt>
      <trkpt lat="-34.162446968257427" lon="19.011646024882793">
        <ele>297.67000000000002</ele>
        <time>2020-02-25T09:50:19Z</time>
      </trkpt>
      <trkpt lat="-34.162952983751893" lon="19.008931964635849">
        <ele>312.08999999999997</ele>
        <time>2020-02-25T09:50:31Z</time>
      </trkpt>
      <trkpt lat="-34.163685981184244" lon="19.006811007857323">
        <ele>317.37</ele>
        <time>2020-02-25T09:50:39Z</time>
      </trkpt>
      <trkpt lat="-34.165018033236265" lon="19.004200967028737">
        <ele>324.10000000000002</ele>
        <time>2020-02-25T09:50:48Z</time>
      </trkpt>
      <trkpt lat="-34.166762977838516" lon="19.000708982348442">
        <ele>343.81</ele>
        <time>2020-02-25T09:51:00Z</time>
      </trkpt>
      <trkpt lat="-34.166891975328326" lon="19.000075981020927">
        <ele>348.13</ele>
        <time>2020-02-25T09:51:02Z</time>
      </trkpt>
      <trkpt lat="-34.166923994198442" lon="18.999752020463347">
        <ele>350.54000000000002</ele>
        <time>2020-02-25T09:51:03Z</time>
      </trkpt>
      <trkpt lat="-34.166932040825486" lon="18.999422024935484">
        <ele>352.45999999999998</ele>
        <time>2020-02-25T09:51:04Z</time>
      </trkpt>
      <trkpt lat="-34.166913013905287" lon="18.999097980558872">
        <ele>354.86000000000001</ele>
        <time>2020-02-25T09:51:05Z</time>
      </trkpt>
      <trkpt lat="-34.166871020570397" lon="18.99876999668777">
        <ele>357.26999999999998</ele>
        <time>2020-02-25T09:51:06Z</time>
      </trkpt>
      <trkpt lat="-34.166808994486928" lon="18.998455004766583">
        <ele>359.67000000000002</ele>
        <time>2020-02-25T09:51:07Z</time>
      </trkpt>
      <trkpt lat="-34.166730958968401" lon="18.998155016452074">
        <ele>361.58999999999997</ele>
        <time>2020-02-25T09:51:08Z</time>
      </trkpt>
      <trkpt lat="-34.166645966470242" lon="18.997874977067113">
        <ele>364</ele>
        <time>2020-02-25T09:51:09Z</time>
      </trkpt>
      <trkpt lat="-34.165984969586134" lon="18.996001034975052">
        <ele>375.52999999999997</ele>
        <time>2020-02-25T09:51:16Z</time>
      </trkpt>
      <trkpt lat="-34.165111994370818" lon="18.993243975564837">
        <ele>384.18000000000001</ele>
        <time>2020-02-25T09:51:24Z</time>
      </trkpt>
      <trkpt lat="-34.163697967305779" lon="18.988967025652528">
        <ele>393.80000000000001</ele>
        <time>2020-02-25T09:51:37Z</time>
      </trkpt>
      <trkpt lat="-34.162556016817689" lon="18.985500019043684">
        <ele>401.00999999999999</ele>
        <time>2020-02-25T09:51:49Z</time>
      </trkpt>
      <trkpt lat="-34.16094996035099" lon="18.980662990361452">
        <ele>421.68000000000001</ele>
        <time>2020-02-25T09:52:06Z</time>
      </trkpt>
      <trkpt lat="-34.159655962139368" lon="18.976817959919572">
        <ele>440.42000000000002</ele>
        <time>2020-02-25T09:52:19Z</time>
      </trkpt>
      <trkpt lat="-34.158558016642928" lon="18.974994979798794">
        <ele>445.23000000000002</ele>
        <time>2020-02-25T09:52:26Z</time>
      </trkpt>
      <trkpt lat="-34.15508296340704" lon="18.969676997512579">
        <ele>447.14999999999998</ele>
        <time>2020-02-25T09:52:47Z</time>
      </trkpt>
      <trkpt lat="-34.152922024950385" lon="18.966003963723779">
        <ele>446.67000000000002</ele>
        <time>2020-02-25T09:53:01Z</time>
      </trkpt>
      <trkpt lat="-34.152454985305667" lon="18.963817041367292">
        <ele>438.5</ele>
        <time>2020-02-25T09:53:08Z</time>
      </trkpt>
      <trkpt lat="-34.152134964242578" lon="18.961155032739043">
        <ele>430.32999999999998</ele>
        <time>2020-02-25T09:53:16Z</time>
      </trkpt>
      <trkpt lat="-34.151801029220223" lon="18.958193035796285">
        <ele>419.26999999999998</ele>
        <time>2020-02-25T09:53:25Z</time>
      </trkpt>
      <trkpt lat="-34.151476984843612" lon="18.954809010028839">
        <ele>397.63999999999999</ele>
        <time>2020-02-25T09:53:36Z</time>
      </trkpt>
      <trkpt lat="-34.15164403617382" lon="18.95212696865201">
        <ele>384.18000000000001</ele>
        <time>2020-02-25T09:53:44Z</time>
      </trkpt>
      <trkpt lat="-34.152024993672967" lon="18.949330011382699">
        <ele>378.42000000000002</ele>
        <time>2020-02-25T09:53:54Z</time>
      </trkpt>
    </trkseg>
  </trk>

</gpx>