<?xml version="1.0" encoding="utf-8"?><gpx creator="Garmin Desktop App" version="1.1" xsi:schemaLocation="http://www.topografix.com/GPX/1/1 http://www.topografix.com/GPX/1/1/gpx.xsd http://www.garmin.com/xmlschemas/WaypointExtension/v1 http://www8.garmin.com/xmlschemas/WaypointExtensionv1.xsd http://www.garmin.com/xmlschemas/TrackPointExtension/v1 http://www.garmin.com/xmlschemas/TrackPointExtensionv1.xsd http://www.garmin.com/xmlschemas/GpxExtensions/v3 http://www8.garmin.com/xmlschemas/GpxExtensionsv3.xsd http://www.garmin.com/xmlschemas/ActivityExtension/v1 http://www8.garmin.com/xmlschemas/ActivityExtensionv1.xsd http://www.garmin.com/xmlschemas/AdventuresExtensions/v1 http://www8.garmin.com/xmlschemas/AdventuresExtensionv1.xsd http://www.garmin.com/xmlschemas/PressureExtension/v1 http://www.garmin.com/xmlschemas/PressureExtensionv1.xsd http://www.garmin.com/xmlschemas/TripExtensions/v1 http://www.garmin.com/xmlschemas/TripExtensionsv1.xsd http://www.garmin.com/xmlschemas/TripMetaDataExtensions/v1 http://www.garmin.com/xmlschemas/TripMetaDataExtensionsv1.xsd http://www.garmin.com/xmlschemas/ViaPointTransportationModeExtensions/v1 http://www.garmin.com/xmlschemas/ViaPointTransportationModeExtensionsv1.xsd http://www.garmin.com/xmlschemas/CreationTimeExtension/v1 http://www.garmin.com/xmlschemas/CreationTimeExtensionsv1.xsd http://www.garmin.com/xmlschemas/AccelerationExtension/v1 http://www.garmin.com/xmlschemas/AccelerationExtensionv1.xsd http://www.garmin.com/xmlschemas/PowerExtension/v1 http://www.garmin.com/xmlschemas/PowerExtensionv1.xsd http://www.garmin.com/xmlschemas/VideoExtension/v1 http://www.garmin.com/xmlschemas/VideoExtensionv1.xsd" xmlns="http://www.topografix.com/GPX/1/1" xmlns:xsi="http://www.w3.org/2001/XMLSchema-instance" xmlns:wptx1="http://www.garmin.com/xmlschemas/WaypointExtension/v1" xmlns:gpxtrx="http://www.garmin.com/xmlschemas/GpxExtensions/v3" xmlns:gpxtpx="http://www.garmin.com/xmlschemas/TrackPointExtension/v1" xmlns:gpxx="http://www.garmin.com/xmlschemas/GpxExtensions/v3" xmlns:trp="http://www.garmin.com/xmlschemas/TripExtensions/v1" xmlns:adv="http://www.garmin.com/xmlschemas/AdventuresExtensions/v1" xmlns:prs="http://www.garmin.com/xmlschemas/PressureExtension/v1" xmlns:tmd="http://www.garmin.com/xmlschemas/TripMetaDataExtensions/v1" xmlns:vptm="http://www.garmin.com/xmlschemas/ViaPointTransportationModeExtensions/v1" xmlns:ctx="http://www.garmin.com/xmlschemas/CreationTimeExtension/v1" xmlns:gpxacc="http://www.garmin.com/xmlschemas/AccelerationExtension/v1" xmlns:gpxpx="http://www.garmin.com/xmlschemas/PowerExtension/v1" xmlns:vidx1="http://www.garmin.com/xmlschemas/VideoExtension/v1">

  <metadata>
    <link href="http://www.garmin.com">
      <text>Garmin International</text>
    </link>
    <time>2023-01-21T13:39:22Z</time>
    <bounds maxlat="-34.141012011095881" maxlon="18.342148968949914" minlat="-34.164894986897707" minlon="18.322484018281102" />
  </metadata>

  <trk>
    <name>[154] Slangkop Pass</name>
    <extensions>
      <gpxx:TrackExtension>
        <gpxx:DisplayColor>Blue</gpxx:DisplayColor>
      </gpxx:TrackExtension>
    </extensions>
    <trkseg>
      <trkpt lat="-34.141012011095881" lon="18.325545005500317">
        <ele>10.23</ele>
        <time>2020-03-13T10:26:39Z</time>
      </trkpt>
      <trkpt lat="-34.141120975837111" lon="18.325480967760086">
        <ele>9.75</ele>
        <time>2020-03-13T10:26:40Z</time>
      </trkpt>
      <trkpt lat="-34.141231030225754" lon="18.325433023273945">
        <ele>9.75</ele>
        <time>2020-03-13T10:26:41Z</time>
      </trkpt>
      <trkpt lat="-34.141334965825081" lon="18.325395975261927">
        <ele>10.23</ele>
        <time>2020-03-13T10:26:42Z</time>
      </trkpt>
      <trkpt lat="-34.14152598939836" lon="18.325356999412179">
        <ele>11.19</ele>
        <time>2020-03-13T10:26:44Z</time>
      </trkpt>
      <trkpt lat="-34.14163202047348" lon="18.325355993583798">
        <ele>11.19</ele>
        <time>2020-03-13T10:26:45Z</time>
      </trkpt>
      <trkpt lat="-34.14268596097827" lon="18.325403016060591">
        <ele>16</ele>
        <time>2020-03-13T10:26:53Z</time>
      </trkpt>
      <trkpt lat="-34.143844004720449" lon="18.325364040210843">
        <ele>24.649999999999999</ele>
        <time>2020-03-13T10:27:01Z</time>
      </trkpt>
      <trkpt lat="-34.143976019695401" lon="18.325322968885303">
        <ele>25.609999999999999</ele>
        <time>2020-03-13T10:27:02Z</time>
      </trkpt>
      <trkpt lat="-34.144105017185211" lon="18.325268989428878">
        <ele>27.050000000000001</ele>
        <time>2020-03-13T10:27:03Z</time>
      </trkpt>
      <trkpt lat="-34.144683033227921" lon="18.325018035247922">
        <ele>31.379999999999999</ele>
        <time>2020-03-13T10:27:08Z</time>
      </trkpt>
      <trkpt lat="-34.144774982705712" lon="18.324944023042917">
        <ele>32.340000000000003</ele>
        <time>2020-03-13T10:27:09Z</time>
      </trkpt>
      <trkpt lat="-34.14485402405262" lon="18.3248430211097">
        <ele>32.82</ele>
        <time>2020-03-13T10:27:10Z</time>
      </trkpt>
      <trkpt lat="-34.145194999873638" lon="18.324532974511385">
        <ele>36.189999999999998</ele>
        <time>2020-03-13T10:27:14Z</time>
      </trkpt>
      <trkpt lat="-34.145299019291997" lon="18.324504978954792">
        <ele>36.670000000000002</ele>
        <time>2020-03-13T10:27:15Z</time>
      </trkpt>
      <trkpt lat="-34.145606970414519" lon="18.324375981464982">
        <ele>39.07</ele>
        <time>2020-03-13T10:27:18Z</time>
      </trkpt>
      <trkpt lat="-34.14569498039782" lon="18.32428595982492">
        <ele>40.030000000000001</ele>
        <time>2020-03-13T10:27:19Z</time>
      </trkpt>
      <trkpt lat="-34.145775027573109" lon="18.324193004518747">
        <ele>40.990000000000002</ele>
        <time>2020-03-13T10:27:20Z</time>
      </trkpt>
      <trkpt lat="-34.146825028583407" lon="18.322847038507462">
        <ele>52.049999999999997</ele>
        <time>2020-03-13T10:27:33Z</time>
      </trkpt>
      <trkpt lat="-34.146904991939664" lon="18.32275902852416">
        <ele>52.530000000000001</ele>
        <time>2020-03-13T10:27:34Z</time>
      </trkpt>
      <trkpt lat="-34.146995013579726" lon="18.322689961642027">
        <ele>53.490000000000002</ele>
        <time>2020-03-13T10:27:35Z</time>
      </trkpt>
      <trkpt lat="-34.147095009684563" lon="18.32263195887208">
        <ele>53.969999999999999</ele>
        <time>2020-03-13T10:27:36Z</time>
      </trkpt>
      <trkpt lat="-34.147199029102921" lon="18.322583008557558">
        <ele>54.93</ele>
        <time>2020-03-13T10:27:37Z</time>
      </trkpt>
      <trkpt lat="-34.147301958873868" lon="18.32254403270781">
        <ele>55.890000000000001</ele>
        <time>2020-03-13T10:27:38Z</time>
      </trkpt>
      <trkpt lat="-34.147404972463846" lon="18.322512013837695">
        <ele>56.369999999999997</ele>
        <time>2020-03-13T10:27:39Z</time>
      </trkpt>
      <trkpt lat="-34.147511003538966" lon="18.322492986917496">
        <ele>57.340000000000003</ele>
        <time>2020-03-13T10:27:40Z</time>
      </trkpt>
      <trkpt lat="-34.147617034614086" lon="18.322484018281102">
        <ele>57.82</ele>
        <time>2020-03-13T10:27:41Z</time>
      </trkpt>
      <trkpt lat="-34.147728011012077" lon="18.322490975260735">
        <ele>58.780000000000001</ele>
        <time>2020-03-13T10:27:42Z</time>
      </trkpt>
      <trkpt lat="-34.14784200489521" lon="18.322510002180934">
        <ele>59.259999999999998</ele>
        <time>2020-03-13T10:27:43Z</time>
      </trkpt>
      <trkpt lat="-34.147957004606724" lon="18.322535986080766">
        <ele>60.219999999999999</ele>
        <time>2020-03-13T10:27:44Z</time>
      </trkpt>
      <trkpt lat="-34.148075021803379" lon="18.322574039921165">
        <ele>61.18</ele>
        <time>2020-03-13T10:27:45Z</time>
      </trkpt>
      <trkpt lat="-34.148303009569645" lon="18.322663977742195">
        <ele>63.100000000000001</ele>
        <time>2020-03-13T10:27:47Z</time>
      </trkpt>
      <trkpt lat="-34.148409962654114" lon="18.322728015482426">
        <ele>63.579999999999998</ele>
        <time>2020-03-13T10:27:48Z</time>
      </trkpt>
      <trkpt lat="-34.148512976244092" lon="18.322809990495443">
        <ele>64.549999999999997</ele>
        <time>2020-03-13T10:27:49Z</time>
      </trkpt>
      <trkpt lat="-34.149507991969585" lon="18.323952024802566">
        <ele>74.159999999999997</ele>
        <time>2020-03-13T10:27:59Z</time>
      </trkpt>
      <trkpt lat="-34.150894023478031" lon="18.325340989977121">
        <ele>87.620000000000005</ele>
        <time>2020-03-13T10:28:12Z</time>
      </trkpt>
      <trkpt lat="-34.151873029768467" lon="18.326222011819482">
        <ele>96.269999999999996</ele>
        <time>2020-03-13T10:28:22Z</time>
      </trkpt>
      <trkpt lat="-34.152847006917" lon="18.326831040903926">
        <ele>103.48</ele>
        <time>2020-03-13T10:28:32Z</time>
      </trkpt>
      <trkpt lat="-34.152923030778766" lon="18.326914021745324">
        <ele>103.95999999999999</ele>
        <time>2020-03-13T10:28:33Z</time>
      </trkpt>
      <trkpt lat="-34.152994025498629" lon="18.327006977051497">
        <ele>104.44</ele>
        <time>2020-03-13T10:28:34Z</time>
      </trkpt>
      <trkpt lat="-34.153054961934686" lon="18.327105967327952">
        <ele>105.40000000000001</ele>
        <time>2020-03-13T10:28:35Z</time>
      </trkpt>
      <trkpt lat="-34.153110031038523" lon="18.327213004231453">
        <ele>105.88</ele>
        <time>2020-03-13T10:28:36Z</time>
      </trkpt>
      <trkpt lat="-34.153163004666567" lon="18.327324986457825">
        <ele>106.36</ele>
        <time>2020-03-13T10:28:37Z</time>
      </trkpt>
      <trkpt lat="-34.153210027143359" lon="18.327444009482861">
        <ele>106.84</ele>
        <time>2020-03-13T10:28:38Z</time>
      </trkpt>
      <trkpt lat="-34.153253026306629" lon="18.327566972002387">
        <ele>106.84</ele>
        <time>2020-03-13T10:28:39Z</time>
      </trkpt>
      <trkpt lat="-34.153677988797426" lon="18.328781006857753">
        <ele>104.92</ele>
        <time>2020-03-13T10:28:48Z</time>
      </trkpt>
      <trkpt lat="-34.153767004609108" lon="18.328895000740886">
        <ele>103.95999999999999</ele>
        <time>2020-03-13T10:28:49Z</time>
      </trkpt>
      <trkpt lat="-34.153863983228803" lon="18.329000025987625">
        <ele>103.48</ele>
        <time>2020-03-13T10:28:50Z</time>
      </trkpt>
      <trkpt lat="-34.155020015314221" lon="18.330119010061026">
        <ele>95.790000000000006</ele>
        <time>2020-03-13T10:29:00Z</time>
      </trkpt>
      <trkpt lat="-34.156252993270755" lon="18.33128803409636">
        <ele>88.099999999999994</ele>
        <time>2020-03-13T10:29:10Z</time>
      </trkpt>
      <trkpt lat="-34.156404035165906" lon="18.331359028816223">
        <ele>87.140000000000001</ele>
        <time>2020-03-13T10:29:11Z</time>
      </trkpt>
      <trkpt lat="-34.15656597353518" lon="18.331402027979493">
        <ele>86.659999999999997</ele>
        <time>2020-03-13T10:29:12Z</time>
      </trkpt>
      <trkpt lat="-34.158159960061312" lon="18.3319559879601">
        <ele>78.480000000000004</ele>
        <time>2020-03-13T10:29:21Z</time>
      </trkpt>
      <trkpt lat="-34.159520007669926" lon="18.332737013697624">
        <ele>70.310000000000002</ele>
        <time>2020-03-13T10:29:30Z</time>
      </trkpt>
      <trkpt lat="-34.161061020568013" lon="18.333705039694905">
        <ele>61.659999999999997</ele>
        <time>2020-03-13T10:29:40Z</time>
      </trkpt>
      <trkpt lat="-34.161669965833426" lon="18.333973009139299">
        <ele>58.299999999999997</ele>
        <time>2020-03-13T10:29:44Z</time>
      </trkpt>
      <trkpt lat="-34.161808015778661" lon="18.334073005244136">
        <ele>58.299999999999997</ele>
        <time>2020-03-13T10:29:45Z</time>
      </trkpt>
      <trkpt lat="-34.162688031792641" lon="18.335110014304519">
        <ele>64.069999999999993</ele>
        <time>2020-03-13T10:29:53Z</time>
      </trkpt>
      <trkpt lat="-34.163505015894771" lon="18.336902987211943">
        <ele>71.760000000000005</ele>
        <time>2020-03-13T10:30:04Z</time>
      </trkpt>
      <trkpt lat="-34.163797041401267" lon="18.337491983547807">
        <ele>74.159999999999997</ele>
        <time>2020-03-13T10:30:08Z</time>
      </trkpt>
      <trkpt lat="-34.163880022242665" lon="18.337602959945798">
        <ele>73.680000000000007</ele>
        <time>2020-03-13T10:30:09Z</time>
      </trkpt>
      <trkpt lat="-34.163969960063696" lon="18.337708991020918">
        <ele>73.680000000000007</ele>
        <time>2020-03-13T10:30:10Z</time>
      </trkpt>
      <trkpt lat="-34.164084037765861" lon="18.337803035974503">
        <ele>74.640000000000001</ele>
        <time>2020-03-13T10:30:11Z</time>
      </trkpt>
      <trkpt lat="-34.164189985021949" lon="18.337880987673998">
        <ele>74.159999999999997</ele>
        <time>2020-03-13T10:30:12Z</time>
      </trkpt>
      <trkpt lat="-34.164498019963503" lon="18.338120961561799">
        <ele>74.159999999999997</ele>
        <time>2020-03-13T10:30:15Z</time>
      </trkpt>
      <trkpt lat="-34.164587035775185" lon="18.338225986808538">
        <ele>74.640000000000001</ele>
        <time>2020-03-13T10:30:16Z</time>
      </trkpt>
      <trkpt lat="-34.164673034101725" lon="18.338347021490335">
        <ele>74.640000000000001</ele>
        <time>2020-03-13T10:30:17Z</time>
      </trkpt>
      <trkpt lat="-34.164738999679685" lon="18.338480964303017">
        <ele>74.640000000000001</ele>
        <time>2020-03-13T10:30:18Z</time>
      </trkpt>
      <trkpt lat="-34.164788033813238" lon="18.338623037561774">
        <ele>75.599999999999994</ele>
        <time>2020-03-13T10:30:19Z</time>
      </trkpt>
      <trkpt lat="-34.164818963035941" lon="18.338784975931048">
        <ele>75.599999999999994</ele>
        <time>2020-03-13T10:30:20Z</time>
      </trkpt>
      <trkpt lat="-34.164840001612902" lon="18.338949009776115">
        <ele>75.599999999999994</ele>
        <time>2020-03-13T10:30:21Z</time>
      </trkpt>
      <trkpt lat="-34.16485802270472" lon="18.339112959802151">
        <ele>75.599999999999994</ele>
        <time>2020-03-13T10:30:22Z</time>
      </trkpt>
      <trkpt lat="-34.164894986897707" lon="18.340510977432132">
        <ele>71.269999999999996</ele>
        <time>2020-03-13T10:30:31Z</time>
      </trkpt>
      <trkpt lat="-34.164645038545132" lon="18.342004967853427">
        <ele>65.989999999999995</ele>
        <time>2020-03-13T10:30:41Z</time>
      </trkpt>
      <trkpt lat="-34.164655013009906" lon="18.342148968949914">
        <ele>65.510000000000005</ele>
        <time>2020-03-13T10:30:42Z</time>
      </trkpt>
    </trkseg>
  </trk>

</gpx>