<?xml version="1.0" encoding="utf-8"?><gpx creator="Garmin Desktop App" version="1.1" xsi:schemaLocation="http://www.topografix.com/GPX/1/1 http://www.topografix.com/GPX/1/1/gpx.xsd http://www.garmin.com/xmlschemas/WaypointExtension/v1 http://www8.garmin.com/xmlschemas/WaypointExtensionv1.xsd http://www.garmin.com/xmlschemas/TrackPointExtension/v1 http://www.garmin.com/xmlschemas/TrackPointExtensionv1.xsd http://www.garmin.com/xmlschemas/GpxExtensions/v3 http://www8.garmin.com/xmlschemas/GpxExtensionsv3.xsd http://www.garmin.com/xmlschemas/ActivityExtension/v1 http://www8.garmin.com/xmlschemas/ActivityExtensionv1.xsd http://www.garmin.com/xmlschemas/AdventuresExtensions/v1 http://www8.garmin.com/xmlschemas/AdventuresExtensionv1.xsd http://www.garmin.com/xmlschemas/PressureExtension/v1 http://www.garmin.com/xmlschemas/PressureExtensionv1.xsd http://www.garmin.com/xmlschemas/TripExtensions/v1 http://www.garmin.com/xmlschemas/TripExtensionsv1.xsd http://www.garmin.com/xmlschemas/TripMetaDataExtensions/v1 http://www.garmin.com/xmlschemas/TripMetaDataExtensionsv1.xsd http://www.garmin.com/xmlschemas/ViaPointTransportationModeExtensions/v1 http://www.garmin.com/xmlschemas/ViaPointTransportationModeExtensionsv1.xsd http://www.garmin.com/xmlschemas/CreationTimeExtension/v1 http://www.garmin.com/xmlschemas/CreationTimeExtensionsv1.xsd http://www.garmin.com/xmlschemas/AccelerationExtension/v1 http://www.garmin.com/xmlschemas/AccelerationExtensionv1.xsd http://www.garmin.com/xmlschemas/PowerExtension/v1 http://www.garmin.com/xmlschemas/PowerExtensionv1.xsd http://www.garmin.com/xmlschemas/VideoExtension/v1 http://www.garmin.com/xmlschemas/VideoExtensionv1.xsd" xmlns="http://www.topografix.com/GPX/1/1" xmlns:xsi="http://www.w3.org/2001/XMLSchema-instance" xmlns:wptx1="http://www.garmin.com/xmlschemas/WaypointExtension/v1" xmlns:gpxtrx="http://www.garmin.com/xmlschemas/GpxExtensions/v3" xmlns:gpxtpx="http://www.garmin.com/xmlschemas/TrackPointExtension/v1" xmlns:gpxx="http://www.garmin.com/xmlschemas/GpxExtensions/v3" xmlns:trp="http://www.garmin.com/xmlschemas/TripExtensions/v1" xmlns:adv="http://www.garmin.com/xmlschemas/AdventuresExtensions/v1" xmlns:prs="http://www.garmin.com/xmlschemas/PressureExtension/v1" xmlns:tmd="http://www.garmin.com/xmlschemas/TripMetaDataExtensions/v1" xmlns:vptm="http://www.garmin.com/xmlschemas/ViaPointTransportationModeExtensions/v1" xmlns:ctx="http://www.garmin.com/xmlschemas/CreationTimeExtension/v1" xmlns:gpxacc="http://www.garmin.com/xmlschemas/AccelerationExtension/v1" xmlns:gpxpx="http://www.garmin.com/xmlschemas/PowerExtension/v1" xmlns:vidx1="http://www.garmin.com/xmlschemas/VideoExtension/v1">

  <metadata>
    <link href="http://www.garmin.com">
      <text>Garmin International</text>
    </link>
    <time>2023-01-21T13:39:58Z</time>
    <bounds maxlat="-34.233773108571768" maxlon="18.475894974544644" minlat="-34.262152975425124" minlon="18.456328008323908" />
  </metadata>

  <trk>
    <name>[156] Smitswinkel Pass</name>
    <extensions>
      <gpxx:TrackExtension>
        <gpxx:DisplayColor>Blue</gpxx:DisplayColor>
      </gpxx:TrackExtension>
    </extensions>
    <trkseg>
      <trkpt lat="-34.257519040256739" lon="18.456328008323908">
        <ele>138.56999999999999</ele>
        <time>2020-03-13T12:51:05Z</time>
      </trkpt>
      <trkpt lat="-34.257728001102805" lon="18.457119008526206">
        <ele>141.93000000000001</ele>
        <time>2020-03-13T12:51:12Z</time>
      </trkpt>
      <trkpt lat="-34.25812304019928" lon="18.458657003939152">
        <ele>142.88999999999999</ele>
        <time>2020-03-13T12:51:21Z</time>
      </trkpt>
      <trkpt lat="-34.258746989071369" lon="18.459802977740765">
        <ele>139.05000000000001</ele>
        <time>2020-03-13T12:51:28Z</time>
      </trkpt>
      <trkpt lat="-34.260039981454611" lon="18.462016973644495">
        <ele>122.70999999999999</ele>
        <time>2020-03-13T12:51:41Z</time>
      </trkpt>
      <trkpt lat="-34.260953022167087" lon="18.463720008730888">
        <ele>111.17</ele>
        <time>2020-03-13T12:51:51Z</time>
      </trkpt>
      <trkpt lat="-34.261363986879587" lon="18.464471027255058">
        <ele>109.25</ele>
        <time>2020-03-13T12:51:56Z</time>
      </trkpt>
      <trkpt lat="-34.26201400347054" lon="18.465526979416609">
        <ele>102.52</ele>
        <time>2020-03-13T12:52:05Z</time>
      </trkpt>
      <trkpt lat="-34.262152975425124" lon="18.466352010145783">
        <ele>97.709999999999994</ele>
        <time>2020-03-13T12:52:12Z</time>
      </trkpt>
      <trkpt lat="-34.262136965990067" lon="18.466453012079">
        <ele>96.269999999999996</ele>
        <time>2020-03-13T12:52:13Z</time>
      </trkpt>
      <trkpt lat="-34.262092960998416" lon="18.466547979041934">
        <ele>96.269999999999996</ele>
        <time>2020-03-13T12:52:14Z</time>
      </trkpt>
      <trkpt lat="-34.262033030390739" lon="18.466634983196855">
        <ele>95.790000000000006</ele>
        <time>2020-03-13T12:52:15Z</time>
      </trkpt>
      <trkpt lat="-34.261963963508606" lon="18.466717964038253">
        <ele>94.829999999999998</ele>
        <time>2020-03-13T12:52:16Z</time>
      </trkpt>
      <trkpt lat="-34.261889029294252" lon="18.466802034527063">
        <ele>93.870000000000005</ele>
        <time>2020-03-13T12:52:17Z</time>
      </trkpt>
      <trkpt lat="-34.261345965787768" lon="18.467557998374104">
        <ele>88.099999999999994</ele>
        <time>2020-03-13T12:52:24Z</time>
      </trkpt>
      <trkpt lat="-34.261247981339693" lon="18.467661011964083">
        <ele>87.620000000000005</ele>
        <time>2020-03-13T12:52:25Z</time>
      </trkpt>
      <trkpt lat="-34.260234022513032" lon="18.46847103908658">
        <ele>79.930000000000007</ele>
        <time>2020-03-13T12:52:34Z</time>
      </trkpt>
      <trkpt lat="-34.26014400087297" lon="18.468576986342669">
        <ele>79.450000000000003</ele>
        <time>2020-03-13T12:52:35Z</time>
      </trkpt>
      <trkpt lat="-34.260070994496346" lon="18.468695003539324">
        <ele>78.480000000000004</ele>
        <time>2020-03-13T12:52:36Z</time>
      </trkpt>
      <trkpt lat="-34.259189972653985" lon="18.47029896453023">
        <ele>70.790000000000006</ele>
        <time>2020-03-13T12:52:48Z</time>
      </trkpt>
      <trkpt lat="-34.258937006816268" lon="18.470926014706492">
        <ele>68.870000000000005</ele>
        <time>2020-03-13T12:52:53Z</time>
      </trkpt>
      <trkpt lat="-34.258873974904418" lon="18.471036991104484">
        <ele>69.349999999999994</ele>
        <time>2020-03-13T12:52:54Z</time>
      </trkpt>
      <trkpt lat="-34.258798034861684" lon="18.471138998866081">
        <ele>68.870000000000005</ele>
        <time>2020-03-13T12:52:55Z</time>
      </trkpt>
      <trkpt lat="-34.258033018559217" lon="18.472253037616611">
        <ele>68.390000000000001</ele>
        <time>2020-03-13T12:53:05Z</time>
      </trkpt>
      <trkpt lat="-34.257965963333845" lon="18.472354039549828">
        <ele>67.909999999999997</ele>
        <time>2020-03-13T12:53:06Z</time>
      </trkpt>
      <trkpt lat="-34.257887005805969" lon="18.472441965714097">
        <ele>66.950000000000003</ele>
        <time>2020-03-13T12:53:07Z</time>
      </trkpt>
      <trkpt lat="-34.257793966680765" lon="18.472521007061005">
        <ele>66.469999999999999</ele>
        <time>2020-03-13T12:53:08Z</time>
      </trkpt>
      <trkpt lat="-34.257692964747548" lon="18.472594013437629">
        <ele>65.989999999999995</ele>
        <time>2020-03-13T12:53:09Z</time>
      </trkpt>
      <trkpt lat="-34.257585005834699" lon="18.472662996500731">
        <ele>65.510000000000005</ele>
        <time>2020-03-13T12:53:10Z</time>
      </trkpt>
      <trkpt lat="-34.256644975394011" lon="18.473246963694692">
        <ele>62.140000000000001</ele>
        <time>2020-03-13T12:53:18Z</time>
      </trkpt>
      <trkpt lat="-34.256546990945935" lon="18.473346959799528">
        <ele>62.140000000000001</ele>
        <time>2020-03-13T12:53:19Z</time>
      </trkpt>
      <trkpt lat="-34.256459986791015" lon="18.473461037501693">
        <ele>61.659999999999997</ele>
        <time>2020-03-13T12:53:20Z</time>
      </trkpt>
      <trkpt lat="-34.256386980414391" lon="18.473582994192839">
        <ele>60.700000000000003</ele>
        <time>2020-03-13T12:53:21Z</time>
      </trkpt>
      <trkpt lat="-34.256327971816063" lon="18.473720960319042">
        <ele>60.219999999999999</ele>
        <time>2020-03-13T12:53:22Z</time>
      </trkpt>
      <trkpt lat="-34.256281033158302" lon="18.473867978900671">
        <ele>60.219999999999999</ele>
        <time>2020-03-13T12:53:23Z</time>
      </trkpt>
      <trkpt lat="-34.256238033995032" lon="18.47401600331068">
        <ele>59.740000000000002</ele>
        <time>2020-03-13T12:53:24Z</time>
      </trkpt>
      <trkpt lat="-34.256190005689859" lon="18.474157992750406">
        <ele>59.259999999999998</ele>
        <time>2020-03-13T12:53:25Z</time>
      </trkpt>
      <trkpt lat="-34.256136026233435" lon="18.47429403103888">
        <ele>58.780000000000001</ele>
        <time>2020-03-13T12:53:26Z</time>
      </trkpt>
      <trkpt lat="-34.256060002371669" lon="18.4744259621948">
        <ele>58.299999999999997</ele>
        <time>2020-03-13T12:53:27Z</time>
      </trkpt>
      <trkpt lat="-34.255977021530271" lon="18.474540039896965">
        <ele>57.82</ele>
        <time>2020-03-13T12:53:28Z</time>
      </trkpt>
      <trkpt lat="-34.255882976576686" lon="18.474641041830182">
        <ele>57.340000000000003</ele>
        <time>2020-03-13T12:53:29Z</time>
      </trkpt>
      <trkpt lat="-34.255775017663836" lon="18.474731985479593">
        <ele>56.859999999999999</ele>
        <time>2020-03-13T12:53:30Z</time>
      </trkpt>
      <trkpt lat="-34.255663035437465" lon="18.474813960492611">
        <ele>56.369999999999997</ele>
        <time>2020-03-13T12:53:31Z</time>
      </trkpt>
      <trkpt lat="-34.255547029897571" lon="18.474885039031506">
        <ele>55.890000000000001</ele>
        <time>2020-03-13T12:53:32Z</time>
      </trkpt>
      <trkpt lat="-34.255422977730632" lon="18.474954022094607">
        <ele>55.409999999999997</ele>
        <time>2020-03-13T12:53:33Z</time>
      </trkpt>
      <trkpt lat="-34.254223024472594" lon="18.475213022902608">
        <ele>53.490000000000002</ele>
        <time>2020-03-13T12:53:42Z</time>
      </trkpt>
      <trkpt lat="-34.253286011517048" lon="18.475032979622483">
        <ele>54.450000000000003</ele>
        <time>2020-03-13T12:53:49Z</time>
      </trkpt>
      <trkpt lat="-34.253146033734083" lon="18.475045971572399">
        <ele>54.450000000000003</ele>
        <time>2020-03-13T12:53:50Z</time>
      </trkpt>
      <trkpt lat="-34.253007983788848" lon="18.475073967128992">
        <ele>54.93</ele>
        <time>2020-03-13T12:53:51Z</time>
      </trkpt>
      <trkpt lat="-34.252874040976167" lon="18.475113026797771">
        <ele>54.450000000000003</ele>
        <time>2020-03-13T12:53:52Z</time>
      </trkpt>
      <trkpt lat="-34.252739008516073" lon="18.475173963233829">
        <ele>54.93</ele>
        <time>2020-03-13T12:53:53Z</time>
      </trkpt>
      <trkpt lat="-34.252609005197883" lon="18.475244035944343">
        <ele>54.93</ele>
        <time>2020-03-13T12:53:54Z</time>
      </trkpt>
      <trkpt lat="-34.252356961369514" lon="18.475360963493586">
        <ele>55.890000000000001</ele>
        <time>2020-03-13T12:53:56Z</time>
      </trkpt>
      <trkpt lat="-34.252229975536466" lon="18.475402034819126">
        <ele>56.369999999999997</ele>
        <time>2020-03-13T12:53:57Z</time>
      </trkpt>
      <trkpt lat="-34.252098966389894" lon="18.475417960435152">
        <ele>56.369999999999997</ele>
        <time>2020-03-13T12:53:58Z</time>
      </trkpt>
      <trkpt lat="-34.251972986385226" lon="18.475403962656856">
        <ele>56.369999999999997</ele>
        <time>2020-03-13T12:53:59Z</time>
      </trkpt>
      <trkpt lat="-34.251844994723797" lon="18.475373033434153">
        <ele>56.369999999999997</ele>
        <time>2020-03-13T12:54:00Z</time>
      </trkpt>
      <trkpt lat="-34.251719014719129" lon="18.475322993472219">
        <ele>56.859999999999999</ele>
        <time>2020-03-13T12:54:01Z</time>
      </trkpt>
      <trkpt lat="-34.25159202888608" lon="18.475273959338665">
        <ele>56.859999999999999</ele>
        <time>2020-03-13T12:54:02Z</time>
      </trkpt>
      <trkpt lat="-34.250415964052081" lon="18.475115960463881">
        <ele>57.340000000000003</ele>
        <time>2020-03-13T12:54:10Z</time>
      </trkpt>
      <trkpt lat="-34.249134035781026" lon="18.475081007927656">
        <ele>55.890000000000001</ele>
        <time>2020-03-13T12:54:19Z</time>
      </trkpt>
      <trkpt lat="-34.249002020806074" lon="18.475106991827488">
        <ele>56.369999999999997</ele>
        <time>2020-03-13T12:54:20Z</time>
      </trkpt>
      <trkpt lat="-34.248872017487884" lon="18.47515401430428">
        <ele>56.859999999999999</ele>
        <time>2020-03-13T12:54:21Z</time>
      </trkpt>
      <trkpt lat="-34.248619973659515" lon="18.475238000974059">
        <ele>57.340000000000003</ele>
        <time>2020-03-13T12:54:23Z</time>
      </trkpt>
      <trkpt lat="-34.248488964512944" lon="18.475269014015794">
        <ele>58.299999999999997</ele>
        <time>2020-03-13T12:54:24Z</time>
      </trkpt>
      <trkpt lat="-34.248360972851515" lon="18.475267002359033">
        <ele>57.340000000000003</ele>
        <time>2020-03-13T12:54:25Z</time>
      </trkpt>
      <trkpt lat="-34.24824002198875" lon="18.475243030115962">
        <ele>56.369999999999997</ele>
        <time>2020-03-13T12:54:26Z</time>
      </trkpt>
      <trkpt lat="-34.248109012842178" lon="18.475220985710621">
        <ele>56.859999999999999</ele>
        <time>2020-03-13T12:54:27Z</time>
      </trkpt>
      <trkpt lat="-34.24798596650362" lon="18.47517304122448">
        <ele>56.859999999999999</ele>
        <time>2020-03-13T12:54:28Z</time>
      </trkpt>
      <trkpt lat="-34.247867027297616" lon="18.475112020969391">
        <ele>56.859999999999999</ele>
        <time>2020-03-13T12:54:29Z</time>
      </trkpt>
      <trkpt lat="-34.247745992615819" lon="18.475043959915638">
        <ele>56.859999999999999</ele>
        <time>2020-03-13T12:54:30Z</time>
      </trkpt>
      <trkpt lat="-34.247391019016504" lon="18.474829969927669">
        <ele>56.859999999999999</ele>
        <time>2020-03-13T12:54:33Z</time>
      </trkpt>
      <trkpt lat="-34.247263027355075" lon="18.474779007956386">
        <ele>56.859999999999999</ele>
        <time>2020-03-13T12:54:34Z</time>
      </trkpt>
      <trkpt lat="-34.24712497740984" lon="18.474751012399793">
        <ele>57.340000000000003</ele>
        <time>2020-03-13T12:54:35Z</time>
      </trkpt>
      <trkpt lat="-34.246988017112017" lon="18.474731985479593">
        <ele>56.859999999999999</ele>
        <time>2020-03-13T12:54:36Z</time>
      </trkpt>
      <trkpt lat="-34.246851978823543" lon="18.474716981872916">
        <ele>55.409999999999997</ele>
        <time>2020-03-13T12:54:37Z</time>
      </trkpt>
      <trkpt lat="-34.246014039963484" lon="18.474554037675261">
        <ele>48.68</ele>
        <time>2020-03-13T12:54:43Z</time>
      </trkpt>
      <trkpt lat="-34.245870038866997" lon="18.474478013813496">
        <ele>47.719999999999999</ele>
        <time>2020-03-13T12:54:44Z</time>
      </trkpt>
      <trkpt lat="-34.244661033153534" lon="18.4738630335778">
        <ele>42.439999999999998</ele>
        <time>2020-03-13T12:54:52Z</time>
      </trkpt>
      <trkpt lat="-34.24450303427875" lon="18.473830008879304">
        <ele>41.950000000000003</ele>
        <time>2020-03-13T12:54:53Z</time>
      </trkpt>
      <trkpt lat="-34.244337994605303" lon="18.47382003441453">
        <ele>41.950000000000003</ele>
        <time>2020-03-13T12:54:54Z</time>
      </trkpt>
      <trkpt lat="-34.244172032922506" lon="18.47382397390902">
        <ele>42.439999999999998</ele>
        <time>2020-03-13T12:54:55Z</time>
      </trkpt>
      <trkpt lat="-34.244004981592298" lon="18.473834032192826">
        <ele>42.439999999999998</ele>
        <time>2020-03-13T12:54:56Z</time>
      </trkpt>
      <trkpt lat="-34.242744008079171" lon="18.473784998059273">
        <ele>42.439999999999998</ele>
        <time>2020-03-13T12:55:04Z</time>
      </trkpt>
      <trkpt lat="-34.242604030296206" lon="18.473805030807853">
        <ele>42.439999999999998</ele>
        <time>2020-03-13T12:55:05Z</time>
      </trkpt>
      <trkpt lat="-34.242470003664494" lon="18.473834032192826">
        <ele>41.469999999999999</ele>
        <time>2020-03-13T12:55:06Z</time>
      </trkpt>
      <trkpt lat="-34.241412961855531" lon="18.474339041858912">
        <ele>35.229999999999997</ele>
        <time>2020-03-13T12:55:14Z</time>
      </trkpt>
      <trkpt lat="-34.240091973915696" lon="18.475257027894258">
        <ele>25.609999999999999</ele>
        <time>2020-03-13T12:55:25Z</time>
      </trkpt>
      <trkpt lat="-34.239994995296001" lon="18.475356018170714">
        <ele>25.129999999999999</ele>
        <time>2020-03-13T12:55:26Z</time>
      </trkpt>
      <trkpt lat="-34.239536002278328" lon="18.475809982046485">
        <ele>22.73</ele>
        <time>2020-03-13T12:55:31Z</time>
      </trkpt>
      <trkpt lat="-34.239436006173491" lon="18.475863039493561">
        <ele>21.289999999999999</ele>
        <time>2020-03-13T12:55:32Z</time>
      </trkpt>
      <trkpt lat="-34.239330980926752" lon="18.475892962887883">
        <ele>20.809999999999999</ele>
        <time>2020-03-13T12:55:33Z</time>
      </trkpt>
      <trkpt lat="-34.239226961508393" lon="18.475894974544644">
        <ele>19.84</ele>
        <time>2020-03-13T12:55:34Z</time>
      </trkpt>
      <trkpt lat="-34.239123025909066" lon="18.475871002301574">
        <ele>18.879999999999999</ele>
        <time>2020-03-13T12:55:35Z</time>
      </trkpt>
      <trkpt lat="-34.239015989005566" lon="18.475836971774697">
        <ele>18.399999999999999</ele>
        <time>2020-03-13T12:55:36Z</time>
      </trkpt>
      <trkpt lat="-34.238909035921097" lon="18.475793972611427">
        <ele>17.440000000000001</ele>
        <time>2020-03-13T12:55:37Z</time>
      </trkpt>
      <trkpt lat="-34.238801999017596" lon="18.475738987326622">
        <ele>16.960000000000001</ele>
        <time>2020-03-13T12:55:38Z</time>
      </trkpt>
      <trkpt lat="-34.238691022619605" lon="18.475675033405423">
        <ele>16.48</ele>
        <time>2020-03-13T12:55:39Z</time>
      </trkpt>
      <trkpt lat="-34.238579040393233" lon="18.475607978180051">
        <ele>16.48</ele>
        <time>2020-03-13T12:55:40Z</time>
      </trkpt>
      <trkpt lat="-34.237537002190948" lon="18.475127024576068">
        <ele>13.6</ele>
        <time>2020-03-13T12:55:49Z</time>
      </trkpt>
      <trkpt lat="-34.237417979165912" lon="18.47511000931263">
        <ele>12.630000000000001</ele>
        <time>2020-03-13T12:55:50Z</time>
      </trkpt>
      <trkpt lat="-34.236911041662097" lon="18.475063992664218">
        <ele>10.710000000000001</ele>
        <time>2020-03-13T12:55:54Z</time>
      </trkpt>
      <trkpt lat="-34.236781038343906" lon="18.475026022642851">
        <ele>10.710000000000001</ele>
        <time>2020-03-13T12:55:55Z</time>
      </trkpt>
      <trkpt lat="-34.235849976539612" lon="18.474686974659562">
        <ele>9.27</ele>
        <time>2020-03-13T12:56:02Z</time>
      </trkpt>
      <trkpt lat="-34.235707987099886" lon="18.474679011851549">
        <ele>9.27</ele>
        <time>2020-03-13T12:56:03Z</time>
      </trkpt>
      <trkpt lat="-34.235277995467186" lon="18.474642969667912">
        <ele>9.75</ele>
        <time>2020-03-13T12:56:06Z</time>
      </trkpt>
      <trkpt lat="-34.235141035169363" lon="18.474602987989783">
        <ele>9.75</ele>
        <time>2020-03-13T12:56:07Z</time>
      </trkpt>
      <trkpt lat="-34.235003991052508" lon="18.474550014361739">
        <ele>10.23</ele>
        <time>2020-03-13T12:56:08Z</time>
      </trkpt>
      <trkpt lat="-34.234870970249176" lon="18.474484970793128">
        <ele>10.710000000000001</ele>
        <time>2020-03-13T12:56:09Z</time>
      </trkpt>
      <trkpt lat="-34.234739961102605" lon="18.474408024922013">
        <ele>11.19</ele>
        <time>2020-03-13T12:56:10Z</time>
      </trkpt>
      <trkpt lat="-34.233773108571768" lon="18.473745184019208">
        <ele>20.32</ele>
        <time>2020-03-13T12:56:21Z</time>
      </trkpt>
    </trkseg>
  </trk>

</gpx>