<?xml version="1.0" encoding="utf-8"?><gpx creator="Garmin Desktop App" version="1.1" xsi:schemaLocation="http://www.topografix.com/GPX/1/1 http://www.topografix.com/GPX/1/1/gpx.xsd http://www.garmin.com/xmlschemas/WaypointExtension/v1 http://www8.garmin.com/xmlschemas/WaypointExtensionv1.xsd http://www.garmin.com/xmlschemas/TrackPointExtension/v1 http://www.garmin.com/xmlschemas/TrackPointExtensionv1.xsd http://www.garmin.com/xmlschemas/GpxExtensions/v3 http://www8.garmin.com/xmlschemas/GpxExtensionsv3.xsd http://www.garmin.com/xmlschemas/ActivityExtension/v1 http://www8.garmin.com/xmlschemas/ActivityExtensionv1.xsd http://www.garmin.com/xmlschemas/AdventuresExtensions/v1 http://www8.garmin.com/xmlschemas/AdventuresExtensionv1.xsd http://www.garmin.com/xmlschemas/PressureExtension/v1 http://www.garmin.com/xmlschemas/PressureExtensionv1.xsd http://www.garmin.com/xmlschemas/TripExtensions/v1 http://www.garmin.com/xmlschemas/TripExtensionsv1.xsd http://www.garmin.com/xmlschemas/TripMetaDataExtensions/v1 http://www.garmin.com/xmlschemas/TripMetaDataExtensionsv1.xsd http://www.garmin.com/xmlschemas/ViaPointTransportationModeExtensions/v1 http://www.garmin.com/xmlschemas/ViaPointTransportationModeExtensionsv1.xsd http://www.garmin.com/xmlschemas/CreationTimeExtension/v1 http://www.garmin.com/xmlschemas/CreationTimeExtensionsv1.xsd http://www.garmin.com/xmlschemas/AccelerationExtension/v1 http://www.garmin.com/xmlschemas/AccelerationExtensionv1.xsd http://www.garmin.com/xmlschemas/PowerExtension/v1 http://www.garmin.com/xmlschemas/PowerExtensionv1.xsd http://www.garmin.com/xmlschemas/VideoExtension/v1 http://www.garmin.com/xmlschemas/VideoExtensionv1.xsd" xmlns="http://www.topografix.com/GPX/1/1" xmlns:xsi="http://www.w3.org/2001/XMLSchema-instance" xmlns:wptx1="http://www.garmin.com/xmlschemas/WaypointExtension/v1" xmlns:gpxtrx="http://www.garmin.com/xmlschemas/GpxExtensions/v3" xmlns:gpxtpx="http://www.garmin.com/xmlschemas/TrackPointExtension/v1" xmlns:gpxx="http://www.garmin.com/xmlschemas/GpxExtensions/v3" xmlns:trp="http://www.garmin.com/xmlschemas/TripExtensions/v1" xmlns:adv="http://www.garmin.com/xmlschemas/AdventuresExtensions/v1" xmlns:prs="http://www.garmin.com/xmlschemas/PressureExtension/v1" xmlns:tmd="http://www.garmin.com/xmlschemas/TripMetaDataExtensions/v1" xmlns:vptm="http://www.garmin.com/xmlschemas/ViaPointTransportationModeExtensions/v1" xmlns:ctx="http://www.garmin.com/xmlschemas/CreationTimeExtension/v1" xmlns:gpxacc="http://www.garmin.com/xmlschemas/AccelerationExtension/v1" xmlns:gpxpx="http://www.garmin.com/xmlschemas/PowerExtension/v1" xmlns:vidx1="http://www.garmin.com/xmlschemas/VideoExtension/v1">

  <metadata>
    <link href="http://www.garmin.com">
      <text>Garmin International</text>
    </link>
    <time>2023-01-21T13:43:43Z</time>
    <bounds maxlat="-34.069016994908452" maxlon="19.091603010892868" minlat="-34.115405716001987" minlon="19.048718009144068" />
  </metadata>

  <trk>
    <name>[171] Viljoen's Pass</name>
    <extensions>
      <gpxx:TrackExtension>
        <gpxx:DisplayColor>Blue</gpxx:DisplayColor>
      </gpxx:TrackExtension>
    </extensions>
    <trkseg>
      <trkpt lat="-34.073797026649117" lon="19.091603010892868">
        <ele>328.91000000000003</ele>
        <time>2020-03-17T12:03:22Z</time>
      </trkpt>
      <trkpt lat="-34.073756039142609" lon="19.09132900647819">
        <ele>328.91000000000003</ele>
        <time>2020-03-17T12:03:23Z</time>
      </trkpt>
      <trkpt lat="-34.073701975867152" lon="19.091044021770358">
        <ele>329.38999999999999</ele>
        <time>2020-03-17T12:03:24Z</time>
      </trkpt>
      <trkpt lat="-34.07360902056098" lon="19.089109981432557">
        <ele>337.07999999999998</ele>
        <time>2020-03-17T12:03:30Z</time>
      </trkpt>
      <trkpt lat="-34.07410598360002" lon="19.084414020180702">
        <ele>350.54000000000002</ele>
        <time>2020-03-17T12:03:44Z</time>
      </trkpt>
      <trkpt lat="-34.074673019349575" lon="19.080473016947508">
        <ele>364</ele>
        <time>2020-03-17T12:03:56Z</time>
      </trkpt>
      <trkpt lat="-34.075333010405302" lon="19.077401971444488">
        <ele>373.61000000000001</ele>
        <time>2020-03-17T12:04:06Z</time>
      </trkpt>
      <trkpt lat="-34.075955031439662" lon="19.074560003355145">
        <ele>381.77999999999997</ele>
        <time>2020-03-17T12:04:17Z</time>
      </trkpt>
      <trkpt lat="-34.076406983658671" lon="19.072298984974623">
        <ele>390.43000000000001</ele>
        <time>2020-03-17T12:04:26Z</time>
      </trkpt>
      <trkpt lat="-34.076416036114097" lon="19.072045013308525">
        <ele>390.43000000000001</ele>
        <time>2020-03-17T12:04:27Z</time>
      </trkpt>
      <trkpt lat="-34.076396003365517" lon="19.071785006672144">
        <ele>388.99000000000001</ele>
        <time>2020-03-17T12:04:28Z</time>
      </trkpt>
      <trkpt lat="-34.076359961181879" lon="19.071522988379002">
        <ele>388.50999999999999</ele>
        <time>2020-03-17T12:04:29Z</time>
      </trkpt>
      <trkpt lat="-34.076306987553835" lon="19.071258958429098">
        <ele>388.02999999999997</ele>
        <time>2020-03-17T12:04:30Z</time>
      </trkpt>
      <trkpt lat="-34.076238004490733" lon="19.070999035611749">
        <ele>388.50999999999999</ele>
        <time>2020-03-17T12:04:31Z</time>
      </trkpt>
      <trkpt lat="-34.076147982850671" lon="19.070745985955">
        <ele>388.50999999999999</ele>
        <time>2020-03-17T12:04:32Z</time>
      </trkpt>
      <trkpt lat="-34.076043041422963" lon="19.070501988753676">
        <ele>388.50999999999999</ele>
        <time>2020-03-17T12:04:33Z</time>
      </trkpt>
      <trkpt lat="-34.075924018397927" lon="19.07027299515903">
        <ele>388.99000000000001</ele>
        <time>2020-03-17T12:04:34Z</time>
      </trkpt>
      <trkpt lat="-34.075788985937834" lon="19.070065962150693">
        <ele>389.94999999999999</ele>
        <time>2020-03-17T12:04:35Z</time>
      </trkpt>
      <trkpt lat="-34.075623024255037" lon="19.069887008517981">
        <ele>392.36000000000001</ele>
        <time>2020-03-17T12:04:36Z</time>
      </trkpt>
      <trkpt lat="-34.07545798458159" lon="19.069713000208139">
        <ele>393.80000000000001</ele>
        <time>2020-03-17T12:04:37Z</time>
      </trkpt>
      <trkpt lat="-34.075279030948877" lon="19.069557012990117">
        <ele>396.68000000000001</ele>
        <time>2020-03-17T12:04:38Z</time>
      </trkpt>
      <trkpt lat="-34.07509496435523" lon="19.069412006065249">
        <ele>399.07999999999998</ele>
        <time>2020-03-17T12:04:39Z</time>
      </trkpt>
      <trkpt lat="-34.074908969923854" lon="19.069287031888962">
        <ele>402.93000000000001</ele>
        <time>2020-03-17T12:04:40Z</time>
      </trkpt>
      <trkpt lat="-34.074701014906168" lon="19.069167003035545">
        <ele>404.37</ele>
        <time>2020-03-17T12:04:41Z</time>
      </trkpt>
      <trkpt lat="-34.072552984580398" lon="19.068292016163468">
        <ele>426.95999999999998</ele>
        <time>2020-03-17T12:04:51Z</time>
      </trkpt>
      <trkpt lat="-34.07214998267591" lon="19.068267960101366">
        <ele>430.81</ele>
        <time>2020-03-17T12:04:53Z</time>
      </trkpt>
      <trkpt lat="-34.071954013779759" lon="19.068298973143101">
        <ele>432.25</ele>
        <time>2020-03-17T12:04:54Z</time>
      </trkpt>
      <trkpt lat="-34.071755027398467" lon="19.068357981741428">
        <ele>433.69</ele>
        <time>2020-03-17T12:04:55Z</time>
      </trkpt>
      <trkpt lat="-34.070216026157141" lon="19.069274961948395">
        <ele>447.14999999999998</ele>
        <time>2020-03-17T12:05:03Z</time>
      </trkpt>
      <trkpt lat="-34.069383032619953" lon="19.070096975192428">
        <ele>454.36000000000001</ele>
        <time>2020-03-17T12:05:09Z</time>
      </trkpt>
      <trkpt lat="-34.069230984896421" lon="19.070280035957694">
        <ele>456.27999999999997</ele>
        <time>2020-03-17T12:05:11Z</time>
      </trkpt>
      <trkpt lat="-34.069160996004939" lon="19.070325968787074">
        <ele>457.24000000000001</ele>
        <time>2020-03-17T12:05:12Z</time>
      </trkpt>
      <trkpt lat="-34.069097964093089" lon="19.070324040949345">
        <ele>456.75999999999999</ele>
        <time>2020-03-17T12:05:13Z</time>
      </trkpt>
      <trkpt lat="-34.069043984636664" lon="19.070297973230481">
        <ele>457.72000000000003</ele>
        <time>2020-03-17T12:05:14Z</time>
      </trkpt>
      <trkpt lat="-34.069016994908452" lon="19.070244999602437">
        <ele>458.20999999999998</ele>
        <time>2020-03-17T12:05:15Z</time>
      </trkpt>
      <trkpt lat="-34.069025963544846" lon="19.070171993225813">
        <ele>458.69</ele>
        <time>2020-03-17T12:05:16Z</time>
      </trkpt>
      <trkpt lat="-34.069059994071722" lon="19.070112984627485">
        <ele>459.17000000000002</ele>
        <time>2020-03-17T12:05:17Z</time>
      </trkpt>
      <trkpt lat="-34.06911900267005" lon="19.070053976029158">
        <ele>458.69</ele>
        <time>2020-03-17T12:05:18Z</time>
      </trkpt>
      <trkpt lat="-34.069195026531816" lon="19.069998990744352">
        <ele>458.20999999999998</ele>
        <time>2020-03-17T12:05:19Z</time>
      </trkpt>
      <trkpt lat="-34.069285970181227" lon="19.069940987974405">
        <ele>458.69</ele>
        <time>2020-03-17T12:05:20Z</time>
      </trkpt>
      <trkpt lat="-34.070019973441958" lon="19.069254007190466">
        <ele>458.69</ele>
        <time>2020-03-17T12:05:27Z</time>
      </trkpt>
      <trkpt lat="-34.070969978347421" lon="19.067741995677352">
        <ele>464.44999999999999</ele>
        <time>2020-03-17T12:05:36Z</time>
      </trkpt>
      <trkpt lat="-34.071311037987471" lon="19.067130032926798">
        <ele>470.69999999999999</ele>
        <time>2020-03-17T12:05:39Z</time>
      </trkpt>
      <trkpt lat="-34.072372019290924" lon="19.065698990598321">
        <ele>479.83999999999997</ele>
        <time>2020-03-17T12:05:46Z</time>
      </trkpt>
      <trkpt lat="-34.072489030659199" lon="19.065488018095493">
        <ele>481.27999999999997</ele>
        <time>2020-03-17T12:05:47Z</time>
      </trkpt>
      <trkpt lat="-34.072591038420796" lon="19.065260030329227">
        <ele>482.24000000000001</ele>
        <time>2020-03-17T12:05:48Z</time>
      </trkpt>
      <trkpt lat="-34.072682987898588" lon="19.06500899232924">
        <ele>484.16000000000003</ele>
        <time>2020-03-17T12:05:49Z</time>
      </trkpt>
      <trkpt lat="-34.073446998372674" lon="19.063172014430165">
        <ele>501.94999999999999</ele>
        <time>2020-03-17T12:05:56Z</time>
      </trkpt>
      <trkpt lat="-34.073601979762316" lon="19.062969004735351">
        <ele>503.38999999999999</ele>
        <time>2020-03-17T12:05:57Z</time>
      </trkpt>
      <trkpt lat="-34.075082978233695" lon="19.061352973803878">
        <ele>517.33000000000004</ele>
        <time>2020-03-17T12:06:06Z</time>
      </trkpt>
      <trkpt lat="-34.076860025525093" lon="19.05959595926106">
        <ele>522.13</ele>
        <time>2020-03-17T12:06:15Z</time>
      </trkpt>
      <trkpt lat="-34.078545039519668" lon="19.058570014312863">
        <ele>516.37</ele>
        <time>2020-03-17T12:06:23Z</time>
      </trkpt>
      <trkpt lat="-34.081954965367913" lon="19.057075018063188">
        <ele>512.03999999999996</ele>
        <time>2020-03-17T12:06:39Z</time>
      </trkpt>
      <trkpt lat="-34.08418295904994" lon="19.056405974552035">
        <ele>503.87</ele>
        <time>2020-03-17T12:06:48Z</time>
      </trkpt>
      <trkpt lat="-34.087809976190329" lon="19.055694015696645">
        <ele>501.94999999999999</ele>
        <time>2020-03-17T12:07:01Z</time>
      </trkpt>
      <trkpt lat="-34.089319976046681" lon="19.054937968030572">
        <ele>500.5</ele>
        <time>2020-03-17T12:07:07Z</time>
      </trkpt>
      <trkpt lat="-34.090538034215569" lon="19.05364497564733">
        <ele>495.22000000000003</ele>
        <time>2020-03-17T12:07:13Z</time>
      </trkpt>
      <trkpt lat="-34.091757014393806" lon="19.052155008539557">
        <ele>483.19999999999999</ele>
        <time>2020-03-17T12:07:19Z</time>
      </trkpt>
      <trkpt lat="-34.093282017856836" lon="19.051153035834432">
        <ele>479.83999999999997</ele>
        <time>2020-03-17T12:07:25Z</time>
      </trkpt>
      <trkpt lat="-34.095325022935867" lon="19.049999015405774">
        <ele>485.12</ele>
        <time>2020-03-17T12:07:34Z</time>
      </trkpt>
      <trkpt lat="-34.097371967509389" lon="19.049067031592131">
        <ele>475.99000000000001</ele>
        <time>2020-03-17T12:07:44Z</time>
      </trkpt>
      <trkpt lat="-34.099561991170049" lon="19.048718009144068">
        <ele>463.00999999999999</ele>
        <time>2020-03-17T12:07:53Z</time>
      </trkpt>
      <trkpt lat="-34.101000996306539" lon="19.049129979684949">
        <ele>461.08999999999997</ele>
        <time>2020-03-17T12:07:59Z</time>
      </trkpt>
      <trkpt lat="-34.102191980928183" lon="19.05009800568223">
        <ele>455.31999999999999</ele>
        <time>2020-03-17T12:08:05Z</time>
      </trkpt>
      <trkpt lat="-34.103177022188902" lon="19.051551008597016">
        <ele>444.75</ele>
        <time>2020-03-17T12:08:12Z</time>
      </trkpt>
      <trkpt lat="-34.103340972214937" lon="19.051727028563619">
        <ele>443.79000000000002</ele>
        <time>2020-03-17T12:08:13Z</time>
      </trkpt>
      <trkpt lat="-34.104658020660281" lon="19.052931005135179">
        <ele>433.20999999999998</ele>
        <time>2020-03-17T12:08:20Z</time>
      </trkpt>
      <trkpt lat="-34.105195971205831" lon="19.053338030353189">
        <ele>430.81</ele>
        <time>2020-03-17T12:08:23Z</time>
      </trkpt>
      <trkpt lat="-34.105395963415504" lon="19.053427968174219">
        <ele>429.85000000000002</ele>
        <time>2020-03-17T12:08:24Z</time>
      </trkpt>
      <trkpt lat="-34.105610037222505" lon="19.053497035056353">
        <ele>428.88999999999999</ele>
        <time>2020-03-17T12:08:25Z</time>
      </trkpt>
      <trkpt lat="-34.105834001675248" lon="19.053540034219623">
        <ele>427.44</ele>
        <time>2020-03-17T12:08:26Z</time>
      </trkpt>
      <trkpt lat="-34.106066012755036" lon="19.053560988977551">
        <ele>426.48000000000002</ele>
        <time>2020-03-17T12:08:27Z</time>
      </trkpt>
      <trkpt lat="-34.106303974986076" lon="19.053573980927467">
        <ele>425.04000000000002</ele>
        <time>2020-03-17T12:08:28Z</time>
      </trkpt>
      <trkpt lat="-34.108926001936197" lon="19.053981006145477">
        <ele>406.29000000000002</ele>
        <time>2020-03-17T12:08:39Z</time>
      </trkpt>
      <trkpt lat="-34.110193010419607" lon="19.054879965260625">
        <ele>395.72000000000003</ele>
        <time>2020-03-17T12:08:46Z</time>
      </trkpt>
      <trkpt lat="-34.110938999801874" lon="19.05555697157979">
        <ele>388.02999999999997</ele>
        <time>2020-03-17T12:08:53Z</time>
      </trkpt>
      <trkpt lat="-34.111091969534755" lon="19.055722011253238">
        <ele>387.06999999999999</ele>
        <time>2020-03-17T12:08:55Z</time>
      </trkpt>
      <trkpt lat="-34.111153995618224" lon="19.05581496655941">
        <ele>386.58999999999997</ele>
        <time>2020-03-17T12:08:56Z</time>
      </trkpt>
      <trkpt lat="-34.111205963417888" lon="19.055915968492627">
        <ele>385.63</ele>
        <time>2020-03-17T12:08:57Z</time>
      </trkpt>
      <trkpt lat="-34.111253991723061" lon="19.056024011224508">
        <ele>385.14999999999998</ele>
        <time>2020-03-17T12:08:58Z</time>
      </trkpt>
      <trkpt lat="-34.111293973401189" lon="19.056126018986106">
        <ele>384.66000000000003</ele>
        <time>2020-03-17T12:08:59Z</time>
      </trkpt>
      <trkpt lat="-34.111395981162786" lon="19.056321987882257">
        <ele>383.69999999999999</ele>
        <time>2020-03-17T12:09:01Z</time>
      </trkpt>
      <trkpt lat="-34.111462030559778" lon="19.056400023400784">
        <ele>383.69999999999999</ele>
        <time>2020-03-17T12:09:02Z</time>
      </trkpt>
      <trkpt lat="-34.111535958945751" lon="19.056465988978744">
        <ele>383.22000000000003</ele>
        <time>2020-03-17T12:09:03Z</time>
      </trkpt>
      <trkpt lat="-34.111623968929052" lon="19.056513011455536">
        <ele>382.74000000000001</ele>
        <time>2020-03-17T12:09:04Z</time>
      </trkpt>
      <trkpt lat="-34.111722037196159" lon="19.056533966213465">
        <ele>382.25999999999999</ele>
        <time>2020-03-17T12:09:05Z</time>
      </trkpt>
      <trkpt lat="-34.111827984452248" lon="19.056527009233832">
        <ele>381.30000000000001</ele>
        <time>2020-03-17T12:09:06Z</time>
      </trkpt>
      <trkpt lat="-34.111936027184129" lon="19.056491972878575">
        <ele>381.30000000000001</ele>
        <time>2020-03-17T12:09:07Z</time>
      </trkpt>
      <trkpt lat="-34.112039040774107" lon="19.056432964280248">
        <ele>380.81999999999999</ele>
        <time>2020-03-17T12:09:08Z</time>
      </trkpt>
      <trkpt lat="-34.112129984423518" lon="19.056357024237514">
        <ele>379.86000000000001</ele>
        <time>2020-03-17T12:09:09Z</time>
      </trkpt>
      <trkpt lat="-34.112206008285284" lon="19.056263985112309">
        <ele>379.86000000000001</ele>
        <time>2020-03-17T12:09:10Z</time>
      </trkpt>
      <trkpt lat="-34.112274991348386" lon="19.056150997057557">
        <ele>379.38</ele>
        <time>2020-03-17T12:09:11Z</time>
      </trkpt>
      <trkpt lat="-34.11232796497643" lon="19.056032979860902">
        <ele>377.94</ele>
        <time>2020-03-17T12:09:12Z</time>
      </trkpt>
      <trkpt lat="-34.112384039908648" lon="19.055913034826517">
        <ele>376.49000000000001</ele>
        <time>2020-03-17T12:09:13Z</time>
      </trkpt>
      <trkpt lat="-34.112554024904966" lon="19.054991025477648">
        <ele>369.27999999999997</ele>
        <time>2020-03-17T12:09:20Z</time>
      </trkpt>
      <trkpt lat="-34.112539021298289" lon="19.054850963875651">
        <ele>367.83999999999997</ele>
        <time>2020-03-17T12:09:21Z</time>
      </trkpt>
      <trkpt lat="-34.112475989386439" lon="19.053244991227984">
        <ele>354.38</ele>
        <time>2020-03-17T12:09:33Z</time>
      </trkpt>
      <trkpt lat="-34.1129270195961" lon="19.05209599994123">
        <ele>345.73000000000002</ele>
        <time>2020-03-17T12:09:43Z</time>
      </trkpt>
      <trkpt lat="-34.113703016191721" lon="19.051384041085839">
        <ele>337.07999999999998</ele>
        <time>2020-03-17T12:09:51Z</time>
      </trkpt>
      <trkpt lat="-34.114728961139917" lon="19.05110701918602">
        <ele>329.38999999999999</ele>
        <time>2020-03-17T12:09:59Z</time>
      </trkpt>
      <trkpt lat="-34.115405716001987" lon="19.05108405277133">
        <ele>329.87</ele>
        <time>2020-03-17T12:10:05Z</time>
      </trkpt>
    </trkseg>
  </trk>

</gpx>