<?xml version="1.0" encoding="utf-8"?><gpx creator="Garmin Desktop App" version="1.1" xsi:schemaLocation="http://www.topografix.com/GPX/1/1 http://www.topografix.com/GPX/1/1/gpx.xsd http://www.garmin.com/xmlschemas/WaypointExtension/v1 http://www8.garmin.com/xmlschemas/WaypointExtensionv1.xsd http://www.garmin.com/xmlschemas/TrackPointExtension/v1 http://www.garmin.com/xmlschemas/TrackPointExtensionv1.xsd http://www.garmin.com/xmlschemas/GpxExtensions/v3 http://www8.garmin.com/xmlschemas/GpxExtensionsv3.xsd http://www.garmin.com/xmlschemas/ActivityExtension/v1 http://www8.garmin.com/xmlschemas/ActivityExtensionv1.xsd http://www.garmin.com/xmlschemas/AdventuresExtensions/v1 http://www8.garmin.com/xmlschemas/AdventuresExtensionv1.xsd http://www.garmin.com/xmlschemas/PressureExtension/v1 http://www.garmin.com/xmlschemas/PressureExtensionv1.xsd http://www.garmin.com/xmlschemas/TripExtensions/v1 http://www.garmin.com/xmlschemas/TripExtensionsv1.xsd http://www.garmin.com/xmlschemas/TripMetaDataExtensions/v1 http://www.garmin.com/xmlschemas/TripMetaDataExtensionsv1.xsd http://www.garmin.com/xmlschemas/ViaPointTransportationModeExtensions/v1 http://www.garmin.com/xmlschemas/ViaPointTransportationModeExtensionsv1.xsd http://www.garmin.com/xmlschemas/CreationTimeExtension/v1 http://www.garmin.com/xmlschemas/CreationTimeExtensionsv1.xsd http://www.garmin.com/xmlschemas/AccelerationExtension/v1 http://www.garmin.com/xmlschemas/AccelerationExtensionv1.xsd http://www.garmin.com/xmlschemas/PowerExtension/v1 http://www.garmin.com/xmlschemas/PowerExtensionv1.xsd http://www.garmin.com/xmlschemas/VideoExtension/v1 http://www.garmin.com/xmlschemas/VideoExtensionv1.xsd" xmlns="http://www.topografix.com/GPX/1/1" xmlns:xsi="http://www.w3.org/2001/XMLSchema-instance" xmlns:wptx1="http://www.garmin.com/xmlschemas/WaypointExtension/v1" xmlns:gpxtrx="http://www.garmin.com/xmlschemas/GpxExtensions/v3" xmlns:gpxtpx="http://www.garmin.com/xmlschemas/TrackPointExtension/v1" xmlns:gpxx="http://www.garmin.com/xmlschemas/GpxExtensions/v3" xmlns:trp="http://www.garmin.com/xmlschemas/TripExtensions/v1" xmlns:adv="http://www.garmin.com/xmlschemas/AdventuresExtensions/v1" xmlns:prs="http://www.garmin.com/xmlschemas/PressureExtension/v1" xmlns:tmd="http://www.garmin.com/xmlschemas/TripMetaDataExtensions/v1" xmlns:vptm="http://www.garmin.com/xmlschemas/ViaPointTransportationModeExtensions/v1" xmlns:ctx="http://www.garmin.com/xmlschemas/CreationTimeExtension/v1" xmlns:gpxacc="http://www.garmin.com/xmlschemas/AccelerationExtension/v1" xmlns:gpxpx="http://www.garmin.com/xmlschemas/PowerExtension/v1" xmlns:vidx1="http://www.garmin.com/xmlschemas/VideoExtension/v1">

  <metadata>
    <link href="http://www.garmin.com">
      <text>Garmin International</text>
    </link>
    <time>2023-01-21T13:45:06Z</time>
    <bounds maxlat="-33.699032999575138" maxlon="19.244522368535399" minlat="-33.745521968230605" minlon="19.016207037493587" />
  </metadata>

  <trk>
    <name>[177] Du Toits Kloof Pass (New)</name>
    <extensions>
      <gpxx:TrackExtension>
        <gpxx:DisplayColor>Blue</gpxx:DisplayColor>
      </gpxx:TrackExtension>
    </extensions>
    <trkseg>
      <trkpt lat="-33.741763019934297" lon="19.016207037493587">
        <ele>178.46000000000001</ele>
        <time>2020-03-21T07:28:09Z</time>
      </trkpt>
      <trkpt lat="-33.742270963266492" lon="19.018533015623689">
        <ele>180.87</ele>
        <time>2020-03-21T07:28:18Z</time>
      </trkpt>
      <trkpt lat="-33.742436002939939" lon="19.019371960312128">
        <ele>181.83000000000001</ele>
        <time>2020-03-21T07:28:24Z</time>
      </trkpt>
      <trkpt lat="-33.742470033466816" lon="19.019617969170213">
        <ele>181.83000000000001</ele>
        <time>2020-03-21T07:28:30Z</time>
      </trkpt>
      <trkpt lat="-33.74250004068017" lon="19.019644036889076">
        <ele>182.31</ele>
        <time>2020-03-21T07:29:11Z</time>
      </trkpt>
      <trkpt lat="-33.742531975731254" lon="19.019760964438319">
        <ele>182.78999999999999</ele>
        <time>2020-03-21T07:29:29Z</time>
      </trkpt>
      <trkpt lat="-33.742529964074492" lon="19.019773034378886">
        <ele>182.31</ele>
        <time>2020-03-21T07:29:45Z</time>
      </trkpt>
      <trkpt lat="-33.742538010701537" lon="19.019799018278718">
        <ele>182.31</ele>
        <time>2020-03-21T07:30:01Z</time>
      </trkpt>
      <trkpt lat="-33.742560977116227" lon="19.019859032705426">
        <ele>182.31</ele>
        <time>2020-03-21T07:30:15Z</time>
      </trkpt>
      <trkpt lat="-33.742595007643104" lon="19.020139994099736">
        <ele>183.75</ele>
        <time>2020-03-21T07:30:41Z</time>
      </trkpt>
      <trkpt lat="-33.742705984041095" lon="19.020507037639618">
        <ele>185.19</ele>
        <time>2020-03-21T07:30:44Z</time>
      </trkpt>
      <trkpt lat="-33.74310496263206" lon="19.021784020587802">
        <ele>187.59</ele>
        <time>2020-03-21T07:30:51Z</time>
      </trkpt>
      <trkpt lat="-33.743727989494801" lon="19.024219969287515">
        <ele>195.77000000000001</ele>
        <time>2020-03-21T07:31:01Z</time>
      </trkpt>
      <trkpt lat="-33.744148006662726" lon="19.026792040094733">
        <ele>203.94</ele>
        <time>2020-03-21T07:31:10Z</time>
      </trkpt>
      <trkpt lat="-33.744068965315819" lon="19.029322033748031">
        <ele>216.43000000000001</ele>
        <time>2020-03-21T07:31:18Z</time>
      </trkpt>
      <trkpt lat="-33.743576025590301" lon="19.032001979649067">
        <ele>227.49000000000001</ele>
        <time>2020-03-21T07:31:26Z</time>
      </trkpt>
      <trkpt lat="-33.742848979309201" lon="19.036733983084559">
        <ele>247.19999999999999</ele>
        <time>2020-03-21T07:31:40Z</time>
      </trkpt>
      <trkpt lat="-33.742786031216383" lon="19.040249017998576">
        <ele>262.10000000000002</ele>
        <time>2020-03-21T07:31:51Z</time>
      </trkpt>
      <trkpt lat="-33.743142010644078" lon="19.043578980490565">
        <ele>276.51999999999998</ele>
        <time>2020-03-21T07:32:02Z</time>
      </trkpt>
      <trkpt lat="-33.743641991168261" lon="19.046992007642984">
        <ele>290.94</ele>
        <time>2020-03-21T07:32:13Z</time>
      </trkpt>
      <trkpt lat="-33.744325032457709" lon="19.051585961133242">
        <ele>311.60000000000002</ele>
        <time>2020-03-21T07:32:28Z</time>
      </trkpt>
      <trkpt lat="-33.745135981589556" lon="19.056832026690245">
        <ele>336.12</ele>
        <time>2020-03-21T07:32:45Z</time>
      </trkpt>
      <trkpt lat="-33.745521968230605" lon="19.060572031885386">
        <ele>353.89999999999998</ele>
        <time>2020-03-21T07:32:57Z</time>
      </trkpt>
      <trkpt lat="-33.745344020426273" lon="19.061816995963454">
        <ele>360.14999999999998</ele>
        <time>2020-03-21T07:33:01Z</time>
      </trkpt>
      <trkpt lat="-33.744558971375227" lon="19.063803004100919">
        <ele>371.69</ele>
        <time>2020-03-21T07:33:08Z</time>
      </trkpt>
      <trkpt lat="-33.743494972586632" lon="19.065183000639081">
        <ele>379.86000000000001</ele>
        <time>2020-03-21T07:33:14Z</time>
      </trkpt>
      <trkpt lat="-33.742170967161655" lon="19.066058993339539">
        <ele>392.36000000000001</ele>
        <time>2020-03-21T07:33:20Z</time>
      </trkpt>
      <trkpt lat="-33.7394730001688" lon="19.067526999861002">
        <ele>409.18000000000001</ele>
        <time>2020-03-21T07:33:33Z</time>
      </trkpt>
      <trkpt lat="-33.73704400844872" lon="19.068931974470615">
        <ele>416.87</ele>
        <time>2020-03-21T07:33:45Z</time>
      </trkpt>
      <trkpt lat="-33.735357988625765" lon="19.070439962670207">
        <ele>415.43000000000001</ele>
        <time>2020-03-21T07:33:55Z</time>
      </trkpt>
      <trkpt lat="-33.734255013987422" lon="19.07203696668148">
        <ele>414.94999999999999</ele>
        <time>2020-03-21T07:34:05Z</time>
      </trkpt>
      <trkpt lat="-33.732894966378808" lon="19.114684006199241">
        <ele>439.94</ele>
        <time>2020-03-21T07:38:05Z</time>
      </trkpt>
      <trkpt lat="-33.732721041887999" lon="19.115061024203897">
        <ele>447.63</ele>
        <time>2020-03-21T07:38:07Z</time>
      </trkpt>
      <trkpt lat="-33.731476999819279" lon="19.116773027926683">
        <ele>451.95999999999998</ele>
        <time>2020-03-21T07:38:16Z</time>
      </trkpt>
      <trkpt lat="-33.729977980256081" lon="19.1181830316782">
        <ele>452.44</ele>
        <time>2020-03-21T07:38:24Z</time>
      </trkpt>
      <trkpt lat="-33.727788962423801" lon="19.120323015376925">
        <ele>450.02999999999997</ele>
        <time>2020-03-21T07:38:35Z</time>
      </trkpt>
      <trkpt lat="-33.727003997191787" lon="19.121935022994876">
        <ele>447.14999999999998</ele>
        <time>2020-03-21T07:38:41Z</time>
      </trkpt>
      <trkpt lat="-33.726618010550737" lon="19.124081963673234">
        <ele>440.89999999999998</ele>
        <time>2020-03-21T07:38:48Z</time>
      </trkpt>
      <trkpt lat="-33.726353980600834" lon="19.127270020544529">
        <ele>442.33999999999997</ele>
        <time>2020-03-21T07:38:57Z</time>
      </trkpt>
      <trkpt lat="-33.725905967876315" lon="19.132163040339947">
        <ele>438.98000000000002</ele>
        <time>2020-03-21T07:39:09Z</time>
      </trkpt>
      <trkpt lat="-33.726132027804852" lon="19.134484995156527">
        <ele>430.81</ele>
        <time>2020-03-21T07:39:15Z</time>
      </trkpt>
      <trkpt lat="-33.726736027747393" lon="19.137100987136364">
        <ele>424.07999999999998</ele>
        <time>2020-03-21T07:39:22Z</time>
      </trkpt>
      <trkpt lat="-33.726747008040547" lon="19.137494014576077">
        <ele>423.12</ele>
        <time>2020-03-21T07:39:23Z</time>
      </trkpt>
      <trkpt lat="-33.726724963635206" lon="19.137883018702269">
        <ele>422.63999999999999</ele>
        <time>2020-03-21T07:39:24Z</time>
      </trkpt>
      <trkpt lat="-33.726676013320684" lon="19.138260036706924">
        <ele>422.16000000000003</ele>
        <time>2020-03-21T07:39:25Z</time>
      </trkpt>
      <trkpt lat="-33.726598983630538" lon="19.138622973114252">
        <ele>422.16000000000003</ele>
        <time>2020-03-21T07:39:26Z</time>
      </trkpt>
      <trkpt lat="-33.726508039981127" lon="19.138970989733934">
        <ele>422.16000000000003</ele>
        <time>2020-03-21T07:39:27Z</time>
      </trkpt>
      <trkpt lat="-33.725797003135085" lon="19.141359999775887">
        <ele>421.68000000000001</ele>
        <time>2020-03-21T07:39:35Z</time>
      </trkpt>
      <trkpt lat="-33.724910030141473" lon="19.144617961719632">
        <ele>426</ele>
        <time>2020-03-21T07:39:47Z</time>
      </trkpt>
      <trkpt lat="-33.724565031006932" lon="19.147258009761572">
        <ele>430.81</ele>
        <time>2020-03-21T07:39:55Z</time>
      </trkpt>
      <trkpt lat="-33.724549021571875" lon="19.150001993402839">
        <ele>426.95999999999998</ele>
        <time>2020-03-21T07:40:02Z</time>
      </trkpt>
      <trkpt lat="-33.724507028236985" lon="19.153717020526528">
        <ele>418.79000000000002</ele>
        <time>2020-03-21T07:40:12Z</time>
      </trkpt>
      <trkpt lat="-33.724308041855693" lon="19.158183988183737">
        <ele>422.63999999999999</ele>
        <time>2020-03-21T07:40:25Z</time>
      </trkpt>
      <trkpt lat="-33.724115006625652" lon="19.161827014759183">
        <ele>417.82999999999998</ele>
        <time>2020-03-21T07:40:36Z</time>
      </trkpt>
      <trkpt lat="-33.724562013521791" lon="19.164284002035856">
        <ele>408.22000000000003</ele>
        <time>2020-03-21T07:40:43Z</time>
      </trkpt>
      <trkpt lat="-33.724988987669349" lon="19.167054975405335">
        <ele>393.80000000000001</ele>
        <time>2020-03-21T07:40:51Z</time>
      </trkpt>
      <trkpt lat="-33.724612975493073" lon="19.168707970529795">
        <ele>388.50999999999999</ele>
        <time>2020-03-21T07:40:56Z</time>
      </trkpt>
      <trkpt lat="-33.723687026649714" lon="19.171803994104266">
        <ele>381.30000000000001</ele>
        <time>2020-03-21T07:41:06Z</time>
      </trkpt>
      <trkpt lat="-33.723536990582943" lon="19.174219993874431">
        <ele>375.52999999999997</ele>
        <time>2020-03-21T07:41:14Z</time>
      </trkpt>
      <trkpt lat="-33.723561968654394" lon="19.178670030087233">
        <ele>368.80000000000001</ele>
        <time>2020-03-21T07:41:28Z</time>
      </trkpt>
      <trkpt lat="-33.72325100004673" lon="19.180479012429714">
        <ele>368.31999999999999</ele>
        <time>2020-03-21T07:41:34Z</time>
      </trkpt>
      <trkpt lat="-33.722479026764631" lon="19.181852973997593">
        <ele>368.80000000000001</ele>
        <time>2020-03-21T07:41:39Z</time>
      </trkpt>
      <trkpt lat="-33.72108100913465" lon="19.18347998522222">
        <ele>364.48000000000002</ele>
        <time>2020-03-21T07:41:46Z</time>
      </trkpt>
      <trkpt lat="-33.720534006133676" lon="19.184581032022834">
        <ele>361.11000000000001</ele>
        <time>2020-03-21T07:41:50Z</time>
      </trkpt>
      <trkpt lat="-33.72045898810029" lon="19.184887977316976">
        <ele>360.14999999999998</ele>
        <time>2020-03-21T07:41:51Z</time>
      </trkpt>
      <trkpt lat="-33.720400985330343" lon="19.185198023915291">
        <ele>359.19</ele>
        <time>2020-03-21T07:41:52Z</time>
      </trkpt>
      <trkpt lat="-33.720361003652215" lon="19.185507986694574">
        <ele>358.23000000000002</ele>
        <time>2020-03-21T07:41:53Z</time>
      </trkpt>
      <trkpt lat="-33.720344994217157" lon="19.185828007757664">
        <ele>357.26999999999998</ele>
        <time>2020-03-21T07:41:54Z</time>
      </trkpt>
      <trkpt lat="-33.720344994217157" lon="19.186137970536947">
        <ele>356.79000000000002</ele>
        <time>2020-03-21T07:41:55Z</time>
      </trkpt>
      <trkpt lat="-33.720368966460228" lon="19.186454974114895">
        <ele>356.31</ele>
        <time>2020-03-21T07:41:56Z</time>
      </trkpt>
      <trkpt lat="-33.720443984493613" lon="19.189031990244985">
        <ele>353.89999999999998</ele>
        <time>2020-03-21T07:42:04Z</time>
      </trkpt>
      <trkpt lat="-33.719979962334037" lon="19.190533021464944">
        <ele>354.38</ele>
        <time>2020-03-21T07:42:09Z</time>
      </trkpt>
      <trkpt lat="-33.719266997650266" lon="19.191547986119986">
        <ele>351.98000000000002</ele>
        <time>2020-03-21T07:42:13Z</time>
      </trkpt>
      <trkpt lat="-33.719044039025903" lon="19.191754013299942">
        <ele>351.01999999999998</ele>
        <time>2020-03-21T07:42:14Z</time>
      </trkpt>
      <trkpt lat="-33.71880398131907" lon="19.191935984417796">
        <ele>350.54000000000002</ele>
        <time>2020-03-21T07:42:15Z</time>
      </trkpt>
      <trkpt lat="-33.718557972460985" lon="19.192103035748005">
        <ele>350.06</ele>
        <time>2020-03-21T07:42:16Z</time>
      </trkpt>
      <trkpt lat="-33.718302994966507" lon="19.192248964682221">
        <ele>349.57999999999998</ele>
        <time>2020-03-21T07:42:17Z</time>
      </trkpt>
      <trkpt lat="-33.718047011643648" lon="19.192381985485554">
        <ele>349.10000000000002</ele>
        <time>2020-03-21T07:42:18Z</time>
      </trkpt>
      <trkpt lat="-33.715810971334577" lon="19.193509016185999">
        <ele>349.57999999999998</ele>
        <time>2020-03-21T07:42:27Z</time>
      </trkpt>
      <trkpt lat="-33.714640019461513" lon="19.194809971377254">
        <ele>351.5</ele>
        <time>2020-03-21T07:42:33Z</time>
      </trkpt>
      <trkpt lat="-33.713279971852899" lon="19.197155982255936">
        <ele>352.94</ele>
        <time>2020-03-21T07:42:42Z</time>
      </trkpt>
      <trkpt lat="-33.71267999522388" lon="19.197785966098309">
        <ele>353.42000000000002</ele>
        <time>2020-03-21T07:42:45Z</time>
      </trkpt>
      <trkpt lat="-33.712449995800853" lon="19.197961986064911">
        <ele>353.89999999999998</ele>
        <time>2020-03-21T07:42:46Z</time>
      </trkpt>
      <trkpt lat="-33.712209016084671" lon="19.198121996596456">
        <ele>354.86000000000001</ele>
        <time>2020-03-21T07:42:47Z</time>
      </trkpt>
      <trkpt lat="-33.709287000820041" lon="19.199832994490862">
        <ele>358.70999999999998</ele>
        <time>2020-03-21T07:42:59Z</time>
      </trkpt>
      <trkpt lat="-33.70524600148201" lon="19.202131982892752">
        <ele>373.61000000000001</ele>
        <time>2020-03-21T07:43:15Z</time>
      </trkpt>
      <trkpt lat="-33.702002037316561" lon="19.204151015728712">
        <ele>377.94</ele>
        <time>2020-03-21T07:43:28Z</time>
      </trkpt>
      <trkpt lat="-33.699964983388782" lon="19.206197960302234">
        <ele>377.94</ele>
        <time>2020-03-21T07:43:37Z</time>
      </trkpt>
      <trkpt lat="-33.699255036190152" lon="19.207651969045401">
        <ele>376.00999999999999</ele>
        <time>2020-03-21T07:43:42Z</time>
      </trkpt>
      <trkpt lat="-33.699032999575138" lon="19.208990978077054">
        <ele>368.31999999999999</ele>
        <time>2020-03-21T07:43:46Z</time>
      </trkpt>
      <trkpt lat="-33.699051020666957" lon="19.20934896916151">
        <ele>364.95999999999998</ele>
        <time>2020-03-21T07:43:47Z</time>
      </trkpt>
      <trkpt lat="-33.699069963768125" lon="19.209696985781193">
        <ele>361.58999999999997</ele>
        <time>2020-03-21T07:43:48Z</time>
      </trkpt>
      <trkpt lat="-33.699443964287639" lon="19.212971040979028">
        <ele>336.12</ele>
        <time>2020-03-21T07:43:57Z</time>
      </trkpt>
      <trkpt lat="-33.699198961257935" lon="19.215085040777922">
        <ele>324.10000000000002</ele>
        <time>2020-03-21T07:44:03Z</time>
      </trkpt>
      <trkpt lat="-33.69907901622355" lon="19.217536998912692">
        <ele>313.05000000000001</ele>
        <time>2020-03-21T07:44:10Z</time>
      </trkpt>
      <trkpt lat="-33.699549995362759" lon="19.219957021996379">
        <ele>301.99000000000001</ele>
        <time>2020-03-21T07:44:17Z</time>
      </trkpt>
      <trkpt lat="-33.700484996661544" lon="19.22389199025929">
        <ele>301.99000000000001</ele>
        <time>2020-03-21T07:44:28Z</time>
      </trkpt>
      <trkpt lat="-33.701720992103219" lon="19.228397011756897">
        <ele>294.77999999999997</ele>
        <time>2020-03-21T07:44:41Z</time>
      </trkpt>
      <trkpt lat="-33.702636966481805" lon="19.232089994475245">
        <ele>291.89999999999998</ele>
        <time>2020-03-21T07:44:52Z</time>
      </trkpt>
      <trkpt lat="-33.703789981082082" lon="19.23725500702858">
        <ele>285.64999999999998</ele>
        <time>2020-03-21T07:45:08Z</time>
      </trkpt>
      <trkpt lat="-33.704081000760198" lon="19.240196971222758">
        <ele>280.83999999999997</ele>
        <time>2020-03-21T07:45:17Z</time>
      </trkpt>
      <trkpt lat="-33.704356597736478" lon="19.244522368535399">
        <ele>277</ele>
        <time>2020-03-21T07:45:31Z</time>
      </trkpt>
    </trkseg>
  </trk>

</gpx>