<?xml version="1.0" encoding="utf-8"?><gpx creator="Garmin Desktop App" version="1.1" xsi:schemaLocation="http://www.topografix.com/GPX/1/1 http://www.topografix.com/GPX/1/1/gpx.xsd http://www.garmin.com/xmlschemas/WaypointExtension/v1 http://www8.garmin.com/xmlschemas/WaypointExtensionv1.xsd http://www.garmin.com/xmlschemas/TrackPointExtension/v1 http://www.garmin.com/xmlschemas/TrackPointExtensionv1.xsd http://www.garmin.com/xmlschemas/GpxExtensions/v3 http://www8.garmin.com/xmlschemas/GpxExtensionsv3.xsd http://www.garmin.com/xmlschemas/ActivityExtension/v1 http://www8.garmin.com/xmlschemas/ActivityExtensionv1.xsd http://www.garmin.com/xmlschemas/AdventuresExtensions/v1 http://www8.garmin.com/xmlschemas/AdventuresExtensionv1.xsd http://www.garmin.com/xmlschemas/PressureExtension/v1 http://www.garmin.com/xmlschemas/PressureExtensionv1.xsd http://www.garmin.com/xmlschemas/TripExtensions/v1 http://www.garmin.com/xmlschemas/TripExtensionsv1.xsd http://www.garmin.com/xmlschemas/TripMetaDataExtensions/v1 http://www.garmin.com/xmlschemas/TripMetaDataExtensionsv1.xsd http://www.garmin.com/xmlschemas/ViaPointTransportationModeExtensions/v1 http://www.garmin.com/xmlschemas/ViaPointTransportationModeExtensionsv1.xsd http://www.garmin.com/xmlschemas/CreationTimeExtension/v1 http://www.garmin.com/xmlschemas/CreationTimeExtensionsv1.xsd http://www.garmin.com/xmlschemas/AccelerationExtension/v1 http://www.garmin.com/xmlschemas/AccelerationExtensionv1.xsd http://www.garmin.com/xmlschemas/PowerExtension/v1 http://www.garmin.com/xmlschemas/PowerExtensionv1.xsd http://www.garmin.com/xmlschemas/VideoExtension/v1 http://www.garmin.com/xmlschemas/VideoExtensionv1.xsd" xmlns="http://www.topografix.com/GPX/1/1" xmlns:xsi="http://www.w3.org/2001/XMLSchema-instance" xmlns:wptx1="http://www.garmin.com/xmlschemas/WaypointExtension/v1" xmlns:gpxtrx="http://www.garmin.com/xmlschemas/GpxExtensions/v3" xmlns:gpxtpx="http://www.garmin.com/xmlschemas/TrackPointExtension/v1" xmlns:gpxx="http://www.garmin.com/xmlschemas/GpxExtensions/v3" xmlns:trp="http://www.garmin.com/xmlschemas/TripExtensions/v1" xmlns:adv="http://www.garmin.com/xmlschemas/AdventuresExtensions/v1" xmlns:prs="http://www.garmin.com/xmlschemas/PressureExtension/v1" xmlns:tmd="http://www.garmin.com/xmlschemas/TripMetaDataExtensions/v1" xmlns:vptm="http://www.garmin.com/xmlschemas/ViaPointTransportationModeExtensions/v1" xmlns:ctx="http://www.garmin.com/xmlschemas/CreationTimeExtension/v1" xmlns:gpxacc="http://www.garmin.com/xmlschemas/AccelerationExtension/v1" xmlns:gpxpx="http://www.garmin.com/xmlschemas/PowerExtension/v1" xmlns:vidx1="http://www.garmin.com/xmlschemas/VideoExtension/v1">

  <metadata>
    <link href="http://www.garmin.com">
      <text>Garmin International</text>
    </link>
    <time>2023-01-21T13:46:28Z</time>
    <bounds maxlat="-33.335490915924311" maxlon="22.567182965576649" minlat="-33.472194978967309" minlon="22.538004973903298" />
  </metadata>

  <trk>
    <name>[182] Meiringspoort</name>
    <extensions>
      <gpxx:TrackExtension>
        <gpxx:DisplayColor>Blue</gpxx:DisplayColor>
      </gpxx:TrackExtension>
    </extensions>
    <trkseg>
      <trkpt lat="-33.335490915924311" lon="22.54081760533154">
        <ele>725.92999999999995</ele>
        <time>2020-03-22T06:47:51Z</time>
      </trkpt>
      <trkpt lat="-33.337115999311209" lon="22.539359992370009">
        <ele>719.20000000000005</ele>
        <time>2020-03-22T06:48:03Z</time>
      </trkpt>
      <trkpt lat="-33.338349983096123" lon="22.538676029071212">
        <ele>714.88</ele>
        <time>2020-03-22T06:48:09Z</time>
      </trkpt>
      <trkpt lat="-33.340402962639928" lon="22.538105975836515">
        <ele>711.02999999999997</ele>
        <time>2020-03-22T06:48:17Z</time>
      </trkpt>
      <trkpt lat="-33.341669971123338" lon="22.538004973903298">
        <ele>713.91999999999996</ele>
        <time>2020-03-22T06:48:22Z</time>
      </trkpt>
      <trkpt lat="-33.341908017173409" lon="22.538054008036852">
        <ele>713.91999999999996</ele>
        <time>2020-03-22T06:48:23Z</time>
      </trkpt>
      <trkpt lat="-33.343326989561319" lon="22.538810977712274">
        <ele>709.11000000000001</ele>
        <time>2020-03-22T06:48:29Z</time>
      </trkpt>
      <trkpt lat="-33.344922987744212" lon="22.540145041421056">
        <ele>703.34000000000003</ele>
        <time>2020-03-22T06:48:37Z</time>
      </trkpt>
      <trkpt lat="-33.346105003729463" lon="22.540707970038056">
        <ele>697.57000000000005</ele>
        <time>2020-03-22T06:48:43Z</time>
      </trkpt>
      <trkpt lat="-33.347611986100674" lon="22.54073797725141">
        <ele>694.69000000000005</ele>
        <time>2020-03-22T06:48:50Z</time>
      </trkpt>
      <trkpt lat="-33.349479977041483" lon="22.540996978059411">
        <ele>690.36000000000001</ele>
        <time>2020-03-22T06:48:59Z</time>
      </trkpt>
      <trkpt lat="-33.351054014638066" lon="22.541914964094758">
        <ele>690.36000000000001</ele>
        <time>2020-03-22T06:49:07Z</time>
      </trkpt>
      <trkpt lat="-33.352035032585263" lon="22.542811995372176">
        <ele>689.88</ele>
        <time>2020-03-22T06:49:13Z</time>
      </trkpt>
      <trkpt lat="-33.352196970954537" lon="22.542912997305393">
        <ele>689.88</ele>
        <time>2020-03-22T06:49:14Z</time>
      </trkpt>
      <trkpt lat="-33.352358993142843" lon="22.54299002699554">
        <ele>689.39999999999998</ele>
        <time>2020-03-22T06:49:15Z</time>
      </trkpt>
      <trkpt lat="-33.352526966482401" lon="22.543047023937106">
        <ele>688.91999999999996</ele>
        <time>2020-03-22T06:49:16Z</time>
      </trkpt>
      <trkpt lat="-33.352693011984229" lon="22.543088011443615">
        <ele>688.91999999999996</ele>
        <time>2020-03-22T06:49:17Z</time>
      </trkpt>
      <trkpt lat="-33.352865008637309" lon="22.543121036142111">
        <ele>688.44000000000005</ele>
        <time>2020-03-22T06:49:18Z</time>
      </trkpt>
      <trkpt lat="-33.353031976148486" lon="22.543146014213562">
        <ele>688.44000000000005</ele>
        <time>2020-03-22T06:49:19Z</time>
      </trkpt>
      <trkpt lat="-33.354826960712671" lon="22.543327985331416">
        <ele>687.48000000000002</ele>
        <time>2020-03-22T06:49:30Z</time>
      </trkpt>
      <trkpt lat="-33.354978002607822" lon="22.543387999758124">
        <ele>687.48000000000002</ele>
        <time>2020-03-22T06:49:31Z</time>
      </trkpt>
      <trkpt lat="-33.355115968734026" lon="22.543467041105032">
        <ele>687.96000000000004</ele>
        <time>2020-03-22T06:49:32Z</time>
      </trkpt>
      <trkpt lat="-33.355246977880597" lon="22.543561002239585">
        <ele>687.96000000000004</ele>
        <time>2020-03-22T06:49:33Z</time>
      </trkpt>
      <trkpt lat="-33.355376981198788" lon="22.543664015829563">
        <ele>688.44000000000005</ele>
        <time>2020-03-22T06:49:34Z</time>
      </trkpt>
      <trkpt lat="-33.355502961203456" lon="22.543772980570793">
        <ele>688.44000000000005</ele>
        <time>2020-03-22T06:49:35Z</time>
      </trkpt>
      <trkpt lat="-33.35643301717937" lon="22.544507989659905">
        <ele>686.51999999999998</ele>
        <time>2020-03-22T06:49:42Z</time>
      </trkpt>
      <trkpt lat="-33.356581041589379" lon="22.544563980773091">
        <ele>686.03999999999996</ele>
        <time>2020-03-22T06:49:43Z</time>
      </trkpt>
      <trkpt lat="-33.356738034635782" lon="22.54460203461349">
        <ele>686.51999999999998</ele>
        <time>2020-03-22T06:49:44Z</time>
      </trkpt>
      <trkpt lat="-33.356898967176676" lon="22.544617960229516">
        <ele>686.51999999999998</ele>
        <time>2020-03-22T06:49:45Z</time>
      </trkpt>
      <trkpt lat="-33.357052020728588" lon="22.54460396245122">
        <ele>686.51999999999998</ele>
        <time>2020-03-22T06:49:46Z</time>
      </trkpt>
      <trkpt lat="-33.357200967147946" lon="22.544563980773091">
        <ele>687</ele>
        <time>2020-03-22T06:49:47Z</time>
      </trkpt>
      <trkpt lat="-33.357341028749943" lon="22.54449499770999">
        <ele>687</ele>
        <time>2020-03-22T06:49:48Z</time>
      </trkpt>
      <trkpt lat="-33.357476983219385" lon="22.54440899938345">
        <ele>687</ele>
        <time>2020-03-22T06:49:49Z</time>
      </trkpt>
      <trkpt lat="-33.357616038993001" lon="22.54430397413671">
        <ele>686.51999999999998</ele>
        <time>2020-03-22T06:49:50Z</time>
      </trkpt>
      <trkpt lat="-33.357749981805682" lon="22.544202972203493">
        <ele>686.03999999999996</ele>
        <time>2020-03-22T06:49:51Z</time>
      </trkpt>
      <trkpt lat="-33.359802039340138" lon="22.542633963748813">
        <ele>680.26999999999998</ele>
        <time>2020-03-22T06:50:05Z</time>
      </trkpt>
      <trkpt lat="-33.360251979902387" lon="22.542342022061348">
        <ele>679.30999999999995</ele>
        <time>2020-03-22T06:50:08Z</time>
      </trkpt>
      <trkpt lat="-33.360410984605551" lon="22.542275972664356">
        <ele>679.30999999999995</ele>
        <time>2020-03-22T06:50:09Z</time>
      </trkpt>
      <trkpt lat="-33.360574012622237" lon="22.542238002642989">
        <ele>679.30999999999995</ele>
        <time>2020-03-22T06:50:10Z</time>
      </trkpt>
      <trkpt lat="-33.360737962648273" lon="22.542227022349834">
        <ele>679.78999999999996</ele>
        <time>2020-03-22T06:50:11Z</time>
      </trkpt>
      <trkpt lat="-33.360898979008198" lon="22.542238002642989">
        <ele>679.78999999999996</ele>
        <time>2020-03-22T06:50:12Z</time>
      </trkpt>
      <trkpt lat="-33.361055972054601" lon="22.542269015684724">
        <ele>680.26999999999998</ele>
        <time>2020-03-22T06:50:13Z</time>
      </trkpt>
      <trkpt lat="-33.361212965101004" lon="22.542324000969529">
        <ele>680.75</ele>
        <time>2020-03-22T06:50:14Z</time>
      </trkpt>
      <trkpt lat="-33.361369036138058" lon="22.542400024831295">
        <ele>681.23000000000002</ele>
        <time>2020-03-22T06:50:15Z</time>
      </trkpt>
      <trkpt lat="-33.361513037234545" lon="22.542499015107751">
        <ele>681.23000000000002</ele>
        <time>2020-03-22T06:50:16Z</time>
      </trkpt>
      <trkpt lat="-33.361652009189129" lon="22.542622983455658">
        <ele>681.71000000000004</ele>
        <time>2020-03-22T06:50:17Z</time>
      </trkpt>
      <trkpt lat="-33.361781006678939" lon="22.542771007865667">
        <ele>681.71000000000004</ele>
        <time>2020-03-22T06:50:18Z</time>
      </trkpt>
      <trkpt lat="-33.36191201582551" lon="22.542933030053973">
        <ele>681.71000000000004</ele>
        <time>2020-03-22T06:50:19Z</time>
      </trkpt>
      <trkpt lat="-33.363087996840477" lon="22.544024018570781">
        <ele>678.83000000000004</ele>
        <time>2020-03-22T06:50:26Z</time>
      </trkpt>
      <trkpt lat="-33.36427696980536" lon="22.544734971597791">
        <ele>676.90999999999997</ele>
        <time>2020-03-22T06:50:33Z</time>
      </trkpt>
      <trkpt lat="-33.365138964727521" lon="22.545655975118279">
        <ele>677.87</ele>
        <time>2020-03-22T06:50:40Z</time>
      </trkpt>
      <trkpt lat="-33.36614303290844" lon="22.547347024083138">
        <ele>680.75</ele>
        <time>2020-03-22T06:50:52Z</time>
      </trkpt>
      <trkpt lat="-33.366759018972516" lon="22.549104960635304">
        <ele>678.83000000000004</ele>
        <time>2020-03-22T06:51:02Z</time>
      </trkpt>
      <trkpt lat="-33.36711198091507" lon="22.551430016756058">
        <ele>676.41999999999996</ele>
        <time>2020-03-22T06:51:14Z</time>
      </trkpt>
      <trkpt lat="-33.36734700948" lon="22.553351987153292">
        <ele>674.01999999999998</ele>
        <time>2020-03-22T06:51:24Z</time>
      </trkpt>
      <trkpt lat="-33.367631994187832" lon="22.555776033550501">
        <ele>675.46000000000004</ele>
        <time>2020-03-22T06:51:38Z</time>
      </trkpt>
      <trkpt lat="-33.36771204136312" lon="22.556165959686041">
        <ele>674.98000000000002</ele>
        <time>2020-03-22T06:51:40Z</time>
      </trkpt>
      <trkpt lat="-33.367770966142416" lon="22.556341979652643">
        <ele>674.5</ele>
        <time>2020-03-22T06:51:41Z</time>
      </trkpt>
      <trkpt lat="-33.367844978347421" lon="22.556511964648962">
        <ele>674.01999999999998</ele>
        <time>2020-03-22T06:51:42Z</time>
      </trkpt>
      <trkpt lat="-33.367931982502341" lon="22.556663006544113">
        <ele>674.01999999999998</ele>
        <time>2020-03-22T06:51:43Z</time>
      </trkpt>
      <trkpt lat="-33.3680360019207" lon="22.556800972670317">
        <ele>673.53999999999996</ele>
        <time>2020-03-22T06:51:44Z</time>
      </trkpt>
      <trkpt lat="-33.368154019117355" lon="22.556922007352114">
        <ele>673.53999999999996</ele>
        <time>2020-03-22T06:51:45Z</time>
      </trkpt>
      <trkpt lat="-33.368282010778785" lon="22.557026026770473">
        <ele>673.05999999999995</ele>
        <time>2020-03-22T06:51:46Z</time>
      </trkpt>
      <trkpt lat="-33.368414025753736" lon="22.557112025097013">
        <ele>672.58000000000004</ele>
        <time>2020-03-22T06:51:47Z</time>
      </trkpt>
      <trkpt lat="-33.368548974394798" lon="22.557178996503353">
        <ele>672.10000000000002</ele>
        <time>2020-03-22T06:51:48Z</time>
      </trkpt>
      <trkpt lat="-33.368685012683272" lon="22.557225013151765">
        <ele>671.62</ele>
        <time>2020-03-22T06:51:49Z</time>
      </trkpt>
      <trkpt lat="-33.368829013779759" lon="22.557255020365119">
        <ele>671.13999999999999</ele>
        <time>2020-03-22T06:51:50Z</time>
      </trkpt>
      <trkpt lat="-33.368976032361388" lon="22.557269018143415">
        <ele>670.65999999999997</ele>
        <time>2020-03-22T06:51:51Z</time>
      </trkpt>
      <trkpt lat="-33.369124978780746" lon="22.557264994829893">
        <ele>670.17999999999995</ele>
        <time>2020-03-22T06:51:52Z</time>
      </trkpt>
      <trkpt lat="-33.369271997362375" lon="22.557244040071964">
        <ele>670.17999999999995</ele>
        <time>2020-03-22T06:51:53Z</time>
      </trkpt>
      <trkpt lat="-33.369410969316959" lon="22.557202968746424">
        <ele>669.70000000000005</ele>
        <time>2020-03-22T06:51:54Z</time>
      </trkpt>
      <trkpt lat="-33.369554970413446" lon="22.557142032310367">
        <ele>669.70000000000005</ele>
        <time>2020-03-22T06:51:55Z</time>
      </trkpt>
      <trkpt lat="-33.369684973731637" lon="22.55706500262022">
        <ele>669.22000000000003</ele>
        <time>2020-03-22T06:51:56Z</time>
      </trkpt>
      <trkpt lat="-33.369808020070195" lon="22.556974980980158">
        <ele>669.22000000000003</ele>
        <time>2020-03-22T06:51:57Z</time>
      </trkpt>
      <trkpt lat="-33.36992603726685" lon="22.55686903372407">
        <ele>668.73000000000002</ele>
        <time>2020-03-22T06:51:58Z</time>
      </trkpt>
      <trkpt lat="-33.370030978694558" lon="22.556754034012556">
        <ele>668.73000000000002</ele>
        <time>2020-03-22T06:51:59Z</time>
      </trkpt>
      <trkpt lat="-33.370125023648143" lon="22.556632999330759">
        <ele>668.73000000000002</ele>
        <time>2020-03-22T06:52:00Z</time>
      </trkpt>
      <trkpt lat="-33.37020699866116" lon="22.556510036811233">
        <ele>668.25</ele>
        <time>2020-03-22T06:52:01Z</time>
      </trkpt>
      <trkpt lat="-33.370281010866165" lon="22.556384978815913">
        <ele>667.76999999999998</ele>
        <time>2020-03-22T06:52:02Z</time>
      </trkpt>
      <trkpt lat="-33.370947036892176" lon="22.555466992780566">
        <ele>663.92999999999995</ele>
        <time>2020-03-22T06:52:11Z</time>
      </trkpt>
      <trkpt lat="-33.37104300968349" lon="22.555403960868716">
        <ele>663.92999999999995</ele>
        <time>2020-03-22T06:52:12Z</time>
      </trkpt>
      <trkpt lat="-33.371143005788326" lon="22.555348975583911">
        <ele>663.92999999999995</ele>
        <time>2020-03-22T06:52:13Z</time>
      </trkpt>
      <trkpt lat="-33.371245013549924" lon="22.555302958935499">
        <ele>663.45000000000005</ele>
        <time>2020-03-22T06:52:14Z</time>
      </trkpt>
      <trkpt lat="-33.371350960806012" lon="22.555263983085752">
        <ele>663.45000000000005</ele>
        <time>2020-03-22T06:52:15Z</time>
      </trkpt>
      <trkpt lat="-33.371457997709513" lon="22.555230958387256">
        <ele>663.45000000000005</ele>
        <time>2020-03-22T06:52:16Z</time>
      </trkpt>
      <trkpt lat="-33.373145023360848" lon="22.554863998666406">
        <ele>662.49000000000001</ele>
        <time>2020-03-22T06:52:30Z</time>
      </trkpt>
      <trkpt lat="-33.373288018628955" lon="22.554862992838025">
        <ele>662.49000000000001</ele>
        <time>2020-03-22T06:52:31Z</time>
      </trkpt>
      <trkpt lat="-33.373435959219933" lon="22.554872967302799">
        <ele>662.00999999999999</ele>
        <time>2020-03-22T06:52:32Z</time>
      </trkpt>
      <trkpt lat="-33.373585995286703" lon="22.554901968687773">
        <ele>662.00999999999999</ele>
        <time>2020-03-22T06:52:33Z</time>
      </trkpt>
      <trkpt lat="-33.373735025525093" lon="22.554944967851043">
        <ele>661.51999999999998</ele>
        <time>2020-03-22T06:52:34Z</time>
      </trkpt>
      <trkpt lat="-33.373880032449961" lon="22.554992996156216">
        <ele>661.51999999999998</ele>
        <time>2020-03-22T06:52:35Z</time>
      </trkpt>
      <trkpt lat="-33.375086020678282" lon="22.555489037185907">
        <ele>659.60000000000002</ele>
        <time>2020-03-22T06:52:44Z</time>
      </trkpt>
      <trkpt lat="-33.375204959884286" lon="22.555576041340828">
        <ele>659.60000000000002</ele>
        <time>2020-03-22T06:52:45Z</time>
      </trkpt>
      <trkpt lat="-33.376714959740639" lon="22.55648497492075">
        <ele>657.67999999999995</ele>
        <time>2020-03-22T06:52:56Z</time>
      </trkpt>
      <trkpt lat="-33.378763999789953" lon="22.557636983692646">
        <ele>656.24000000000001</ele>
        <time>2020-03-22T06:53:09Z</time>
      </trkpt>
      <trkpt lat="-33.380213985219598" lon="22.558861998841166">
        <ele>655.27999999999997</ele>
        <time>2020-03-22T06:53:21Z</time>
      </trkpt>
      <trkpt lat="-33.381231967359781" lon="22.559230970218778">
        <ele>651.42999999999995</ele>
        <time>2020-03-22T06:53:29Z</time>
      </trkpt>
      <trkpt lat="-33.382753031328321" lon="22.559468010440469">
        <ele>651.42999999999995</ele>
        <time>2020-03-22T06:53:40Z</time>
      </trkpt>
      <trkpt lat="-33.385102981701493" lon="22.560061030089855">
        <ele>650.47000000000003</ele>
        <time>2020-03-22T06:53:57Z</time>
      </trkpt>
      <trkpt lat="-33.38625599630177" lon="22.560125989839435">
        <ele>648.07000000000005</ele>
        <time>2020-03-22T06:54:06Z</time>
      </trkpt>
      <trkpt lat="-33.386370996013284" lon="22.560079973191023">
        <ele>648.07000000000005</ele>
        <time>2020-03-22T06:54:07Z</time>
      </trkpt>
      <trkpt lat="-33.387291999533772" lon="22.559551997110248">
        <ele>646.62</ele>
        <time>2020-03-22T06:54:16Z</time>
      </trkpt>
      <trkpt lat="-33.38737296871841" lon="22.559477984905243">
        <ele>646.13999999999999</ele>
        <time>2020-03-22T06:54:17Z</time>
      </trkpt>
      <trkpt lat="-33.38745703920722" lon="22.559393998235464">
        <ele>646.13999999999999</ele>
        <time>2020-03-22T06:54:18Z</time>
      </trkpt>
      <trkpt lat="-33.387531973421574" lon="22.559299031272531">
        <ele>646.13999999999999</ele>
        <time>2020-03-22T06:54:19Z</time>
      </trkpt>
      <trkpt lat="-33.387612020596862" lon="22.559199035167694">
        <ele>646.13999999999999</ele>
        <time>2020-03-22T06:54:20Z</time>
      </trkpt>
      <trkpt lat="-33.388146031647921" lon="22.558551030233502">
        <ele>645.65999999999997</ele>
        <time>2020-03-22T06:54:26Z</time>
      </trkpt>
      <trkpt lat="-33.388261031359434" lon="22.55848397500813">
        <ele>645.65999999999997</ele>
        <time>2020-03-22T06:54:27Z</time>
      </trkpt>
      <trkpt lat="-33.388378964737058" lon="22.558414991945028">
        <ele>645.65999999999997</ele>
        <time>2020-03-22T06:54:28Z</time>
      </trkpt>
      <trkpt lat="-33.388502011075616" lon="22.558368975296617">
        <ele>645.17999999999995</ele>
        <time>2020-03-22T06:54:29Z</time>
      </trkpt>
      <trkpt lat="-33.388633020222187" lon="22.558327987790108">
        <ele>645.17999999999995</ele>
        <time>2020-03-22T06:54:30Z</time>
      </trkpt>
      <trkpt lat="-33.388765035197139" lon="22.558303009718657">
        <ele>644.70000000000005</ele>
        <time>2020-03-22T06:54:31Z</time>
      </trkpt>
      <trkpt lat="-33.388897972181439" lon="22.558282976970077">
        <ele>644.70000000000005</ele>
        <time>2020-03-22T06:54:32Z</time>
      </trkpt>
      <trkpt lat="-33.389034010469913" lon="22.558312984183431">
        <ele>644.70000000000005</ele>
        <time>2020-03-22T06:54:33Z</time>
      </trkpt>
      <trkpt lat="-33.389164013788104" lon="22.558364029973745">
        <ele>645.17999999999995</ele>
        <time>2020-03-22T06:54:34Z</time>
      </trkpt>
      <trkpt lat="-33.389283958822489" lon="22.558423960581422">
        <ele>645.17999999999995</ele>
        <time>2020-03-22T06:54:35Z</time>
      </trkpt>
      <trkpt lat="-33.389386972412467" lon="22.558537032455206">
        <ele>644.70000000000005</ele>
        <time>2020-03-22T06:54:36Z</time>
      </trkpt>
      <trkpt lat="-33.389481017366052" lon="22.558629987761378">
        <ele>644.70000000000005</ele>
        <time>2020-03-22T06:54:37Z</time>
      </trkpt>
      <trkpt lat="-33.38956399820745" lon="22.558727972209454">
        <ele>644.70000000000005</ele>
        <time>2020-03-22T06:54:38Z</time>
      </trkpt>
      <trkpt lat="-33.389643039554358" lon="22.558828974142671">
        <ele>644.22000000000003</ele>
        <time>2020-03-22T06:54:39Z</time>
      </trkpt>
      <trkpt lat="-33.389815036207438" lon="22.559017986059189">
        <ele>644.22000000000003</ele>
        <time>2020-03-22T06:54:41Z</time>
      </trkpt>
      <trkpt lat="-33.389911008998752" lon="22.559101972728968">
        <ele>644.22000000000003</ele>
        <time>2020-03-22T06:54:42Z</time>
      </trkpt>
      <trkpt lat="-33.390008993446827" lon="22.559170033782721">
        <ele>643.74000000000001</ele>
        <time>2020-03-22T06:54:43Z</time>
      </trkpt>
      <trkpt lat="-33.390108989551663" lon="22.559231976047158">
        <ele>643.74000000000001</ele>
        <time>2020-03-22T06:54:44Z</time>
      </trkpt>
      <trkpt lat="-33.39020999148488" lon="22.559278998523951">
        <ele>643.74000000000001</ele>
        <time>2020-03-22T06:54:45Z</time>
      </trkpt>
      <trkpt lat="-33.39031501673162" lon="22.559321997687221">
        <ele>643.74000000000001</ele>
        <time>2020-03-22T06:54:46Z</time>
      </trkpt>
      <trkpt lat="-33.390422975644469" lon="22.559354016557336">
        <ele>643.74000000000001</ele>
        <time>2020-03-22T06:54:47Z</time>
      </trkpt>
      <trkpt lat="-33.390539987012744" lon="22.559381006285548">
        <ele>643.74000000000001</ele>
        <time>2020-03-22T06:54:48Z</time>
      </trkpt>
      <trkpt lat="-33.390666972845793" lon="22.55940699018538">
        <ele>643.74000000000001</ele>
        <time>2020-03-22T06:54:49Z</time>
      </trkpt>
      <trkpt lat="-33.392276968806982" lon="22.559582004323602">
        <ele>642.29999999999995</ele>
        <time>2020-03-22T06:55:02Z</time>
      </trkpt>
      <trkpt lat="-33.393206018954515" lon="22.559202974662185">
        <ele>640.38</ele>
        <time>2020-03-22T06:55:10Z</time>
      </trkpt>
      <trkpt lat="-33.393309032544494" lon="22.559119993820786">
        <ele>640.38</ele>
        <time>2020-03-22T06:55:11Z</time>
      </trkpt>
      <trkpt lat="-33.394498005509377" lon="22.558047026395798">
        <ele>638.92999999999995</ele>
        <time>2020-03-22T06:55:23Z</time>
      </trkpt>
      <trkpt lat="-33.395496038720012" lon="22.55742902867496">
        <ele>637.97000000000003</ele>
        <time>2020-03-22T06:55:32Z</time>
      </trkpt>
      <trkpt lat="-33.395735006779432" lon="22.557335989549756">
        <ele>637.97000000000003</ele>
        <time>2020-03-22T06:55:34Z</time>
      </trkpt>
      <trkpt lat="-33.396934038028121" lon="22.557311011478305">
        <ele>637.49000000000001</ele>
        <time>2020-03-22T06:55:43Z</time>
      </trkpt>
      <trkpt lat="-33.398005999624729" lon="22.557918028905988">
        <ele>637.00999999999999</ele>
        <time>2020-03-22T06:55:50Z</time>
      </trkpt>
      <trkpt lat="-33.399212993681431" lon="22.558924024924636">
        <ele>637.49000000000001</ele>
        <time>2020-03-22T06:55:55Z</time>
      </trkpt>
      <trkpt lat="-33.400554014369845" lon="22.559963967651129">
        <ele>637.49000000000001</ele>
        <time>2020-03-22T06:56:01Z</time>
      </trkpt>
      <trkpt lat="-33.401796966791153" lon="22.560734013095498">
        <ele>637.00999999999999</ele>
        <time>2020-03-22T06:56:08Z</time>
      </trkpt>
      <trkpt lat="-33.403545012697577" lon="22.561155036091805">
        <ele>632.67999999999995</ele>
        <time>2020-03-22T06:56:18Z</time>
      </trkpt>
      <trkpt lat="-33.403708040714264" lon="22.561133997514844">
        <ele>632.20000000000005</ele>
        <time>2020-03-22T06:56:19Z</time>
      </trkpt>
      <trkpt lat="-33.40387400239706" lon="22.561093010008335">
        <ele>631.72000000000003</ele>
        <time>2020-03-22T06:56:20Z</time>
      </trkpt>
      <trkpt lat="-33.404043987393379" lon="22.561024026945233">
        <ele>630.75999999999999</ele>
        <time>2020-03-22T06:56:21Z</time>
      </trkpt>
      <trkpt lat="-33.404197040945292" lon="22.560956971719861">
        <ele>629.32000000000005</ele>
        <time>2020-03-22T06:56:22Z</time>
      </trkpt>
      <trkpt lat="-33.405127013102174" lon="22.560234032571316">
        <ele>618.25999999999999</ele>
        <time>2020-03-22T06:56:29Z</time>
      </trkpt>
      <trkpt lat="-33.405210999771953" lon="22.560010990127921">
        <ele>617.77999999999997</ele>
        <time>2020-03-22T06:56:30Z</time>
      </trkpt>
      <trkpt lat="-33.405320970341563" lon="22.559861037880182">
        <ele>617.29999999999995</ele>
        <time>2020-03-22T06:56:31Z</time>
      </trkpt>
      <trkpt lat="-33.405615007504821" lon="22.559360973536968">
        <ele>615.38</ele>
        <time>2020-03-22T06:56:34Z</time>
      </trkpt>
      <trkpt lat="-33.405748028308153" lon="22.559256032109261">
        <ele>614.89999999999998</ele>
        <time>2020-03-22T06:56:35Z</time>
      </trkpt>
      <trkpt lat="-33.405878031626344" lon="22.55914899520576">
        <ele>613.94000000000005</ele>
        <time>2020-03-22T06:56:36Z</time>
      </trkpt>
      <trkpt lat="-33.406019015237689" lon="22.559068026021123">
        <ele>612.98000000000002</ele>
        <time>2020-03-22T06:56:37Z</time>
      </trkpt>
      <trkpt lat="-33.406175002455711" lon="22.559008011594415">
        <ele>612.98000000000002</ele>
        <time>2020-03-22T06:56:38Z</time>
      </trkpt>
      <trkpt lat="-33.406334007158875" lon="22.558963000774384">
        <ele>612.01999999999998</ele>
        <time>2020-03-22T06:56:39Z</time>
      </trkpt>
      <trkpt lat="-33.406495023518801" lon="22.558923019096255">
        <ele>611.53999999999996</ele>
        <time>2020-03-22T06:56:40Z</time>
      </trkpt>
      <trkpt lat="-33.40750596486032" lon="22.558529991656542">
        <ele>608.16999999999996</ele>
        <time>2020-03-22T06:56:47Z</time>
      </trkpt>
      <trkpt lat="-33.407625993713737" lon="22.558413986116648">
        <ele>608.16999999999996</ele>
        <time>2020-03-22T06:56:48Z</time>
      </trkpt>
      <trkpt lat="-33.407729007303715" lon="22.558279959484935">
        <ele>607.69000000000005</ele>
        <time>2020-03-22T06:56:49Z</time>
      </trkpt>
      <trkpt lat="-33.407813999801874" lon="22.558115003630519">
        <ele>607.21000000000004</ele>
        <time>2020-03-22T06:56:50Z</time>
      </trkpt>
      <trkpt lat="-33.407892035320401" lon="22.557958010584116">
        <ele>606.73000000000002</ele>
        <time>2020-03-22T06:56:51Z</time>
      </trkpt>
      <trkpt lat="-33.407967975363135" lon="22.557798000052571">
        <ele>606.25</ele>
        <time>2020-03-22T06:56:52Z</time>
      </trkpt>
      <trkpt lat="-33.408860983327031" lon="22.555811991915107">
        <ele>604.80999999999995</ele>
        <time>2020-03-22T06:57:05Z</time>
      </trkpt>
      <trkpt lat="-33.409149991348386" lon="22.554985033348203">
        <ele>603.85000000000002</ele>
        <time>2020-03-22T06:57:10Z</time>
      </trkpt>
      <trkpt lat="-33.409174969419837" lon="22.554797027260065">
        <ele>603.85000000000002</ele>
        <time>2020-03-22T06:57:11Z</time>
      </trkpt>
      <trkpt lat="-33.409193996340036" lon="22.554612038657069">
        <ele>603.85000000000002</ele>
        <time>2020-03-22T06:57:12Z</time>
      </trkpt>
      <trkpt lat="-33.409397006034851" lon="22.553638983517885">
        <ele>602.88</ele>
        <time>2020-03-22T06:57:18Z</time>
      </trkpt>
      <trkpt lat="-33.409460037946701" lon="22.553504034876823">
        <ele>602.88</ele>
        <time>2020-03-22T06:57:19Z</time>
      </trkpt>
      <trkpt lat="-33.40954402461648" lon="22.553371014073491">
        <ele>602.88</ele>
        <time>2020-03-22T06:57:20Z</time>
      </trkpt>
      <trkpt lat="-33.409637985751033" lon="22.553254002705216">
        <ele>603.36000000000001</ele>
        <time>2020-03-22T06:57:21Z</time>
      </trkpt>
      <trkpt lat="-33.409795984625816" lon="22.553165992721915">
        <ele>602.88</ele>
        <time>2020-03-22T06:57:22Z</time>
      </trkpt>
      <trkpt lat="-33.409978961572051" lon="22.553078988566995">
        <ele>602.88</ele>
        <time>2020-03-22T06:57:23Z</time>
      </trkpt>
      <trkpt lat="-33.410122962668538" lon="22.552983015775681">
        <ele>602.88</ele>
        <time>2020-03-22T06:57:24Z</time>
      </trkpt>
      <trkpt lat="-33.410260006785393" lon="22.552881008014083">
        <ele>602.88</ele>
        <time>2020-03-22T06:57:25Z</time>
      </trkpt>
      <trkpt lat="-33.410808015614748" lon="22.552279019728303">
        <ele>602.88</ele>
        <time>2020-03-22T06:57:30Z</time>
      </trkpt>
      <trkpt lat="-33.411658024415374" lon="22.551419958472252">
        <ele>602.88</ele>
        <time>2020-03-22T06:57:38Z</time>
      </trkpt>
      <trkpt lat="-33.413415960967541" lon="22.55092098377645">
        <ele>601.91999999999996</ele>
        <time>2020-03-22T06:57:49Z</time>
      </trkpt>
      <trkpt lat="-33.415093012154102" lon="22.55094001069665">
        <ele>602.88</ele>
        <time>2020-03-22T06:57:59Z</time>
      </trkpt>
      <trkpt lat="-33.415254028514028" lon="22.550902040675282">
        <ele>603.36000000000001</ele>
        <time>2020-03-22T06:58:00Z</time>
      </trkpt>
      <trkpt lat="-33.415414039045572" lon="22.550839008763433">
        <ele>603.36000000000001</ele>
        <time>2020-03-22T06:58:01Z</time>
      </trkpt>
      <trkpt lat="-33.415570026263595" lon="22.550764996558428">
        <ele>603.85000000000002</ele>
        <time>2020-03-22T06:58:02Z</time>
      </trkpt>
      <trkpt lat="-33.415719978511333" lon="22.550673969089985">
        <ele>603.85000000000002</ele>
        <time>2020-03-22T06:58:03Z</time>
      </trkpt>
      <trkpt lat="-33.415866997092962" lon="22.550569027662277">
        <ele>604.33000000000004</ele>
        <time>2020-03-22T06:58:04Z</time>
      </trkpt>
      <trkpt lat="-33.416007980704308" lon="22.550462996587157">
        <ele>604.80999999999995</ele>
        <time>2020-03-22T06:58:05Z</time>
      </trkpt>
      <trkpt lat="-33.416397990658879" lon="22.550142975524068">
        <ele>605.76999999999998</ele>
        <time>2020-03-22T06:58:08Z</time>
      </trkpt>
      <trkpt lat="-33.416492035612464" lon="22.550020013004541">
        <ele>606.25</ele>
        <time>2020-03-22T06:58:09Z</time>
      </trkpt>
      <trkpt lat="-33.41657199896872" lon="22.549883974716067">
        <ele>606.73000000000002</ele>
        <time>2020-03-22T06:58:10Z</time>
      </trkpt>
      <trkpt lat="-33.4166369587183" lon="22.549737961962819">
        <ele>607.21000000000004</ele>
        <time>2020-03-22T06:58:11Z</time>
      </trkpt>
      <trkpt lat="-33.416698984801769" lon="22.549595972523093">
        <ele>607.69000000000005</ele>
        <time>2020-03-22T06:58:12Z</time>
      </trkpt>
      <trkpt lat="-33.416762016713619" lon="22.549464041367173">
        <ele>608.16999999999996</ele>
        <time>2020-03-22T06:58:13Z</time>
      </trkpt>
      <trkpt lat="-33.416841980069876" lon="22.549354992806911">
        <ele>608.64999999999998</ele>
        <time>2020-03-22T06:58:14Z</time>
      </trkpt>
      <trkpt lat="-33.416939964517951" lon="22.549277041107416">
        <ele>609.13</ele>
        <time>2020-03-22T06:58:15Z</time>
      </trkpt>
      <trkpt lat="-33.41704398393631" lon="22.549218032509089">
        <ele>610.09000000000003</ele>
        <time>2020-03-22T06:58:16Z</time>
      </trkpt>
      <trkpt lat="-33.417156971991062" lon="22.549172015860677">
        <ele>610.57000000000005</ele>
        <time>2020-03-22T06:58:17Z</time>
      </trkpt>
      <trkpt lat="-33.417274989187717" lon="22.549148965626955">
        <ele>611.05999999999995</ele>
        <time>2020-03-22T06:58:18Z</time>
      </trkpt>
      <trkpt lat="-33.417403986677527" lon="22.549149971455336">
        <ele>612.01999999999998</ele>
        <time>2020-03-22T06:58:19Z</time>
      </trkpt>
      <trkpt lat="-33.417534995824099" lon="22.549205040559173">
        <ele>612.98000000000002</ele>
        <time>2020-03-22T06:58:20Z</time>
      </trkpt>
      <trkpt lat="-33.41766701079905" lon="22.54926698282361">
        <ele>613.46000000000004</ele>
        <time>2020-03-22T06:58:21Z</time>
      </trkpt>
      <trkpt lat="-33.417782010510564" lon="22.549339989200234">
        <ele>614.41999999999996</ele>
        <time>2020-03-22T06:58:22Z</time>
      </trkpt>
      <trkpt lat="-33.41790396720171" lon="22.549430010840297">
        <ele>614.89999999999998</ele>
        <time>2020-03-22T06:58:23Z</time>
      </trkpt>
      <trkpt lat="-33.418029025197029" lon="22.549522966146469">
        <ele>615.86000000000001</ele>
        <time>2020-03-22T06:58:24Z</time>
      </trkpt>
      <trkpt lat="-33.419544976204634" lon="22.550773965194821">
        <ele>624.99000000000001</ele>
        <time>2020-03-22T06:58:36Z</time>
      </trkpt>
      <trkpt lat="-33.41966500505805" lon="22.550848983228207">
        <ele>625.47000000000003</ele>
        <time>2020-03-22T06:58:37Z</time>
      </trkpt>
      <trkpt lat="-33.419790985062718" lon="22.550912015140057">
        <ele>625.96000000000004</ele>
        <time>2020-03-22T06:58:38Z</time>
      </trkpt>
      <trkpt lat="-33.419927023351192" lon="22.550951996818185">
        <ele>626.44000000000005</ele>
        <time>2020-03-22T06:58:39Z</time>
      </trkpt>
      <trkpt lat="-33.420063983649015" lon="22.550964988768101">
        <ele>626.91999999999996</ele>
        <time>2020-03-22T06:58:40Z</time>
      </trkpt>
      <trkpt lat="-33.420198010280728" lon="22.550953002646565">
        <ele>627.88</ele>
        <time>2020-03-22T06:58:41Z</time>
      </trkpt>
      <trkpt lat="-33.420329019427299" lon="22.55092098377645">
        <ele>628.36000000000001</ele>
        <time>2020-03-22T06:58:42Z</time>
      </trkpt>
      <trkpt lat="-33.420462040230632" lon="22.550887037068605">
        <ele>628.84000000000003</ele>
        <time>2020-03-22T06:58:43Z</time>
      </trkpt>
      <trkpt lat="-33.421148015186191" lon="22.550760973244905">
        <ele>630.75999999999999</ele>
        <time>2020-03-22T06:58:48Z</time>
      </trkpt>
      <trkpt lat="-33.421251028776169" lon="22.550707999616861">
        <ele>631.72000000000003</ele>
        <time>2020-03-22T06:58:49Z</time>
      </trkpt>
      <trkpt lat="-33.421342978253961" lon="22.550642034038901">
        <ele>632.20000000000005</ele>
        <time>2020-03-22T06:58:50Z</time>
      </trkpt>
      <trkpt lat="-33.421440962702036" lon="22.550560981035233">
        <ele>633.16999999999996</ele>
        <time>2020-03-22T06:58:51Z</time>
      </trkpt>
      <trkpt lat="-33.421526039019227" lon="22.550459979102015">
        <ele>633.64999999999998</ele>
        <time>2020-03-22T06:58:52Z</time>
      </trkpt>
      <trkpt lat="-33.421610025689006" lon="22.550333999097347">
        <ele>634.61000000000001</ele>
        <time>2020-03-22T06:58:53Z</time>
      </trkpt>
      <trkpt lat="-33.421678002923727" lon="22.550205001607537">
        <ele>635.57000000000005</ele>
        <time>2020-03-22T06:58:54Z</time>
      </trkpt>
      <trkpt lat="-33.421721002086997" lon="22.550048008561134">
        <ele>636.04999999999995</ele>
        <time>2020-03-22T06:58:55Z</time>
      </trkpt>
      <trkpt lat="-33.421764001250267" lon="22.549909958615899">
        <ele>636.52999999999997</ele>
        <time>2020-03-22T06:58:56Z</time>
      </trkpt>
      <trkpt lat="-33.421899033710361" lon="22.549515003338456">
        <ele>638.45000000000005</ele>
        <time>2020-03-22T06:58:59Z</time>
      </trkpt>
      <trkpt lat="-33.421972962096334" lon="22.549281986430287">
        <ele>639.40999999999997</ele>
        <time>2020-03-22T06:59:01Z</time>
      </trkpt>
      <trkpt lat="-33.422101037576795" lon="22.549195988103747">
        <ele>639.88999999999999</ele>
        <time>2020-03-22T06:59:02Z</time>
      </trkpt>
      <trkpt lat="-33.422989016398787" lon="22.548848977312446">
        <ele>644.70000000000005</ele>
        <time>2020-03-22T06:59:08Z</time>
      </trkpt>
      <trkpt lat="-33.423123965039849" lon="22.54881695844233">
        <ele>645.65999999999997</ele>
        <time>2020-03-22T06:59:09Z</time>
      </trkpt>
      <trkpt lat="-33.423265032470226" lon="22.548808995634317">
        <ele>646.62</ele>
        <time>2020-03-22T06:59:10Z</time>
      </trkpt>
      <trkpt lat="-33.423410961404443" lon="22.548822993412614">
        <ele>647.59000000000003</ele>
        <time>2020-03-22T06:59:11Z</time>
      </trkpt>
      <trkpt lat="-33.423556974157691" lon="22.548851994797587">
        <ele>648.54999999999995</ele>
        <time>2020-03-22T06:59:12Z</time>
      </trkpt>
      <trkpt lat="-33.423699969425797" lon="22.54889901727438">
        <ele>649.02999999999997</ele>
        <time>2020-03-22T06:59:13Z</time>
      </trkpt>
      <trkpt lat="-33.423837013542652" lon="22.548960959538817">
        <ele>649.99000000000001</ele>
        <time>2020-03-22T06:59:14Z</time>
      </trkpt>
      <trkpt lat="-33.423968022689223" lon="22.549031032249331">
        <ele>650.47000000000003</ele>
        <time>2020-03-22T06:59:15Z</time>
      </trkpt>
      <trkpt lat="-33.424097020179033" lon="22.549110995605588">
        <ele>650.95000000000005</ele>
        <time>2020-03-22T06:59:16Z</time>
      </trkpt>
      <trkpt lat="-33.424359960481524" lon="22.549220966175199">
        <ele>652.38999999999999</ele>
        <time>2020-03-22T06:59:18Z</time>
      </trkpt>
      <trkpt lat="-33.424502033740282" lon="22.549254996702075">
        <ele>652.87</ele>
        <time>2020-03-22T06:59:19Z</time>
      </trkpt>
      <trkpt lat="-33.424648968502879" lon="22.549274023622274">
        <ele>653.83000000000004</ele>
        <time>2020-03-22T06:59:20Z</time>
      </trkpt>
      <trkpt lat="-33.425253974273801" lon="22.549383994191885">
        <ele>655.75999999999999</ele>
        <time>2020-03-22T06:59:24Z</time>
      </trkpt>
      <trkpt lat="-33.425403004512191" lon="22.549443002790213">
        <ele>656.24000000000001</ele>
        <time>2020-03-22T06:59:25Z</time>
      </trkpt>
      <trkpt lat="-33.425536025315523" lon="22.549520032480359">
        <ele>656.72000000000003</ele>
        <time>2020-03-22T06:59:26Z</time>
      </trkpt>
      <trkpt lat="-33.425648007541895" lon="22.549616005271673">
        <ele>656.72000000000003</ele>
        <time>2020-03-22T06:59:27Z</time>
      </trkpt>
      <trkpt lat="-33.426229963079095" lon="22.549866959452629">
        <ele>643.25999999999999</ele>
        <time>2020-03-22T06:59:28Z</time>
      </trkpt>
      <trkpt lat="-33.426532968878746" lon="22.550066029652953">
        <ele>639.40999999999997</ele>
        <time>2020-03-22T06:59:29Z</time>
      </trkpt>
      <trkpt lat="-33.426651991903782" lon="22.550201984122396">
        <ele>637.49000000000001</ele>
        <time>2020-03-22T06:59:30Z</time>
      </trkpt>
      <trkpt lat="-33.427266972139478" lon="22.551274029538035">
        <ele>620.66999999999996</ele>
        <time>2020-03-22T06:59:38Z</time>
      </trkpt>
      <trkpt lat="-33.427380966022611" lon="22.551409984007478">
        <ele>619.71000000000004</ele>
        <time>2020-03-22T06:59:39Z</time>
      </trkpt>
      <trkpt lat="-33.427515998482704" lon="22.551520960405469">
        <ele>618.75</ele>
        <time>2020-03-22T06:59:40Z</time>
      </trkpt>
      <trkpt lat="-33.427653964608908" lon="22.551623973995447">
        <ele>617.77999999999997</ele>
        <time>2020-03-22T06:59:41Z</time>
      </trkpt>
      <trkpt lat="-33.427791008725762" lon="22.551697986200452">
        <ele>617.29999999999995</ele>
        <time>2020-03-22T06:59:42Z</time>
      </trkpt>
      <trkpt lat="-33.427938027307391" lon="22.551753977313638">
        <ele>616.82000000000005</ele>
        <time>2020-03-22T06:59:43Z</time>
      </trkpt>
      <trkpt lat="-33.428084962069988" lon="22.551802005618811">
        <ele>616.34000000000003</ele>
        <time>2020-03-22T06:59:44Z</time>
      </trkpt>
      <trkpt lat="-33.429123982787132" lon="22.552111968398094">
        <ele>611.05999999999995</ele>
        <time>2020-03-22T06:59:51Z</time>
      </trkpt>
      <trkpt lat="-33.429177962243557" lon="22.552209030836821">
        <ele>611.05999999999995</ele>
        <time>2020-03-22T06:59:52Z</time>
      </trkpt>
      <trkpt lat="-33.429291034117341" lon="22.552310032770038">
        <ele>610.57000000000005</ele>
        <time>2020-03-22T06:59:53Z</time>
      </trkpt>
      <trkpt lat="-33.429387006908655" lon="22.552435006946325">
        <ele>610.57000000000005</ele>
        <time>2020-03-22T06:59:54Z</time>
      </trkpt>
      <trkpt lat="-33.429466970264912" lon="22.552572973072529">
        <ele>610.09000000000003</ele>
        <time>2020-03-22T06:59:55Z</time>
      </trkpt>
      <trkpt lat="-33.429533019661903" lon="22.552727032452822">
        <ele>610.09000000000003</ele>
        <time>2020-03-22T06:59:56Z</time>
      </trkpt>
      <trkpt lat="-33.429582975804806" lon="22.552882013842463">
        <ele>609.61000000000001</ele>
        <time>2020-03-22T06:59:57Z</time>
      </trkpt>
      <trkpt lat="-33.429620023816824" lon="22.55304797552526">
        <ele>609.13</ele>
        <time>2020-03-22T06:59:58Z</time>
      </trkpt>
      <trkpt lat="-33.429646007716656" lon="22.553218966349959">
        <ele>608.64999999999998</ele>
        <time>2020-03-22T06:59:59Z</time>
      </trkpt>
      <trkpt lat="-33.429653970524669" lon="22.553394986316562">
        <ele>608.16999999999996</ele>
        <time>2020-03-22T07:00:00Z</time>
      </trkpt>
      <trkpt lat="-33.429647013545036" lon="22.553574023768306">
        <ele>607.69000000000005</ele>
        <time>2020-03-22T07:00:01Z</time>
      </trkpt>
      <trkpt lat="-33.429619017988443" lon="22.553751971572638">
        <ele>606.73000000000002</ele>
        <time>2020-03-22T07:00:02Z</time>
      </trkpt>
      <trkpt lat="-33.429618012160063" lon="22.553918017074466">
        <ele>605.76999999999998</ele>
        <time>2020-03-22T07:00:03Z</time>
      </trkpt>
      <trkpt lat="-33.429628992453218" lon="22.55407802760601">
        <ele>604.33000000000004</ele>
        <time>2020-03-22T07:00:04Z</time>
      </trkpt>
      <trkpt lat="-33.429641984403133" lon="22.554243989288807">
        <ele>603.36000000000001</ele>
        <time>2020-03-22T07:00:05Z</time>
      </trkpt>
      <trkpt lat="-33.429696969687939" lon="22.554397964850068">
        <ele>602.88</ele>
        <time>2020-03-22T07:00:06Z</time>
      </trkpt>
      <trkpt lat="-33.429729994386435" lon="22.554540038108826">
        <ele>601.91999999999996</ele>
        <time>2020-03-22T07:00:07Z</time>
      </trkpt>
      <trkpt lat="-33.429738963022828" lon="22.554678004235029">
        <ele>599.51999999999998</ele>
        <time>2020-03-22T07:00:08Z</time>
      </trkpt>
      <trkpt lat="-33.429747009649873" lon="22.554822005331516">
        <ele>598.55999999999995</ele>
        <time>2020-03-22T07:00:09Z</time>
      </trkpt>
      <trkpt lat="-33.42971901409328" lon="22.554965000599623">
        <ele>597.12</ele>
        <time>2020-03-22T07:00:10Z</time>
      </trkpt>
      <trkpt lat="-33.429695963859558" lon="22.555122999474406">
        <ele>596.63999999999999</ele>
        <time>2020-03-22T07:00:11Z</time>
      </trkpt>
      <trkpt lat="-33.429666040465236" lon="22.55528099834919">
        <ele>596.63999999999999</ele>
        <time>2020-03-22T07:00:12Z</time>
      </trkpt>
      <trkpt lat="-33.429614994674921" lon="22.555589033290744">
        <ele>595.19000000000005</ele>
        <time>2020-03-22T07:00:14Z</time>
      </trkpt>
      <trkpt lat="-33.42959001660347" lon="22.556167971342802">
        <ele>592.78999999999996</ele>
        <time>2020-03-22T07:00:18Z</time>
      </trkpt>
      <trkpt lat="-33.429607031866908" lon="22.556297974660993">
        <ele>591.83000000000004</ele>
        <time>2020-03-22T07:00:19Z</time>
      </trkpt>
      <trkpt lat="-33.429637961089611" lon="22.556421020999551">
        <ele>591.35000000000002</ele>
        <time>2020-03-22T07:00:20Z</time>
      </trkpt>
      <trkpt lat="-33.429683977738023" lon="22.556534009054303">
        <ele>590.87</ele>
        <time>2020-03-22T07:00:21Z</time>
      </trkpt>
      <trkpt lat="-33.429748015478253" lon="22.556631993502378">
        <ele>589.90999999999997</ele>
        <time>2020-03-22T07:00:22Z</time>
      </trkpt>
      <trkpt lat="-33.429844994097948" lon="22.556711034849286">
        <ele>589.90999999999997</ele>
        <time>2020-03-22T07:00:23Z</time>
      </trkpt>
      <trkpt lat="-33.429953958839178" lon="22.556767025962472">
        <ele>590.38999999999999</ele>
        <time>2020-03-22T07:00:24Z</time>
      </trkpt>
      <trkpt lat="-33.43006401322782" lon="22.556808013468981">
        <ele>589.90999999999997</ele>
        <time>2020-03-22T07:00:25Z</time>
      </trkpt>
      <trkpt lat="-33.430182030424476" lon="22.556839026510715">
        <ele>589.90999999999997</ele>
        <time>2020-03-22T07:00:26Z</time>
      </trkpt>
      <trkpt lat="-33.43068796209991" lon="22.556991996243596">
        <ele>590.38999999999999</ele>
        <time>2020-03-22T07:00:30Z</time>
      </trkpt>
      <trkpt lat="-33.430805979296565" lon="22.557057961821556">
        <ele>590.87</ele>
        <time>2020-03-22T07:00:31Z</time>
      </trkpt>
      <trkpt lat="-33.430919973179698" lon="22.557141026481986">
        <ele>590.38999999999999</ele>
        <time>2020-03-22T07:00:32Z</time>
      </trkpt>
      <trkpt lat="-33.431031033396721" lon="22.5572369992733">
        <ele>590.38999999999999</ele>
        <time>2020-03-22T07:00:33Z</time>
      </trkpt>
      <trkpt lat="-33.431134968996048" lon="22.55734303034842">
        <ele>590.38999999999999</ele>
        <time>2020-03-22T07:00:34Z</time>
      </trkpt>
      <trkpt lat="-33.431227002292871" lon="22.557448977604508">
        <ele>590.38999999999999</ele>
        <time>2020-03-22T07:00:35Z</time>
      </trkpt>
      <trkpt lat="-33.431347031146288" lon="22.557581998407841">
        <ele>590.38999999999999</ele>
        <time>2020-03-22T07:00:36Z</time>
      </trkpt>
      <trkpt lat="-33.431453984230757" lon="22.55773002281785">
        <ele>589.90999999999997</ele>
        <time>2020-03-22T07:00:37Z</time>
      </trkpt>
      <trkpt lat="-33.431538976728916" lon="22.557877963408828">
        <ele>589.42999999999995</ele>
        <time>2020-03-22T07:00:38Z</time>
      </trkpt>
      <trkpt lat="-33.431607037782669" lon="22.558036968111992">
        <ele>589.42999999999995</ele>
        <time>2020-03-22T07:00:39Z</time>
      </trkpt>
      <trkpt lat="-33.432610016316175" lon="22.559307999908924">
        <ele>586.05999999999995</ele>
        <time>2020-03-22T07:00:50Z</time>
      </trkpt>
      <trkpt lat="-33.432778995484114" lon="22.559241028502584">
        <ele>585.58000000000004</ele>
        <time>2020-03-22T07:00:51Z</time>
      </trkpt>
      <trkpt lat="-33.432873040437698" lon="22.559159975498915">
        <ele>585.58000000000004</ele>
        <time>2020-03-22T07:00:52Z</time>
      </trkpt>
      <trkpt lat="-33.432946968823671" lon="22.559054028242826">
        <ele>585.10000000000002</ele>
        <time>2020-03-22T07:00:53Z</time>
      </trkpt>
      <trkpt lat="-33.433011006563902" lon="22.558928970247507">
        <ele>585.10000000000002</ele>
        <time>2020-03-22T07:00:54Z</time>
      </trkpt>
      <trkpt lat="-33.433066997677088" lon="22.55878496915102">
        <ele>584.62</ele>
        <time>2020-03-22T07:00:55Z</time>
      </trkpt>
      <trkpt lat="-33.433126006275415" lon="22.558642979711294">
        <ele>584.62</ele>
        <time>2020-03-22T07:00:56Z</time>
      </trkpt>
      <trkpt lat="-33.433183003216982" lon="22.558500990271568">
        <ele>584.13999999999999</ele>
        <time>2020-03-22T07:00:57Z</time>
      </trkpt>
      <trkpt lat="-33.434391003102064" lon="22.556594023481011">
        <ele>578.85000000000002</ele>
        <time>2020-03-22T07:01:10Z</time>
      </trkpt>
      <trkpt lat="-33.434955021366477" lon="22.556145004928112">
        <ele>577.88999999999999</ele>
        <time>2020-03-22T07:01:16Z</time>
      </trkpt>
      <trkpt lat="-33.435075972229242" lon="22.556159002706409">
        <ele>577.88999999999999</ele>
        <time>2020-03-22T07:01:17Z</time>
      </trkpt>
      <trkpt lat="-33.435200024396181" lon="22.556202001869678">
        <ele>577.88999999999999</ele>
        <time>2020-03-22T07:01:18Z</time>
      </trkpt>
      <trkpt lat="-33.435328016057611" lon="22.556276014074683">
        <ele>577.88999999999999</ele>
        <time>2020-03-22T07:01:19Z</time>
      </trkpt>
      <trkpt lat="-33.435453996062279" lon="22.556379027664661">
        <ele>577.40999999999997</ele>
        <time>2020-03-22T07:01:20Z</time>
      </trkpt>
      <trkpt lat="-33.436384974047542" lon="22.556819999590516">
        <ele>577.40999999999997</ele>
        <time>2020-03-22T07:01:27Z</time>
      </trkpt>
      <trkpt lat="-33.43816596083343" lon="22.557263989001513">
        <ele>576.92999999999995</ele>
        <time>2020-03-22T07:01:38Z</time>
      </trkpt>
      <trkpt lat="-33.438338963314891" lon="22.557351998984814">
        <ele>576.92999999999995</ele>
        <time>2020-03-22T07:01:39Z</time>
      </trkpt>
      <trkpt lat="-33.438502997159958" lon="22.557453000918031">
        <ele>576.92999999999995</ele>
        <time>2020-03-22T07:01:40Z</time>
      </trkpt>
      <trkpt lat="-33.438617996871471" lon="22.557548973709345">
        <ele>576.92999999999995</ele>
        <time>2020-03-22T07:01:41Z</time>
      </trkpt>
      <trkpt lat="-33.438675999641418" lon="22.557661961764097">
        <ele>576.45000000000005</ele>
        <time>2020-03-22T07:01:42Z</time>
      </trkpt>
      <trkpt lat="-33.438748000189662" lon="22.557800011709332">
        <ele>576.92999999999995</ele>
        <time>2020-03-22T07:01:43Z</time>
      </trkpt>
      <trkpt lat="-33.438812959939241" lon="22.557912999764085">
        <ele>576.45000000000005</ele>
        <time>2020-03-22T07:01:44Z</time>
      </trkpt>
      <trkpt lat="-33.438931982964277" lon="22.558068986982107">
        <ele>576.45000000000005</ele>
        <time>2020-03-22T07:01:45Z</time>
      </trkpt>
      <trkpt lat="-33.438984034582973" lon="22.558231009170413">
        <ele>576.45000000000005</ele>
        <time>2020-03-22T07:01:46Z</time>
      </trkpt>
      <trkpt lat="-33.43913096934557" lon="22.558417003601789">
        <ele>576.45000000000005</ele>
        <time>2020-03-22T07:01:47Z</time>
      </trkpt>
      <trkpt lat="-33.439180003479123" lon="22.558586988598108">
        <ele>576.45000000000005</ele>
        <time>2020-03-22T07:01:48Z</time>
      </trkpt>
      <trkpt lat="-33.439205987378955" lon="22.558754039928317">
        <ele>576.45000000000005</ele>
        <time>2020-03-22T07:01:49Z</time>
      </trkpt>
      <trkpt lat="-33.439262984320521" lon="22.559245973825455">
        <ele>570.67999999999995</ele>
        <time>2020-03-22T07:01:52Z</time>
      </trkpt>
      <trkpt lat="-33.439848041161895" lon="22.560555981472135">
        <ele>558.17999999999995</ele>
        <time>2020-03-22T07:02:00Z</time>
      </trkpt>
      <trkpt lat="-33.439888022840023" lon="22.560748010873795">
        <ele>556.74000000000001</ele>
        <time>2020-03-22T07:02:01Z</time>
      </trkpt>
      <trkpt lat="-33.440470984205604" lon="22.562426989898086">
        <ele>548.57000000000005</ele>
        <time>2020-03-22T07:02:10Z</time>
      </trkpt>
      <trkpt lat="-33.441181015223265" lon="22.563620992004871">
        <ele>541.84000000000003</ele>
        <time>2020-03-22T07:02:18Z</time>
      </trkpt>
      <trkpt lat="-33.441484021022916" lon="22.564757997170091">
        <ele>534.14999999999998</ele>
        <time>2020-03-22T07:02:25Z</time>
      </trkpt>
      <trkpt lat="-33.441663980484009" lon="22.566462960094213">
        <ele>524.53999999999996</ele>
        <time>2020-03-22T07:02:34Z</time>
      </trkpt>
      <trkpt lat="-33.441721983253956" lon="22.566759008914232">
        <ele>523.09000000000003</ele>
        <time>2020-03-22T07:02:36Z</time>
      </trkpt>
      <trkpt lat="-33.441792977973819" lon="22.566871996968985">
        <ele>523.09000000000003</ele>
        <time>2020-03-22T07:02:37Z</time>
      </trkpt>
      <trkpt lat="-33.441891968250275" lon="22.566979033872485">
        <ele>525.01999999999998</ele>
        <time>2020-03-22T07:02:38Z</time>
      </trkpt>
      <trkpt lat="-33.441986013203859" lon="22.567051034420729">
        <ele>524.05999999999995</ele>
        <time>2020-03-22T07:02:39Z</time>
      </trkpt>
      <trkpt lat="-33.442086009308696" lon="22.567108031362295">
        <ele>523.09000000000003</ele>
        <time>2020-03-22T07:02:40Z</time>
      </trkpt>
      <trkpt lat="-33.442216012626886" lon="22.567156981676817">
        <ele>524.05999999999995</ele>
        <time>2020-03-22T07:02:41Z</time>
      </trkpt>
      <trkpt lat="-33.442346015945077" lon="22.567180031910539">
        <ele>524.05999999999995</ele>
        <time>2020-03-22T07:02:42Z</time>
      </trkpt>
      <trkpt lat="-33.442485993728042" lon="22.567182965576649">
        <ele>525.01999999999998</ele>
        <time>2020-03-22T07:02:43Z</time>
      </trkpt>
      <trkpt lat="-33.442669976502657" lon="22.56714298389852">
        <ele>525.01999999999998</ele>
        <time>2020-03-22T07:02:44Z</time>
      </trkpt>
      <trkpt lat="-33.442852031439543" lon="22.567081041634083">
        <ele>525.5</ele>
        <time>2020-03-22T07:02:45Z</time>
      </trkpt>
      <trkpt lat="-33.443037020042539" lon="22.567014992237091">
        <ele>523.09000000000003</ele>
        <time>2020-03-22T07:02:46Z</time>
      </trkpt>
      <trkpt lat="-33.443240029737353" lon="22.566929999738932">
        <ele>521.16999999999996</ele>
        <time>2020-03-22T07:02:47Z</time>
      </trkpt>
      <trkpt lat="-33.443471034988761" lon="22.566845007240772">
        <ele>518.76999999999998</ele>
        <time>2020-03-22T07:02:48Z</time>
      </trkpt>
      <trkpt lat="-33.44476000405848" lon="22.566117038950324">
        <ele>512.51999999999998</ele>
        <time>2020-03-22T07:02:56Z</time>
      </trkpt>
      <trkpt lat="-33.444925965741277" lon="22.565888967365026">
        <ele>510.60000000000002</ele>
        <time>2020-03-22T07:02:58Z</time>
      </trkpt>
      <trkpt lat="-33.444998972117901" lon="22.565761981531978">
        <ele>509.63999999999999</ele>
        <time>2020-03-22T07:02:59Z</time>
      </trkpt>
      <trkpt lat="-33.445053035393357" lon="22.565615968778729">
        <ele>509.16000000000003</ele>
        <time>2020-03-22T07:03:00Z</time>
      </trkpt>
      <trkpt lat="-33.44510399736464" lon="22.565468028187752">
        <ele>508.67000000000002</ele>
        <time>2020-03-22T07:03:01Z</time>
      </trkpt>
      <trkpt lat="-33.445141967386007" lon="22.565306005999446">
        <ele>507.70999999999998</ele>
        <time>2020-03-22T07:03:02Z</time>
      </trkpt>
      <trkpt lat="-33.445168035104871" lon="22.565155969932675">
        <ele>506.75</ele>
        <time>2020-03-22T07:03:03Z</time>
      </trkpt>
      <trkpt lat="-33.445226037874818" lon="22.564998976886272">
        <ele>506.75</ele>
        <time>2020-03-22T07:03:04Z</time>
      </trkpt>
      <trkpt lat="-33.44533902592957" lon="22.564459014683962">
        <ele>505.79000000000002</ele>
        <time>2020-03-22T07:03:07Z</time>
      </trkpt>
      <trkpt lat="-33.44533802010119" lon="22.564273020252585">
        <ele>505.31</ele>
        <time>2020-03-22T07:03:08Z</time>
      </trkpt>
      <trkpt lat="-33.445332990959287" lon="22.564085014164448">
        <ele>505.31</ele>
        <time>2020-03-22T07:03:09Z</time>
      </trkpt>
      <trkpt lat="-33.445428041741252" lon="22.562560010701418">
        <ele>503.38999999999999</ele>
        <time>2020-03-22T07:03:17Z</time>
      </trkpt>
      <trkpt lat="-33.445395017042756" lon="22.562369992956519">
        <ele>503.38999999999999</ele>
        <time>2020-03-22T07:03:18Z</time>
      </trkpt>
      <trkpt lat="-33.445290997624397" lon="22.56217603571713">
        <ele>504.82999999999998</ele>
        <time>2020-03-22T07:03:19Z</time>
      </trkpt>
      <trkpt lat="-33.445194019004703" lon="22.561474973335862">
        <ele>503.87</ele>
        <time>2020-03-22T07:03:23Z</time>
      </trkpt>
      <trkpt lat="-33.445193013176322" lon="22.561290990561247">
        <ele>503.87</ele>
        <time>2020-03-22T07:03:24Z</time>
      </trkpt>
      <trkpt lat="-33.445225032046437" lon="22.561108013615012">
        <ele>503.87</ele>
        <time>2020-03-22T07:03:25Z</time>
      </trkpt>
      <trkpt lat="-33.445265013724566" lon="22.560943979769945">
        <ele>503.87</ele>
        <time>2020-03-22T07:03:26Z</time>
      </trkpt>
      <trkpt lat="-33.445312036201358" lon="22.560790004208684">
        <ele>503.87</ele>
        <time>2020-03-22T07:03:27Z</time>
      </trkpt>
      <trkpt lat="-33.445337014272809" lon="22.560638962313533">
        <ele>506.75</ele>
        <time>2020-03-22T07:03:28Z</time>
      </trkpt>
      <trkpt lat="-33.445337014272809" lon="22.560447016730905">
        <ele>508.67000000000002</ele>
        <time>2020-03-22T07:03:29Z</time>
      </trkpt>
      <trkpt lat="-33.445474980399013" lon="22.560379961505532">
        <ele>510.12</ele>
        <time>2020-03-22T07:03:30Z</time>
      </trkpt>
      <trkpt lat="-33.445600038394332" lon="22.560318019241095">
        <ele>511.07999999999998</ele>
        <time>2020-03-22T07:03:31Z</time>
      </trkpt>
      <trkpt lat="-33.445724006742239" lon="22.560289017856121">
        <ele>512.51999999999998</ele>
        <time>2020-03-22T07:03:32Z</time>
      </trkpt>
      <trkpt lat="-33.445873958989978" lon="22.560296980664134">
        <ele>513.48000000000002</ele>
        <time>2020-03-22T07:03:33Z</time>
      </trkpt>
      <trkpt lat="-33.446037992835045" lon="22.560315001755953">
        <ele>514.44000000000005</ele>
        <time>2020-03-22T07:03:34Z</time>
      </trkpt>
      <trkpt lat="-33.446225998923182" lon="22.560356995090842">
        <ele>514.44000000000005</ele>
        <time>2020-03-22T07:03:35Z</time>
      </trkpt>
      <trkpt lat="-33.446980034932494" lon="22.560412986204028">
        <ele>510.12</ele>
        <time>2020-03-22T07:03:38Z</time>
      </trkpt>
      <trkpt lat="-33.447246998548508" lon="22.560376022011042">
        <ele>508.67000000000002</ele>
        <time>2020-03-22T07:03:39Z</time>
      </trkpt>
      <trkpt lat="-33.447449002414942" lon="22.560306033119559">
        <ele>506.75</ele>
        <time>2020-03-22T07:03:40Z</time>
      </trkpt>
      <trkpt lat="-33.447612030431628" lon="22.560207964852452">
        <ele>505.79000000000002</ele>
        <time>2020-03-22T07:03:41Z</time>
      </trkpt>
      <trkpt lat="-33.447780003771186" lon="22.560108974575996">
        <ele>504.35000000000002</ele>
        <time>2020-03-22T07:03:42Z</time>
      </trkpt>
      <trkpt lat="-33.448284007608891" lon="22.559856008738279">
        <ele>503.38999999999999</ele>
        <time>2020-03-22T07:03:45Z</time>
      </trkpt>
      <trkpt lat="-33.449566019698977" lon="22.559209009632468">
        <ele>494.25999999999999</ele>
        <time>2020-03-22T07:03:54Z</time>
      </trkpt>
      <trkpt lat="-33.450792040675879" lon="22.558980016037822">
        <ele>487.52999999999997</ele>
        <time>2020-03-22T07:04:02Z</time>
      </trkpt>
      <trkpt lat="-33.452544026076794" lon="22.55921496078372">
        <ele>486.07999999999998</ele>
        <time>2020-03-22T07:04:12Z</time>
      </trkpt>
      <trkpt lat="-33.454244965687394" lon="22.560129007324576">
        <ele>481.27999999999997</ele>
        <time>2020-03-22T07:04:21Z</time>
      </trkpt>
      <trkpt lat="-33.455461012199521" lon="22.560710040852427">
        <ele>473.58999999999997</ele>
        <time>2020-03-22T07:04:28Z</time>
      </trkpt>
      <trkpt lat="-33.455641977488995" lon="22.56073703058064">
        <ele>472.13999999999999</ele>
        <time>2020-03-22T07:04:29Z</time>
      </trkpt>
      <trkpt lat="-33.455821014940739" lon="22.560735018923879">
        <ele>471.66000000000003</ele>
        <time>2020-03-22T07:04:30Z</time>
      </trkpt>
      <trkpt lat="-33.455999968573451" lon="22.560703000053763">
        <ele>470.69999999999999</ele>
        <time>2020-03-22T07:04:31Z</time>
      </trkpt>
      <trkpt lat="-33.456178000196815" lon="22.560636028647423">
        <ele>470.22000000000003</ele>
        <time>2020-03-22T07:04:32Z</time>
      </trkpt>
      <trkpt lat="-33.456357959657907" lon="22.56054500117898">
        <ele>469.74000000000001</ele>
        <time>2020-03-22T07:04:33Z</time>
      </trkpt>
      <trkpt lat="-33.456539008766413" lon="22.56043897010386">
        <ele>469.25999999999999</ele>
        <time>2020-03-22T07:04:34Z</time>
      </trkpt>
      <trkpt lat="-33.458388978615403" lon="22.559301964938641">
        <ele>465.89999999999998</ele>
        <time>2020-03-22T07:04:43Z</time>
      </trkpt>
      <trkpt lat="-33.459922028705478" lon="22.558528985828161">
        <ele>463.97000000000003</ele>
        <time>2020-03-22T07:04:51Z</time>
      </trkpt>
      <trkpt lat="-33.460135012865067" lon="22.55850400775671">
        <ele>463.97000000000003</ele>
        <time>2020-03-22T07:04:52Z</time>
      </trkpt>
      <trkpt lat="-33.460360988974571" lon="22.558500990271568">
        <ele>463.49000000000001</ele>
        <time>2020-03-22T07:04:53Z</time>
      </trkpt>
      <trkpt lat="-33.462046002969146" lon="22.558575002476573">
        <ele>461.56999999999999</ele>
        <time>2020-03-22T07:05:00Z</time>
      </trkpt>
      <trkpt lat="-33.463548040017486" lon="22.558334022760391">
        <ele>463.97000000000003</ele>
        <time>2020-03-22T07:05:07Z</time>
      </trkpt>
      <trkpt lat="-33.46501998603344" lon="22.55777201615274">
        <ele>457.72000000000003</ele>
        <time>2020-03-22T07:05:14Z</time>
      </trkpt>
      <trkpt lat="-33.465190976858139" lon="22.557658022269607">
        <ele>456.75999999999999</ele>
        <time>2020-03-22T07:05:15Z</time>
      </trkpt>
      <trkpt lat="-33.466041991487145" lon="22.556723020970821">
        <ele>455.80000000000001</ele>
        <time>2020-03-22T07:05:21Z</time>
      </trkpt>
      <trkpt lat="-33.466263022273779" lon="22.556298980489373">
        <ele>456.27999999999997</ele>
        <time>2020-03-22T07:05:23Z</time>
      </trkpt>
      <trkpt lat="-33.466349020600319" lon="22.556062024086714">
        <ele>456.75999999999999</ele>
        <time>2020-03-22T07:05:24Z</time>
      </trkpt>
      <trkpt lat="-33.466421021148562" lon="22.555814003571868">
        <ele>456.75999999999999</ele>
        <time>2020-03-22T07:05:25Z</time>
      </trkpt>
      <trkpt lat="-33.466930976137519" lon="22.553308987990022">
        <ele>458.69</ele>
        <time>2020-03-22T07:05:34Z</time>
      </trkpt>
      <trkpt lat="-33.467287039384246" lon="22.552056983113289">
        <ele>456.27999999999997</ele>
        <time>2020-03-22T07:05:39Z</time>
      </trkpt>
      <trkpt lat="-33.467406984418631" lon="22.551828995347023">
        <ele>455.31999999999999</ele>
        <time>2020-03-22T07:05:40Z</time>
      </trkpt>
      <trkpt lat="-33.467540005221963" lon="22.551615005359054">
        <ele>454.83999999999997</ele>
        <time>2020-03-22T07:05:41Z</time>
      </trkpt>
      <trkpt lat="-33.467695992439985" lon="22.551410989835858">
        <ele>453.88</ele>
        <time>2020-03-22T07:05:42Z</time>
      </trkpt>
      <trkpt lat="-33.467864971607924" lon="22.551218960434198">
        <ele>453.88</ele>
        <time>2020-03-22T07:05:43Z</time>
      </trkpt>
      <trkpt lat="-33.468053983524442" lon="22.551040006801486">
        <ele>452.92000000000002</ele>
        <time>2020-03-22T07:05:44Z</time>
      </trkpt>
      <trkpt lat="-33.468253975734115" lon="22.550886031240225">
        <ele>452.44</ele>
        <time>2020-03-22T07:05:45Z</time>
      </trkpt>
      <trkpt lat="-33.468464026227593" lon="22.550757033750415">
        <ele>452.44</ele>
        <time>2020-03-22T07:05:46Z</time>
      </trkpt>
      <trkpt lat="-33.468692013993859" lon="22.550646979361773">
        <ele>451.95999999999998</ele>
        <time>2020-03-22T07:05:47Z</time>
      </trkpt>
      <trkpt lat="-33.468917990103364" lon="22.550558969378471">
        <ele>451.95999999999998</ele>
        <time>2020-03-22T07:05:48Z</time>
      </trkpt>
      <trkpt lat="-33.469151007011533" lon="22.550495015457273">
        <ele>451.48000000000002</ele>
        <time>2020-03-22T07:05:49Z</time>
      </trkpt>
      <trkpt lat="-33.469393998384476" lon="22.550457967445254">
        <ele>451.48000000000002</ele>
        <time>2020-03-22T07:05:50Z</time>
      </trkpt>
      <trkpt lat="-33.469636989757419" lon="22.550442963838577">
        <ele>451.48000000000002</ele>
        <time>2020-03-22T07:05:51Z</time>
      </trkpt>
      <trkpt lat="-33.469876041635871" lon="22.550456961616874">
        <ele>451</ele>
        <time>2020-03-22T07:05:52Z</time>
      </trkpt>
      <trkpt lat="-33.470105035230517" lon="22.550491997972131">
        <ele>451</ele>
        <time>2020-03-22T07:05:53Z</time>
      </trkpt>
      <trkpt lat="-33.470335034653544" lon="22.550540026277304">
        <ele>451</ele>
        <time>2020-03-22T07:05:54Z</time>
      </trkpt>
      <trkpt lat="-33.471413031220436" lon="22.550646979361773">
        <ele>449.55000000000001</ele>
        <time>2020-03-22T07:05:59Z</time>
      </trkpt>
      <trkpt lat="-33.471612017601728" lon="22.550609009340405">
        <ele>448.58999999999997</ele>
        <time>2020-03-22T07:06:00Z</time>
      </trkpt>
      <trkpt lat="-33.471800023689866" lon="22.550545977428555">
        <ele>447.14999999999998</ele>
        <time>2020-03-22T07:06:01Z</time>
      </trkpt>
      <trkpt lat="-33.472194978967309" lon="22.550375992432237">
        <ele>446.67000000000002</ele>
        <time>2020-03-22T07:06:03Z</time>
      </trkpt>
    </trkseg>
  </trk>

</gpx>