<?xml version="1.0" encoding="utf-8"?><gpx creator="Garmin Desktop App" version="1.1" xsi:schemaLocation="http://www.topografix.com/GPX/1/1 http://www.topografix.com/GPX/1/1/gpx.xsd http://www.garmin.com/xmlschemas/WaypointExtension/v1 http://www8.garmin.com/xmlschemas/WaypointExtensionv1.xsd http://www.garmin.com/xmlschemas/TrackPointExtension/v1 http://www.garmin.com/xmlschemas/TrackPointExtensionv1.xsd http://www.garmin.com/xmlschemas/GpxExtensions/v3 http://www8.garmin.com/xmlschemas/GpxExtensionsv3.xsd http://www.garmin.com/xmlschemas/ActivityExtension/v1 http://www8.garmin.com/xmlschemas/ActivityExtensionv1.xsd http://www.garmin.com/xmlschemas/AdventuresExtensions/v1 http://www8.garmin.com/xmlschemas/AdventuresExtensionv1.xsd http://www.garmin.com/xmlschemas/PressureExtension/v1 http://www.garmin.com/xmlschemas/PressureExtensionv1.xsd http://www.garmin.com/xmlschemas/TripExtensions/v1 http://www.garmin.com/xmlschemas/TripExtensionsv1.xsd http://www.garmin.com/xmlschemas/TripMetaDataExtensions/v1 http://www.garmin.com/xmlschemas/TripMetaDataExtensionsv1.xsd http://www.garmin.com/xmlschemas/ViaPointTransportationModeExtensions/v1 http://www.garmin.com/xmlschemas/ViaPointTransportationModeExtensionsv1.xsd http://www.garmin.com/xmlschemas/CreationTimeExtension/v1 http://www.garmin.com/xmlschemas/CreationTimeExtensionsv1.xsd http://www.garmin.com/xmlschemas/AccelerationExtension/v1 http://www.garmin.com/xmlschemas/AccelerationExtensionv1.xsd http://www.garmin.com/xmlschemas/PowerExtension/v1 http://www.garmin.com/xmlschemas/PowerExtensionv1.xsd http://www.garmin.com/xmlschemas/VideoExtension/v1 http://www.garmin.com/xmlschemas/VideoExtensionv1.xsd" xmlns="http://www.topografix.com/GPX/1/1" xmlns:xsi="http://www.w3.org/2001/XMLSchema-instance" xmlns:wptx1="http://www.garmin.com/xmlschemas/WaypointExtension/v1" xmlns:gpxtrx="http://www.garmin.com/xmlschemas/GpxExtensions/v3" xmlns:gpxtpx="http://www.garmin.com/xmlschemas/TrackPointExtension/v1" xmlns:gpxx="http://www.garmin.com/xmlschemas/GpxExtensions/v3" xmlns:trp="http://www.garmin.com/xmlschemas/TripExtensions/v1" xmlns:adv="http://www.garmin.com/xmlschemas/AdventuresExtensions/v1" xmlns:prs="http://www.garmin.com/xmlschemas/PressureExtension/v1" xmlns:tmd="http://www.garmin.com/xmlschemas/TripMetaDataExtensions/v1" xmlns:vptm="http://www.garmin.com/xmlschemas/ViaPointTransportationModeExtensions/v1" xmlns:ctx="http://www.garmin.com/xmlschemas/CreationTimeExtension/v1" xmlns:gpxacc="http://www.garmin.com/xmlschemas/AccelerationExtension/v1" xmlns:gpxpx="http://www.garmin.com/xmlschemas/PowerExtension/v1" xmlns:vidx1="http://www.garmin.com/xmlschemas/VideoExtension/v1">

  <metadata>
    <link href="http://www.garmin.com">
      <text>Garmin International</text>
    </link>
    <time>2023-01-21T13:47:56Z</time>
    <bounds maxlat="-32.113665249198675" maxlon="24.436335973441601" minlat="-32.147185485810041" minlon="24.397863959893584" />
  </metadata>

  <trk>
    <name>[188] Ouberg Pass (Down)</name>
    <extensions>
      <gpxx:TrackExtension>
        <gpxx:DisplayColor>Blue</gpxx:DisplayColor>
      </gpxx:TrackExtension>
    </extensions>
    <trkseg>
      <trkpt lat="-32.113665249198675" lon="24.397935457527637">
        <ele>1204.6700000000001</ele>
        <time>2020-03-23T07:14:46Z</time>
      </trkpt>
      <trkpt lat="-32.114292969927192" lon="24.397863959893584">
        <ele>1199.3800000000001</ele>
        <time>2020-03-23T07:14:58Z</time>
      </trkpt>
      <trkpt lat="-32.115458976477385" lon="24.398080967366695">
        <ele>1196.5</ele>
        <time>2020-03-23T07:15:05Z</time>
      </trkpt>
      <trkpt lat="-32.116593969985843" lon="24.398956038057804">
        <ele>1188.3299999999999</ele>
        <time>2020-03-23T07:15:12Z</time>
      </trkpt>
      <trkpt lat="-32.11753299459815" lon="24.400146016851068">
        <ele>1177.27</ele>
        <time>2020-03-23T07:15:19Z</time>
      </trkpt>
      <trkpt lat="-32.11763801984489" lon="24.400341985747218">
        <ele>1175.8299999999999</ele>
        <time>2020-03-23T07:15:20Z</time>
      </trkpt>
      <trkpt lat="-32.117728041484952" lon="24.400553964078426">
        <ele>1174.3900000000001</ele>
        <time>2020-03-23T07:15:21Z</time>
      </trkpt>
      <trkpt lat="-32.117800964042544" lon="24.400783041492105">
        <ele>1172.95</ele>
        <time>2020-03-23T07:15:22Z</time>
      </trkpt>
      <trkpt lat="-32.117857038974762" lon="24.401022009551525">
        <ele>1171.5</ele>
        <time>2020-03-23T07:15:23Z</time>
      </trkpt>
      <trkpt lat="-32.117898026481271" lon="24.401261983439326">
        <ele>1170.0599999999999</ele>
        <time>2020-03-23T07:15:24Z</time>
      </trkpt>
      <trkpt lat="-32.117930967360735" lon="24.401497012004256">
        <ele>1168.1400000000001</ele>
        <time>2020-03-23T07:15:25Z</time>
      </trkpt>
      <trkpt lat="-32.118101958185434" lon="24.402398988604546">
        <ele>1162.3699999999999</ele>
        <time>2020-03-23T07:15:29Z</time>
      </trkpt>
      <trkpt lat="-32.118188962340355" lon="24.402604009956121">
        <ele>1160.45</ele>
        <time>2020-03-23T07:15:30Z</time>
      </trkpt>
      <trkpt lat="-32.118297005072236" lon="24.40279302187264">
        <ele>1158.53</ele>
        <time>2020-03-23T07:15:31Z</time>
      </trkpt>
      <trkpt lat="-32.118424996733665" lon="24.402973987162113">
        <ele>1157.0799999999999</ele>
        <time>2020-03-23T07:15:32Z</time>
      </trkpt>
      <trkpt lat="-32.118566986173391" lon="24.403140032663941">
        <ele>1155.6400000000001</ele>
        <time>2020-03-23T07:15:33Z</time>
      </trkpt>
      <trkpt lat="-32.118716016411781" lon="24.403298031538725">
        <ele>1154.2</ele>
        <time>2020-03-23T07:15:34Z</time>
      </trkpt>
      <trkpt lat="-32.118988009169698" lon="24.40363003872335">
        <ele>1151.3199999999999</ele>
        <time>2020-03-23T07:15:36Z</time>
      </trkpt>
      <trkpt lat="-32.119084987789392" lon="24.40382500179112">
        <ele>1149.8699999999999</ele>
        <time>2020-03-23T07:15:37Z</time>
      </trkpt>
      <trkpt lat="-32.119155982509255" lon="24.40404100343585">
        <ele>1148.4300000000001</ele>
        <time>2020-03-23T07:15:38Z</time>
      </trkpt>
      <trkpt lat="-32.119268970564008" lon="24.404472000896931">
        <ele>1145.55</ele>
        <time>2020-03-23T07:15:40Z</time>
      </trkpt>
      <trkpt lat="-32.119340971112251" lon="24.404675010591745">
        <ele>1144.1099999999999</ele>
        <time>2020-03-23T07:15:41Z</time>
      </trkpt>
      <trkpt lat="-32.119429986923933" lon="24.404862010851502">
        <ele>1143.1400000000001</ele>
        <time>2020-03-23T07:15:42Z</time>
      </trkpt>
      <trkpt lat="-32.119539035484195" lon="24.405028978362679">
        <ele>1142.1800000000001</ele>
        <time>2020-03-23T07:15:43Z</time>
      </trkpt>
      <trkpt lat="-32.119661998003721" lon="24.405189994722605">
        <ele>1140.74</ele>
        <time>2020-03-23T07:15:44Z</time>
      </trkpt>
      <trkpt lat="-32.119798036292195" lon="24.405339024960995">
        <ele>1138.8199999999999</ele>
        <time>2020-03-23T07:15:45Z</time>
      </trkpt>
      <trkpt lat="-32.119911024346948" lon="24.40550004132092">
        <ele>1137.3800000000001</ele>
        <time>2020-03-23T07:15:46Z</time>
      </trkpt>
      <trkpt lat="-32.120002973824739" lon="24.405671032145619">
        <ele>1135.9400000000001</ele>
        <time>2020-03-23T07:15:47Z</time>
      </trkpt>
      <trkpt lat="-32.120072040706873" lon="24.405858032405376">
        <ele>1134.49</ele>
        <time>2020-03-23T07:15:48Z</time>
      </trkpt>
      <trkpt lat="-32.120115961879492" lon="24.406050983816385">
        <ele>1133.53</ele>
        <time>2020-03-23T07:15:49Z</time>
      </trkpt>
      <trkpt lat="-32.120158039033413" lon="24.406244019046426">
        <ele>1132.5699999999999</ele>
        <time>2020-03-23T07:15:50Z</time>
      </trkpt>
      <trkpt lat="-32.120253005996346" lon="24.406615002080798">
        <ele>1130.1700000000001</ele>
        <time>2020-03-23T07:15:52Z</time>
      </trkpt>
      <trkpt lat="-32.120331963524222" lon="24.406793033704162">
        <ele>1128.73</ele>
        <time>2020-03-23T07:15:53Z</time>
      </trkpt>
      <trkpt lat="-32.120441012084484" lon="24.406955977901816">
        <ele>1127.28</ele>
        <time>2020-03-23T07:15:54Z</time>
      </trkpt>
      <trkpt lat="-32.120567997917533" lon="24.407102996483445">
        <ele>1125.8399999999999</ele>
        <time>2020-03-23T07:15:55Z</time>
      </trkpt>
      <trkpt lat="-32.121161017566919" lon="24.407597025856376">
        <ele>1119.5899999999999</ele>
        <time>2020-03-23T07:15:59Z</time>
      </trkpt>
      <trkpt lat="-32.121870964765549" lon="24.408204965293407">
        <ele>1113.8199999999999</ele>
        <time>2020-03-23T07:16:04Z</time>
      </trkpt>
      <trkpt lat="-32.122039021924138" lon="24.408275038003922">
        <ele>1112.3800000000001</ele>
        <time>2020-03-23T07:16:05Z</time>
      </trkpt>
      <trkpt lat="-32.12221696972847" lon="24.408330023288727">
        <ele>1110.9400000000001</ele>
        <time>2020-03-23T07:16:06Z</time>
      </trkpt>
      <trkpt lat="-32.122403969988227" lon="24.408368999138474">
        <ele>1109.5</ele>
        <time>2020-03-23T07:16:07Z</time>
      </trkpt>
      <trkpt lat="-32.122593987733126" lon="24.408387020230293">
        <ele>1108.0599999999999</ele>
        <time>2020-03-23T07:16:08Z</time>
      </trkpt>
      <trkpt lat="-32.122787022963166" lon="24.408384002745152">
        <ele>1106.1300000000001</ele>
        <time>2020-03-23T07:16:09Z</time>
      </trkpt>
      <trkpt lat="-32.12481401860714" lon="24.408159032464027">
        <ele>1088.8299999999999</ele>
        <time>2020-03-23T07:16:20Z</time>
      </trkpt>
      <trkpt lat="-32.124993978068233" lon="24.408160960301757">
        <ele>1086.9100000000001</ele>
        <time>2020-03-23T07:16:21Z</time>
      </trkpt>
      <trkpt lat="-32.125178966671228" lon="24.408177975565195">
        <ele>1085.47</ele>
        <time>2020-03-23T07:16:22Z</time>
      </trkpt>
      <trkpt lat="-32.125362027436495" lon="24.408236984163523">
        <ele>1084.5</ele>
        <time>2020-03-23T07:16:23Z</time>
      </trkpt>
      <trkpt lat="-32.125531006604433" lon="24.408320970833302">
        <ele>1083.0599999999999</ele>
        <time>2020-03-23T07:16:24Z</time>
      </trkpt>
      <trkpt lat="-32.125677019357681" lon="24.40842499025166">
        <ele>1081.6199999999999</ele>
        <time>2020-03-23T07:16:25Z</time>
      </trkpt>
      <trkpt lat="-32.125832000747323" lon="24.40855298191309">
        <ele>1080.1800000000001</ele>
        <time>2020-03-23T07:16:26Z</time>
      </trkpt>
      <trkpt lat="-32.125977007672191" lon="24.40870201215148">
        <ele>1079.22</ele>
        <time>2020-03-23T07:16:27Z</time>
      </trkpt>
      <trkpt lat="-32.126106005162001" lon="24.40887501463294">
        <ele>1077.29</ele>
        <time>2020-03-23T07:16:28Z</time>
      </trkpt>
      <trkpt lat="-32.126216981559992" lon="24.409066960215569">
        <ele>1075.8499999999999</ele>
        <time>2020-03-23T07:16:29Z</time>
      </trkpt>
      <trkpt lat="-32.126304991543293" lon="24.40928497351706">
        <ele>1075.3699999999999</ele>
        <time>2020-03-23T07:16:30Z</time>
      </trkpt>
      <trkpt lat="-32.126374980434775" lon="24.409511033445597">
        <ele>1073.9300000000001</ele>
        <time>2020-03-23T07:16:31Z</time>
      </trkpt>
      <trkpt lat="-32.127189030870795" lon="24.412184022367001">
        <ele>1057.5899999999999</ele>
        <time>2020-03-23T07:16:42Z</time>
      </trkpt>
      <trkpt lat="-32.12739204056561" lon="24.412589035928249">
        <ele>1054.7</ele>
        <time>2020-03-23T07:16:44Z</time>
      </trkpt>
      <trkpt lat="-32.127511985599995" lon="24.412762960419059">
        <ele>1053.74</ele>
        <time>2020-03-23T07:16:45Z</time>
      </trkpt>
      <trkpt lat="-32.127644000574946" lon="24.412917019799352">
        <ele>1052.78</ele>
        <time>2020-03-23T07:16:46Z</time>
      </trkpt>
      <trkpt lat="-32.127790013328195" lon="24.413050962612033">
        <ele>1051.3399999999999</ele>
        <time>2020-03-23T07:16:47Z</time>
      </trkpt>
      <trkpt lat="-32.127954969182611" lon="24.413166968151927">
        <ele>1049.4200000000001</ele>
        <time>2020-03-23T07:16:48Z</time>
      </trkpt>
      <trkpt lat="-32.128130989149213" lon="24.413271993398666">
        <ele>1047.97</ele>
        <time>2020-03-23T07:16:49Z</time>
      </trkpt>
      <trkpt lat="-32.128301979973912" lon="24.413372995331883">
        <ele>1046.05</ele>
        <time>2020-03-23T07:16:50Z</time>
      </trkpt>
      <trkpt lat="-32.128628036007285" lon="24.413595031946898">
        <ele>1042.6900000000001</ele>
        <time>2020-03-23T07:16:52Z</time>
      </trkpt>
      <trkpt lat="-32.128774970769882" lon="24.413739033043385">
        <ele>1041.25</ele>
        <time>2020-03-23T07:16:53Z</time>
      </trkpt>
      <trkpt lat="-32.128903968259692" lon="24.413906000554562">
        <ele>1039.8</ele>
        <time>2020-03-23T07:16:54Z</time>
      </trkpt>
      <trkpt lat="-32.129003964364529" lon="24.414100963622332">
        <ele>1038.8399999999999</ele>
        <time>2020-03-23T07:16:55Z</time>
      </trkpt>
      <trkpt lat="-32.129094991832972" lon="24.41431101411581">
        <ele>1037.8800000000001</ele>
        <time>2020-03-23T07:16:56Z</time>
      </trkpt>
      <trkpt lat="-32.129174033179879" lon="24.414522992447019">
        <ele>1036.9200000000001</ele>
        <time>2020-03-23T07:16:57Z</time>
      </trkpt>
      <trkpt lat="-32.129596984013915" lon="24.415509039536119">
        <ele>1030.6700000000001</ele>
        <time>2020-03-23T07:17:02Z</time>
      </trkpt>
      <trkpt lat="-32.129708966240287" lon="24.415666032582521">
        <ele>1029.23</ele>
        <time>2020-03-23T07:17:03Z</time>
      </trkpt>
      <trkpt lat="-32.129836035892367" lon="24.415806010365486">
        <ele>1028.27</ele>
        <time>2020-03-23T07:17:04Z</time>
      </trkpt>
      <trkpt lat="-32.129980958998203" lon="24.41592201590538">
        <ele>1026.3399999999999</ele>
        <time>2020-03-23T07:17:05Z</time>
      </trkpt>
      <trkpt lat="-32.130496026948094" lon="24.416097030043602">
        <ele>1022.02</ele>
        <time>2020-03-23T07:17:08Z</time>
      </trkpt>
      <trkpt lat="-32.130682021379471" lon="24.416092000901699">
        <ele>1020.1</ele>
        <time>2020-03-23T07:17:09Z</time>
      </trkpt>
      <trkpt lat="-32.130863992497325" lon="24.416053025051951">
        <ele>1018.65</ele>
        <time>2020-03-23T07:17:10Z</time>
      </trkpt>
      <trkpt lat="-32.131042024120688" lon="24.415985969826579">
        <ele>1017.6900000000001</ele>
        <time>2020-03-23T07:17:11Z</time>
      </trkpt>
      <trkpt lat="-32.131206979975104" lon="24.415893014520407">
        <ele>1016.25</ele>
        <time>2020-03-23T07:17:12Z</time>
      </trkpt>
      <trkpt lat="-32.131374031305313" lon="24.415767034515738">
        <ele>1015.29</ele>
        <time>2020-03-23T07:17:13Z</time>
      </trkpt>
      <trkpt lat="-32.131528006866574" lon="24.415641976520419">
        <ele>1014.33</ele>
        <time>2020-03-23T07:17:14Z</time>
      </trkpt>
      <trkpt lat="-32.132005020976067" lon="24.415293037891388">
        <ele>1010.48</ele>
        <time>2020-03-23T07:17:17Z</time>
      </trkpt>
      <trkpt lat="-32.132176011800766" lon="24.415215002372861">
        <ele>1009.04</ele>
        <time>2020-03-23T07:17:18Z</time>
      </trkpt>
      <trkpt lat="-32.132355971261859" lon="24.415165968239307">
        <ele>1008.08</ele>
        <time>2020-03-23T07:17:19Z</time>
      </trkpt>
      <trkpt lat="-32.132541965693235" lon="24.415149036794901">
        <ele>1007.12</ele>
        <time>2020-03-23T07:17:20Z</time>
      </trkpt>
      <trkpt lat="-32.132729971781373" lon="24.415176026523113">
        <ele>1005.2</ele>
        <time>2020-03-23T07:17:21Z</time>
      </trkpt>
      <trkpt lat="-32.132911020889878" lon="24.415241992101073">
        <ele>1003.27</ele>
        <time>2020-03-23T07:17:22Z</time>
      </trkpt>
      <trkpt lat="-32.133083017542958" lon="24.415350034832954">
        <ele>1001.35</ele>
        <time>2020-03-23T07:17:23Z</time>
      </trkpt>
      <trkpt lat="-32.133245039731264" lon="24.4154910184443">
        <ele>999.90999999999997</ele>
        <time>2020-03-23T07:17:24Z</time>
      </trkpt>
      <trkpt lat="-32.133401026949286" lon="24.415644994005561">
        <ele>997.99000000000001</ele>
        <time>2020-03-23T07:17:25Z</time>
      </trkpt>
      <trkpt lat="-32.134164031594992" lon="24.416271960362792">
        <ele>990.29999999999995</ele>
        <time>2020-03-23T07:17:30Z</time>
      </trkpt>
      <trkpt lat="-32.134337034076452" lon="24.416333986446261">
        <ele>988.85000000000002</ele>
        <time>2020-03-23T07:17:31Z</time>
      </trkpt>
      <trkpt lat="-32.134521016851068" lon="24.416369022801518">
        <ele>987.40999999999997</ele>
        <time>2020-03-23T07:17:32Z</time>
      </trkpt>
      <trkpt lat="-32.134710028767586" lon="24.416378997266293">
        <ele>985.97000000000003</ele>
        <time>2020-03-23T07:17:33Z</time>
      </trkpt>
      <trkpt lat="-32.134910020977259" lon="24.416360976174474">
        <ele>985.00999999999999</ele>
        <time>2020-03-23T07:17:34Z</time>
      </trkpt>
      <trkpt lat="-32.135114958509803" lon="24.416338009759784">
        <ele>982.60000000000002</ele>
        <time>2020-03-23T07:17:35Z</time>
      </trkpt>
      <trkpt lat="-32.136446004733443" lon="24.416224015876651">
        <ele>976.36000000000001</ele>
        <time>2020-03-23T07:17:41Z</time>
      </trkpt>
      <trkpt lat="-32.136662006378174" lon="24.416257962584496">
        <ele>975.88</ele>
        <time>2020-03-23T07:17:42Z</time>
      </trkpt>
      <trkpt lat="-32.136869039386511" lon="24.416318982839584">
        <ele>975.88</ele>
        <time>2020-03-23T07:17:43Z</time>
      </trkpt>
      <trkpt lat="-32.137064002454281" lon="24.416409004479647">
        <ele>975.38999999999999</ele>
        <time>2020-03-23T07:17:44Z</time>
      </trkpt>
      <trkpt lat="-32.137248991057277" lon="24.416518975049257">
        <ele>975.38999999999999</ele>
        <time>2020-03-23T07:17:45Z</time>
      </trkpt>
      <trkpt lat="-32.137420987710357" lon="24.41665300168097">
        <ele>975.38999999999999</ele>
        <time>2020-03-23T07:17:46Z</time>
      </trkpt>
      <trkpt lat="-32.137573035433888" lon="24.416816029697657">
        <ele>974.90999999999997</ele>
        <time>2020-03-23T07:17:47Z</time>
      </trkpt>
      <trkpt lat="-32.137708989903331" lon="24.417008981108665">
        <ele>973.95000000000005</ele>
        <time>2020-03-23T07:17:48Z</time>
      </trkpt>
      <trkpt lat="-32.137823989614844" lon="24.417205033823848">
        <ele>973.95000000000005</ele>
        <time>2020-03-23T07:17:49Z</time>
      </trkpt>
      <trkpt lat="-32.13792197406292" lon="24.417417012155056">
        <ele>973.47000000000003</ele>
        <time>2020-03-23T07:17:50Z</time>
      </trkpt>
      <trkpt lat="-32.137997997924685" lon="24.41764198243618">
        <ele>973.47000000000003</ele>
        <time>2020-03-23T07:17:51Z</time>
      </trkpt>
      <trkpt lat="-32.138053989037871" lon="24.417872987687588">
        <ele>973.47000000000003</ele>
        <time>2020-03-23T07:17:52Z</time>
      </trkpt>
      <trkpt lat="-32.138089025393128" lon="24.418110027909279">
        <ele>973.47000000000003</ele>
        <time>2020-03-23T07:17:53Z</time>
      </trkpt>
      <trkpt lat="-32.138107968494296" lon="24.418351007625461">
        <ele>973.47000000000003</ele>
        <time>2020-03-23T07:17:54Z</time>
      </trkpt>
      <trkpt lat="-32.138124983757734" lon="24.418589975684881">
        <ele>972.99000000000001</ele>
        <time>2020-03-23T07:17:55Z</time>
      </trkpt>
      <trkpt lat="-32.13822397403419" lon="24.419259019196033">
        <ele>972.50999999999999</ele>
        <time>2020-03-23T07:17:58Z</time>
      </trkpt>
      <trkpt lat="-32.138293040916324" lon="24.419465968385339">
        <ele>972.50999999999999</ele>
        <time>2020-03-23T07:17:59Z</time>
      </trkpt>
      <trkpt lat="-32.138383984565735" lon="24.419661015272141">
        <ele>972.50999999999999</ele>
        <time>2020-03-23T07:18:00Z</time>
      </trkpt>
      <trkpt lat="-32.13848196901381" lon="24.419855978339911">
        <ele>972.02999999999997</ele>
        <time>2020-03-23T07:18:01Z</time>
      </trkpt>
      <trkpt lat="-32.138592023402452" lon="24.420043984428048">
        <ele>971.54999999999995</ele>
        <time>2020-03-23T07:18:02Z</time>
      </trkpt>
      <trkpt lat="-32.138957977294922" lon="24.420862980186939">
        <ele>968.17999999999995</ele>
        <time>2020-03-23T07:18:06Z</time>
      </trkpt>
      <trkpt lat="-32.139009023085237" lon="24.421084010973573">
        <ele>967.70000000000005</ele>
        <time>2020-03-23T07:18:07Z</time>
      </trkpt>
      <trkpt lat="-32.139042969793081" lon="24.421311998739839">
        <ele>966.25999999999999</ele>
        <time>2020-03-23T07:18:08Z</time>
      </trkpt>
      <trkpt lat="-32.139056967571378" lon="24.421541998162866">
        <ele>965.29999999999995</ele>
        <time>2020-03-23T07:18:09Z</time>
      </trkpt>
      <trkpt lat="-32.139047998934984" lon="24.421775015071034">
        <ele>964.34000000000003</ele>
        <time>2020-03-23T07:18:10Z</time>
      </trkpt>
      <trkpt lat="-32.139022015035152" lon="24.422006020322442">
        <ele>963.38</ele>
        <time>2020-03-23T07:18:11Z</time>
      </trkpt>
      <trkpt lat="-32.138975998386741" lon="24.422233002260327">
        <ele>962.41999999999996</ele>
        <time>2020-03-23T07:18:12Z</time>
      </trkpt>
      <trkpt lat="-32.138907015323639" lon="24.422447998076677">
        <ele>961.46000000000004</ele>
        <time>2020-03-23T07:18:13Z</time>
      </trkpt>
      <trkpt lat="-32.13882596231997" lon="24.422653019428253">
        <ele>960.98000000000002</ele>
        <time>2020-03-23T07:18:14Z</time>
      </trkpt>
      <trkpt lat="-32.138411980122328" lon="24.423862025141716">
        <ele>958.09000000000003</ele>
        <time>2020-03-23T07:18:20Z</time>
      </trkpt>
      <trkpt lat="-32.138388007879257" lon="24.424081966280937">
        <ele>957.61000000000001</ele>
        <time>2020-03-23T07:18:21Z</time>
      </trkpt>
      <trkpt lat="-32.138390019536018" lon="24.424310037866235">
        <ele>956.64999999999998</ele>
        <time>2020-03-23T07:18:22Z</time>
      </trkpt>
      <trkpt lat="-32.138409968465567" lon="24.424536013975739">
        <ele>955.69000000000005</ele>
        <time>2020-03-23T07:18:23Z</time>
      </trkpt>
      <trkpt lat="-32.138452967628837" lon="24.424759978428483">
        <ele>954.73000000000002</ele>
        <time>2020-03-23T07:18:24Z</time>
      </trkpt>
      <trkpt lat="-32.138523040339351" lon="24.424980003386736">
        <ele>953.76999999999998</ele>
        <time>2020-03-23T07:18:25Z</time>
      </trkpt>
      <trkpt lat="-32.138612978160381" lon="24.425189970061183">
        <ele>952.79999999999995</ele>
        <time>2020-03-23T07:18:26Z</time>
      </trkpt>
      <trkpt lat="-32.138722026720643" lon="24.425387028604746">
        <ele>951.84000000000003</ele>
        <time>2020-03-23T07:18:27Z</time>
      </trkpt>
      <trkpt lat="-32.138850018382072" lon="24.425581991672516">
        <ele>950.88</ele>
        <time>2020-03-23T07:18:28Z</time>
      </trkpt>
      <trkpt lat="-32.138992007821798" lon="24.425773015245795">
        <ele>949.44000000000005</ele>
        <time>2020-03-23T07:18:29Z</time>
      </trkpt>
      <trkpt lat="-32.141150012612343" lon="24.428529990836978">
        <ele>943.66999999999996</ele>
        <time>2020-03-23T07:18:43Z</time>
      </trkpt>
      <trkpt lat="-32.144352989271283" lon="24.432700993493199">
        <ele>926.85000000000002</ele>
        <time>2020-03-23T07:19:03Z</time>
      </trkpt>
      <trkpt lat="-32.146241012960672" lon="24.435177007690072">
        <ele>919.63999999999999</ele>
        <time>2020-03-23T07:19:14Z</time>
      </trkpt>
      <trkpt lat="-32.147185485810041" lon="24.436335973441601">
        <ele>912.42999999999995</ele>
        <time>2020-03-23T07:19:25Z</time>
      </trkpt>
    </trkseg>
  </trk>

</gpx>