<?xml version="1.0" encoding="utf-8"?><gpx creator="Garmin Desktop App" version="1.1" xsi:schemaLocation="http://www.topografix.com/GPX/1/1 http://www.topografix.com/GPX/1/1/gpx.xsd http://www.garmin.com/xmlschemas/WaypointExtension/v1 http://www8.garmin.com/xmlschemas/WaypointExtensionv1.xsd http://www.garmin.com/xmlschemas/TrackPointExtension/v1 http://www.garmin.com/xmlschemas/TrackPointExtensionv1.xsd http://www.garmin.com/xmlschemas/GpxExtensions/v3 http://www8.garmin.com/xmlschemas/GpxExtensionsv3.xsd http://www.garmin.com/xmlschemas/ActivityExtension/v1 http://www8.garmin.com/xmlschemas/ActivityExtensionv1.xsd http://www.garmin.com/xmlschemas/AdventuresExtensions/v1 http://www8.garmin.com/xmlschemas/AdventuresExtensionv1.xsd http://www.garmin.com/xmlschemas/PressureExtension/v1 http://www.garmin.com/xmlschemas/PressureExtensionv1.xsd http://www.garmin.com/xmlschemas/TripExtensions/v1 http://www.garmin.com/xmlschemas/TripExtensionsv1.xsd http://www.garmin.com/xmlschemas/TripMetaDataExtensions/v1 http://www.garmin.com/xmlschemas/TripMetaDataExtensionsv1.xsd http://www.garmin.com/xmlschemas/ViaPointTransportationModeExtensions/v1 http://www.garmin.com/xmlschemas/ViaPointTransportationModeExtensionsv1.xsd http://www.garmin.com/xmlschemas/CreationTimeExtension/v1 http://www.garmin.com/xmlschemas/CreationTimeExtensionsv1.xsd http://www.garmin.com/xmlschemas/AccelerationExtension/v1 http://www.garmin.com/xmlschemas/AccelerationExtensionv1.xsd http://www.garmin.com/xmlschemas/PowerExtension/v1 http://www.garmin.com/xmlschemas/PowerExtensionv1.xsd http://www.garmin.com/xmlschemas/VideoExtension/v1 http://www.garmin.com/xmlschemas/VideoExtensionv1.xsd" xmlns="http://www.topografix.com/GPX/1/1" xmlns:xsi="http://www.w3.org/2001/XMLSchema-instance" xmlns:wptx1="http://www.garmin.com/xmlschemas/WaypointExtension/v1" xmlns:gpxtrx="http://www.garmin.com/xmlschemas/GpxExtensions/v3" xmlns:gpxtpx="http://www.garmin.com/xmlschemas/TrackPointExtension/v1" xmlns:gpxx="http://www.garmin.com/xmlschemas/GpxExtensions/v3" xmlns:trp="http://www.garmin.com/xmlschemas/TripExtensions/v1" xmlns:adv="http://www.garmin.com/xmlschemas/AdventuresExtensions/v1" xmlns:prs="http://www.garmin.com/xmlschemas/PressureExtension/v1" xmlns:tmd="http://www.garmin.com/xmlschemas/TripMetaDataExtensions/v1" xmlns:vptm="http://www.garmin.com/xmlschemas/ViaPointTransportationModeExtensions/v1" xmlns:ctx="http://www.garmin.com/xmlschemas/CreationTimeExtension/v1" xmlns:gpxacc="http://www.garmin.com/xmlschemas/AccelerationExtension/v1" xmlns:gpxpx="http://www.garmin.com/xmlschemas/PowerExtension/v1" xmlns:vidx1="http://www.garmin.com/xmlschemas/VideoExtension/v1">

  <metadata>
    <link href="http://www.garmin.com">
      <text>Garmin International</text>
    </link>
    <time>2022-07-02T19:19:25Z</time>
    <bounds maxlat="-25.762371327728033" maxlon="31.103905001655221" minlat="-25.814496958628297" minlon="31.049871062859893" />
  </metadata>

  <trk>
    <name>[197] Saddleback Pass Out</name>
    <extensions>
      <gpxx:TrackExtension>
        <gpxx:DisplayColor>Blue</gpxx:DisplayColor>
      </gpxx:TrackExtension>
    </extensions>
    <trkseg>
      <trkpt lat="-25.814496958628297" lon="31.093328967690468">
        <ele>1146.99</ele>
        <time>2021-09-25T11:29:07Z</time>
      </trkpt>
      <trkpt lat="-25.813464978709817" lon="31.094445018097758">
        <ele>1150.8399999999999</ele>
        <time>2021-09-25T11:29:13Z</time>
      </trkpt>
      <trkpt lat="-25.813145041465759" lon="31.094826981425285">
        <ele>1155.6400000000001</ele>
        <time>2021-09-25T11:29:15Z</time>
      </trkpt>
      <trkpt lat="-25.812712032347918" lon="31.095399968326092">
        <ele>1160.9300000000001</ele>
        <time>2021-09-25T11:29:18Z</time>
      </trkpt>
      <trkpt lat="-25.812555961310863" lon="31.09556601382792">
        <ele>1162.8499999999999</ele>
        <time>2021-09-25T11:29:19Z</time>
      </trkpt>
      <trkpt lat="-25.812391005456448" lon="31.095705991610885">
        <ele>1164.29</ele>
        <time>2021-09-25T11:29:20Z</time>
      </trkpt>
      <trkpt lat="-25.812214985489845" lon="31.095820991322398">
        <ele>1165.74</ele>
        <time>2021-09-25T11:29:21Z</time>
      </trkpt>
      <trkpt lat="-25.811837967485189" lon="31.096016960218549">
        <ele>1171.5</ele>
        <time>2021-09-25T11:29:23Z</time>
      </trkpt>
      <trkpt lat="-25.8116440102458" lon="31.096116034314036">
        <ele>1174.8699999999999</ele>
        <time>2021-09-25T11:29:24Z</time>
      </trkpt>
      <trkpt lat="-25.811238996684551" lon="31.096315020695329">
        <ele>1178.23</ele>
        <time>2021-09-25T11:29:26Z</time>
      </trkpt>
      <trkpt lat="-25.811036992818117" lon="31.096417028456926">
        <ele>1181.1199999999999</ele>
        <time>2021-09-25T11:29:27Z</time>
      </trkpt>
      <trkpt lat="-25.810620998963714" lon="31.096628000959754">
        <ele>1184.48</ele>
        <time>2021-09-25T11:29:29Z</time>
      </trkpt>
      <trkpt lat="-25.810407008975744" lon="31.096734032034874">
        <ele>1184.48</ele>
        <time>2021-09-25T11:29:30Z</time>
      </trkpt>
      <trkpt lat="-25.809477958828211" lon="31.097192019224167">
        <ele>1186.8800000000001</ele>
        <time>2021-09-25T11:29:34Z</time>
      </trkpt>
      <trkpt lat="-25.808367021381855" lon="31.097751008346677">
        <ele>1185.9200000000001</ele>
        <time>2021-09-25T11:29:39Z</time>
      </trkpt>
      <trkpt lat="-25.807791016995907" lon="31.098066000267863">
        <ele>1183.04</ele>
        <time>2021-09-25T11:29:42Z</time>
      </trkpt>
      <trkpt lat="-25.807209983468056" lon="31.098452992737293">
        <ele>1179.6700000000001</ele>
        <time>2021-09-25T11:29:45Z</time>
      </trkpt>
      <trkpt lat="-25.806628027930856" lon="31.098850965499878">
        <ele>1182.5599999999999</ele>
        <time>2021-09-25T11:29:48Z</time>
      </trkpt>
      <trkpt lat="-25.806121006608009" lon="31.099206022918224">
        <ele>1186.4000000000001</ele>
        <time>2021-09-25T11:29:51Z</time>
      </trkpt>
      <trkpt lat="-25.805362025275826" lon="31.099693011492491">
        <ele>1185.9200000000001</ele>
        <time>2021-09-25T11:29:56Z</time>
      </trkpt>
      <trkpt lat="-25.805204026401043" lon="31.099742967635393">
        <ele>1185.9200000000001</ele>
        <time>2021-09-25T11:29:57Z</time>
      </trkpt>
      <trkpt lat="-25.805044015869498" lon="31.099766017869115">
        <ele>1186.4000000000001</ele>
        <time>2021-09-25T11:29:58Z</time>
      </trkpt>
      <trkpt lat="-25.804604971781373" lon="31.099812034517527">
        <ele>1183.04</ele>
        <time>2021-09-25T11:30:01Z</time>
      </trkpt>
      <trkpt lat="-25.804483015090227" lon="31.09986299648881">
        <ele>1185.9200000000001</ele>
        <time>2021-09-25T11:30:02Z</time>
      </trkpt>
      <trkpt lat="-25.804380001500249" lon="31.099942037835717">
        <ele>1184</ele>
        <time>2021-09-25T11:30:03Z</time>
      </trkpt>
      <trkpt lat="-25.804300038143992" lon="31.100049996748567">
        <ele>1187.8499999999999</ele>
        <time>2021-09-25T11:30:04Z</time>
      </trkpt>
      <trkpt lat="-25.804242035374045" lon="31.100178994238377">
        <ele>1187.8499999999999</ele>
        <time>2021-09-25T11:30:05Z</time>
      </trkpt>
      <trkpt lat="-25.804200964048505" lon="31.100315032526851">
        <ele>1184.96</ele>
        <time>2021-09-25T11:30:06Z</time>
      </trkpt>
      <trkpt lat="-25.804173974320292" lon="31.100473031401634">
        <ele>1187.3699999999999</ele>
        <time>2021-09-25T11:30:07Z</time>
      </trkpt>
      <trkpt lat="-25.804083030670881" lon="31.100949961692095">
        <ele>1190.25</ele>
        <time>2021-09-25T11:30:10Z</time>
      </trkpt>
      <trkpt lat="-25.804035002365708" lon="31.101112989708781">
        <ele>1193.6099999999999</ele>
        <time>2021-09-25T11:30:11Z</time>
      </trkpt>
      <trkpt lat="-25.803971970453858" lon="31.101273000240326">
        <ele>1195.54</ele>
        <time>2021-09-25T11:30:12Z</time>
      </trkpt>
      <trkpt lat="-25.803893012925982" lon="31.101424964144826">
        <ele>1193.1300000000001</ele>
        <time>2021-09-25T11:30:13Z</time>
      </trkpt>
      <trkpt lat="-25.803798967972398" lon="31.101570976898074">
        <ele>1195.0599999999999</ele>
        <time>2021-09-25T11:30:14Z</time>
      </trkpt>
      <trkpt lat="-25.803688997402787" lon="31.101705003529787">
        <ele>1200.8199999999999</ele>
        <time>2021-09-25T11:30:15Z</time>
      </trkpt>
      <trkpt lat="-25.803562011569738" lon="31.101827966049314">
        <ele>1204.1900000000001</ele>
        <time>2021-09-25T11:30:16Z</time>
      </trkpt>
      <trkpt lat="-25.803420022130013" lon="31.101939026266336">
        <ele>1203.23</ele>
        <time>2021-09-25T11:30:17Z</time>
      </trkpt>
      <trkpt lat="-25.80326403491199" lon="31.102044973522425">
        <ele>1206.5899999999999</ele>
        <time>2021-09-25T11:30:18Z</time>
      </trkpt>
      <trkpt lat="-25.803096983581781" lon="31.102148992940784">
        <ele>1210.9200000000001</ele>
        <time>2021-09-25T11:30:19Z</time>
      </trkpt>
      <trkpt lat="-25.802920963615179" lon="31.102256029844284">
        <ele>1210.9200000000001</ele>
        <time>2021-09-25T11:30:20Z</time>
      </trkpt>
      <trkpt lat="-25.802008006721735" lon="31.102805966511369">
        <ele>1215.24</ele>
        <time>2021-09-25T11:30:25Z</time>
      </trkpt>
      <trkpt lat="-25.801822012290359" lon="31.102918032556772">
        <ele>1213.3199999999999</ele>
        <time>2021-09-25T11:30:26Z</time>
      </trkpt>
      <trkpt lat="-25.800922969356179" lon="31.103351041674614">
        <ele>1218.1300000000001</ele>
        <time>2021-09-25T11:30:31Z</time>
      </trkpt>
      <trkpt lat="-25.80072901211679" lon="31.103394962847233">
        <ele>1217.6500000000001</ele>
        <time>2021-09-25T11:30:32Z</time>
      </trkpt>
      <trkpt lat="-25.800530025735497" lon="31.103424970060587">
        <ele>1218.1300000000001</ele>
        <time>2021-09-25T11:30:33Z</time>
      </trkpt>
      <trkpt lat="-25.800327016040683" lon="31.103439973667264">
        <ele>1220.53</ele>
        <time>2021-09-25T11:30:34Z</time>
      </trkpt>
      <trkpt lat="-25.799924014136195" lon="31.103449026122689">
        <ele>1222.45</ele>
        <time>2021-09-25T11:30:36Z</time>
      </trkpt>
      <trkpt lat="-25.799554036930203" lon="31.103478027507663">
        <ele>1224.8599999999999</ele>
        <time>2021-09-25T11:30:38Z</time>
      </trkpt>
      <trkpt lat="-25.799383968114853" lon="31.10351700335741">
        <ele>1225.8199999999999</ele>
        <time>2021-09-25T11:30:39Z</time>
      </trkpt>
      <trkpt lat="-25.799225969240069" lon="31.103578023612499">
        <ele>1228.7</ele>
        <time>2021-09-25T11:30:40Z</time>
      </trkpt>
      <trkpt lat="-25.799076016992331" lon="31.103650024160743">
        <ele>1229.6600000000001</ele>
        <time>2021-09-25T11:30:41Z</time>
      </trkpt>
      <trkpt lat="-25.798553992062807" lon="31.103870971128345">
        <ele>1230.6199999999999</ele>
        <time>2021-09-25T11:30:45Z</time>
      </trkpt>
      <trkpt lat="-25.798445027321577" lon="31.103891003876925">
        <ele>1231.5899999999999</ele>
        <time>2021-09-25T11:30:46Z</time>
      </trkpt>
      <trkpt lat="-25.798345031216741" lon="31.10390298999846">
        <ele>1232.55</ele>
        <time>2021-09-25T11:30:47Z</time>
      </trkpt>
      <trkpt lat="-25.798150990158319" lon="31.103905001655221">
        <ele>1234.47</ele>
        <time>2021-09-25T11:30:49Z</time>
      </trkpt>
      <trkpt lat="-25.798058034852147" lon="31.103895027190447">
        <ele>1234.47</ele>
        <time>2021-09-25T11:30:50Z</time>
      </trkpt>
      <trkpt lat="-25.797982010990381" lon="31.103893015533686">
        <ele>1233.51</ele>
        <time>2021-09-25T11:30:51Z</time>
      </trkpt>
      <trkpt lat="-25.797929037362337" lon="31.103901984170079">
        <ele>1233.51</ele>
        <time>2021-09-25T11:30:52Z</time>
      </trkpt>
      <trkpt lat="-25.797883020713925" lon="31.10385999083519">
        <ele>1233.99</ele>
        <time>2021-09-25T11:31:45Z</time>
      </trkpt>
      <trkpt lat="-25.797837004065514" lon="31.103811040520668">
        <ele>1234.95</ele>
        <time>2021-09-25T11:31:46Z</time>
      </trkpt>
      <trkpt lat="-25.797771960496902" lon="31.103767035529017">
        <ele>1234.95</ele>
        <time>2021-09-25T11:31:47Z</time>
      </trkpt>
      <trkpt lat="-25.797695014625788" lon="31.103721018880606">
        <ele>1234.95</ele>
        <time>2021-09-25T11:31:48Z</time>
      </trkpt>
      <trkpt lat="-25.797611027956009" lon="31.103655975311995">
        <ele>1236.3900000000001</ele>
        <time>2021-09-25T11:31:49Z</time>
      </trkpt>
      <trkpt lat="-25.79752603545785" lon="31.103568971157074">
        <ele>1236.3900000000001</ele>
        <time>2021-09-25T11:31:50Z</time>
      </trkpt>
      <trkpt lat="-25.797445988282561" lon="31.103460006415844">
        <ele>1239.76</ele>
        <time>2021-09-25T11:31:51Z</time>
      </trkpt>
      <trkpt lat="-25.797369964420795" lon="31.103326985612512">
        <ele>1236.8699999999999</ele>
        <time>2021-09-25T11:31:52Z</time>
      </trkpt>
      <trkpt lat="-25.797297041863203" lon="31.103176027536392">
        <ele>1240.72</ele>
        <time>2021-09-25T11:31:53Z</time>
      </trkpt>
      <trkpt lat="-25.796903008595109" lon="31.102254018187523">
        <ele>1237.3499999999999</ele>
        <time>2021-09-25T11:31:58Z</time>
      </trkpt>
      <trkpt lat="-25.796816004440188" lon="31.102050002664328">
        <ele>1238.8</ele>
        <time>2021-09-25T11:31:59Z</time>
      </trkpt>
      <trkpt lat="-25.796725982800126" lon="31.101842969655991">
        <ele>1233.99</ele>
        <time>2021-09-25T11:32:00Z</time>
      </trkpt>
      <trkpt lat="-25.796635961160064" lon="31.101637026295066">
        <ele>1233.99</ele>
        <time>2021-09-25T11:32:01Z</time>
      </trkpt>
      <trkpt lat="-25.796365980058908" lon="31.101068984717131">
        <ele>1228.22</ele>
        <time>2021-09-25T11:32:04Z</time>
      </trkpt>
      <trkpt lat="-25.796132041141391" lon="31.100724991410971">
        <ele>1227.26</ele>
        <time>2021-09-25T11:32:06Z</time>
      </trkpt>
      <trkpt lat="-25.795989967882633" lon="31.100561963394284">
        <ele>1225.8199999999999</ele>
        <time>2021-09-25T11:32:07Z</time>
      </trkpt>
      <trkpt lat="-25.79582903534174" lon="31.100405976176262">
        <ele>1223.9000000000001</ele>
        <time>2021-09-25T11:32:08Z</time>
      </trkpt>
      <trkpt lat="-25.795652009546757" lon="31.10024998895824">
        <ele>1219.0899999999999</ele>
        <time>2021-09-25T11:32:09Z</time>
      </trkpt>
      <trkpt lat="-25.795470960438251" lon="31.100092995911837">
        <ele>1222.9300000000001</ele>
        <time>2021-09-25T11:32:10Z</time>
      </trkpt>
      <trkpt lat="-25.795110035687685" lon="31.099783033132553">
        <ele>1219.5699999999999</ele>
        <time>2021-09-25T11:32:12Z</time>
      </trkpt>
      <trkpt lat="-25.794622963294387" lon="31.099352035671473">
        <ele>1217.1700000000001</ele>
        <time>2021-09-25T11:32:15Z</time>
      </trkpt>
      <trkpt lat="-25.794507041573524" lon="31.099211974069476">
        <ele>1218.6099999999999</ele>
        <time>2021-09-25T11:32:16Z</time>
      </trkpt>
      <trkpt lat="-25.794411990791559" lon="31.099064033478498">
        <ele>1220.05</ele>
        <time>2021-09-25T11:32:17Z</time>
      </trkpt>
      <trkpt lat="-25.794332027435303" lon="31.098903017118573">
        <ele>1220.53</ele>
        <time>2021-09-25T11:32:18Z</time>
      </trkpt>
      <trkpt lat="-25.794260026887059" lon="31.098732026293874">
        <ele>1221.01</ele>
        <time>2021-09-25T11:32:19Z</time>
      </trkpt>
      <trkpt lat="-25.794188026338816" lon="31.098561035469174">
        <ele>1224.8599999999999</ele>
        <time>2021-09-25T11:32:20Z</time>
      </trkpt>
      <trkpt lat="-25.794098004698753" lon="31.098398007452488">
        <ele>1229.1800000000001</ele>
        <time>2021-09-25T11:32:21Z</time>
      </trkpt>
      <trkpt lat="-25.793990967795253" lon="31.098245959728956">
        <ele>1230.1400000000001</ele>
        <time>2021-09-25T11:32:22Z</time>
      </trkpt>
      <trkpt lat="-25.793520994484425" lon="31.097619999200106">
        <ele>1234.47</ele>
        <time>2021-09-25T11:32:26Z</time>
      </trkpt>
      <trkpt lat="-25.793423010036349" lon="31.09743601642549">
        <ele>1237.3499999999999</ele>
        <time>2021-09-25T11:32:27Z</time>
      </trkpt>
      <trkpt lat="-25.793342040851712" lon="31.097238035872579">
        <ele>1239.76</ele>
        <time>2021-09-25T11:32:28Z</time>
      </trkpt>
      <trkpt lat="-25.793278003111482" lon="31.097029997035861">
        <ele>1241.2</ele>
        <time>2021-09-25T11:32:29Z</time>
      </trkpt>
      <trkpt lat="-25.793227963149548" lon="31.09681399539113">
        <ele>1244.0799999999999</ele>
        <time>2021-09-25T11:32:30Z</time>
      </trkpt>
      <trkpt lat="-25.793184963986278" lon="31.0965979937464">
        <ele>1246.97</ele>
        <time>2021-09-25T11:32:31Z</time>
      </trkpt>
      <trkpt lat="-25.793142970651388" lon="31.096391966566443">
        <ele>1246.49</ele>
        <time>2021-09-25T11:32:32Z</time>
      </trkpt>
      <trkpt lat="-25.793086979538202" lon="31.096029030159116">
        <ele>1248.8900000000001</ele>
        <time>2021-09-25T11:32:34Z</time>
      </trkpt>
      <trkpt lat="-25.793094020336866" lon="31.095866002142429">
        <ele>1249.8499999999999</ele>
        <time>2021-09-25T11:32:35Z</time>
      </trkpt>
      <trkpt lat="-25.793127967044711" lon="31.095715966075659">
        <ele>1250.3299999999999</ele>
        <time>2021-09-25T11:32:36Z</time>
      </trkpt>
      <trkpt lat="-25.793184963986278" lon="31.095581017434597">
        <ele>1251.29</ele>
        <time>2021-09-25T11:32:37Z</time>
      </trkpt>
      <trkpt lat="-25.793266016989946" lon="31.095463000237942">
        <ele>1254.6600000000001</ele>
        <time>2021-09-25T11:32:38Z</time>
      </trkpt>
      <trkpt lat="-25.793371964246035" lon="31.095368033275008">
        <ele>1256.0999999999999</ele>
        <time>2021-09-25T11:32:39Z</time>
      </trkpt>
      <trkpt lat="-25.793495010584593" lon="31.095292009413242">
        <ele>1256.5799999999999</ele>
        <time>2021-09-25T11:32:40Z</time>
      </trkpt>
      <trkpt lat="-25.793629037216306" lon="31.095230989158154">
        <ele>1256.5799999999999</ele>
        <time>2021-09-25T11:32:41Z</time>
      </trkpt>
      <trkpt lat="-25.793770020827651" lon="31.095178015530109">
        <ele>1262.3499999999999</ele>
        <time>2021-09-25T11:32:42Z</time>
      </trkpt>
      <trkpt lat="-25.793907986953855" lon="31.095126969739795">
        <ele>1262.3499999999999</ele>
        <time>2021-09-25T11:32:43Z</time>
      </trkpt>
      <trkpt lat="-25.794591028243303" lon="31.094882972538471">
        <ele>1268.1199999999999</ele>
        <time>2021-09-25T11:32:48Z</time>
      </trkpt>
      <trkpt lat="-25.794702004641294" lon="31.094822958111763">
        <ele>1268.1199999999999</ele>
        <time>2021-09-25T11:32:49Z</time>
      </trkpt>
      <trkpt lat="-25.794792026281357" lon="31.094742994755507">
        <ele>1265.71</ele>
        <time>2021-09-25T11:32:50Z</time>
      </trkpt>
      <trkpt lat="-25.794856986030936" lon="31.094640986993909">
        <ele>1269.0799999999999</ele>
        <time>2021-09-25T11:32:51Z</time>
      </trkpt>
      <trkpt lat="-25.794898979365826" lon="31.094519030302763">
        <ele>1271.48</ele>
        <time>2021-09-25T11:32:52Z</time>
      </trkpt>
      <trkpt lat="-25.794924963265657" lon="31.09438500367105">
        <ele>1270.52</ele>
        <time>2021-09-25T11:32:53Z</time>
      </trkpt>
      <trkpt lat="-25.794938961043954" lon="31.094241002574563">
        <ele>1274.3599999999999</ele>
        <time>2021-09-25T11:32:54Z</time>
      </trkpt>
      <trkpt lat="-25.794947007670999" lon="31.09408400952816">
        <ele>1274.3599999999999</ele>
        <time>2021-09-25T11:32:55Z</time>
      </trkpt>
      <trkpt lat="-25.794959999620914" lon="31.093743033707142">
        <ele>1282.54</ele>
        <time>2021-09-25T11:32:57Z</time>
      </trkpt>
      <trkpt lat="-25.794969974085689" lon="31.093559972941875">
        <ele>1282.0599999999999</ele>
        <time>2021-09-25T11:32:58Z</time>
      </trkpt>
      <trkpt lat="-25.794990006834269" lon="31.093200976029038">
        <ele>1285.4200000000001</ele>
        <time>2021-09-25T11:33:00Z</time>
      </trkpt>
      <trkpt lat="-25.794997969642282" lon="31.093024034053087">
        <ele>1291.1900000000001</ele>
        <time>2021-09-25T11:33:01Z</time>
      </trkpt>
      <trkpt lat="-25.795006016269326" lon="31.092848014086485">
        <ele>1285.4200000000001</ele>
        <time>2021-09-25T11:33:02Z</time>
      </trkpt>
      <trkpt lat="-25.795016996562481" lon="31.092493962496519">
        <ele>1291.6700000000001</ele>
        <time>2021-09-25T11:33:04Z</time>
      </trkpt>
      <trkpt lat="-25.795034011825919" lon="31.092315008863807">
        <ele>1292.6300000000001</ele>
        <time>2021-09-25T11:33:05Z</time>
      </trkpt>
      <trkpt lat="-25.795071981847286" lon="31.092143012210727">
        <ele>1290.23</ele>
        <time>2021-09-25T11:33:06Z</time>
      </trkpt>
      <trkpt lat="-25.795130990445614" lon="31.09197998419404">
        <ele>1295.51</ele>
        <time>2021-09-25T11:33:07Z</time>
      </trkpt>
      <trkpt lat="-25.795209025964141" lon="31.091822991147637">
        <ele>1294.0699999999999</ele>
        <time>2021-09-25T11:33:08Z</time>
      </trkpt>
      <trkpt lat="-25.7952940184623" lon="31.091670021414757">
        <ele>1295.03</ele>
        <time>2021-09-25T11:33:09Z</time>
      </trkpt>
      <trkpt lat="-25.79538001678884" lon="31.091515962034464">
        <ele>1299.3599999999999</ele>
        <time>2021-09-25T11:33:10Z</time>
      </trkpt>
      <trkpt lat="-25.79546601511538" lon="31.091359974816442">
        <ele>1297.9200000000001</ele>
        <time>2021-09-25T11:33:11Z</time>
      </trkpt>
      <trkpt lat="-25.79555201344192" lon="31.091201975941658">
        <ele>1302.24</ele>
        <time>2021-09-25T11:33:12Z</time>
      </trkpt>
      <trkpt lat="-25.79563801176846" lon="31.091044982895255">
        <ele>1302.24</ele>
        <time>2021-09-25T11:33:13Z</time>
      </trkpt>
      <trkpt lat="-25.795844038948417" lon="31.09058397822082">
        <ele>1307.05</ele>
        <time>2021-09-25T11:33:16Z</time>
      </trkpt>
      <trkpt lat="-25.795871028676629" lon="31.090428996831179">
        <ele>1305.6099999999999</ele>
        <time>2021-09-25T11:33:17Z</time>
      </trkpt>
      <trkpt lat="-25.79587203450501" lon="31.090274015441537">
        <ele>1308.97</ele>
        <time>2021-09-25T11:33:18Z</time>
      </trkpt>
      <trkpt lat="-25.795844038948417" lon="31.090120039880276">
        <ele>1307.53</ele>
        <time>2021-09-25T11:33:19Z</time>
      </trkpt>
      <trkpt lat="-25.795797016471624" lon="31.089964974671602">
        <ele>1312.3399999999999</ele>
        <time>2021-09-25T11:33:20Z</time>
      </trkpt>
      <trkpt lat="-25.795752005651593" lon="31.089806975796819">
        <ele>1312.3399999999999</ele>
        <time>2021-09-25T11:33:21Z</time>
      </trkpt>
      <trkpt lat="-25.795721998438239" lon="31.089643025770783">
        <ele>1314.74</ele>
        <time>2021-09-25T11:33:22Z</time>
      </trkpt>
      <trkpt lat="-25.795713029801846" lon="31.089477986097336">
        <ele>1314.74</ele>
        <time>2021-09-25T11:33:23Z</time>
      </trkpt>
      <trkpt lat="-25.795724010095" lon="31.089318981394172">
        <ele>1318.5899999999999</ele>
        <time>2021-09-25T11:33:24Z</time>
      </trkpt>
      <trkpt lat="-25.795752005651593" lon="31.089158970862627">
        <ele>1316.1800000000001</ele>
        <time>2021-09-25T11:33:25Z</time>
      </trkpt>
      <trkpt lat="-25.795791987329721" lon="31.088999966159463">
        <ele>1314.26</ele>
        <time>2021-09-25T11:33:26Z</time>
      </trkpt>
      <trkpt lat="-25.795842027291656" lon="31.088839033618569">
        <ele>1315.7</ele>
        <time>2021-09-25T11:33:27Z</time>
      </trkpt>
      <trkpt lat="-25.795922996476293" lon="31.088512977585196">
        <ele>1320.51</ele>
        <time>2021-09-25T11:33:29Z</time>
      </trkpt>
      <trkpt lat="-25.795934982597828" lon="31.088339975103736">
        <ele>1318.0999999999999</ele>
        <time>2021-09-25T11:33:30Z</time>
      </trkpt>
      <trkpt lat="-25.795919978991151" lon="31.088162027299404">
        <ele>1317.6199999999999</ele>
        <time>2021-09-25T11:33:31Z</time>
      </trkpt>
      <trkpt lat="-25.795878991484642" lon="31.087983995676041">
        <ele>1316.1800000000001</ele>
        <time>2021-09-25T11:33:32Z</time>
      </trkpt>
      <trkpt lat="-25.795813025906682" lon="31.087808981537819">
        <ele>1315.22</ele>
        <time>2021-09-25T11:33:33Z</time>
      </trkpt>
      <trkpt lat="-25.79572300426662" lon="31.087641008198261">
        <ele>1314.26</ele>
        <time>2021-09-25T11:33:34Z</time>
      </trkpt>
      <trkpt lat="-25.795605992898345" lon="31.087490972131491">
        <ele>1312.8199999999999</ele>
        <time>2021-09-25T11:33:35Z</time>
      </trkpt>
      <trkpt lat="-25.795469032600522" lon="31.087355017662048">
        <ele>1317.6199999999999</ele>
        <time>2021-09-25T11:33:36Z</time>
      </trkpt>
      <trkpt lat="-25.795323019847274" lon="31.087226020172238">
        <ele>1313.78</ele>
        <time>2021-09-25T11:33:37Z</time>
      </trkpt>
      <trkpt lat="-25.795067958533764" lon="31.086953021585941">
        <ele>1311.3800000000001</ele>
        <time>2021-09-25T11:33:39Z</time>
      </trkpt>
      <trkpt lat="-25.794973997399211" lon="31.08680097386241">
        <ele>1308.97</ele>
        <time>2021-09-25T11:33:40Z</time>
      </trkpt>
      <trkpt lat="-25.794912977144122" lon="31.086640041321516">
        <ele>1307.53</ele>
        <time>2021-09-25T11:33:41Z</time>
      </trkpt>
      <trkpt lat="-25.794882969930768" lon="31.086473995819688">
        <ele>1307.05</ele>
        <time>2021-09-25T11:33:42Z</time>
      </trkpt>
      <trkpt lat="-25.794883975759149" lon="31.086300993338227">
        <ele>1305.1300000000001</ele>
        <time>2021-09-25T11:33:43Z</time>
      </trkpt>
      <trkpt lat="-25.79490995965898" lon="31.086120028048754">
        <ele>1305.6099999999999</ele>
        <time>2021-09-25T11:33:44Z</time>
      </trkpt>
      <trkpt lat="-25.794948013499379" lon="31.085927998647094">
        <ele>1305.1300000000001</ele>
        <time>2021-09-25T11:33:45Z</time>
      </trkpt>
      <trkpt lat="-25.795140964910388" lon="31.084893001243472">
        <ele>1301.76</ele>
        <time>2021-09-25T11:33:50Z</time>
      </trkpt>
      <trkpt lat="-25.795159991830587" lon="31.084710024297237">
        <ele>1300.8</ele>
        <time>2021-09-25T11:33:51Z</time>
      </trkpt>
      <trkpt lat="-25.795155968517065" lon="31.084542972967029">
        <ele>1298.8800000000001</ele>
        <time>2021-09-25T11:33:52Z</time>
      </trkpt>
      <trkpt lat="-25.795125961303711" lon="31.084388997405767">
        <ele>1297.4400000000001</ele>
        <time>2021-09-25T11:33:53Z</time>
      </trkpt>
      <trkpt lat="-25.795068964362144" lon="31.084251031279564">
        <ele>1296.96</ele>
        <time>2021-09-25T11:33:54Z</time>
      </trkpt>
      <trkpt lat="-25.794987995177507" lon="31.084132008254528">
        <ele>1302.24</ele>
        <time>2021-09-25T11:33:55Z</time>
      </trkpt>
      <trkpt lat="-25.79488699324429" lon="31.084034023806453">
        <ele>1296.48</ele>
        <time>2021-09-25T11:33:56Z</time>
      </trkpt>
      <trkpt lat="-25.794767970219254" lon="31.083957999944687">
        <ele>1296.48</ele>
        <time>2021-09-25T11:33:57Z</time>
      </trkpt>
      <trkpt lat="-25.794634027406573" lon="31.083904020488262">
        <ele>1298.4000000000001</ele>
        <time>2021-09-25T11:33:58Z</time>
      </trkpt>
      <trkpt lat="-25.794487008824944" lon="31.083876024931669">
        <ele>1296.48</ele>
        <time>2021-09-25T11:33:59Z</time>
      </trkpt>
      <trkpt lat="-25.794330015778542" lon="31.083870995789766">
        <ele>1295.51</ele>
        <time>2021-09-25T11:34:00Z</time>
      </trkpt>
      <trkpt lat="-25.794161958619952" lon="31.083883987739682">
        <ele>1295.03</ele>
        <time>2021-09-25T11:34:01Z</time>
      </trkpt>
      <trkpt lat="-25.793978981673717" lon="31.083907037973404">
        <ele>1295.03</ele>
        <time>2021-09-25T11:34:02Z</time>
      </trkpt>
      <trkpt lat="-25.792888998985291" lon="31.08400996774435">
        <ele>1295.51</ele>
        <time>2021-09-25T11:34:07Z</time>
      </trkpt>
      <trkpt lat="-25.791934970766306" lon="31.08409303240478">
        <ele>1298.8800000000001</ele>
        <time>2021-09-25T11:34:11Z</time>
      </trkpt>
      <trkpt lat="-25.791239021345973" lon="31.084150029346347">
        <ele>1295.03</ele>
        <time>2021-09-25T11:34:14Z</time>
      </trkpt>
      <trkpt lat="-25.790468975901604" lon="31.084191016852856">
        <ele>1295.51</ele>
        <time>2021-09-25T11:34:18Z</time>
      </trkpt>
      <trkpt lat="-25.790297985076904" lon="31.08415899798274">
        <ele>1293.1099999999999</ele>
        <time>2021-09-25T11:34:19Z</time>
      </trkpt>
      <trkpt lat="-25.79013898037374" lon="31.084098983556032">
        <ele>1288.78</ele>
        <time>2021-09-25T11:34:20Z</time>
      </trkpt>
      <trkpt lat="-25.789993973448873" lon="31.084011979401112">
        <ele>1290.71</ele>
        <time>2021-09-25T11:34:21Z</time>
      </trkpt>
      <trkpt lat="-25.789861958473921" lon="31.08390100300312">
        <ele>1289.27</ele>
        <time>2021-09-25T11:34:22Z</time>
      </trkpt>
      <trkpt lat="-25.789742013439536" lon="31.083761025220156">
        <ele>1288.78</ele>
        <time>2021-09-25T11:34:23Z</time>
      </trkpt>
      <trkpt lat="-25.789629025384784" lon="31.083594979718328">
        <ele>1287.3399999999999</ele>
        <time>2021-09-25T11:34:24Z</time>
      </trkpt>
      <trkpt lat="-25.789515031501651" lon="31.083418959751725">
        <ele>1286.8599999999999</ele>
        <time>2021-09-25T11:34:25Z</time>
      </trkpt>
      <trkpt lat="-25.789397014304996" lon="31.083243023604155">
        <ele>1283.5</ele>
        <time>2021-09-25T11:34:26Z</time>
      </trkpt>
      <trkpt lat="-25.789157040417194" lon="31.082904981449246">
        <ele>1277.73</ele>
        <time>2021-09-25T11:34:28Z</time>
      </trkpt>
      <trkpt lat="-25.789034999907017" lon="31.082755029201508">
        <ele>1277.73</ele>
        <time>2021-09-25T11:34:29Z</time>
      </trkpt>
      <trkpt lat="-25.788900973275304" lon="31.082627037540078">
        <ele>1273.4000000000001</ele>
        <time>2021-09-25T11:34:30Z</time>
      </trkpt>
      <trkpt lat="-25.788754960522056" lon="31.082521006464958">
        <ele>1271.48</ele>
        <time>2021-09-25T11:34:31Z</time>
      </trkpt>
      <trkpt lat="-25.788600984960794" lon="31.08243802562356">
        <ele>1269.0799999999999</ele>
        <time>2021-09-25T11:34:32Z</time>
      </trkpt>
      <trkpt lat="-25.78844198025763" lon="31.082378011196852">
        <ele>1267.6400000000001</ele>
        <time>2021-09-25T11:34:33Z</time>
      </trkpt>
      <trkpt lat="-25.788280963897705" lon="31.082336017861962">
        <ele>1266.1900000000001</ele>
        <time>2021-09-25T11:34:34Z</time>
      </trkpt>
      <trkpt lat="-25.788119025528431" lon="31.082312967628241">
        <ele>1266.1900000000001</ele>
        <time>2021-09-25T11:34:35Z</time>
      </trkpt>
      <trkpt lat="-25.787961026653647" lon="31.082315985113382">
        <ele>1262.3499999999999</ele>
        <time>2021-09-25T11:34:36Z</time>
      </trkpt>
      <trkpt lat="-25.787811996415257" lon="31.082345992326736">
        <ele>1262.3499999999999</ele>
        <time>2021-09-25T11:34:37Z</time>
      </trkpt>
      <trkpt lat="-25.787671012803912" lon="31.082399971783161">
        <ele>1262.3499999999999</ele>
        <time>2021-09-25T11:34:38Z</time>
      </trkpt>
      <trkpt lat="-25.787540003657341" lon="31.082477001473308">
        <ele>1258.98</ele>
        <time>2021-09-25T11:34:39Z</time>
      </trkpt>
      <trkpt lat="-25.787419974803925" lon="31.082575991749763">
        <ele>1256.0999999999999</ele>
        <time>2021-09-25T11:34:40Z</time>
      </trkpt>
      <trkpt lat="-25.787312015891075" lon="31.082690991461277">
        <ele>1252.25</ele>
        <time>2021-09-25T11:34:41Z</time>
      </trkpt>
      <trkpt lat="-25.787213025614619" lon="31.082812026143074">
        <ele>1251.77</ele>
        <time>2021-09-25T11:34:42Z</time>
      </trkpt>
      <trkpt lat="-25.787032982334495" lon="31.083036996424198">
        <ele>1246.49</ele>
        <time>2021-09-25T11:34:44Z</time>
      </trkpt>
      <trkpt lat="-25.786953018978238" lon="31.08312701806426">
        <ele>1243.1199999999999</ele>
        <time>2021-09-25T11:34:45Z</time>
      </trkpt>
      <trkpt lat="-25.78687297180295" lon="31.083188960328698">
        <ele>1242.1600000000001</ele>
        <time>2021-09-25T11:34:46Z</time>
      </trkpt>
      <trkpt lat="-25.786789990961552" lon="31.083217039704323">
        <ele>1239.76</ele>
        <time>2021-09-25T11:34:47Z</time>
      </trkpt>
      <trkpt lat="-25.786707010120153" lon="31.083205975592136">
        <ele>1237.8299999999999</ele>
        <time>2021-09-25T11:34:48Z</time>
      </trkpt>
      <trkpt lat="-25.786631992086768" lon="31.083163982257247">
        <ele>1236.3900000000001</ele>
        <time>2021-09-25T11:34:49Z</time>
      </trkpt>
      <trkpt lat="-25.786574995145202" lon="31.083096005022526">
        <ele>1234.95</ele>
        <time>2021-09-25T11:34:50Z</time>
      </trkpt>
      <trkpt lat="-25.786548005416989" lon="31.083011012524366">
        <ele>1233.99</ele>
        <time>2021-09-25T11:34:51Z</time>
      </trkpt>
      <trkpt lat="-25.786553034558892" lon="31.08291202224791">
        <ele>1233.03</ele>
        <time>2021-09-25T11:34:52Z</time>
      </trkpt>
      <trkpt lat="-25.786585975438356" lon="31.082803979516029">
        <ele>1231.5899999999999</ele>
        <time>2021-09-25T11:34:53Z</time>
      </trkpt>
      <trkpt lat="-25.786641966551542" lon="31.082687973976135">
        <ele>1231.1099999999999</ele>
        <time>2021-09-25T11:34:54Z</time>
      </trkpt>
      <trkpt lat="-25.786712961271405" lon="31.082561993971467">
        <ele>1229.6600000000001</ele>
        <time>2021-09-25T11:34:55Z</time>
      </trkpt>
      <trkpt lat="-25.786792002618313" lon="31.082427967339754">
        <ele>1229.6600000000001</ele>
        <time>2021-09-25T11:34:56Z</time>
      </trkpt>
      <trkpt lat="-25.787031976506114" lon="31.082020020112395">
        <ele>1225.8199999999999</ele>
        <time>2021-09-25T11:34:59Z</time>
      </trkpt>
      <trkpt lat="-25.787123003974557" lon="31.081889010965824">
        <ele>1225.8199999999999</ele>
        <time>2021-09-25T11:35:00Z</time>
      </trkpt>
      <trkpt lat="-25.787229035049677" lon="31.081763030961156">
        <ele>1224.3800000000001</ele>
        <time>2021-09-25T11:35:01Z</time>
      </trkpt>
      <trkpt lat="-25.78734596259892" lon="31.081643002107739">
        <ele>1222.9300000000001</ele>
        <time>2021-09-25T11:35:02Z</time>
      </trkpt>
      <trkpt lat="-25.787468003109097" lon="31.081534959375858">
        <ele>1220.53</ele>
        <time>2021-09-25T11:35:03Z</time>
      </trkpt>
      <trkpt lat="-25.787598006427288" lon="31.081436974927783">
        <ele>1219.5699999999999</ele>
        <time>2021-09-25T11:35:04Z</time>
      </trkpt>
      <trkpt lat="-25.787734966725111" lon="31.081350976601243">
        <ele>1218.1300000000001</ele>
        <time>2021-09-25T11:35:05Z</time>
      </trkpt>
      <trkpt lat="-25.787880979478359" lon="31.081275958567858">
        <ele>1217.6500000000001</ele>
        <time>2021-09-25T11:35:06Z</time>
      </trkpt>
      <trkpt lat="-25.788035038858652" lon="31.081206975504756">
        <ele>1214.28</ele>
        <time>2021-09-25T11:35:07Z</time>
      </trkpt>
      <trkpt lat="-25.788197983056307" lon="31.081137992441654">
        <ele>1214.76</ele>
        <time>2021-09-25T11:35:08Z</time>
      </trkpt>
      <trkpt lat="-25.788679020479321" lon="31.080927019938827">
        <ele>1209.48</ele>
        <time>2021-09-25T11:35:11Z</time>
      </trkpt>
      <trkpt lat="-25.78908696770668" lon="31.080735996365547">
        <ele>1204.6700000000001</ele>
        <time>2021-09-25T11:35:14Z</time>
      </trkpt>
      <trkpt lat="-25.789187969639897" lon="31.080652009695768">
        <ele>1202.75</ele>
        <time>2021-09-25T11:35:15Z</time>
      </trkpt>
      <trkpt lat="-25.789266005158424" lon="31.08054799027741">
        <ele>1202.27</ele>
        <time>2021-09-25T11:35:16Z</time>
      </trkpt>
      <trkpt lat="-25.789317972958088" lon="31.080427039414644">
        <ele>1201.79</ele>
        <time>2021-09-25T11:35:17Z</time>
      </trkpt>
      <trkpt lat="-25.789344040676951" lon="31.080293012782931">
        <ele>1200.8199999999999</ele>
        <time>2021-09-25T11:35:18Z</time>
      </trkpt>
      <trkpt lat="-25.789335994049907" lon="31.080154962837696">
        <ele>1199.8599999999999</ele>
        <time>2021-09-25T11:35:19Z</time>
      </trkpt>
      <trkpt lat="-25.78929802402854" lon="31.08001297339797">
        <ele>1197.9400000000001</ele>
        <time>2021-09-25T11:35:20Z</time>
      </trkpt>
      <trkpt lat="-25.789230968803167" lon="31.079874001443386">
        <ele>1197.9400000000001</ele>
        <time>2021-09-25T11:35:21Z</time>
      </trkpt>
      <trkpt lat="-25.789145976305008" lon="31.07973201200366">
        <ele>1197.46</ele>
        <time>2021-09-25T11:35:22Z</time>
      </trkpt>
      <trkpt lat="-25.788949001580477" lon="31.079417020082474">
        <ele>1193.1300000000001</ele>
        <time>2021-09-25T11:35:24Z</time>
      </trkpt>
      <trkpt lat="-25.78861397691071" lon="31.078865993767977">
        <ele>1189.29</ele>
        <time>2021-09-25T11:35:27Z</time>
      </trkpt>
      <trkpt lat="-25.788406021893024" lon="31.078515965491533">
        <ele>1183.52</ele>
        <time>2021-09-25T11:35:29Z</time>
      </trkpt>
      <trkpt lat="-25.788299990817904" lon="31.078372970223427">
        <ele>1178.71</ele>
        <time>2021-09-25T11:35:30Z</time>
      </trkpt>
      <trkpt lat="-25.788179961964488" lon="31.078255958855152">
        <ele>1176.3099999999999</ele>
        <time>2021-09-25T11:35:31Z</time>
      </trkpt>
      <trkpt lat="-25.788045013323426" lon="31.078169038519263">
        <ele>1175.3499999999999</ele>
        <time>2021-09-25T11:35:32Z</time>
      </trkpt>
      <trkpt lat="-25.787895983085036" lon="31.078111035749316">
        <ele>1173.9100000000001</ele>
        <time>2021-09-25T11:35:33Z</time>
      </trkpt>
      <trkpt lat="-25.787732033059001" lon="31.078073987737298">
        <ele>1170.54</ele>
        <time>2021-09-25T11:35:34Z</time>
      </trkpt>
      <trkpt lat="-25.787552995607257" lon="31.078048003837466">
        <ele>1169.5799999999999</ele>
        <time>2021-09-25T11:35:35Z</time>
      </trkpt>
      <trkpt lat="-25.787172960117459" lon="31.077997041866183">
        <ele>1164.29</ele>
        <time>2021-09-25T11:35:37Z</time>
      </trkpt>
      <trkpt lat="-25.786972967907786" lon="31.07797097414732">
        <ele>1161.4100000000001</ele>
        <time>2021-09-25T11:35:38Z</time>
      </trkpt>
      <trkpt lat="-25.786557979881763" lon="31.077911965548992">
        <ele>1158.05</ele>
        <time>2021-09-25T11:35:40Z</time>
      </trkpt>
      <trkpt lat="-25.786137040704489" lon="31.077853040769696">
        <ele>1150.8399999999999</ele>
        <time>2021-09-25T11:35:42Z</time>
      </trkpt>
      <trkpt lat="-25.785930007696152" lon="31.077826973050833">
        <ele>1147.47</ele>
        <time>2021-09-25T11:35:43Z</time>
      </trkpt>
      <trkpt lat="-25.785524994134903" lon="31.07777701690793">
        <ele>1141.22</ele>
        <time>2021-09-25T11:35:45Z</time>
      </trkpt>
      <trkpt lat="-25.785327013581991" lon="31.077750027179718">
        <ele>1137.3800000000001</ele>
        <time>2021-09-25T11:35:46Z</time>
      </trkpt>
      <trkpt lat="-25.785133978351951" lon="31.077724965289235">
        <ele>1134.01</ele>
        <time>2021-09-25T11:35:47Z</time>
      </trkpt>
      <trkpt lat="-25.784957958385348" lon="31.077699987217784">
        <ele>1129.21</ele>
        <time>2021-09-25T11:35:48Z</time>
      </trkpt>
      <trkpt lat="-25.784799037501216" lon="31.077665034681559">
        <ele>1126.3199999999999</ele>
        <time>2021-09-25T11:35:49Z</time>
      </trkpt>
      <trkpt lat="-25.784651013091207" lon="31.077608037739992">
        <ele>1123.4400000000001</ele>
        <time>2021-09-25T11:35:50Z</time>
      </trkpt>
      <trkpt lat="-25.784515980631113" lon="31.077521033585072">
        <ele>1120.55</ele>
        <time>2021-09-25T11:35:51Z</time>
      </trkpt>
      <trkpt lat="-25.784394023939967" lon="31.077403016388416">
        <ele>1117.6700000000001</ele>
        <time>2021-09-25T11:35:52Z</time>
      </trkpt>
      <trkpt lat="-25.784285981208086" lon="31.07726102694869">
        <ele>1116.71</ele>
        <time>2021-09-25T11:35:53Z</time>
      </trkpt>
      <trkpt lat="-25.784187996760011" lon="31.077106967568398">
        <ele>1114.79</ele>
        <time>2021-09-25T11:35:54Z</time>
      </trkpt>
      <trkpt lat="-25.783985992893577" lon="31.076827012002468">
        <ele>1110.46</ele>
        <time>2021-09-25T11:35:56Z</time>
      </trkpt>
      <trkpt lat="-25.78386596404016" lon="31.076722992584109">
        <ele>1108.0599999999999</ele>
        <time>2021-09-25T11:35:57Z</time>
      </trkpt>
      <trkpt lat="-25.783726992085576" lon="31.076651997864246">
        <ele>1107.0999999999999</ele>
        <time>2021-09-25T11:35:58Z</time>
      </trkpt>
      <trkpt lat="-25.783574022352695" lon="31.076613022014499">
        <ele>1108.0599999999999</ele>
        <time>2021-09-25T11:35:59Z</time>
      </trkpt>
      <trkpt lat="-25.78341300599277" lon="31.076601035892963">
        <ele>1105.1700000000001</ele>
        <time>2021-09-25T11:36:00Z</time>
      </trkpt>
      <trkpt lat="-25.783255007117987" lon="31.076605981215835">
        <ele>1103.73</ele>
        <time>2021-09-25T11:36:01Z</time>
      </trkpt>
      <trkpt lat="-25.783104971051216" lon="31.076614027842879">
        <ele>1102.77</ele>
        <time>2021-09-25T11:36:02Z</time>
      </trkpt>
      <trkpt lat="-25.782969016581774" lon="31.076608998700976">
        <ele>1100.8499999999999</ele>
        <time>2021-09-25T11:36:03Z</time>
      </trkpt>
      <trkpt lat="-25.782844964414835" lon="31.076578991487622">
        <ele>1098.9200000000001</ele>
        <time>2021-09-25T11:36:04Z</time>
      </trkpt>
      <trkpt lat="-25.782737005501986" lon="31.076521994546056">
        <ele>1097.96</ele>
        <time>2021-09-25T11:36:05Z</time>
      </trkpt>
      <trkpt lat="-25.782644972205162" lon="31.076439013704658">
        <ele>1096.04</ele>
        <time>2021-09-25T11:36:06Z</time>
      </trkpt>
      <trkpt lat="-25.782573977485299" lon="31.076331976801157">
        <ele>1093.6400000000001</ele>
        <time>2021-09-25T11:36:07Z</time>
      </trkpt>
      <trkpt lat="-25.782527960836887" lon="31.076201973482966">
        <ele>1092.6800000000001</ele>
        <time>2021-09-25T11:36:08Z</time>
      </trkpt>
      <trkpt lat="-25.782507006078959" lon="31.076057972386479">
        <ele>1091.71</ele>
        <time>2021-09-25T11:36:09Z</time>
      </trkpt>
      <trkpt lat="-25.782512035220861" lon="31.075898967683315">
        <ele>1089.3099999999999</ele>
        <time>2021-09-25T11:36:10Z</time>
      </trkpt>
      <trkpt lat="-25.782540030777454" lon="31.075728982686996">
        <ele>1090.27</ele>
        <time>2021-09-25T11:36:11Z</time>
      </trkpt>
      <trkpt lat="-25.782589986920357" lon="31.075549023225904">
        <ele>1088.8299999999999</ele>
        <time>2021-09-25T11:36:12Z</time>
      </trkpt>
      <trkpt lat="-25.782662993296981" lon="31.075356993824244">
        <ele>1086.9100000000001</ele>
        <time>2021-09-25T11:36:13Z</time>
      </trkpt>
      <trkpt lat="-25.78274697996676" lon="31.075163036584854">
        <ele>1083.54</ele>
        <time>2021-09-25T11:36:14Z</time>
      </trkpt>
      <trkpt lat="-25.78289701603353" lon="31.074803033843637">
        <ele>1078.74</ele>
        <time>2021-09-25T11:36:16Z</time>
      </trkpt>
      <trkpt lat="-25.783006986603141" lon="31.074520982801914">
        <ele>1073.9300000000001</ele>
        <time>2021-09-25T11:36:18Z</time>
      </trkpt>
      <trkpt lat="-25.783020984381437" lon="31.074400031939149">
        <ele>1072.49</ele>
        <time>2021-09-25T11:36:19Z</time>
      </trkpt>
      <trkpt lat="-25.782999023795128" lon="31.074282014742494">
        <ele>1071.53</ele>
        <time>2021-09-25T11:36:20Z</time>
      </trkpt>
      <trkpt lat="-25.782944038510323" lon="31.074172966182232">
        <ele>1070.0799999999999</ele>
        <time>2021-09-25T11:36:21Z</time>
      </trkpt>
      <trkpt lat="-25.782858962193131" lon="31.074084034189582">
        <ele>1069.5999999999999</ele>
        <time>2021-09-25T11:36:22Z</time>
      </trkpt>
      <trkpt lat="-25.782748991623521" lon="31.074022008106112">
        <ele>1068.1600000000001</ele>
        <time>2021-09-25T11:36:23Z</time>
      </trkpt>
      <trkpt lat="-25.782619994133711" lon="31.073981020599604">
        <ele>1066.72</ele>
        <time>2021-09-25T11:36:24Z</time>
      </trkpt>
      <trkpt lat="-25.782475993037224" lon="31.07395201921463">
        <ele>1066.24</ele>
        <time>2021-09-25T11:36:25Z</time>
      </trkpt>
      <trkpt lat="-25.782148009166121" lon="31.073898039758205">
        <ele>1062.3900000000001</ele>
        <time>2021-09-25T11:36:27Z</time>
      </trkpt>
      <trkpt lat="-25.781809967011213" lon="31.073836013674736">
        <ele>1058.55</ele>
        <time>2021-09-25T11:36:29Z</time>
      </trkpt>
      <trkpt lat="-25.781509978696704" lon="31.073748003691435">
        <ele>1055.6700000000001</ele>
        <time>2021-09-25T11:36:31Z</time>
      </trkpt>
      <trkpt lat="-25.781375030055642" lon="31.07367298565805">
        <ele>1052.78</ele>
        <time>2021-09-25T11:36:32Z</time>
      </trkpt>
      <trkpt lat="-25.781257012858987" lon="31.073580030351877">
        <ele>1051.8199999999999</ele>
        <time>2021-09-25T11:36:33Z</time>
      </trkpt>
      <trkpt lat="-25.781165985390544" lon="31.073467964306474">
        <ele>1049.4200000000001</ele>
        <time>2021-09-25T11:36:34Z</time>
      </trkpt>
      <trkpt lat="-25.78111401759088" lon="31.073337960988283">
        <ele>1046.53</ele>
        <time>2021-09-25T11:36:35Z</time>
      </trkpt>
      <trkpt lat="-25.781102031469345" lon="31.073194965720177">
        <ele>1045.5699999999999</ele>
        <time>2021-09-25T11:36:36Z</time>
      </trkpt>
      <trkpt lat="-25.781118040904403" lon="31.073047025129199">
        <ele>1045.0899999999999</ele>
        <time>2021-09-25T11:36:37Z</time>
      </trkpt>
      <trkpt lat="-25.781132960692048" lon="31.072906963527203">
        <ele>1043.6500000000001</ele>
        <time>2021-09-25T11:36:38Z</time>
      </trkpt>
      <trkpt lat="-25.781124997884035" lon="31.072778971865773">
        <ele>1040.76</ele>
        <time>2021-09-25T11:36:39Z</time>
      </trkpt>
      <trkpt lat="-25.781089039519429" lon="31.072662966325879">
        <ele>1039.3199999999999</ele>
        <time>2021-09-25T11:36:40Z</time>
      </trkpt>
      <trkpt lat="-25.781025001779199" lon="31.072559030726552">
        <ele>1038.3599999999999</ele>
        <time>2021-09-25T11:36:41Z</time>
      </trkpt>
      <trkpt lat="-25.780934980139136" lon="31.072472026571631">
        <ele>1037.4000000000001</ele>
        <time>2021-09-25T11:36:42Z</time>
      </trkpt>
      <trkpt lat="-25.780822997912765" lon="31.072404971346259">
        <ele>1036.9200000000001</ele>
        <time>2021-09-25T11:36:43Z</time>
      </trkpt>
      <trkpt lat="-25.780692994594574" lon="31.072365995496511">
        <ele>1037.4000000000001</ele>
        <time>2021-09-25T11:36:44Z</time>
      </trkpt>
      <trkpt lat="-25.780553016811609" lon="31.072354009374976">
        <ele>1034.04</ele>
        <time>2021-09-25T11:36:45Z</time>
      </trkpt>
      <trkpt lat="-25.78040599822998" lon="31.072370018810034">
        <ele>1032.5899999999999</ele>
        <time>2021-09-25T11:36:46Z</time>
      </trkpt>
      <trkpt lat="-25.780260991305113" lon="31.07240698300302">
        <ele>1031.6300000000001</ele>
        <time>2021-09-25T11:36:47Z</time>
      </trkpt>
      <trkpt lat="-25.780122019350529" lon="31.072452999651432">
        <ele>1028.75</ele>
        <time>2021-09-25T11:36:48Z</time>
      </trkpt>
      <trkpt lat="-25.779981035739183" lon="31.072489963844419">
        <ele>1033.0699999999999</ele>
        <time>2021-09-25T11:36:49Z</time>
      </trkpt>
      <trkpt lat="-25.779838040471077" lon="31.072507984936237">
        <ele>1026.3399999999999</ele>
        <time>2021-09-25T11:36:50Z</time>
      </trkpt>
      <trkpt lat="-25.779690016061068" lon="31.072503961622715">
        <ele>1027.3099999999999</ele>
        <time>2021-09-25T11:36:51Z</time>
      </trkpt>
      <trkpt lat="-25.779533023014665" lon="31.072478983551264">
        <ele>1024.9000000000001</ele>
        <time>2021-09-25T11:36:52Z</time>
      </trkpt>
      <trkpt lat="-25.779365971684456" lon="31.072440007701516">
        <ele>1022.5</ele>
        <time>2021-09-25T11:36:53Z</time>
      </trkpt>
      <trkpt lat="-25.778839001432061" lon="31.072311010211706">
        <ele>1019.13</ele>
        <time>2021-09-25T11:36:56Z</time>
      </trkpt>
      <trkpt lat="-25.778511017560959" lon="31.072230963036418">
        <ele>1014.8099999999999</ele>
        <time>2021-09-25T11:36:58Z</time>
      </trkpt>
      <trkpt lat="-25.778357964009047" lon="31.072180001065135">
        <ele>1013.85</ele>
        <time>2021-09-25T11:36:59Z</time>
      </trkpt>
      <trkpt lat="-25.77821496874094" lon="31.072114035487175">
        <ele>1010.96</ele>
        <time>2021-09-25T11:37:00Z</time>
      </trkpt>
      <trkpt lat="-25.778079014271498" lon="31.072034994140267">
        <ele>1009.52</ele>
        <time>2021-09-25T11:37:01Z</time>
      </trkpt>
      <trkpt lat="-25.777952028438449" lon="31.071940027177334">
        <ele>1006.64</ele>
        <time>2021-09-25T11:37:02Z</time>
      </trkpt>
      <trkpt lat="-25.777829987928271" lon="31.071822009980679">
        <ele>1004.72</ele>
        <time>2021-09-25T11:37:03Z</time>
      </trkpt>
      <trkpt lat="-25.777714988216758" lon="31.071683960035443">
        <ele>1004.23</ele>
        <time>2021-09-25T11:37:04Z</time>
      </trkpt>
      <trkpt lat="-25.777609962970018" lon="31.071531996130943">
        <ele>1001.35</ele>
        <time>2021-09-25T11:37:05Z</time>
      </trkpt>
      <trkpt lat="-25.777516001835465" lon="31.071362011134624">
        <ele>997.50999999999999</ele>
        <time>2021-09-25T11:37:06Z</time>
      </trkpt>
      <trkpt lat="-25.777431009337306" lon="31.071177022531629">
        <ele>994.62</ele>
        <time>2021-09-25T11:37:07Z</time>
      </trkpt>
      <trkpt lat="-25.777350040152669" lon="31.070972001180053">
        <ele>992.22000000000003</ele>
        <time>2021-09-25T11:37:08Z</time>
      </trkpt>
      <trkpt lat="-25.777269992977381" lon="31.0707519762218">
        <ele>990.77999999999997</ele>
        <time>2021-09-25T11:37:09Z</time>
      </trkpt>
      <trkpt lat="-25.777186006307602" lon="31.070529017597437">
        <ele>987.40999999999997</ele>
        <time>2021-09-25T11:37:10Z</time>
      </trkpt>
      <trkpt lat="-25.777100007981062" lon="31.070309998467565">
        <ele>982.12</ele>
        <time>2021-09-25T11:37:11Z</time>
      </trkpt>
      <trkpt lat="-25.776846958324313" lon="31.069664005190134">
        <ele>976.84000000000003</ele>
        <time>2021-09-25T11:37:14Z</time>
      </trkpt>
      <trkpt lat="-25.776765989139676" lon="31.069455966353416">
        <ele>972.50999999999999</ele>
        <time>2021-09-25T11:37:15Z</time>
      </trkpt>
      <trkpt lat="-25.776608996093273" lon="31.069096969440579">
        <ele>969.63</ele>
        <time>2021-09-25T11:37:17Z</time>
      </trkpt>
      <trkpt lat="-25.776511011645198" lon="31.068953974172473">
        <ele>966.74000000000001</ele>
        <time>2021-09-25T11:37:18Z</time>
      </trkpt>
      <trkpt lat="-25.776390982791781" lon="31.068830005824566">
        <ele>964.34000000000003</ele>
        <time>2021-09-25T11:37:19Z</time>
      </trkpt>
      <trkpt lat="-25.776246981695294" lon="31.068720035254955">
        <ele>962.89999999999998</ele>
        <time>2021-09-25T11:37:20Z</time>
      </trkpt>
      <trkpt lat="-25.77608697116375" lon="31.068620039150119">
        <ele>962.89999999999998</ele>
        <time>2021-09-25T11:37:21Z</time>
      </trkpt>
      <trkpt lat="-25.775916986167431" lon="31.068523982539773">
        <ele>962.41999999999996</ele>
        <time>2021-09-25T11:37:22Z</time>
      </trkpt>
      <trkpt lat="-25.775569975376129" lon="31.068329019472003">
        <ele>955.69000000000005</ele>
        <time>2021-09-25T11:37:24Z</time>
      </trkpt>
      <trkpt lat="-25.775228999555111" lon="31.068130033090711">
        <ele>949.91999999999996</ele>
        <time>2021-09-25T11:37:26Z</time>
      </trkpt>
      <trkpt lat="-25.77490696683526" lon="31.067944960668683">
        <ele>945.11000000000001</ele>
        <time>2021-09-25T11:37:28Z</time>
      </trkpt>
      <trkpt lat="-25.774590969085693" lon="31.06780699454248">
        <ele>939.83000000000004</ele>
        <time>2021-09-25T11:37:30Z</time>
      </trkpt>
      <trkpt lat="-25.774419978260994" lon="31.067762989550829">
        <ele>939.35000000000002</ele>
        <time>2021-09-25T11:37:31Z</time>
      </trkpt>
      <trkpt lat="-25.774243036285043" lon="31.067735999822617">
        <ele>936.94000000000005</ele>
        <time>2021-09-25T11:37:32Z</time>
      </trkpt>
      <trkpt lat="-25.774059975519776" lon="31.067729964852333">
        <ele>933.10000000000002</ele>
        <time>2021-09-25T11:37:33Z</time>
      </trkpt>
      <trkpt lat="-25.773878004401922" lon="31.06774396263063">
        <ele>930.21000000000004</ele>
        <time>2021-09-25T11:37:34Z</time>
      </trkpt>
      <trkpt lat="-25.773699972778559" lon="31.067784028127789">
        <ele>928.76999999999998</ele>
        <time>2021-09-25T11:37:35Z</time>
      </trkpt>
      <trkpt lat="-25.77352998778224" lon="31.067845970392227">
        <ele>925.88999999999999</ele>
        <time>2021-09-25T11:37:36Z</time>
      </trkpt>
      <trkpt lat="-25.773369977250695" lon="31.067917970940471">
        <ele>923.48000000000002</ele>
        <time>2021-09-25T11:37:37Z</time>
      </trkpt>
      <trkpt lat="-25.77307702973485" lon="31.068049985915422">
        <ele>917.24000000000001</ele>
        <time>2021-09-25T11:37:39Z</time>
      </trkpt>
      <trkpt lat="-25.772937973961234" lon="31.068090973421931">
        <ele>915.30999999999995</ele>
        <time>2021-09-25T11:37:40Z</time>
      </trkpt>
      <trkpt lat="-25.772796990349889" lon="31.06810899451375">
        <ele>913.87</ele>
        <time>2021-09-25T11:37:41Z</time>
      </trkpt>
      <trkpt lat="-25.772655000910163" lon="31.068099020048976">
        <ele>910.50999999999999</ele>
        <time>2021-09-25T11:37:42Z</time>
      </trkpt>
      <trkpt lat="-25.77251804061234" lon="31.068067001178861">
        <ele>905.70000000000005</ele>
        <time>2021-09-25T11:37:43Z</time>
      </trkpt>
      <trkpt lat="-25.772382002323866" lon="31.068005980923772">
        <ele>906.17999999999995</ele>
        <time>2021-09-25T11:37:44Z</time>
      </trkpt>
      <trkpt lat="-25.772246969863772" lon="31.067917970940471">
        <ele>906.17999999999995</ele>
        <time>2021-09-25T11:37:45Z</time>
      </trkpt>
      <trkpt lat="-25.77211101539433" lon="31.067805988714099">
        <ele>902.82000000000005</ele>
        <time>2021-09-25T11:37:46Z</time>
      </trkpt>
      <trkpt lat="-25.771973971277475" lon="31.06767900288105">
        <ele>901.37</ele>
        <time>2021-09-25T11:37:47Z</time>
      </trkpt>
      <trkpt lat="-25.771696027368307" lon="31.067415978759527">
        <ele>897.04999999999995</ele>
        <time>2021-09-25T11:37:49Z</time>
      </trkpt>
      <trkpt lat="-25.77155495993793" lon="31.067283041775227">
        <ele>892.72000000000003</ele>
        <time>2021-09-25T11:37:50Z</time>
      </trkpt>
      <trkpt lat="-25.771409031003714" lon="31.067155972123146">
        <ele>893.67999999999995</ele>
        <time>2021-09-25T11:37:51Z</time>
      </trkpt>
      <trkpt lat="-25.771254971623421" lon="31.067043989896774">
        <ele>890.32000000000005</ele>
        <time>2021-09-25T11:37:52Z</time>
      </trkpt>
      <trkpt lat="-25.771096972748637" lon="31.066952040418983">
        <ele>887.42999999999995</ele>
        <time>2021-09-25T11:37:53Z</time>
      </trkpt>
      <trkpt lat="-25.770784998312593" lon="31.066775014624">
        <ele>882.14999999999998</ele>
        <time>2021-09-25T11:37:55Z</time>
      </trkpt>
      <trkpt lat="-25.77064803801477" lon="31.066672001034021">
        <ele>879.25999999999999</ele>
        <time>2021-09-25T11:37:56Z</time>
      </trkpt>
      <trkpt lat="-25.770527003332973" lon="31.066553983837366">
        <ele>876.86000000000001</ele>
        <time>2021-09-25T11:37:57Z</time>
      </trkpt>
      <trkpt lat="-25.770423989742994" lon="31.066422974690795">
        <ele>873.00999999999999</ele>
        <time>2021-09-25T11:37:58Z</time>
      </trkpt>
      <trkpt lat="-25.770338997244835" lon="31.066276961937547">
        <ele>869.16999999999996</ele>
        <time>2021-09-25T11:37:59Z</time>
      </trkpt>
      <trkpt lat="-25.770274037495255" lon="31.066117035225034">
        <ele>866.28999999999996</ele>
        <time>2021-09-25T11:38:00Z</time>
      </trkpt>
      <trkpt lat="-25.770225003361702" lon="31.065945038571954">
        <ele>864.36000000000001</ele>
        <time>2021-09-25T11:38:01Z</time>
      </trkpt>
      <trkpt lat="-25.770184015855193" lon="31.065764995291829">
        <ele>863.39999999999998</ele>
        <time>2021-09-25T11:38:02Z</time>
      </trkpt>
      <trkpt lat="-25.770093994215131" lon="31.065393006429076">
        <ele>858.11000000000001</ele>
        <time>2021-09-25T11:38:04Z</time>
      </trkpt>
      <trkpt lat="-25.769999027252197" lon="31.065007019788027">
        <ele>852.83000000000004</ele>
        <time>2021-09-25T11:38:06Z</time>
      </trkpt>
      <trkpt lat="-25.769899031147361" lon="31.064614998176694">
        <ele>849.46000000000004</ele>
        <time>2021-09-25T11:38:08Z</time>
      </trkpt>
      <trkpt lat="-25.769848991185427" lon="31.064415005967021">
        <ele>845.62</ele>
        <time>2021-09-25T11:38:09Z</time>
      </trkpt>
      <trkpt lat="-25.76974798925221" lon="31.064008986577392">
        <ele>839.85000000000002</ele>
        <time>2021-09-25T11:38:11Z</time>
      </trkpt>
      <trkpt lat="-25.769646987318993" lon="31.063595004379749">
        <ele>836.48000000000002</ele>
        <time>2021-09-25T11:38:13Z</time>
      </trkpt>
      <trkpt lat="-25.76959703117609" lon="31.063386965543032">
        <ele>833.12</ele>
        <time>2021-09-25T11:38:14Z</time>
      </trkpt>
      <trkpt lat="-25.769499968737364" lon="31.062977006658912">
        <ele>829.26999999999998</ele>
        <time>2021-09-25T11:38:16Z</time>
      </trkpt>
      <trkpt lat="-25.769401984289289" lon="31.062575010582805">
        <ele>823.99000000000001</ele>
        <time>2021-09-25T11:38:18Z</time>
      </trkpt>
      <trkpt lat="-25.769305005669594" lon="31.062178965657949">
        <ele>819.17999999999995</ele>
        <time>2021-09-25T11:38:20Z</time>
      </trkpt>
      <trkpt lat="-25.769256977364421" lon="31.061980985105038">
        <ele>815.82000000000005</ele>
        <time>2021-09-25T11:38:21Z</time>
      </trkpt>
      <trkpt lat="-25.769159998744726" lon="31.061588963493705">
        <ele>810.52999999999997</ele>
        <time>2021-09-25T11:38:23Z</time>
      </trkpt>
      <trkpt lat="-25.769113982096314" lon="31.061396012082696">
        <ele>807.15999999999997</ele>
        <time>2021-09-25T11:38:24Z</time>
      </trkpt>
      <trkpt lat="-25.76904097571969" lon="31.061007007956505">
        <ele>805.24000000000001</ele>
        <time>2021-09-25T11:38:26Z</time>
      </trkpt>
      <trkpt lat="-25.769026977941394" lon="31.060811961069703">
        <ele>801.39999999999998</ele>
        <time>2021-09-25T11:38:27Z</time>
      </trkpt>
      <trkpt lat="-25.769028989598155" lon="31.060615992173553">
        <ele>798.02999999999997</ele>
        <time>2021-09-25T11:38:28Z</time>
      </trkpt>
      <trkpt lat="-25.769048016518354" lon="31.060420023277402">
        <ele>797.54999999999995</ele>
        <time>2021-09-25T11:38:29Z</time>
      </trkpt>
      <trkpt lat="-25.76908397488296" lon="31.060236040502787">
        <ele>795.63</ele>
        <time>2021-09-25T11:38:30Z</time>
      </trkpt>
      <trkpt lat="-25.769133009016514" lon="31.060078963637352">
        <ele>792.74000000000001</ele>
        <time>2021-09-25T11:38:31Z</time>
      </trkpt>
      <trkpt lat="-25.769186988472939" lon="31.059960024431348">
        <ele>789.38</ele>
        <time>2021-09-25T11:38:32Z</time>
      </trkpt>
      <trkpt lat="-25.76925303786993" lon="31.05988098308444">
        <ele>788.41999999999996</ele>
        <time>2021-09-25T11:38:33Z</time>
      </trkpt>
      <trkpt lat="-25.769331995397806" lon="31.059841001406312">
        <ele>786.5</ele>
        <time>2021-09-25T11:38:34Z</time>
      </trkpt>
      <trkpt lat="-25.769423022866249" lon="31.059823986142874">
        <ele>785.04999999999995</ele>
        <time>2021-09-25T11:38:35Z</time>
      </trkpt>
      <trkpt lat="-25.769514972344041" lon="31.059827003628016">
        <ele>784.57000000000005</ele>
        <time>2021-09-25T11:38:36Z</time>
      </trkpt>
      <trkpt lat="-25.769611028954387" lon="31.059860028326511">
        <ele>784.09000000000003</ele>
        <time>2021-09-25T11:38:37Z</time>
      </trkpt>
      <trkpt lat="-25.769715970382094" lon="31.059925993904471">
        <ele>784.57000000000005</ele>
        <time>2021-09-25T11:38:38Z</time>
      </trkpt>
      <trkpt lat="-25.769828958436847" lon="31.060001011937857">
        <ele>783.13</ele>
        <time>2021-09-25T11:38:39Z</time>
      </trkpt>
      <trkpt lat="-25.770085025578737" lon="31.060163034126163">
        <ele>778.32000000000005</ele>
        <time>2021-09-25T11:38:41Z</time>
      </trkpt>
      <trkpt lat="-25.770747028291225" lon="31.060538962483406">
        <ele>774.48000000000002</ele>
        <time>2021-09-25T11:38:46Z</time>
      </trkpt>
      <trkpt lat="-25.770876025781035" lon="31.060563018545508">
        <ele>774</ele>
        <time>2021-09-25T11:38:47Z</time>
      </trkpt>
      <trkpt lat="-25.771000999957323" lon="31.060558995231986">
        <ele>772.55999999999995</ele>
        <time>2021-09-25T11:38:48Z</time>
      </trkpt>
      <trkpt lat="-25.771115999668837" lon="31.06052496470511">
        <ele>771.11000000000001</ele>
        <time>2021-09-25T11:38:49Z</time>
      </trkpt>
      <trkpt lat="-25.771218007430434" lon="31.060468973591924">
        <ele>769.19000000000005</ele>
        <time>2021-09-25T11:38:50Z</time>
      </trkpt>
      <trkpt lat="-25.771310040727258" lon="31.06039303354919">
        <ele>768.71000000000004</ele>
        <time>2021-09-25T11:38:51Z</time>
      </trkpt>
      <trkpt lat="-25.771394027397037" lon="31.060298988595605">
        <ele>768.71000000000004</ele>
        <time>2021-09-25T11:38:52Z</time>
      </trkpt>
      <trkpt lat="-25.771463010460138" lon="31.060183988884091">
        <ele>767.26999999999998</ele>
        <time>2021-09-25T11:38:53Z</time>
      </trkpt>
      <trkpt lat="-25.771508021280169" lon="31.060055997222662">
        <ele>765.83000000000004</ele>
        <time>2021-09-25T11:38:54Z</time>
      </trkpt>
      <trkpt lat="-25.771526964381337" lon="31.059919958934188">
        <ele>765.35000000000002</ele>
        <time>2021-09-25T11:38:55Z</time>
      </trkpt>
      <trkpt lat="-25.771520007401705" lon="31.059782998636365">
        <ele>764.87</ele>
        <time>2021-09-25T11:38:56Z</time>
      </trkpt>
      <trkpt lat="-25.771483965218067" lon="31.059644026681781">
        <ele>764.38999999999999</ele>
        <time>2021-09-25T11:38:57Z</time>
      </trkpt>
      <trkpt lat="-25.771419005468488" lon="31.059517962858081">
        <ele>764.87</ele>
        <time>2021-09-25T11:38:58Z</time>
      </trkpt>
      <trkpt lat="-25.771329989656806" lon="31.059404974803329">
        <ele>766.30999999999995</ele>
        <time>2021-09-25T11:38:59Z</time>
      </trkpt>
      <trkpt lat="-25.771221024915576" lon="31.059300033375621">
        <ele>763.41999999999996</ele>
        <time>2021-09-25T11:39:00Z</time>
      </trkpt>
      <trkpt lat="-25.771093033254147" lon="31.05919199064374">
        <ele>763.89999999999998</ele>
        <time>2021-09-25T11:39:01Z</time>
      </trkpt>
      <trkpt lat="-25.770643008872867" lon="31.058810027316213">
        <ele>761.5</ele>
        <time>2021-09-25T11:39:04Z</time>
      </trkpt>
      <trkpt lat="-25.770116960629821" lon="31.058350028470159">
        <ele>757.17999999999995</ele>
        <time>2021-09-25T11:39:07Z</time>
      </trkpt>
      <trkpt lat="-25.769568029791117" lon="31.057864967733622">
        <ele>753.80999999999995</ele>
        <time>2021-09-25T11:39:10Z</time>
      </trkpt>
      <trkpt lat="-25.769386980682611" lon="31.057705041021109">
        <ele>754.28999999999996</ele>
        <time>2021-09-25T11:39:11Z</time>
      </trkpt>
      <trkpt lat="-25.769208027049899" lon="31.057549975812435">
        <ele>750.45000000000005</ele>
        <time>2021-09-25T11:39:12Z</time>
      </trkpt>
      <trkpt lat="-25.769033012911677" lon="31.057399017736316">
        <ele>750.92999999999995</ele>
        <time>2021-09-25T11:39:13Z</time>
      </trkpt>
      <trkpt lat="-25.768688013777137" lon="31.05710900388658">
        <ele>746.60000000000002</ele>
        <time>2021-09-25T11:39:15Z</time>
      </trkpt>
      <trkpt lat="-25.767912017181516" lon="31.056466028094292">
        <ele>742.75999999999999</ele>
        <time>2021-09-25T11:39:20Z</time>
      </trkpt>
      <trkpt lat="-25.767756029963493" lon="31.056367959827185">
        <ele>741.30999999999995</ele>
        <time>2021-09-25T11:39:21Z</time>
      </trkpt>
      <trkpt lat="-25.767594007775187" lon="31.056289002299309">
        <ele>741.30999999999995</ele>
        <time>2021-09-25T11:39:22Z</time>
      </trkpt>
      <trkpt lat="-25.767425028607249" lon="31.05622798204422">
        <ele>740.83000000000004</ele>
        <time>2021-09-25T11:39:23Z</time>
      </trkpt>
      <trkpt lat="-25.767251020297408" lon="31.05618498288095">
        <ele>740.35000000000002</ele>
        <time>2021-09-25T11:39:24Z</time>
      </trkpt>
      <trkpt lat="-25.767070977017283" lon="31.056157993152738">
        <ele>739.87</ele>
        <time>2021-09-25T11:39:25Z</time>
      </trkpt>
      <trkpt lat="-25.766885988414288" lon="31.056140977889299">
        <ele>738.42999999999995</ele>
        <time>2021-09-25T11:39:26Z</time>
      </trkpt>
      <trkpt lat="-25.76669798232615" lon="31.056127985939384">
        <ele>738.42999999999995</ele>
        <time>2021-09-25T11:39:27Z</time>
      </trkpt>
      <trkpt lat="-25.766113009303808" lon="31.056075012311339">
        <ele>735.07000000000005</ele>
        <time>2021-09-25T11:39:30Z</time>
      </trkpt>
      <trkpt lat="-25.765913017094135" lon="31.056037964299321">
        <ele>734.58000000000004</ele>
        <time>2021-09-25T11:39:31Z</time>
      </trkpt>
      <trkpt lat="-25.764748016372323" lon="31.055589029565454">
        <ele>732.17999999999995</ele>
        <time>2021-09-25T11:39:37Z</time>
      </trkpt>
      <trkpt lat="-25.763923991471529" lon="31.054920991882682">
        <ele>729.77999999999997</ele>
        <time>2021-09-25T11:39:42Z</time>
      </trkpt>
      <trkpt lat="-25.76351503841579" lon="31.054445989429951">
        <ele>728.34000000000003</ele>
        <time>2021-09-25T11:39:45Z</time>
      </trkpt>
      <trkpt lat="-25.763181019574404" lon="31.053894041106105">
        <ele>725.45000000000005</ele>
        <time>2021-09-25T11:39:48Z</time>
      </trkpt>
      <trkpt lat="-25.762777011841536" lon="31.052846973761916">
        <ele>724.00999999999999</ele>
        <time>2021-09-25T11:39:53Z</time>
      </trkpt>
      <trkpt lat="-25.76265899464488" lon="31.052198968827724">
        <ele>721.13</ele>
        <time>2021-09-25T11:39:56Z</time>
      </trkpt>
      <trkpt lat="-25.76257199048996" lon="31.0514369700104">
        <ele>717.27999999999997</ele>
        <time>2021-09-25T11:40:00Z</time>
      </trkpt>
      <trkpt lat="-25.762533014640212" lon="31.05109398253262">
        <ele>716.79999999999995</ele>
        <time>2021-09-25T11:40:02Z</time>
      </trkpt>
      <trkpt lat="-25.762371327728033" lon="31.049871062859893">
        <ele>712.95000000000005</ele>
        <time>2021-09-25T11:40:06Z</time>
      </trkpt>
    </trkseg>
  </trk>

</gpx>