<?xml version="1.0" encoding="utf-8"?><gpx creator="Garmin Desktop App" version="1.1" xsi:schemaLocation="http://www.topografix.com/GPX/1/1 http://www.topografix.com/GPX/1/1/gpx.xsd http://www.garmin.com/xmlschemas/WaypointExtension/v1 http://www8.garmin.com/xmlschemas/WaypointExtensionv1.xsd http://www.garmin.com/xmlschemas/TrackPointExtension/v1 http://www.garmin.com/xmlschemas/TrackPointExtensionv1.xsd http://www.garmin.com/xmlschemas/GpxExtensions/v3 http://www8.garmin.com/xmlschemas/GpxExtensionsv3.xsd http://www.garmin.com/xmlschemas/ActivityExtension/v1 http://www8.garmin.com/xmlschemas/ActivityExtensionv1.xsd http://www.garmin.com/xmlschemas/AdventuresExtensions/v1 http://www8.garmin.com/xmlschemas/AdventuresExtensionv1.xsd http://www.garmin.com/xmlschemas/PressureExtension/v1 http://www.garmin.com/xmlschemas/PressureExtensionv1.xsd http://www.garmin.com/xmlschemas/TripExtensions/v1 http://www.garmin.com/xmlschemas/TripExtensionsv1.xsd http://www.garmin.com/xmlschemas/TripMetaDataExtensions/v1 http://www.garmin.com/xmlschemas/TripMetaDataExtensionsv1.xsd http://www.garmin.com/xmlschemas/ViaPointTransportationModeExtensions/v1 http://www.garmin.com/xmlschemas/ViaPointTransportationModeExtensionsv1.xsd http://www.garmin.com/xmlschemas/CreationTimeExtension/v1 http://www.garmin.com/xmlschemas/CreationTimeExtensionsv1.xsd http://www.garmin.com/xmlschemas/AccelerationExtension/v1 http://www.garmin.com/xmlschemas/AccelerationExtensionv1.xsd http://www.garmin.com/xmlschemas/PowerExtension/v1 http://www.garmin.com/xmlschemas/PowerExtensionv1.xsd http://www.garmin.com/xmlschemas/VideoExtension/v1 http://www.garmin.com/xmlschemas/VideoExtensionv1.xsd" xmlns="http://www.topografix.com/GPX/1/1" xmlns:xsi="http://www.w3.org/2001/XMLSchema-instance" xmlns:wptx1="http://www.garmin.com/xmlschemas/WaypointExtension/v1" xmlns:gpxtrx="http://www.garmin.com/xmlschemas/GpxExtensions/v3" xmlns:gpxtpx="http://www.garmin.com/xmlschemas/TrackPointExtension/v1" xmlns:gpxx="http://www.garmin.com/xmlschemas/GpxExtensions/v3" xmlns:trp="http://www.garmin.com/xmlschemas/TripExtensions/v1" xmlns:adv="http://www.garmin.com/xmlschemas/AdventuresExtensions/v1" xmlns:prs="http://www.garmin.com/xmlschemas/PressureExtension/v1" xmlns:tmd="http://www.garmin.com/xmlschemas/TripMetaDataExtensions/v1" xmlns:vptm="http://www.garmin.com/xmlschemas/ViaPointTransportationModeExtensions/v1" xmlns:ctx="http://www.garmin.com/xmlschemas/CreationTimeExtension/v1" xmlns:gpxacc="http://www.garmin.com/xmlschemas/AccelerationExtension/v1" xmlns:gpxpx="http://www.garmin.com/xmlschemas/PowerExtension/v1" xmlns:vidx1="http://www.garmin.com/xmlschemas/VideoExtension/v1">

  <metadata>
    <link href="http://www.garmin.com">
      <text>Garmin International</text>
    </link>
    <time>2022-07-02T19:21:14Z</time>
    <bounds maxlat="-30.017774468287826" maxlon="29.362695962190628" minlat="-30.071228295564651" minlon="29.348214464262128" />
  </metadata>

  <trk>
    <name>[210] Kingscote Cutting</name>
    <extensions>
      <gpxx:TrackExtension>
        <gpxx:DisplayColor>Green</gpxx:DisplayColor>
      </gpxx:TrackExtension>
    </extensions>
    <trkseg>
      <trkpt lat="-30.071228295564651" lon="29.353878786787391">
        <ele>1839.6199999999999</ele>
        <time>2022-01-17T09:57:05Z</time>
      </trkpt>
      <trkpt lat="-30.068320780992508" lon="29.353959085419774">
        <ele>1836.26</ele>
        <time>2022-01-17T09:57:16Z</time>
      </trkpt>
      <trkpt lat="-30.066476678475738" lon="29.35342725366354">
        <ele>1835.29</ele>
        <time>2022-01-17T09:57:23Z</time>
      </trkpt>
      <trkpt lat="-30.063391970470548" lon="29.352501640096307">
        <ele>1843.95</ele>
        <time>2022-01-17T09:57:35Z</time>
      </trkpt>
      <trkpt lat="-30.060605825856328" lon="29.352204836905003">
        <ele>1840.5799999999999</ele>
        <time>2022-01-17T09:57:45Z</time>
      </trkpt>
      <trkpt lat="-30.058978060260415" lon="29.351651547476649">
        <ele>1837.7</ele>
        <time>2022-01-17T09:57:51Z</time>
      </trkpt>
      <trkpt lat="-30.057044522836804" lon="29.350343300029635">
        <ele>1839.6199999999999</ele>
        <time>2022-01-17T09:57:59Z</time>
      </trkpt>
      <trkpt lat="-30.054552247747779" lon="29.348870515823364">
        <ele>1845.3900000000001</ele>
        <time>2022-01-17T09:58:09Z</time>
      </trkpt>
      <trkpt lat="-30.052610328420997" lon="29.34849307872355">
        <ele>1849.71</ele>
        <time>2022-01-17T09:58:16Z</time>
      </trkpt>
      <trkpt lat="-30.047428468242288" lon="29.34832938015461">
        <ele>1857.8900000000001</ele>
        <time>2022-01-17T09:58:34Z</time>
      </trkpt>
      <trkpt lat="-30.041996743530035" lon="29.348214464262128">
        <ele>1867.02</ele>
        <time>2022-01-17T09:58:53Z</time>
      </trkpt>
      <trkpt lat="-30.039858855307102" lon="29.348753001540899">
        <ele>1870.3800000000001</ele>
        <time>2022-01-17T09:59:01Z</time>
      </trkpt>
      <trkpt lat="-30.037149824202061" lon="29.349524639546871">
        <ele>1870.3800000000001</ele>
        <time>2022-01-17T09:59:12Z</time>
      </trkpt>
      <trkpt lat="-30.034578507766128" lon="29.349642992019653">
        <ele>1855.48</ele>
        <time>2022-01-17T09:59:23Z</time>
      </trkpt>
      <trkpt lat="-30.034169722348452" lon="29.349710717797279">
        <ele>1852.1199999999999</ele>
        <time>2022-01-17T09:59:25Z</time>
      </trkpt>
      <trkpt lat="-30.033982470631599" lon="29.349769223481417">
        <ele>1850.1900000000001</ele>
        <time>2022-01-17T09:59:26Z</time>
      </trkpt>
      <trkpt lat="-30.033805780112743" lon="29.349848600104451">
        <ele>1848.75</ele>
        <time>2022-01-17T09:59:27Z</time>
      </trkpt>
      <trkpt lat="-30.033642081543803" lon="29.349949602037668">
        <ele>1846.8299999999999</ele>
        <time>2022-01-17T09:59:28Z</time>
      </trkpt>
      <trkpt lat="-30.033493638038635" lon="29.350071139633656">
        <ele>1845.3900000000001</ele>
        <time>2022-01-17T09:59:29Z</time>
      </trkpt>
      <trkpt lat="-30.0333555880934" lon="29.350213296711445">
        <ele>1843.47</ele>
        <time>2022-01-17T09:59:30Z</time>
      </trkpt>
      <trkpt lat="-30.033227009698749" lon="29.350376073271036">
        <ele>1841.54</ele>
        <time>2022-01-17T09:59:31Z</time>
      </trkpt>
      <trkpt lat="-30.033110585063696" lon="29.350552931427956">
        <ele>1840.0999999999999</ele>
        <time>2022-01-17T09:59:32Z</time>
      </trkpt>
      <trkpt lat="-30.033010421320796" lon="29.350740686058998">
        <ele>1838.1800000000001</ele>
        <time>2022-01-17T09:59:33Z</time>
      </trkpt>
      <trkpt lat="-30.032929284498096" lon="29.350937660783529">
        <ele>1836.26</ele>
        <time>2022-01-17T09:59:34Z</time>
      </trkpt>
      <trkpt lat="-30.032867342233658" lon="29.351143771782517">
        <ele>1834.3299999999999</ele>
        <time>2022-01-17T09:59:35Z</time>
      </trkpt>
      <trkpt lat="-30.032823169603944" lon="29.351355750113726">
        <ele>1832.8900000000001</ele>
        <time>2022-01-17T09:59:36Z</time>
      </trkpt>
      <trkpt lat="-30.032794335857034" lon="29.351574433967471">
        <ele>1830.97</ele>
        <time>2022-01-17T09:59:37Z</time>
      </trkpt>
      <trkpt lat="-30.032780254259706" lon="29.351800745353103">
        <ele>1829.05</ele>
        <time>2022-01-17T09:59:38Z</time>
      </trkpt>
      <trkpt lat="-30.032778745517135" lon="29.35203661210835">
        <ele>1827.5999999999999</ele>
        <time>2022-01-17T09:59:39Z</time>
      </trkpt>
      <trkpt lat="-30.032783774659038" lon="29.352279854938388">
        <ele>1825.6800000000001</ele>
        <time>2022-01-17T09:59:40Z</time>
      </trkpt>
      <trkpt lat="-30.032675731927156" lon="29.354629386216402">
        <ele>1807.9000000000001</ele>
        <time>2022-01-17T09:59:49Z</time>
      </trkpt>
      <trkpt lat="-30.032575819641352" lon="29.356349436566234">
        <ele>1793.48</ele>
        <time>2022-01-17T09:59:56Z</time>
      </trkpt>
      <trkpt lat="-30.032622925937176" lon="29.356572898104787">
        <ele>1791.0699999999999</ele>
        <time>2022-01-17T09:59:57Z</time>
      </trkpt>
      <trkpt lat="-30.032978737726808" lon="29.357849461957812">
        <ele>1778.0999999999999</ele>
        <time>2022-01-17T10:00:03Z</time>
      </trkpt>
      <trkpt lat="-30.033009247854352" lon="29.358068145811558">
        <ele>1775.6900000000001</ele>
        <time>2022-01-17T10:00:04Z</time>
      </trkpt>
      <trkpt lat="-30.03302039578557" lon="29.358291691169143">
        <ele>1773.77</ele>
        <time>2022-01-17T10:00:05Z</time>
      </trkpt>
      <trkpt lat="-30.033010169863701" lon="29.358518421649933">
        <ele>1771.3699999999999</ele>
        <time>2022-01-17T10:00:06Z</time>
      </trkpt>
      <trkpt lat="-30.032977983355522" lon="29.35874599032104">
        <ele>1769.4400000000001</ele>
        <time>2022-01-17T10:00:07Z</time>
      </trkpt>
      <trkpt lat="-30.032923584803939" lon="29.358970373868942">
        <ele>1767.04</ele>
        <time>2022-01-17T10:00:08Z</time>
      </trkpt>
      <trkpt lat="-30.032847309485078" lon="29.359187129884958">
        <ele>1765.1199999999999</ele>
        <time>2022-01-17T10:00:09Z</time>
      </trkpt>
      <trkpt lat="-30.03274823538959" lon="29.359394917264581">
        <ele>1762.71</ele>
        <time>2022-01-17T10:00:10Z</time>
      </trkpt>
      <trkpt lat="-30.03262753598392" lon="29.359590215608478">
        <ele>1760.79</ele>
        <time>2022-01-17T10:00:11Z</time>
      </trkpt>
      <trkpt lat="-30.032486133277416" lon="29.359770845621824">
        <ele>1758.3900000000001</ele>
        <time>2022-01-17T10:00:12Z</time>
      </trkpt>
      <trkpt lat="-30.032327547669411" lon="29.359938818961382">
        <ele>1755.99</ele>
        <time>2022-01-17T10:00:13Z</time>
      </trkpt>
      <trkpt lat="-30.032156221568584" lon="29.360101008787751">
        <ele>1753.5799999999999</ele>
        <time>2022-01-17T10:00:14Z</time>
      </trkpt>
      <trkpt lat="-30.030229892581701" lon="29.361826172098517">
        <ele>1728.5899999999999</ele>
        <time>2022-01-17T10:00:24Z</time>
      </trkpt>
      <trkpt lat="-30.028666835278273" lon="29.362570149824023">
        <ele>1709.3599999999999</ele>
        <time>2022-01-17T10:00:31Z</time>
      </trkpt>
      <trkpt lat="-30.027194218710065" lon="29.362695962190628">
        <ele>1692.54</ele>
        <time>2022-01-17T10:00:37Z</time>
      </trkpt>
      <trkpt lat="-30.025485064834356" lon="29.362269407138228">
        <ele>1672.8299999999999</ele>
        <time>2022-01-17T10:00:44Z</time>
      </trkpt>
      <trkpt lat="-30.023099659010768" lon="29.36146566644311">
        <ele>1649.76</ele>
        <time>2022-01-17T10:00:55Z</time>
      </trkpt>
      <trkpt lat="-30.021210294216871" lon="29.360284572467208">
        <ele>1643.51</ele>
        <time>2022-01-17T10:01:04Z</time>
      </trkpt>
      <trkpt lat="-30.019513797014952" lon="29.359233062714338">
        <ele>1640.1500000000001</ele>
        <time>2022-01-17T10:01:13Z</time>
      </trkpt>
      <trkpt lat="-30.018137656152248" lon="29.358807848766446">
        <ele>1640.1500000000001</ele>
        <time>2022-01-17T10:01:21Z</time>
      </trkpt>
      <trkpt lat="-30.017798272892833" lon="29.358757054433227">
        <ele>1640.1500000000001</ele>
        <time>2022-01-17T10:01:26Z</time>
      </trkpt>
      <trkpt lat="-30.017774468287826" lon="29.358770968392491">
        <ele>1640.1500000000001</ele>
        <time>2022-01-17T10:01:27Z</time>
      </trkpt>
      <trkpt lat="-30.017776228487492" lon="29.358821427449584">
        <ele>1639.6700000000001</ele>
        <time>2022-01-17T10:01:29Z</time>
      </trkpt>
      <trkpt lat="-30.017798524349928" lon="29.358835341408849">
        <ele>1639.6700000000001</ele>
        <time>2022-01-17T10:01:30Z</time>
      </trkpt>
      <trkpt lat="-30.017827525734901" lon="29.358839951455593">
        <ele>1639.1900000000001</ele>
        <time>2022-01-17T10:01:31Z</time>
      </trkpt>
    </trkseg>
  </trk>

</gpx>