<?xml version="1.0" encoding="utf-8"?><gpx creator="Garmin Desktop App" version="1.1" xsi:schemaLocation="http://www.topografix.com/GPX/1/1 http://www.topografix.com/GPX/1/1/gpx.xsd http://www.garmin.com/xmlschemas/WaypointExtension/v1 http://www8.garmin.com/xmlschemas/WaypointExtensionv1.xsd http://www.garmin.com/xmlschemas/TrackPointExtension/v1 http://www.garmin.com/xmlschemas/TrackPointExtensionv1.xsd http://www.garmin.com/xmlschemas/GpxExtensions/v3 http://www8.garmin.com/xmlschemas/GpxExtensionsv3.xsd http://www.garmin.com/xmlschemas/ActivityExtension/v1 http://www8.garmin.com/xmlschemas/ActivityExtensionv1.xsd http://www.garmin.com/xmlschemas/AdventuresExtensions/v1 http://www8.garmin.com/xmlschemas/AdventuresExtensionv1.xsd http://www.garmin.com/xmlschemas/PressureExtension/v1 http://www.garmin.com/xmlschemas/PressureExtensionv1.xsd http://www.garmin.com/xmlschemas/TripExtensions/v1 http://www.garmin.com/xmlschemas/TripExtensionsv1.xsd http://www.garmin.com/xmlschemas/TripMetaDataExtensions/v1 http://www.garmin.com/xmlschemas/TripMetaDataExtensionsv1.xsd http://www.garmin.com/xmlschemas/ViaPointTransportationModeExtensions/v1 http://www.garmin.com/xmlschemas/ViaPointTransportationModeExtensionsv1.xsd http://www.garmin.com/xmlschemas/CreationTimeExtension/v1 http://www.garmin.com/xmlschemas/CreationTimeExtensionsv1.xsd http://www.garmin.com/xmlschemas/AccelerationExtension/v1 http://www.garmin.com/xmlschemas/AccelerationExtensionv1.xsd http://www.garmin.com/xmlschemas/PowerExtension/v1 http://www.garmin.com/xmlschemas/PowerExtensionv1.xsd http://www.garmin.com/xmlschemas/VideoExtension/v1 http://www.garmin.com/xmlschemas/VideoExtensionv1.xsd" xmlns="http://www.topografix.com/GPX/1/1" xmlns:xsi="http://www.w3.org/2001/XMLSchema-instance" xmlns:wptx1="http://www.garmin.com/xmlschemas/WaypointExtension/v1" xmlns:gpxtrx="http://www.garmin.com/xmlschemas/GpxExtensions/v3" xmlns:gpxtpx="http://www.garmin.com/xmlschemas/TrackPointExtension/v1" xmlns:gpxx="http://www.garmin.com/xmlschemas/GpxExtensions/v3" xmlns:trp="http://www.garmin.com/xmlschemas/TripExtensions/v1" xmlns:adv="http://www.garmin.com/xmlschemas/AdventuresExtensions/v1" xmlns:prs="http://www.garmin.com/xmlschemas/PressureExtension/v1" xmlns:tmd="http://www.garmin.com/xmlschemas/TripMetaDataExtensions/v1" xmlns:vptm="http://www.garmin.com/xmlschemas/ViaPointTransportationModeExtensions/v1" xmlns:ctx="http://www.garmin.com/xmlschemas/CreationTimeExtension/v1" xmlns:gpxacc="http://www.garmin.com/xmlschemas/AccelerationExtension/v1" xmlns:gpxpx="http://www.garmin.com/xmlschemas/PowerExtension/v1" xmlns:vidx1="http://www.garmin.com/xmlschemas/VideoExtension/v1">

  <metadata>
    <link href="http://www.garmin.com">
      <text>Garmin International</text>
    </link>
    <time>2022-07-02T19:23:38Z</time>
    <bounds maxlat="-30.294019365683198" maxlon="27.01200345531106" minlat="-30.351567920297384" minlon="26.934066759422421" />
  </metadata>

  <trk>
    <name>[227] Tienfontein se Hoogte Pass</name>
    <extensions>
      <gpxx:TrackExtension>
        <gpxx:DisplayColor>Green</gpxx:DisplayColor>
      </gpxx:TrackExtension>
    </extensions>
    <trkseg>
      <trkpt lat="-30.351567920297384" lon="26.934066759422421">
        <ele>1546.9000000000001</ele>
        <time>2022-01-21T10:12:43Z</time>
      </trkpt>
      <trkpt lat="-30.350789073854685" lon="26.938010025769472">
        <ele>1552.1900000000001</ele>
        <time>2022-01-21T10:12:55Z</time>
      </trkpt>
      <trkpt lat="-30.349518042057753" lon="26.941092303022742">
        <ele>1560.8399999999999</ele>
        <time>2022-01-21T10:13:05Z</time>
      </trkpt>
      <trkpt lat="-30.346995424479246" lon="26.947159208357334">
        <ele>1575.74</ele>
        <time>2022-01-21T10:13:25Z</time>
      </trkpt>
      <trkpt lat="-30.345386182889342" lon="26.952104279771447">
        <ele>1578.6199999999999</ele>
        <time>2022-01-21T10:13:41Z</time>
      </trkpt>
      <trkpt lat="-30.343283079564571" lon="26.958531439304352">
        <ele>1586.3099999999999</ele>
        <time>2022-01-21T10:14:02Z</time>
      </trkpt>
      <trkpt lat="-30.341266393661499" lon="26.964737148955464">
        <ele>1597.8499999999999</ele>
        <time>2022-01-21T10:14:22Z</time>
      </trkpt>
      <trkpt lat="-30.33897670917213" lon="26.971777612343431">
        <ele>1618.52</ele>
        <time>2022-01-21T10:14:45Z</time>
      </trkpt>
      <trkpt lat="-30.337185580283403" lon="26.97680901736021">
        <ele>1647.8399999999999</ele>
        <time>2022-01-21T10:15:02Z</time>
      </trkpt>
      <trkpt lat="-30.335869202390313" lon="26.978879766538739">
        <ele>1650.72</ele>
        <time>2022-01-21T10:15:10Z</time>
      </trkpt>
      <trkpt lat="-30.334174633026123" lon="26.980638289824128">
        <ele>1650.24</ele>
        <time>2022-01-21T10:15:18Z</time>
      </trkpt>
      <trkpt lat="-30.331683028489351" lon="26.982353646308184">
        <ele>1643.51</ele>
        <time>2022-01-21T10:15:28Z</time>
      </trkpt>
      <trkpt lat="-30.326595213264227" lon="26.985728954896331">
        <ele>1633.4200000000001</ele>
        <time>2022-01-21T10:15:48Z</time>
      </trkpt>
      <trkpt lat="-30.324723534286022" lon="26.986591201275587">
        <ele>1634.8599999999999</ele>
        <time>2022-01-21T10:15:55Z</time>
      </trkpt>
      <trkpt lat="-30.322732832282782" lon="26.986948605626822">
        <ele>1639.1900000000001</ele>
        <time>2022-01-21T10:16:02Z</time>
      </trkpt>
      <trkpt lat="-30.319836298003793" lon="26.986839976161718">
        <ele>1652.6400000000001</ele>
        <time>2022-01-21T10:16:12Z</time>
      </trkpt>
      <trkpt lat="-30.314384624361992" lon="26.986569492146373">
        <ele>1684.3699999999999</ele>
        <time>2022-01-21T10:16:31Z</time>
      </trkpt>
      <trkpt lat="-30.312153361737728" lon="26.986929243430495">
        <ele>1693.5</ele>
        <time>2022-01-21T10:16:39Z</time>
      </trkpt>
      <trkpt lat="-30.310235917568207" lon="26.987796435132623">
        <ele>1691.5799999999999</ele>
        <time>2022-01-21T10:16:46Z</time>
      </trkpt>
      <trkpt lat="-30.308044971898198" lon="26.989417159929872">
        <ele>1697.3399999999999</ele>
        <time>2022-01-21T10:16:55Z</time>
      </trkpt>
      <trkpt lat="-30.303455041721463" lon="26.992876874282956">
        <ele>1691.5799999999999</ele>
        <time>2022-01-21T10:17:14Z</time>
      </trkpt>
      <trkpt lat="-30.300982464104891" lon="26.994974026456475">
        <ele>1691.0999999999999</ele>
        <time>2022-01-21T10:17:25Z</time>
      </trkpt>
      <trkpt lat="-30.299496855586767" lon="26.996930027380586">
        <ele>1690.1400000000001</ele>
        <time>2022-01-21T10:17:33Z</time>
      </trkpt>
      <trkpt lat="-30.298388265073299" lon="26.999213173985481">
        <ele>1685.8099999999999</ele>
        <time>2022-01-21T10:17:41Z</time>
      </trkpt>
      <trkpt lat="-30.297627691179514" lon="27.002020189538598">
        <ele>1678.1199999999999</ele>
        <time>2022-01-21T10:17:50Z</time>
      </trkpt>
      <trkpt lat="-30.296321120113134" lon="27.007865393534303">
        <ele>1665.1400000000001</ele>
        <time>2022-01-21T10:18:08Z</time>
      </trkpt>
      <trkpt lat="-30.295336833223701" lon="27.010191455483437">
        <ele>1666.0999999999999</ele>
        <time>2022-01-21T10:18:16Z</time>
      </trkpt>
      <trkpt lat="-30.294019365683198" lon="27.01200345531106">
        <ele>1658.4100000000001</ele>
        <time>2022-01-21T10:18:23Z</time>
      </trkpt>
    </trkseg>
  </trk>

</gpx>