<?xml version="1.0" encoding="utf-8"?><gpx creator="Garmin Desktop App" version="1.1" xsi:schemaLocation="http://www.topografix.com/GPX/1/1 http://www.topografix.com/GPX/1/1/gpx.xsd http://www.garmin.com/xmlschemas/WaypointExtension/v1 http://www8.garmin.com/xmlschemas/WaypointExtensionv1.xsd http://www.garmin.com/xmlschemas/TrackPointExtension/v1 http://www.garmin.com/xmlschemas/TrackPointExtensionv1.xsd http://www.garmin.com/xmlschemas/GpxExtensions/v3 http://www8.garmin.com/xmlschemas/GpxExtensionsv3.xsd http://www.garmin.com/xmlschemas/ActivityExtension/v1 http://www8.garmin.com/xmlschemas/ActivityExtensionv1.xsd http://www.garmin.com/xmlschemas/AdventuresExtensions/v1 http://www8.garmin.com/xmlschemas/AdventuresExtensionv1.xsd http://www.garmin.com/xmlschemas/PressureExtension/v1 http://www.garmin.com/xmlschemas/PressureExtensionv1.xsd http://www.garmin.com/xmlschemas/TripExtensions/v1 http://www.garmin.com/xmlschemas/TripExtensionsv1.xsd http://www.garmin.com/xmlschemas/TripMetaDataExtensions/v1 http://www.garmin.com/xmlschemas/TripMetaDataExtensionsv1.xsd http://www.garmin.com/xmlschemas/ViaPointTransportationModeExtensions/v1 http://www.garmin.com/xmlschemas/ViaPointTransportationModeExtensionsv1.xsd http://www.garmin.com/xmlschemas/CreationTimeExtension/v1 http://www.garmin.com/xmlschemas/CreationTimeExtensionsv1.xsd http://www.garmin.com/xmlschemas/AccelerationExtension/v1 http://www.garmin.com/xmlschemas/AccelerationExtensionv1.xsd http://www.garmin.com/xmlschemas/PowerExtension/v1 http://www.garmin.com/xmlschemas/PowerExtensionv1.xsd http://www.garmin.com/xmlschemas/VideoExtension/v1 http://www.garmin.com/xmlschemas/VideoExtensionv1.xsd" xmlns="http://www.topografix.com/GPX/1/1" xmlns:xsi="http://www.w3.org/2001/XMLSchema-instance" xmlns:wptx1="http://www.garmin.com/xmlschemas/WaypointExtension/v1" xmlns:gpxtrx="http://www.garmin.com/xmlschemas/GpxExtensions/v3" xmlns:gpxtpx="http://www.garmin.com/xmlschemas/TrackPointExtension/v1" xmlns:gpxx="http://www.garmin.com/xmlschemas/GpxExtensions/v3" xmlns:trp="http://www.garmin.com/xmlschemas/TripExtensions/v1" xmlns:adv="http://www.garmin.com/xmlschemas/AdventuresExtensions/v1" xmlns:prs="http://www.garmin.com/xmlschemas/PressureExtension/v1" xmlns:tmd="http://www.garmin.com/xmlschemas/TripMetaDataExtensions/v1" xmlns:vptm="http://www.garmin.com/xmlschemas/ViaPointTransportationModeExtensions/v1" xmlns:ctx="http://www.garmin.com/xmlschemas/CreationTimeExtension/v1" xmlns:gpxacc="http://www.garmin.com/xmlschemas/AccelerationExtension/v1" xmlns:gpxpx="http://www.garmin.com/xmlschemas/PowerExtension/v1" xmlns:vidx1="http://www.garmin.com/xmlschemas/VideoExtension/v1">

  <metadata>
    <link href="http://www.garmin.com">
      <text>Garmin International</text>
    </link>
    <time>2022-07-02T19:24:31Z</time>
    <bounds maxlat="-32.464992133900523" maxlon="28.391758678480983" minlat="-32.485413635149598" minlon="28.329398911446333" />
  </metadata>

  <trk>
    <name>[235] Kobonqaba River Pass</name>
    <extensions>
      <gpxx:TrackExtension>
        <gpxx:DisplayColor>Red</gpxx:DisplayColor>
      </gpxx:TrackExtension>
    </extensions>
    <trkseg>
      <trkpt lat="-32.464992133900523" lon="28.391758678480983">
        <ele>411.57999999999998</ele>
        <time>2022-01-23T08:43:15Z</time>
      </trkpt>
      <trkpt lat="-32.465094476938248" lon="28.391702268272638">
        <ele>411.10000000000002</ele>
        <time>2022-01-23T08:43:16Z</time>
      </trkpt>
      <trkpt lat="-32.465205453336239" lon="28.391664801165462">
        <ele>411.10000000000002</ele>
        <time>2022-01-23T08:43:17Z</time>
      </trkpt>
      <trkpt lat="-32.46532816439867" lon="28.391648372635245">
        <ele>411.10000000000002</ele>
        <time>2022-01-23T08:43:18Z</time>
      </trkpt>
      <trkpt lat="-32.465452970936894" lon="28.391648959368467">
        <ele>411.10000000000002</ele>
        <time>2022-01-23T08:43:19Z</time>
      </trkpt>
      <trkpt lat="-32.465566797181964" lon="28.391655832529068">
        <ele>410.62</ele>
        <time>2022-01-23T08:43:20Z</time>
      </trkpt>
      <trkpt lat="-32.466042386367917" lon="28.391685001552105">
        <ele>408.69999999999999</ele>
        <time>2022-01-23T08:43:25Z</time>
      </trkpt>
      <trkpt lat="-32.466130144894123" lon="28.391675446182489">
        <ele>407.74000000000001</ele>
        <time>2022-01-23T08:43:26Z</time>
      </trkpt>
      <trkpt lat="-32.466224525123835" lon="28.391657928004861">
        <ele>406.76999999999998</ele>
        <time>2022-01-23T08:43:27Z</time>
      </trkpt>
      <trkpt lat="-32.466520322486758" lon="28.391551310196519">
        <ele>404.37</ele>
        <time>2022-01-23T08:43:30Z</time>
      </trkpt>
      <trkpt lat="-32.466612607240677" lon="28.391492972150445">
        <ele>403.88999999999999</ele>
        <time>2022-01-23T08:43:31Z</time>
      </trkpt>
      <trkpt lat="-32.466701539233327" lon="28.391424156725407">
        <ele>402.93000000000001</ele>
        <time>2022-01-23T08:43:32Z</time>
      </trkpt>
      <trkpt lat="-32.466780329123139" lon="28.391353664919734">
        <ele>401.97000000000003</ele>
        <time>2022-01-23T08:43:33Z</time>
      </trkpt>
      <trkpt lat="-32.466852245852351" lon="28.391283005475998">
        <ele>401.00999999999999</ele>
        <time>2022-01-23T08:43:34Z</time>
      </trkpt>
      <trkpt lat="-32.467006472870708" lon="28.391130706295371">
        <ele>398.12</ele>
        <time>2022-01-23T08:43:37Z</time>
      </trkpt>
      <trkpt lat="-32.467313837260008" lon="28.390853432938457">
        <ele>393.31999999999999</ele>
        <time>2022-01-23T08:43:44Z</time>
      </trkpt>
      <trkpt lat="-32.467350717633963" lon="28.390816804021597">
        <ele>392.36000000000001</ele>
        <time>2022-01-23T08:43:45Z</time>
      </trkpt>
      <trkpt lat="-32.467395225539804" lon="28.390781600028276">
        <ele>391.87</ele>
        <time>2022-01-23T08:43:46Z</time>
      </trkpt>
      <trkpt lat="-32.467886153608561" lon="28.390456801280379">
        <ele>387.06999999999999</ele>
        <time>2022-01-23T08:43:52Z</time>
      </trkpt>
      <trkpt lat="-32.468816628679633" lon="28.39008841663599">
        <ele>387.55000000000001</ele>
        <time>2022-01-23T08:44:02Z</time>
      </trkpt>
      <trkpt lat="-32.469091638922691" lon="28.389945589005947">
        <ele>390.43000000000001</ele>
        <time>2022-01-23T08:44:05Z</time>
      </trkpt>
      <trkpt lat="-32.469162130728364" lon="28.389884568750858">
        <ele>391.38999999999999</ele>
        <time>2022-01-23T08:44:06Z</time>
      </trkpt>
      <trkpt lat="-32.469220468774438" lon="28.389820614829659">
        <ele>392.36000000000001</ele>
        <time>2022-01-23T08:44:07Z</time>
      </trkpt>
      <trkpt lat="-32.469636211171746" lon="28.389241425320506">
        <ele>396.68000000000001</ele>
        <time>2022-01-23T08:44:17Z</time>
      </trkpt>
      <trkpt lat="-32.470230991020799" lon="28.388584787026048">
        <ele>393.80000000000001</ele>
        <time>2022-01-23T08:44:26Z</time>
      </trkpt>
      <trkpt lat="-32.470670621842146" lon="28.387974752113223">
        <ele>388.02999999999997</ele>
        <time>2022-01-23T08:44:34Z</time>
      </trkpt>
      <trkpt lat="-32.470714962109923" lon="28.387924795970321">
        <ele>387.06999999999999</ele>
        <time>2022-01-23T08:44:35Z</time>
      </trkpt>
      <trkpt lat="-32.471344275400043" lon="28.387196324765682">
        <ele>377.94</ele>
        <time>2022-01-23T08:44:46Z</time>
      </trkpt>
      <trkpt lat="-32.472458397969604" lon="28.385953372344375">
        <ele>363.51999999999998</ele>
        <time>2022-01-23T08:45:03Z</time>
      </trkpt>
      <trkpt lat="-32.473571933805943" lon="28.384636407718062">
        <ele>351.5</ele>
        <time>2022-01-23T08:45:21Z</time>
      </trkpt>
      <trkpt lat="-32.474156403914094" lon="28.383953617885709">
        <ele>345.25</ele>
        <time>2022-01-23T08:45:32Z</time>
      </trkpt>
      <trkpt lat="-32.474875235930085" lon="28.383232103660703">
        <ele>341.88999999999999</ele>
        <time>2022-01-23T08:45:42Z</time>
      </trkpt>
      <trkpt lat="-32.475818200036883" lon="28.382701110094786">
        <ele>335.63999999999999</ele>
        <time>2022-01-23T08:45:54Z</time>
      </trkpt>
      <trkpt lat="-32.476452961564064" lon="28.382178163155913">
        <ele>331.31</ele>
        <time>2022-01-23T08:46:05Z</time>
      </trkpt>
      <trkpt lat="-32.476558573544025" lon="28.382116556167603">
        <ele>330.35000000000002</ele>
        <time>2022-01-23T08:46:08Z</time>
      </trkpt>
      <trkpt lat="-32.477098200470209" lon="28.381912959739566">
        <ele>326.99000000000001</ele>
        <time>2022-01-23T08:46:16Z</time>
      </trkpt>
      <trkpt lat="-32.477156706154346" lon="28.381874822080135">
        <ele>326.5</ele>
        <time>2022-01-23T08:46:17Z</time>
      </trkpt>
      <trkpt lat="-32.477213451638818" lon="28.381833247840405">
        <ele>325.54000000000002</ele>
        <time>2022-01-23T08:46:18Z</time>
      </trkpt>
      <trkpt lat="-32.477264832705259" lon="28.381787817925215">
        <ele>325.06</ele>
        <time>2022-01-23T08:46:19Z</time>
      </trkpt>
      <trkpt lat="-32.477314621210098" lon="28.381738448515534">
        <ele>324.57999999999998</ele>
        <time>2022-01-23T08:46:20Z</time>
      </trkpt>
      <trkpt lat="-32.477537915110588" lon="28.381478022783995">
        <ele>322.18000000000001</ele>
        <time>2022-01-23T08:46:25Z</time>
      </trkpt>
      <trkpt lat="-32.477572280913591" lon="28.381421864032745">
        <ele>322.18000000000001</ele>
        <time>2022-01-23T08:46:26Z</time>
      </trkpt>
      <trkpt lat="-32.477602455765009" lon="28.381360592320561">
        <ele>321.69999999999999</ele>
        <time>2022-01-23T08:46:27Z</time>
      </trkpt>
      <trkpt lat="-32.477628104388714" lon="28.381298230960965">
        <ele>321.22000000000003</ele>
        <time>2022-01-23T08:46:28Z</time>
      </trkpt>
      <trkpt lat="-32.477651741355658" lon="28.381230505183339">
        <ele>320.74000000000001</ele>
        <time>2022-01-23T08:46:29Z</time>
      </trkpt>
      <trkpt lat="-32.477671522647142" lon="28.381158756092191">
        <ele>320.25999999999999</ele>
        <time>2022-01-23T08:46:30Z</time>
      </trkpt>
      <trkpt lat="-32.477685185149312" lon="28.381077870726585">
        <ele>319.77999999999997</ele>
        <time>2022-01-23T08:46:31Z</time>
      </trkpt>
      <trkpt lat="-32.477692225947976" lon="28.380989609286189">
        <ele>319.77999999999997</ele>
        <time>2022-01-23T08:46:32Z</time>
      </trkpt>
      <trkpt lat="-32.477693567052484" lon="28.380897659808397">
        <ele>319.30000000000001</ele>
        <time>2022-01-23T08:46:33Z</time>
      </trkpt>
      <trkpt lat="-32.477691806852818" lon="28.380803111940622">
        <ele>318.81</ele>
        <time>2022-01-23T08:46:34Z</time>
      </trkpt>
      <trkpt lat="-32.477652998641133" lon="28.380473451688886">
        <ele>316.88999999999999</ele>
        <time>2022-01-23T08:46:38Z</time>
      </trkpt>
      <trkpt lat="-32.477359799668193" lon="28.379650684073567">
        <ele>311.12</ele>
        <time>2022-01-23T08:46:49Z</time>
      </trkpt>
      <trkpt lat="-32.476802403107285" lon="28.378991531208158">
        <ele>304.88</ele>
        <time>2022-01-23T08:47:01Z</time>
      </trkpt>
      <trkpt lat="-32.476547760888934" lon="28.378603952005506">
        <ele>301.02999999999997</ele>
        <time>2022-01-23T08:47:08Z</time>
      </trkpt>
      <trkpt lat="-32.476526470854878" lon="28.378537483513355">
        <ele>300.55000000000001</ele>
        <time>2022-01-23T08:47:09Z</time>
      </trkpt>
      <trkpt lat="-32.476515239104629" lon="28.378466572612524">
        <ele>300.06999999999999</ele>
        <time>2022-01-23T08:47:10Z</time>
      </trkpt>
      <trkpt lat="-32.476514400914311" lon="28.378396164625883">
        <ele>299.11000000000001</ele>
        <time>2022-01-23T08:47:11Z</time>
      </trkpt>
      <trkpt lat="-32.476523201912642" lon="28.378325756639242">
        <ele>299.11000000000001</ele>
        <time>2022-01-23T08:47:12Z</time>
      </trkpt>
      <trkpt lat="-32.476535607129335" lon="28.378254594281316">
        <ele>298.14999999999998</ele>
        <time>2022-01-23T08:47:13Z</time>
      </trkpt>
      <trkpt lat="-32.476669047027826" lon="28.377726702019572">
        <ele>294.77999999999997</ele>
        <time>2022-01-23T08:47:19Z</time>
      </trkpt>
      <trkpt lat="-32.476791338995099" lon="28.377457391470671">
        <ele>292.86000000000001</ele>
        <time>2022-01-23T08:47:22Z</time>
      </trkpt>
      <trkpt lat="-32.476850263774395" lon="28.377354713156819">
        <ele>291.89999999999998</ele>
        <time>2022-01-23T08:47:23Z</time>
      </trkpt>
      <trkpt lat="-32.477524587884545" lon="28.376514175906777">
        <ele>284.69</ele>
        <time>2022-01-23T08:47:32Z</time>
      </trkpt>
      <trkpt lat="-32.478074356913567" lon="28.375893328338861">
        <ele>275.06999999999999</ele>
        <time>2022-01-23T08:47:44Z</time>
      </trkpt>
      <trkpt lat="-32.478173766285181" lon="28.375772126019001">
        <ele>273.14999999999998</ele>
        <time>2022-01-23T08:47:47Z</time>
      </trkpt>
      <trkpt lat="-32.478208299726248" lon="28.375745555385947">
        <ele>272.67000000000002</ele>
        <time>2022-01-23T08:47:48Z</time>
      </trkpt>
      <trkpt lat="-32.478307960554957" lon="28.375669112429023">
        <ele>270.75</ele>
        <time>2022-01-23T08:47:51Z</time>
      </trkpt>
      <trkpt lat="-32.478324389085174" lon="28.37563332170248">
        <ele>270.75</ele>
        <time>2022-01-23T08:47:52Z</time>
      </trkpt>
      <trkpt lat="-32.478339392691851" lon="28.375598536804318">
        <ele>270.26999999999998</ele>
        <time>2022-01-23T08:47:53Z</time>
      </trkpt>
      <trkpt lat="-32.478359090164304" lon="28.375571211799979">
        <ele>270.26999999999998</ele>
        <time>2022-01-23T08:47:54Z</time>
      </trkpt>
      <trkpt lat="-32.478385996073484" lon="28.375552771613002">
        <ele>269.79000000000002</ele>
        <time>2022-01-23T08:47:55Z</time>
      </trkpt>
      <trkpt lat="-32.478425055742264" lon="28.375537265092134">
        <ele>269.79000000000002</ele>
        <time>2022-01-23T08:47:56Z</time>
      </trkpt>
      <trkpt lat="-32.478477358818054" lon="28.375521674752235">
        <ele>269.79000000000002</ele>
        <time>2022-01-23T08:47:57Z</time>
      </trkpt>
      <trkpt lat="-32.478539468720555" lon="28.37550432421267">
        <ele>269.31</ele>
        <time>2022-01-23T08:47:58Z</time>
      </trkpt>
      <trkpt lat="-32.479297444224358" lon="28.375216741114855">
        <ele>269.79000000000002</ele>
        <time>2022-01-23T08:48:06Z</time>
      </trkpt>
      <trkpt lat="-32.480340739712119" lon="28.374683735892177">
        <ele>265.45999999999998</ele>
        <time>2022-01-23T08:48:16Z</time>
      </trkpt>
      <trkpt lat="-32.480971897020936" lon="28.374015698209405">
        <ele>264.98000000000002</ele>
        <time>2022-01-23T08:48:22Z</time>
      </trkpt>
      <trkpt lat="-32.481845458969474" lon="28.373281359672546">
        <ele>268.35000000000002</ele>
        <time>2022-01-23T08:48:31Z</time>
      </trkpt>
      <trkpt lat="-32.482923706993461" lon="28.372994614765048">
        <ele>265.45999999999998</ele>
        <time>2022-01-23T08:48:41Z</time>
      </trkpt>
      <trkpt lat="-32.483396865427494" lon="28.373016407713294">
        <ele>261.13999999999999</ele>
        <time>2022-01-23T08:48:45Z</time>
      </trkpt>
      <trkpt lat="-32.483515217900276" lon="28.37300299666822">
        <ele>260.17000000000002</ele>
        <time>2022-01-23T08:48:46Z</time>
      </trkpt>
      <trkpt lat="-32.483630301430821" lon="28.372978772968054">
        <ele>259.20999999999998</ele>
        <time>2022-01-23T08:48:47Z</time>
      </trkpt>
      <trkpt lat="-32.484917091205716" lon="28.372562527656555">
        <ele>255.37</ele>
        <time>2022-01-23T08:48:58Z</time>
      </trkpt>
      <trkpt lat="-32.485001413151622" lon="28.372517852112651">
        <ele>254.88999999999999</ele>
        <time>2022-01-23T08:48:59Z</time>
      </trkpt>
      <trkpt lat="-32.485074838623405" lon="28.372464124113321">
        <ele>254.41</ele>
        <time>2022-01-23T08:49:00Z</time>
      </trkpt>
      <trkpt lat="-32.485134685412049" lon="28.372403858229518">
        <ele>253.93000000000001</ele>
        <time>2022-01-23T08:49:01Z</time>
      </trkpt>
      <trkpt lat="-32.485178355127573" lon="28.372344933450222">
        <ele>253.93000000000001</ele>
        <time>2022-01-23T08:49:02Z</time>
      </trkpt>
      <trkpt lat="-32.485206266865134" lon="28.372288858518004">
        <ele>253.44</ele>
        <time>2022-01-23T08:49:03Z</time>
      </trkpt>
      <trkpt lat="-32.485226467251778" lon="28.372234543785453">
        <ele>253.44</ele>
        <time>2022-01-23T08:49:04Z</time>
      </trkpt>
      <trkpt lat="-32.48524121940136" lon="28.372184000909328">
        <ele>252.96000000000001</ele>
        <time>2022-01-23T08:49:05Z</time>
      </trkpt>
      <trkpt lat="-32.485411539673805" lon="28.371555022895336">
        <ele>254.41</ele>
        <time>2022-01-23T08:49:15Z</time>
      </trkpt>
      <trkpt lat="-32.485413635149598" lon="28.371492577716708">
        <ele>254.41</ele>
        <time>2022-01-23T08:49:16Z</time>
      </trkpt>
      <trkpt lat="-32.485401397570968" lon="28.371432395651937">
        <ele>254.88999999999999</ele>
        <time>2022-01-23T08:49:17Z</time>
      </trkpt>
      <trkpt lat="-32.485372144728899" lon="28.371380176395178">
        <ele>255.84999999999999</ele>
        <time>2022-01-23T08:49:18Z</time>
      </trkpt>
      <trkpt lat="-32.485325960442424" lon="28.371331477537751">
        <ele>256.32999999999998</ele>
        <time>2022-01-23T08:49:19Z</time>
      </trkpt>
      <trkpt lat="-32.485263515263796" lon="28.37128353305161">
        <ele>256.81</ele>
        <time>2022-01-23T08:49:20Z</time>
      </trkpt>
      <trkpt lat="-32.48518799431622" lon="28.371240450069308">
        <ele>257.29000000000002</ele>
        <time>2022-01-23T08:49:21Z</time>
      </trkpt>
      <trkpt lat="-32.485102247446775" lon="28.37120340205729">
        <ele>257.76999999999998</ele>
        <time>2022-01-23T08:49:22Z</time>
      </trkpt>
      <trkpt lat="-32.485008034855127" lon="28.371168533340096">
        <ele>258.25</ele>
        <time>2022-01-23T08:49:23Z</time>
      </trkpt>
      <trkpt lat="-32.484047887846828" lon="28.370907017961144">
        <ele>258.25</ele>
        <time>2022-01-23T08:49:30Z</time>
      </trkpt>
      <trkpt lat="-32.483233921229839" lon="28.370664529502392">
        <ele>257.29000000000002</ele>
        <time>2022-01-23T08:49:37Z</time>
      </trkpt>
      <trkpt lat="-32.483156975358725" lon="28.37060728110373">
        <ele>257.76999999999998</ele>
        <time>2022-01-23T08:49:38Z</time>
      </trkpt>
      <trkpt lat="-32.483083382248878" lon="28.370536621659994">
        <ele>258.25</ele>
        <time>2022-01-23T08:49:39Z</time>
      </trkpt>
      <trkpt lat="-32.483015153557062" lon="28.370454227551818">
        <ele>259.20999999999998</ele>
        <time>2022-01-23T08:49:40Z</time>
      </trkpt>
      <trkpt lat="-32.482947092503309" lon="28.370362026616931">
        <ele>260.17000000000002</ele>
        <time>2022-01-23T08:49:41Z</time>
      </trkpt>
      <trkpt lat="-32.482403945177794" lon="28.369506150484085">
        <ele>269.31</ele>
        <time>2022-01-23T08:49:49Z</time>
      </trkpt>
      <trkpt lat="-32.482368070632219" lon="28.369401628151536">
        <ele>270.26999999999998</ele>
        <time>2022-01-23T08:49:50Z</time>
      </trkpt>
      <trkpt lat="-32.482342338189483" lon="28.369298027828336">
        <ele>271.23000000000002</ele>
        <time>2022-01-23T08:49:51Z</time>
      </trkpt>
      <trkpt lat="-32.482326412573457" lon="28.369195852428675">
        <ele>272.19</ele>
        <time>2022-01-23T08:49:52Z</time>
      </trkpt>
      <trkpt lat="-32.482315599918365" lon="28.369082193821669">
        <ele>273.14999999999998</ele>
        <time>2022-01-23T08:49:53Z</time>
      </trkpt>
      <trkpt lat="-32.482310235500336" lon="28.368953866884112">
        <ele>274.58999999999997</ele>
        <time>2022-01-23T08:49:54Z</time>
      </trkpt>
      <trkpt lat="-32.482309648767114" lon="28.368818582966924">
        <ele>275.56</ele>
        <time>2022-01-23T08:49:55Z</time>
      </trkpt>
      <trkpt lat="-32.482264302670956" lon="28.367446213960648">
        <ele>285.17000000000002</ele>
        <time>2022-01-23T08:50:04Z</time>
      </trkpt>
      <trkpt lat="-32.482153493911028" lon="28.367088055238128">
        <ele>288.05000000000001</ele>
        <time>2022-01-23T08:50:07Z</time>
      </trkpt>
      <trkpt lat="-32.482108315452933" lon="28.36700557731092">
        <ele>289.00999999999999</ele>
        <time>2022-01-23T08:50:08Z</time>
      </trkpt>
      <trkpt lat="-32.482056682929397" lon="28.366944137960672">
        <ele>289.49000000000001</ele>
        <time>2022-01-23T08:50:09Z</time>
      </trkpt>
      <trkpt lat="-32.481999853625894" lon="28.366900384426117">
        <ele>290.45999999999998</ele>
        <time>2022-01-23T08:50:10Z</time>
      </trkpt>
      <trkpt lat="-32.481937408447266" lon="28.366876831278205">
        <ele>290.45999999999998</ele>
        <time>2022-01-23T08:50:11Z</time>
      </trkpt>
      <trkpt lat="-32.481871023774147" lon="28.366872053593397">
        <ele>290.94</ele>
        <time>2022-01-23T08:50:12Z</time>
      </trkpt>
      <trkpt lat="-32.481807824224234" lon="28.366881441324949">
        <ele>290.94</ele>
        <time>2022-01-23T08:50:13Z</time>
      </trkpt>
      <trkpt lat="-32.481747642159462" lon="28.366902228444815">
        <ele>291.42000000000002</ele>
        <time>2022-01-23T08:50:14Z</time>
      </trkpt>
      <trkpt lat="-32.481682011857629" lon="28.366934331133962">
        <ele>291.42000000000002</ele>
        <time>2022-01-23T08:50:15Z</time>
      </trkpt>
      <trkpt lat="-32.481605904176831" lon="28.3669738098979">
        <ele>291.89999999999998</ele>
        <time>2022-01-23T08:50:16Z</time>
      </trkpt>
      <trkpt lat="-32.48106543906033" lon="28.367140693590045">
        <ele>294.77999999999997</ele>
        <time>2022-01-23T08:50:21Z</time>
      </trkpt>
      <trkpt lat="-32.48095060698688" lon="28.367142286151648">
        <ele>295.74000000000001</ele>
        <time>2022-01-23T08:50:22Z</time>
      </trkpt>
      <trkpt lat="-32.480836194008589" lon="28.367131808772683">
        <ele>296.22000000000003</ele>
        <time>2022-01-23T08:50:23Z</time>
      </trkpt>
      <trkpt lat="-32.480727145448327" lon="28.367108758538961">
        <ele>297.18000000000001</ele>
        <time>2022-01-23T08:50:24Z</time>
      </trkpt>
      <trkpt lat="-32.480628322809935" lon="28.367074811831117">
        <ele>297.67000000000002</ele>
        <time>2022-01-23T08:50:25Z</time>
      </trkpt>
      <trkpt lat="-32.480538552626967" lon="28.36703147739172">
        <ele>298.63</ele>
        <time>2022-01-23T08:50:26Z</time>
      </trkpt>
      <trkpt lat="-32.480452973395586" lon="28.366980934515595">
        <ele>299.11000000000001</ele>
        <time>2022-01-23T08:50:27Z</time>
      </trkpt>
      <trkpt lat="-32.480375273153186" lon="28.366925781592727">
        <ele>300.06999999999999</ele>
        <time>2022-01-23T08:50:28Z</time>
      </trkpt>
      <trkpt lat="-32.480313666164875" lon="28.366866186261177">
        <ele>301.02999999999997</ele>
        <time>2022-01-23T08:50:29Z</time>
      </trkpt>
      <trkpt lat="-32.480260943993926" lon="28.366794856265187">
        <ele>301.50999999999999</ele>
        <time>2022-01-23T08:50:30Z</time>
      </trkpt>
      <trkpt lat="-32.480212580412626" lon="28.366709612309933">
        <ele>302.47000000000003</ele>
        <time>2022-01-23T08:50:31Z</time>
      </trkpt>
      <trkpt lat="-32.480170000344515" lon="28.366614645346999">
        <ele>302.94999999999999</ele>
        <time>2022-01-23T08:50:32Z</time>
      </trkpt>
      <trkpt lat="-32.480137646198273" lon="28.366520181298256">
        <ele>303.91000000000003</ele>
        <time>2022-01-23T08:50:33Z</time>
      </trkpt>
      <trkpt lat="-32.480116859078407" lon="28.366428148001432">
        <ele>304.38999999999999</ele>
        <time>2022-01-23T08:50:34Z</time>
      </trkpt>
      <trkpt lat="-32.480108560994267" lon="28.3663469273597">
        <ele>304.88</ele>
        <time>2022-01-23T08:50:35Z</time>
      </trkpt>
      <trkpt lat="-32.480112165212631" lon="28.366262437775731">
        <ele>305.83999999999997</ele>
        <time>2022-01-23T08:50:36Z</time>
      </trkpt>
      <trkpt lat="-32.480130521580577" lon="28.366176020354033">
        <ele>306.80000000000001</ele>
        <time>2022-01-23T08:50:37Z</time>
      </trkpt>
      <trkpt lat="-32.480161786079407" lon="28.366081388667226">
        <ele>307.75999999999999</ele>
        <time>2022-01-23T08:50:38Z</time>
      </trkpt>
      <trkpt lat="-32.480206126347184" lon="28.365976866334677">
        <ele>308.72000000000003</ele>
        <time>2022-01-23T08:50:39Z</time>
      </trkpt>
      <trkpt lat="-32.480261866003275" lon="28.365863291546702">
        <ele>309.68000000000001</ele>
        <time>2022-01-23T08:50:40Z</time>
      </trkpt>
      <trkpt lat="-32.480319030582905" lon="28.365754494443536">
        <ele>310.16000000000003</ele>
        <time>2022-01-23T08:50:41Z</time>
      </trkpt>
      <trkpt lat="-32.480436628684402" lon="28.365552490577102">
        <ele>312.08999999999997</ele>
        <time>2022-01-23T08:50:43Z</time>
      </trkpt>
      <trkpt lat="-32.480601668357849" lon="28.365300949662924">
        <ele>314.49000000000001</ele>
        <time>2022-01-23T08:50:46Z</time>
      </trkpt>
      <trkpt lat="-32.480643913149834" lon="28.365214616060257">
        <ele>314.97000000000003</ele>
        <time>2022-01-23T08:50:47Z</time>
      </trkpt>
      <trkpt lat="-32.480678614228964" lon="28.365118643268943">
        <ele>315.93000000000001</ele>
        <time>2022-01-23T08:50:48Z</time>
      </trkpt>
      <trkpt lat="-32.48070384375751" lon="28.36501101963222">
        <ele>316.41000000000003</ele>
        <time>2022-01-23T08:50:49Z</time>
      </trkpt>
      <trkpt lat="-32.480713482946157" lon="28.364900965243578">
        <ele>317.37</ele>
        <time>2022-01-23T08:50:50Z</time>
      </trkpt>
      <trkpt lat="-32.480708789080381" lon="28.364784708246589">
        <ele>318.32999999999998</ele>
        <time>2022-01-23T08:50:51Z</time>
      </trkpt>
      <trkpt lat="-32.480692528188229" lon="28.364658476784825">
        <ele>319.30000000000001</ele>
        <time>2022-01-23T08:50:52Z</time>
      </trkpt>
      <trkpt lat="-32.480667969211936" lon="28.364524114876986">
        <ele>320.25999999999999</ele>
        <time>2022-01-23T08:50:53Z</time>
      </trkpt>
      <trkpt lat="-32.480541570112109" lon="28.363564051687717">
        <ele>327.94999999999999</ele>
        <time>2022-01-23T08:50:59Z</time>
      </trkpt>
      <trkpt lat="-32.480504186823964" lon="28.36343077942729">
        <ele>328.91000000000003</ele>
        <time>2022-01-23T08:51:00Z</time>
      </trkpt>
      <trkpt lat="-32.480381391942501" lon="28.363107405602932">
        <ele>330.82999999999998</ele>
        <time>2022-01-23T08:51:03Z</time>
      </trkpt>
      <trkpt lat="-32.480336045846343" lon="28.363025765866041">
        <ele>331.79000000000002</ele>
        <time>2022-01-23T08:51:04Z</time>
      </trkpt>
      <trkpt lat="-32.480281898751855" lon="28.362950412556529">
        <ele>332.26999999999998</ele>
        <time>2022-01-23T08:51:05Z</time>
      </trkpt>
      <trkpt lat="-32.480211658403277" lon="28.362869527190924">
        <ele>332.26999999999998</ele>
        <time>2022-01-23T08:51:06Z</time>
      </trkpt>
      <trkpt lat="-32.48012968339026" lon="28.362790318205953">
        <ele>332.75</ele>
        <time>2022-01-23T08:51:07Z</time>
      </trkpt>
      <trkpt lat="-32.480031028389931" lon="28.362707505002618">
        <ele>333.23000000000002</ele>
        <time>2022-01-23T08:51:08Z</time>
      </trkpt>
      <trkpt lat="-32.47991812415421" lon="28.36262309923768">
        <ele>333.23000000000002</ele>
        <time>2022-01-23T08:51:09Z</time>
      </trkpt>
      <trkpt lat="-32.479473380371928" lon="28.362263850867748">
        <ele>334.19999999999999</ele>
        <time>2022-01-23T08:51:13Z</time>
      </trkpt>
      <trkpt lat="-32.479402972385287" lon="28.362171063199639">
        <ele>334.68000000000001</ele>
        <time>2022-01-23T08:51:14Z</time>
      </trkpt>
      <trkpt lat="-32.479064175859094" lon="28.361203288659453">
        <ele>338.04000000000002</ele>
        <time>2022-01-23T08:51:22Z</time>
      </trkpt>
      <trkpt lat="-32.479056967422366" lon="28.361081331968307">
        <ele>338.51999999999998</ele>
        <time>2022-01-23T08:51:23Z</time>
      </trkpt>
      <trkpt lat="-32.479140786454082" lon="28.35995321162045">
        <ele>347.64999999999998</ele>
        <time>2022-01-23T08:51:32Z</time>
      </trkpt>
      <trkpt lat="-32.479133913293481" lon="28.359846509993076">
        <ele>348.62</ele>
        <time>2022-01-23T08:51:33Z</time>
      </trkpt>
      <trkpt lat="-32.479116478934884" lon="28.359736287966371">
        <ele>349.10000000000002</ele>
        <time>2022-01-23T08:51:34Z</time>
      </trkpt>
      <trkpt lat="-32.479087058454752" lon="28.359621874988079">
        <ele>349.57999999999998</ele>
        <time>2022-01-23T08:51:35Z</time>
      </trkpt>
      <trkpt lat="-32.479045819491148" lon="28.359501427039504">
        <ele>350.06</ele>
        <time>2022-01-23T08:51:36Z</time>
      </trkpt>
      <trkpt lat="-32.478995444253087" lon="28.359373183920979">
        <ele>350.54000000000002</ele>
        <time>2022-01-23T08:51:37Z</time>
      </trkpt>
      <trkpt lat="-32.478421367704868" lon="28.35828160867095">
        <ele>357.75</ele>
        <time>2022-01-23T08:51:46Z</time>
      </trkpt>
      <trkpt lat="-32.478340398520231" lon="28.358196867629886">
        <ele>358.23000000000002</ele>
        <time>2022-01-23T08:51:47Z</time>
      </trkpt>
      <trkpt lat="-32.477588374167681" lon="28.357422463595867">
        <ele>361.58999999999997</ele>
        <time>2022-01-23T08:51:55Z</time>
      </trkpt>
      <trkpt lat="-32.476937687024474" lon="28.356388136744499">
        <ele>365.92000000000002</ele>
        <time>2022-01-23T08:52:04Z</time>
      </trkpt>
      <trkpt lat="-32.476754039525986" lon="28.355887569487095">
        <ele>365.92000000000002</ele>
        <time>2022-01-23T08:52:08Z</time>
      </trkpt>
      <trkpt lat="-32.476739035919309" lon="28.355774497613311">
        <ele>365.44</ele>
        <time>2022-01-23T08:52:09Z</time>
      </trkpt>
      <trkpt lat="-32.476740796118975" lon="28.355656815692782">
        <ele>365.44</ele>
        <time>2022-01-23T08:52:10Z</time>
      </trkpt>
      <trkpt lat="-32.476757224649191" lon="28.355529075488448">
        <ele>365.44</ele>
        <time>2022-01-23T08:52:11Z</time>
      </trkpt>
      <trkpt lat="-32.47678111307323" lon="28.355388510972261">
        <ele>365.92000000000002</ele>
        <time>2022-01-23T08:52:12Z</time>
      </trkpt>
      <trkpt lat="-32.476894268766046" lon="28.354683760553598">
        <ele>368.80000000000001</ele>
        <time>2022-01-23T08:52:17Z</time>
      </trkpt>
      <trkpt lat="-32.476930897682905" lon="28.354589799419045">
        <ele>369.27999999999997</ele>
        <time>2022-01-23T08:52:18Z</time>
      </trkpt>
      <trkpt lat="-32.476981105282903" lon="28.354505896568298">
        <ele>370.24000000000001</ele>
        <time>2022-01-23T08:52:19Z</time>
      </trkpt>
      <trkpt lat="-32.477045226842165" lon="28.354424927383661">
        <ele>370.73000000000002</ele>
        <time>2022-01-23T08:52:20Z</time>
      </trkpt>
      <trkpt lat="-32.477120580151677" lon="28.354341946542263">
        <ele>371.69</ele>
        <time>2022-01-23T08:52:21Z</time>
      </trkpt>
      <trkpt lat="-32.47757270000875" lon="28.353789579123259">
        <ele>376.49000000000001</ele>
        <time>2022-01-23T08:52:27Z</time>
      </trkpt>
      <trkpt lat="-32.477610418573022" lon="28.353693690150976">
        <ele>376.97000000000003</ele>
        <time>2022-01-23T08:52:28Z</time>
      </trkpt>
      <trkpt lat="-32.477629277855158" lon="28.353590173646808">
        <ele>377.94</ele>
        <time>2022-01-23T08:52:29Z</time>
      </trkpt>
      <trkpt lat="-32.477629780769348" lon="28.353481628000736">
        <ele>378.42000000000002</ele>
        <time>2022-01-23T08:52:30Z</time>
      </trkpt>
      <trkpt lat="-32.477613519877195" lon="28.353367634117603">
        <ele>378.89999999999998</ele>
        <time>2022-01-23T08:52:31Z</time>
      </trkpt>
      <trkpt lat="-32.477580914273858" lon="28.35325020365417">
        <ele>379.38</ele>
        <time>2022-01-23T08:52:32Z</time>
      </trkpt>
      <trkpt lat="-32.4775355681777" lon="28.353134784847498">
        <ele>380.33999999999997</ele>
        <time>2022-01-23T08:52:33Z</time>
      </trkpt>
      <trkpt lat="-32.477482846006751" lon="28.353025568649173">
        <ele>381.30000000000001</ele>
        <time>2022-01-23T08:52:34Z</time>
      </trkpt>
      <trkpt lat="-32.477423502132297" lon="28.352923393249512">
        <ele>381.77999999999997</ele>
        <time>2022-01-23T08:52:35Z</time>
      </trkpt>
      <trkpt lat="-32.477354854345322" lon="28.352824151515961">
        <ele>382.74000000000001</ele>
        <time>2022-01-23T08:52:36Z</time>
      </trkpt>
      <trkpt lat="-32.477277154102921" lon="28.352720383554697">
        <ele>383.22000000000003</ele>
        <time>2022-01-23T08:52:37Z</time>
      </trkpt>
      <trkpt lat="-32.476651193574071" lon="28.351883618161082">
        <ele>383.22000000000003</ele>
        <time>2022-01-23T08:52:45Z</time>
      </trkpt>
      <trkpt lat="-32.476600399240851" lon="28.351773899048567">
        <ele>382.74000000000001</ele>
        <time>2022-01-23T08:52:46Z</time>
      </trkpt>
      <trkpt lat="-32.476559327915311" lon="28.351657558232546">
        <ele>382.74000000000001</ele>
        <time>2022-01-23T08:52:47Z</time>
      </trkpt>
      <trkpt lat="-32.476526387035847" lon="28.351538283750415">
        <ele>382.25999999999999</ele>
        <time>2022-01-23T08:52:48Z</time>
      </trkpt>
      <trkpt lat="-32.476501073688269" lon="28.351419260725379">
        <ele>381.77999999999997</ele>
        <time>2022-01-23T08:52:49Z</time>
      </trkpt>
      <trkpt lat="-32.476481627672911" lon="28.351300489157438">
        <ele>381.30000000000001</ele>
        <time>2022-01-23T08:52:50Z</time>
      </trkpt>
      <trkpt lat="-32.476470228284597" lon="28.351187082007527">
        <ele>381.30000000000001</ele>
        <time>2022-01-23T08:52:51Z</time>
      </trkpt>
      <trkpt lat="-32.476470731198788" lon="28.351077530533075">
        <ele>381.30000000000001</ele>
        <time>2022-01-23T08:52:52Z</time>
      </trkpt>
      <trkpt lat="-32.476480957120657" lon="28.35096487775445">
        <ele>381.30000000000001</ele>
        <time>2022-01-23T08:52:53Z</time>
      </trkpt>
      <trkpt lat="-32.476725876331329" lon="28.349802307784557">
        <ele>383.22000000000003</ele>
        <time>2022-01-23T08:53:02Z</time>
      </trkpt>
      <trkpt lat="-32.47673618607223" lon="28.348558684810996">
        <ele>385.63</ele>
        <time>2022-01-23T08:53:10Z</time>
      </trkpt>
      <trkpt lat="-32.476778011769056" lon="28.347124205902219">
        <ele>390.43000000000001</ele>
        <time>2022-01-23T08:53:18Z</time>
      </trkpt>
      <trkpt lat="-32.476942967623472" lon="28.345742700621486">
        <ele>399.56999999999999</ele>
        <time>2022-01-23T08:53:25Z</time>
      </trkpt>
      <trkpt lat="-32.477367259562016" lon="28.344338145107031">
        <ele>404.37</ele>
        <time>2022-01-23T08:53:34Z</time>
      </trkpt>
      <trkpt lat="-32.478261943906546" lon="28.342957561835647">
        <ele>410.62</ele>
        <time>2022-01-23T08:53:46Z</time>
      </trkpt>
      <trkpt lat="-32.479259138926864" lon="28.341602711006999">
        <ele>415.43000000000001</ele>
        <time>2022-01-23T08:53:59Z</time>
      </trkpt>
      <trkpt lat="-32.480106884613633" lon="28.340099332854152">
        <ele>422.63999999999999</ele>
        <time>2022-01-23T08:54:11Z</time>
      </trkpt>
      <trkpt lat="-32.480733264237642" lon="28.338494282215834">
        <ele>421.19</ele>
        <time>2022-01-23T08:54:21Z</time>
      </trkpt>
      <trkpt lat="-32.481381939724088" lon="28.33687330596149">
        <ele>426</ele>
        <time>2022-01-23T08:54:30Z</time>
      </trkpt>
      <trkpt lat="-32.482179896906018" lon="28.334894087165594">
        <ele>436.57999999999998</ele>
        <time>2022-01-23T08:54:41Z</time>
      </trkpt>
      <trkpt lat="-32.482726899906993" lon="28.333478299900889">
        <ele>442.81999999999999</ele>
        <time>2022-01-23T08:54:49Z</time>
      </trkpt>
      <trkpt lat="-32.48366734944284" lon="28.331153495237231">
        <ele>451</ele>
        <time>2022-01-23T08:55:03Z</time>
      </trkpt>
      <trkpt lat="-32.484453907236457" lon="28.329398911446333">
        <ele>453.39999999999998</ele>
        <time>2022-01-23T08:55:15Z</time>
      </trkpt>
    </trkseg>
  </trk>

</gpx>