<?xml version="1.0" encoding="utf-8"?><gpx creator="Garmin Desktop App" version="1.1" xsi:schemaLocation="http://www.topografix.com/GPX/1/1 http://www.topografix.com/GPX/1/1/gpx.xsd http://www.garmin.com/xmlschemas/WaypointExtension/v1 http://www8.garmin.com/xmlschemas/WaypointExtensionv1.xsd http://www.garmin.com/xmlschemas/TrackPointExtension/v1 http://www.garmin.com/xmlschemas/TrackPointExtensionv1.xsd http://www.garmin.com/xmlschemas/GpxExtensions/v3 http://www8.garmin.com/xmlschemas/GpxExtensionsv3.xsd http://www.garmin.com/xmlschemas/ActivityExtension/v1 http://www8.garmin.com/xmlschemas/ActivityExtensionv1.xsd http://www.garmin.com/xmlschemas/AdventuresExtensions/v1 http://www8.garmin.com/xmlschemas/AdventuresExtensionv1.xsd http://www.garmin.com/xmlschemas/PressureExtension/v1 http://www.garmin.com/xmlschemas/PressureExtensionv1.xsd http://www.garmin.com/xmlschemas/TripExtensions/v1 http://www.garmin.com/xmlschemas/TripExtensionsv1.xsd http://www.garmin.com/xmlschemas/TripMetaDataExtensions/v1 http://www.garmin.com/xmlschemas/TripMetaDataExtensionsv1.xsd http://www.garmin.com/xmlschemas/ViaPointTransportationModeExtensions/v1 http://www.garmin.com/xmlschemas/ViaPointTransportationModeExtensionsv1.xsd http://www.garmin.com/xmlschemas/CreationTimeExtension/v1 http://www.garmin.com/xmlschemas/CreationTimeExtensionsv1.xsd http://www.garmin.com/xmlschemas/AccelerationExtension/v1 http://www.garmin.com/xmlschemas/AccelerationExtensionv1.xsd http://www.garmin.com/xmlschemas/PowerExtension/v1 http://www.garmin.com/xmlschemas/PowerExtensionv1.xsd http://www.garmin.com/xmlschemas/VideoExtension/v1 http://www.garmin.com/xmlschemas/VideoExtensionv1.xsd" xmlns="http://www.topografix.com/GPX/1/1" xmlns:xsi="http://www.w3.org/2001/XMLSchema-instance" xmlns:wptx1="http://www.garmin.com/xmlschemas/WaypointExtension/v1" xmlns:gpxtrx="http://www.garmin.com/xmlschemas/GpxExtensions/v3" xmlns:gpxtpx="http://www.garmin.com/xmlschemas/TrackPointExtension/v1" xmlns:gpxx="http://www.garmin.com/xmlschemas/GpxExtensions/v3" xmlns:trp="http://www.garmin.com/xmlschemas/TripExtensions/v1" xmlns:adv="http://www.garmin.com/xmlschemas/AdventuresExtensions/v1" xmlns:prs="http://www.garmin.com/xmlschemas/PressureExtension/v1" xmlns:tmd="http://www.garmin.com/xmlschemas/TripMetaDataExtensions/v1" xmlns:vptm="http://www.garmin.com/xmlschemas/ViaPointTransportationModeExtensions/v1" xmlns:ctx="http://www.garmin.com/xmlschemas/CreationTimeExtension/v1" xmlns:gpxacc="http://www.garmin.com/xmlschemas/AccelerationExtension/v1" xmlns:gpxpx="http://www.garmin.com/xmlschemas/PowerExtension/v1" xmlns:vidx1="http://www.garmin.com/xmlschemas/VideoExtension/v1">

  <metadata>
    <link href="http://www.garmin.com">
      <text>Garmin International</text>
    </link>
    <time>2022-07-02T19:26:35Z</time>
    <bounds maxlat="-33.334207059815526" maxlon="22.567126303911209" minlat="-33.472102945670485" minlon="22.537993909791112" />
  </metadata>

  <trk>
    <name>[255] Meirings Poort</name>
    <extensions>
      <gpxx:TrackExtension>
        <gpxx:DisplayColor>Green</gpxx:DisplayColor>
      </gpxx:TrackExtension>
    </extensions>
    <trkseg>
      <trkpt lat="-33.472102945670485" lon="22.550491997972131">
        <ele>445.70999999999998</ele>
        <time>2022-01-29T04:47:12Z</time>
      </trkpt>
      <trkpt lat="-33.471886189654469" lon="22.550588892772794">
        <ele>445.70999999999998</ele>
        <time>2022-01-29T04:47:13Z</time>
      </trkpt>
      <trkpt lat="-33.4716687630862" lon="22.55065955221653">
        <ele>445.70999999999998</ele>
        <time>2022-01-29T04:47:14Z</time>
      </trkpt>
      <trkpt lat="-33.471443206071854" lon="22.550707412883639">
        <ele>445.70999999999998</ele>
        <time>2022-01-29T04:47:15Z</time>
      </trkpt>
      <trkpt lat="-33.47121681086719" lon="22.5507318880409">
        <ele>445.70999999999998</ele>
        <time>2022-01-29T04:47:16Z</time>
      </trkpt>
      <trkpt lat="-33.470989745110273" lon="22.550733480602503">
        <ele>445.70999999999998</ele>
        <time>2022-01-29T04:47:17Z</time>
      </trkpt>
      <trkpt lat="-33.470758823677897" lon="22.550713028758764">
        <ele>445.70999999999998</ele>
        <time>2022-01-29T04:47:18Z</time>
      </trkpt>
      <trkpt lat="-33.470537206158042" lon="22.550674388185143">
        <ele>445.70999999999998</ele>
        <time>2022-01-29T04:47:19Z</time>
      </trkpt>
      <trkpt lat="-33.470317348837852" lon="22.550624096766114">
        <ele>446.19</ele>
        <time>2022-01-29T04:47:20Z</time>
      </trkpt>
      <trkpt lat="-33.468986805528402" lon="22.550594760105014">
        <ele>448.11000000000001</ele>
        <time>2022-01-29T04:47:26Z</time>
      </trkpt>
      <trkpt lat="-33.468764265999198" lon="22.550666173920035">
        <ele>448.58999999999997</ele>
        <time>2022-01-29T04:47:27Z</time>
      </trkpt>
      <trkpt lat="-33.468553042039275" lon="22.550758039578795">
        <ele>449.06999999999999</ele>
        <time>2022-01-29T04:47:28Z</time>
      </trkpt>
      <trkpt lat="-33.468348942697048" lon="22.550873290747404">
        <ele>449.55000000000001</ele>
        <time>2022-01-29T04:47:29Z</time>
      </trkpt>
      <trkpt lat="-33.468153392896056" lon="22.551005640998483">
        <ele>450.02999999999997</ele>
        <time>2022-01-29T04:47:30Z</time>
      </trkpt>
      <trkpt lat="-33.467964213341475" lon="22.551159365102649">
        <ele>450.51999999999998</ele>
        <time>2022-01-29T04:47:31Z</time>
      </trkpt>
      <trkpt lat="-33.467787439003587" lon="22.551334043964744">
        <ele>451</ele>
        <time>2022-01-29T04:47:32Z</time>
      </trkpt>
      <trkpt lat="-33.467624997720122" lon="22.55152883939445">
        <ele>451.48000000000002</ele>
        <time>2022-01-29T04:47:33Z</time>
      </trkpt>
      <trkpt lat="-33.467478565871716" lon="22.551735369488597">
        <ele>451.95999999999998</ele>
        <time>2022-01-29T04:47:34Z</time>
      </trkpt>
      <trkpt lat="-33.467344706878066" lon="22.551960255950689">
        <ele>451.95999999999998</ele>
        <time>2022-01-29T04:47:35Z</time>
      </trkpt>
      <trkpt lat="-33.467227527871728" lon="22.552190590649843">
        <ele>452.44</ele>
        <time>2022-01-29T04:47:36Z</time>
      </trkpt>
      <trkpt lat="-33.467125101014972" lon="22.552434168756008">
        <ele>452.92000000000002</ele>
        <time>2022-01-29T04:47:37Z</time>
      </trkpt>
      <trkpt lat="-33.467041114345193" lon="22.552688308060169">
        <ele>453.39999999999998</ele>
        <time>2022-01-29T04:47:38Z</time>
      </trkpt>
      <trkpt lat="-33.466971544548869" lon="22.552957367151976">
        <ele>453.88</ele>
        <time>2022-01-29T04:47:39Z</time>
      </trkpt>
      <trkpt lat="-33.466912284493446" lon="22.553238412365317">
        <ele>454.36000000000001</ele>
        <time>2022-01-29T04:47:40Z</time>
      </trkpt>
      <trkpt lat="-33.466428145766258" lon="22.555631278082728">
        <ele>458.69</ele>
        <time>2022-01-29T04:47:48Z</time>
      </trkpt>
      <trkpt lat="-33.466102844104171" lon="22.556581031531096">
        <ele>459.17000000000002</ele>
        <time>2022-01-29T04:47:52Z</time>
      </trkpt>
      <trkpt lat="-33.465988598763943" lon="22.556786136701703">
        <ele>459.17000000000002</ele>
        <time>2022-01-29T04:47:53Z</time>
      </trkpt>
      <trkpt lat="-33.465860188007355" lon="22.556985542178154">
        <ele>458.69</ele>
        <time>2022-01-29T04:47:54Z</time>
      </trkpt>
      <trkpt lat="-33.465718617662787" lon="22.557171788066626">
        <ele>458.69</ele>
        <time>2022-01-29T04:47:55Z</time>
      </trkpt>
      <trkpt lat="-33.465559864416718" lon="22.557348478585482">
        <ele>458.20999999999998</ele>
        <time>2022-01-29T04:47:56Z</time>
      </trkpt>
      <trkpt lat="-33.465391555801034" lon="22.557506896555424">
        <ele>458.20999999999998</ele>
        <time>2022-01-29T04:47:57Z</time>
      </trkpt>
      <trkpt lat="-33.465209836140275" lon="22.557650562375784">
        <ele>458.20999999999998</ele>
        <time>2022-01-29T04:47:58Z</time>
      </trkpt>
      <trkpt lat="-33.465014286339283" lon="22.557778721675277">
        <ele>458.20999999999998</ele>
        <time>2022-01-29T04:47:59Z</time>
      </trkpt>
      <trkpt lat="-33.464806331321597" lon="22.557894643396139">
        <ele>458.69</ele>
        <time>2022-01-29T04:48:00Z</time>
      </trkpt>
      <trkpt lat="-33.464593011885881" lon="22.557995226234198">
        <ele>459.17000000000002</ele>
        <time>2022-01-29T04:48:01Z</time>
      </trkpt>
      <trkpt lat="-33.464372316375375" lon="22.558080637827516">
        <ele>459.64999999999998</ele>
        <time>2022-01-29T04:48:02Z</time>
      </trkpt>
      <trkpt lat="-33.464146591722965" lon="22.558152973651886">
        <ele>460.61000000000001</ele>
        <time>2022-01-29T04:48:03Z</time>
      </trkpt>
      <trkpt lat="-33.461996885016561" lon="22.558555724099278">
        <ele>466.86000000000001</ele>
        <time>2022-01-29T04:48:12Z</time>
      </trkpt>
      <trkpt lat="-33.459890680387616" lon="22.558496547862887">
        <ele>469.74000000000001</ele>
        <time>2022-01-29T04:48:21Z</time>
      </trkpt>
      <trkpt lat="-33.459674678742886" lon="22.558548683300614">
        <ele>470.22000000000003</ele>
        <time>2022-01-29T04:48:22Z</time>
      </trkpt>
      <trkpt lat="-33.459455324336886" lon="22.558625377714634">
        <ele>470.69999999999999</ele>
        <time>2022-01-29T04:48:23Z</time>
      </trkpt>
      <trkpt lat="-33.459234545007348" lon="22.558727720752358">
        <ele>471.18000000000001</ele>
        <time>2022-01-29T04:48:24Z</time>
      </trkpt>
      <trkpt lat="-33.459003958851099" lon="22.558851605281234">
        <ele>471.66000000000003</ele>
        <time>2022-01-29T04:48:25Z</time>
      </trkpt>
      <trkpt lat="-33.45695617608726" lon="22.560100676491857">
        <ele>475.50999999999999</ele>
        <time>2022-01-29T04:48:34Z</time>
      </trkpt>
      <trkpt lat="-33.456023102626204" lon="22.560626808553934">
        <ele>476.94999999999999</ele>
        <time>2022-01-29T04:48:39Z</time>
      </trkpt>
      <trkpt lat="-33.45584012567997" lon="22.560677686706185">
        <ele>477.43000000000001</ele>
        <time>2022-01-29T04:48:40Z</time>
      </trkpt>
      <trkpt lat="-33.455656562000513" lon="22.560695204883814">
        <ele>477.43000000000001</ele>
        <time>2022-01-29T04:48:41Z</time>
      </trkpt>
      <trkpt lat="-33.455469058826566" lon="22.560677099972963">
        <ele>477.91000000000003</ele>
        <time>2022-01-29T04:48:42Z</time>
      </trkpt>
      <trkpt lat="-33.455282310023904" lon="22.560628317296505">
        <ele>478.87</ele>
        <time>2022-01-29T04:48:43Z</time>
      </trkpt>
      <trkpt lat="-33.455095225945115" lon="22.56055380217731">
        <ele>479.35000000000002</ele>
        <time>2022-01-29T04:48:44Z</time>
      </trkpt>
      <trkpt lat="-33.454905459657311" lon="22.560464618727565">
        <ele>479.83999999999997</ele>
        <time>2022-01-29T04:48:45Z</time>
      </trkpt>
      <trkpt lat="-33.453018357977271" lon="22.55945049226284">
        <ele>488.97000000000003</ele>
        <time>2022-01-29T04:48:54Z</time>
      </trkpt>
      <trkpt lat="-33.451432920992374" lon="22.558961240574718">
        <ele>489.44999999999999</ele>
        <time>2022-01-29T04:49:01Z</time>
      </trkpt>
      <trkpt lat="-33.449525702744722" lon="22.559294253587723">
        <ele>486.07999999999998</ele>
        <time>2022-01-29T04:49:09Z</time>
      </trkpt>
      <trkpt lat="-33.448058366775513" lon="22.559939660131931">
        <ele>484.63999999999999</ele>
        <time>2022-01-29T04:49:16Z</time>
      </trkpt>
      <trkpt lat="-33.447875306010246" lon="22.560035297647119">
        <ele>485.12</ele>
        <time>2022-01-29T04:49:17Z</time>
      </trkpt>
      <trkpt lat="-33.447705907747149" lon="22.560145184397697">
        <ele>485.60000000000002</ele>
        <time>2022-01-29T04:49:18Z</time>
      </trkpt>
      <trkpt lat="-33.447387395426631" lon="22.560346098616719">
        <ele>486.07999999999998</ele>
        <time>2022-01-29T04:49:20Z</time>
      </trkpt>
      <trkpt lat="-33.447222942486405" lon="22.560412734746933">
        <ele>486.56</ele>
        <time>2022-01-29T04:49:21Z</time>
      </trkpt>
      <trkpt lat="-33.447054382413626" lon="22.560451878234744">
        <ele>487.05000000000001</ele>
        <time>2022-01-29T04:49:22Z</time>
      </trkpt>
      <trkpt lat="-33.44688112847507" lon="22.560459338128567">
        <ele>487.05000000000001</ele>
        <time>2022-01-29T04:49:23Z</time>
      </trkpt>
      <trkpt lat="-33.446705779060721" lon="22.56044240668416">
        <ele>487.52999999999997</ele>
        <time>2022-01-29T04:49:24Z</time>
      </trkpt>
      <trkpt lat="-33.446529926732183" lon="22.56041307002306">
        <ele>488.00999999999999</ele>
        <time>2022-01-29T04:49:25Z</time>
      </trkpt>
      <trkpt lat="-33.446194985881448" lon="22.560379458591342">
        <ele>488.97000000000003</ele>
        <time>2022-01-29T04:49:27Z</time>
      </trkpt>
      <trkpt lat="-33.446036903187633" lon="22.560399910435081">
        <ele>488.97000000000003</ele>
        <time>2022-01-29T04:49:28Z</time>
      </trkpt>
      <trkpt lat="-33.445885358378291" lon="22.560451962053776">
        <ele>489.44999999999999</ele>
        <time>2022-01-29T04:49:29Z</time>
      </trkpt>
      <trkpt lat="-33.445743536576629" lon="22.560538211837411">
        <ele>489.93000000000001</ele>
        <time>2022-01-29T04:49:30Z</time>
      </trkpt>
      <trkpt lat="-33.445618143305182" lon="22.560654049739242">
        <ele>490.41000000000003</ele>
        <time>2022-01-29T04:49:31Z</time>
      </trkpt>
      <trkpt lat="-33.445512028411031" lon="22.560795117169619">
        <ele>490.41000000000003</ele>
        <time>2022-01-29T04:49:32Z</time>
      </trkpt>
      <trkpt lat="-33.44542745500803" lon="22.56095789372921">
        <ele>490.88999999999999</ele>
        <time>2022-01-29T04:49:33Z</time>
      </trkpt>
      <trkpt lat="-33.445368278771639" lon="22.561137182638049">
        <ele>490.88999999999999</ele>
        <time>2022-01-29T04:49:34Z</time>
      </trkpt>
      <trkpt lat="-33.445335254073143" lon="22.561329128220677">
        <ele>491.37</ele>
        <time>2022-01-29T04:49:35Z</time>
      </trkpt>
      <trkpt lat="-33.445327542722225" lon="22.561528952792287">
        <ele>491.37</ele>
        <time>2022-01-29T04:49:36Z</time>
      </trkpt>
      <trkpt lat="-33.445344557985663" lon="22.561733052134514">
        <ele>491.85000000000002</ele>
        <time>2022-01-29T04:49:37Z</time>
      </trkpt>
      <trkpt lat="-33.445378672331572" lon="22.561941677704453">
        <ele>491.85000000000002</ele>
        <time>2022-01-29T04:49:38Z</time>
      </trkpt>
      <trkpt lat="-33.445485709235072" lon="22.562585743144155">
        <ele>492.81</ele>
        <time>2022-01-29T04:49:41Z</time>
      </trkpt>
      <trkpt lat="-33.445493085309863" lon="22.562807025387883">
        <ele>493.29000000000002</ele>
        <time>2022-01-29T04:49:42Z</time>
      </trkpt>
      <trkpt lat="-33.445475902408361" lon="22.563029816374183">
        <ele>493.76999999999998</ele>
        <time>2022-01-29T04:49:43Z</time>
      </trkpt>
      <trkpt lat="-33.445437261834741" lon="22.563249841332436">
        <ele>494.25999999999999</ele>
        <time>2022-01-29T04:49:44Z</time>
      </trkpt>
      <trkpt lat="-33.445390909910202" lon="22.563467686995864">
        <ele>494.25999999999999</ele>
        <time>2022-01-29T04:49:45Z</time>
      </trkpt>
      <trkpt lat="-33.445353861898184" lon="22.563687460497022">
        <ele>494.74000000000001</ele>
        <time>2022-01-29T04:49:46Z</time>
      </trkpt>
      <trkpt lat="-33.445335924625397" lon="22.563908910378814">
        <ele>495.22000000000003</ele>
        <time>2022-01-29T04:49:47Z</time>
      </trkpt>
      <trkpt lat="-33.445299211889505" lon="22.564782053232193">
        <ele>496.66000000000003</ele>
        <time>2022-01-29T04:49:51Z</time>
      </trkpt>
      <trkpt lat="-33.445250848308206" lon="22.564985901117325">
        <ele>497.13999999999999</ele>
        <time>2022-01-29T04:49:52Z</time>
      </trkpt>
      <trkpt lat="-33.445183541625738" lon="22.565183714032173">
        <ele>497.62</ele>
        <time>2022-01-29T04:49:53Z</time>
      </trkpt>
      <trkpt lat="-33.444933341816068" lon="22.565694255754352">
        <ele>498.10000000000002</ele>
        <time>2022-01-29T04:49:56Z</time>
      </trkpt>
      <trkpt lat="-33.444828065112233" lon="22.565827528014779">
        <ele>498.10000000000002</ele>
        <time>2022-01-29T04:49:57Z</time>
      </trkpt>
      <trkpt lat="-33.444707030430436" lon="22.565942108631134">
        <ele>498.10000000000002</ele>
        <time>2022-01-29T04:49:58Z</time>
      </trkpt>
      <trkpt lat="-33.444576021283865" lon="22.56603523157537">
        <ele>498.57999999999998</ele>
        <time>2022-01-29T04:49:59Z</time>
      </trkpt>
      <trkpt lat="-33.444438390433788" lon="22.566112345084548">
        <ele>498.57999999999998</ele>
        <time>2022-01-29T04:50:00Z</time>
      </trkpt>
      <trkpt lat="-33.44429237768054" lon="22.566186441108584">
        <ele>498.57999999999998</ele>
        <time>2022-01-29T04:50:01Z</time>
      </trkpt>
      <trkpt lat="-33.443070380017161" lon="22.566969729959965">
        <ele>500.01999999999998</ele>
        <time>2022-01-29T04:50:09Z</time>
      </trkpt>
      <trkpt lat="-33.442928306758404" lon="22.567049190402031">
        <ele>500.5</ele>
        <time>2022-01-29T04:50:10Z</time>
      </trkpt>
      <trkpt lat="-33.44278640113771" lon="22.567103169858456">
        <ele>500.5</ele>
        <time>2022-01-29T04:50:11Z</time>
      </trkpt>
      <trkpt lat="-33.442648770287633" lon="22.567126303911209">
        <ele>500.98000000000002</ele>
        <time>2022-01-29T04:50:12Z</time>
      </trkpt>
      <trkpt lat="-33.44251474365592" lon="22.567118844017386">
        <ele>501.45999999999998</ele>
        <time>2022-01-29T04:50:13Z</time>
      </trkpt>
      <trkpt lat="-33.442383147776127" lon="22.56708137691021">
        <ele>501.45999999999998</ele>
        <time>2022-01-29T04:50:14Z</time>
      </trkpt>
      <trkpt lat="-33.442257503047585" lon="22.567015076056123">
        <ele>501.45999999999998</ele>
        <time>2022-01-29T04:50:15Z</time>
      </trkpt>
      <trkpt lat="-33.44214141368866" lon="22.566921534016728">
        <ele>501.45999999999998</ele>
        <time>2022-01-29T04:50:16Z</time>
      </trkpt>
      <trkpt lat="-33.442038400098681" lon="22.566802594810724">
        <ele>501.45999999999998</ele>
        <time>2022-01-29T04:50:17Z</time>
      </trkpt>
      <trkpt lat="-33.441956005990505" lon="22.566665383055806">
        <ele>501.45999999999998</ele>
        <time>2022-01-29T04:50:18Z</time>
      </trkpt>
      <trkpt lat="-33.441893560811877" lon="22.566510066390038">
        <ele>501.94999999999999</ele>
        <time>2022-01-29T04:50:19Z</time>
      </trkpt>
      <trkpt lat="-33.44185458496213" lon="22.566340919584036">
        <ele>502.43000000000001</ele>
        <time>2022-01-29T04:50:20Z</time>
      </trkpt>
      <trkpt lat="-33.441834636032581" lon="22.566160289570689">
        <ele>502.91000000000003</ele>
        <time>2022-01-29T04:50:21Z</time>
      </trkpt>
      <trkpt lat="-33.441825164481997" lon="22.565966583788395">
        <ele>503.38999999999999</ele>
        <time>2022-01-29T04:50:22Z</time>
      </trkpt>
      <trkpt lat="-33.44169138930738" lon="22.564062215387821">
        <ele>505.79000000000002</ele>
        <time>2022-01-29T04:50:31Z</time>
      </trkpt>
      <trkpt lat="-33.441634979099035" lon="22.563867252320051">
        <ele>505.79000000000002</ele>
        <time>2022-01-29T04:50:32Z</time>
      </trkpt>
      <trkpt lat="-33.441561050713062" lon="22.563681174069643">
        <ele>506.26999999999998</ele>
        <time>2022-01-29T04:50:33Z</time>
      </trkpt>
      <trkpt lat="-33.441470693796873" lon="22.563501466065645">
        <ele>506.26999999999998</ele>
        <time>2022-01-29T04:50:34Z</time>
      </trkpt>
      <trkpt lat="-33.441366506740451" lon="22.563321255147457">
        <ele>506.75</ele>
        <time>2022-01-29T04:50:35Z</time>
      </trkpt>
      <trkpt lat="-33.440502667799592" lon="22.561610424891114">
        <ele>509.63999999999999</ele>
        <time>2022-01-29T04:50:43Z</time>
      </trkpt>
      <trkpt lat="-33.440197063609958" lon="22.560429414734244">
        <ele>512.03999999999996</ele>
        <time>2022-01-29T04:50:48Z</time>
      </trkpt>
      <trkpt lat="-33.440121291205287" lon="22.560225063934922">
        <ele>512.03999999999996</ele>
        <time>2022-01-29T04:50:49Z</time>
      </trkpt>
      <trkpt lat="-33.440026994794607" lon="22.560032028704882">
        <ele>512.51999999999998</ele>
        <time>2022-01-29T04:50:50Z</time>
      </trkpt>
      <trkpt lat="-33.439917443320155" lon="22.559850141406059">
        <ele>512.51999999999998</ele>
        <time>2022-01-29T04:50:51Z</time>
      </trkpt>
      <trkpt lat="-33.439796576276422" lon="22.559668337926269">
        <ele>513</ele>
        <time>2022-01-29T04:50:52Z</time>
      </trkpt>
      <trkpt lat="-33.439587531611323" lon="22.559313699603081">
        <ele>513.48000000000002</ele>
        <time>2022-01-29T04:50:54Z</time>
      </trkpt>
      <trkpt lat="-33.439505305141211" lon="22.559127537533641">
        <ele>513.96000000000004</ele>
        <time>2022-01-29T04:50:55Z</time>
      </trkpt>
      <trkpt lat="-33.439438669010997" lon="22.558936178684235">
        <ele>514.44000000000005</ele>
        <time>2022-01-29T04:50:56Z</time>
      </trkpt>
      <trkpt lat="-33.439162401482463" lon="22.558169821277261">
        <ele>516.85000000000002</ele>
        <time>2022-01-29T04:51:00Z</time>
      </trkpt>
      <trkpt lat="-33.439067853614688" lon="22.557989777997136">
        <ele>517.80999999999995</ele>
        <time>2022-01-29T04:51:01Z</time>
      </trkpt>
      <trkpt lat="-33.438959056511521" lon="22.557818703353405">
        <ele>518.28999999999996</ele>
        <time>2022-01-29T04:51:02Z</time>
      </trkpt>
      <trkpt lat="-33.438836010172963" lon="22.557660872116685">
        <ele>518.28999999999996</ele>
        <time>2022-01-29T04:51:03Z</time>
      </trkpt>
      <trkpt lat="-33.438697205856442" lon="22.557514775544405">
        <ele>518.76999999999998</ele>
        <time>2022-01-29T04:51:04Z</time>
      </trkpt>
      <trkpt lat="-33.438543565571308" lon="22.557387119159102">
        <ele>519.25</ele>
        <time>2022-01-29T04:51:05Z</time>
      </trkpt>
      <trkpt lat="-33.43836821615696" lon="22.557275472208858">
        <ele>519.73000000000002</ele>
        <time>2022-01-29T04:51:06Z</time>
      </trkpt>
      <trkpt lat="-33.438185406848788" lon="22.557190144434571">
        <ele>520.21000000000004</ele>
        <time>2022-01-29T04:51:07Z</time>
      </trkpt>
      <trkpt lat="-33.437988180667162" lon="22.557126106694341">
        <ele>520.69000000000005</ele>
        <time>2022-01-29T04:51:08Z</time>
      </trkpt>
      <trkpt lat="-33.437780728563666" lon="22.55707916803658">
        <ele>521.16999999999996</ele>
        <time>2022-01-29T04:51:09Z</time>
      </trkpt>
      <trkpt lat="-33.437566068023443" lon="22.557044634595513">
        <ele>521.16999999999996</ele>
        <time>2022-01-29T04:51:10Z</time>
      </trkpt>
      <trkpt lat="-33.436386901885271" lon="22.556831315159798">
        <ele>524.05999999999995</ele>
        <time>2022-01-29T04:51:16Z</time>
      </trkpt>
      <trkpt lat="-33.436218928545713" lon="22.556765098124743">
        <ele>524.53999999999996</ele>
        <time>2022-01-29T04:51:17Z</time>
      </trkpt>
      <trkpt lat="-33.435359951108694" lon="22.556321611627936">
        <ele>527.89999999999998</ele>
        <time>2022-01-29T04:51:23Z</time>
      </trkpt>
      <trkpt lat="-33.43523464165628" lon="22.556293699890375">
        <ele>528.38</ele>
        <time>2022-01-29T04:51:24Z</time>
      </trkpt>
      <trkpt lat="-33.43511008657515" lon="22.556298058480024">
        <ele>528.86000000000001</ele>
        <time>2022-01-29T04:51:25Z</time>
      </trkpt>
      <trkpt lat="-33.434991901740432" lon="22.556337369605899">
        <ele>529.34000000000003</ele>
        <time>2022-01-29T04:51:26Z</time>
      </trkpt>
      <trkpt lat="-33.434879248961806" lon="22.556403335183859">
        <ele>529.82000000000005</ele>
        <time>2022-01-29T04:51:27Z</time>
      </trkpt>
      <trkpt lat="-33.43477095477283" lon="22.556502828374505">
        <ele>530.29999999999995</ele>
        <time>2022-01-29T04:51:28Z</time>
      </trkpt>
      <trkpt lat="-33.43467959202826" lon="22.556633753702044">
        <ele>530.29999999999995</ele>
        <time>2022-01-29T04:51:29Z</time>
      </trkpt>
      <trkpt lat="-33.434590995311737" lon="22.55678596906364">
        <ele>530.29999999999995</ele>
        <time>2022-01-29T04:51:30Z</time>
      </trkpt>
      <trkpt lat="-33.433827739208937" lon="22.558101173490286">
        <ele>530.29999999999995</ele>
        <time>2022-01-29T04:51:37Z</time>
      </trkpt>
      <trkpt lat="-33.433262715116143" lon="22.559038521721959">
        <ele>529.82000000000005</ele>
        <time>2022-01-29T04:51:43Z</time>
      </trkpt>
      <trkpt lat="-33.433159701526165" lon="22.559129800647497">
        <ele>529.82000000000005</ele>
        <time>2022-01-29T04:51:44Z</time>
      </trkpt>
      <trkpt lat="-33.433046713471413" lon="22.559189228340983">
        <ele>529.82000000000005</ele>
        <time>2022-01-29T04:51:45Z</time>
      </trkpt>
      <trkpt lat="-33.432929199188948" lon="22.559216720983386">
        <ele>529.82000000000005</ele>
        <time>2022-01-29T04:51:46Z</time>
      </trkpt>
      <trkpt lat="-33.432813361287117" lon="22.559212362393737">
        <ele>530.29999999999995</ele>
        <time>2022-01-29T04:51:47Z</time>
      </trkpt>
      <trkpt lat="-33.43269526027143" lon="22.559179086238146">
        <ele>530.29999999999995</ele>
        <time>2022-01-29T04:51:48Z</time>
      </trkpt>
      <trkpt lat="-33.432580512017012" lon="22.559115467593074">
        <ele>530.29999999999995</ele>
        <time>2022-01-29T04:51:49Z</time>
      </trkpt>
      <trkpt lat="-33.432470792904496" lon="22.559015136212111">
        <ele>530.78999999999996</ele>
        <time>2022-01-29T04:51:50Z</time>
      </trkpt>
      <trkpt lat="-33.43236199580133" lon="22.55887733772397">
        <ele>530.78999999999996</ele>
        <time>2022-01-29T04:51:51Z</time>
      </trkpt>
      <trkpt lat="-33.432257389649749" lon="22.558726547285914">
        <ele>530.78999999999996</ele>
        <time>2022-01-29T04:51:52Z</time>
      </trkpt>
      <trkpt lat="-33.431611647829413" lon="22.557512763887644">
        <ele>534.63</ele>
        <time>2022-01-29T04:51:59Z</time>
      </trkpt>
      <trkpt lat="-33.431501341983676" lon="22.557380497455597">
        <ele>534.63</ele>
        <time>2022-01-29T04:52:00Z</time>
      </trkpt>
      <trkpt lat="-33.431380307301879" lon="22.557259546592832">
        <ele>535.11000000000001</ele>
        <time>2022-01-29T04:52:01Z</time>
      </trkpt>
      <trkpt lat="-33.431250303983688" lon="22.55715150386095">
        <ele>536.07000000000005</ele>
        <time>2022-01-29T04:52:02Z</time>
      </trkpt>
      <trkpt lat="-33.431109236553311" lon="22.557056955993176">
        <ele>536.54999999999995</ele>
        <time>2022-01-29T04:52:03Z</time>
      </trkpt>
      <trkpt lat="-33.430957272648811" lon="22.556980345398188">
        <ele>537.02999999999997</ele>
        <time>2022-01-29T04:52:04Z</time>
      </trkpt>
      <trkpt lat="-33.430795837193727" lon="22.556922677904367">
        <ele>537.99000000000001</ele>
        <time>2022-01-29T04:52:05Z</time>
      </trkpt>
      <trkpt lat="-33.430620236322284" lon="22.556878672912717">
        <ele>538.48000000000002</ele>
        <time>2022-01-29T04:52:06Z</time>
      </trkpt>
      <trkpt lat="-33.430459555238485" lon="22.556845983490348">
        <ele>538.96000000000004</ele>
        <time>2022-01-29T04:52:07Z</time>
      </trkpt>
      <trkpt lat="-33.43016610480845" lon="22.556773480027914">
        <ele>539.91999999999996</ele>
        <time>2022-01-29T04:52:09Z</time>
      </trkpt>
      <trkpt lat="-33.43003467656672" lon="22.556720171123743">
        <ele>539.91999999999996</ele>
        <time>2022-01-29T04:52:10Z</time>
      </trkpt>
      <trkpt lat="-33.429921437054873" lon="22.556640710681677">
        <ele>540.39999999999998</ele>
        <time>2022-01-29T04:52:11Z</time>
      </trkpt>
      <trkpt lat="-33.42982211150229" lon="22.55653727799654">
        <ele>540.39999999999998</ele>
        <time>2022-01-29T04:52:12Z</time>
      </trkpt>
      <trkpt lat="-33.429736280813813" lon="22.556400401517749">
        <ele>540.88</ele>
        <time>2022-01-29T04:52:13Z</time>
      </trkpt>
      <trkpt lat="-33.429675931110978" lon="22.556240558624268">
        <ele>540.88</ele>
        <time>2022-01-29T04:52:14Z</time>
      </trkpt>
      <trkpt lat="-33.429633183404803" lon="22.556051714345813">
        <ele>540.88</ele>
        <time>2022-01-29T04:52:15Z</time>
      </trkpt>
      <trkpt lat="-33.429603427648544" lon="22.555849375203252">
        <ele>541.36000000000001</ele>
        <time>2022-01-29T04:52:16Z</time>
      </trkpt>
      <trkpt lat="-33.42958658002317" lon="22.555643683299422">
        <ele>541.36000000000001</ele>
        <time>2022-01-29T04:52:17Z</time>
      </trkpt>
      <trkpt lat="-33.429586244747043" lon="22.555441176518798">
        <ele>541.36000000000001</ele>
        <time>2022-01-29T04:52:18Z</time>
      </trkpt>
      <trkpt lat="-33.429601835086942" lon="22.555248225107789">
        <ele>541.36000000000001</ele>
        <time>2022-01-29T04:52:19Z</time>
      </trkpt>
      <trkpt lat="-33.42962228693068" lon="22.555061308667064">
        <ele>541.84000000000003</ele>
        <time>2022-01-29T04:52:20Z</time>
      </trkpt>
      <trkpt lat="-33.429632009938359" lon="22.554868357256055">
        <ele>541.36000000000001</ele>
        <time>2022-01-29T04:52:21Z</time>
      </trkpt>
      <trkpt lat="-33.429620023816824" lon="22.554680434986949">
        <ele>541.84000000000003</ele>
        <time>2022-01-29T04:52:22Z</time>
      </trkpt>
      <trkpt lat="-33.42958465218544" lon="22.554498463869095">
        <ele>541.84000000000003</ele>
        <time>2022-01-29T04:52:23Z</time>
      </trkpt>
      <trkpt lat="-33.429531343281269" lon="22.554326970130205">
        <ele>541.84000000000003</ele>
        <time>2022-01-29T04:52:24Z</time>
      </trkpt>
      <trkpt lat="-33.429474094882607" lon="22.554170396178961">
        <ele>541.84000000000003</ele>
        <time>2022-01-29T04:52:25Z</time>
      </trkpt>
      <trkpt lat="-33.429387845098972" lon="22.553852889686823">
        <ele>542.32000000000005</ele>
        <time>2022-01-29T04:52:27Z</time>
      </trkpt>
      <trkpt lat="-33.429370243102312" lon="22.55368466489017">
        <ele>542.79999999999995</ele>
        <time>2022-01-29T04:52:28Z</time>
      </trkpt>
      <trkpt lat="-33.429324897006154" lon="22.552937166765332">
        <ele>545.69000000000005</ele>
        <time>2022-01-29T04:52:32Z</time>
      </trkpt>
      <trkpt lat="-33.429286256432533" lon="22.552752764895558">
        <ele>546.16999999999996</ele>
        <time>2022-01-29T04:52:33Z</time>
      </trkpt>
      <trkpt lat="-33.429224481806159" lon="22.552571464329958">
        <ele>546.64999999999998</ele>
        <time>2022-01-29T04:52:34Z</time>
      </trkpt>
      <trkpt lat="-33.42914829030633" lon="22.552411537617445">
        <ele>547.61000000000001</ele>
        <time>2022-01-29T04:52:35Z</time>
      </trkpt>
      <trkpt lat="-33.429058436304331" lon="22.55226275883615">
        <ele>548.09000000000003</ele>
        <time>2022-01-29T04:52:36Z</time>
      </trkpt>
      <trkpt lat="-33.42895433306694" lon="22.55212252959609">
        <ele>548.09000000000003</ele>
        <time>2022-01-29T04:52:37Z</time>
      </trkpt>
      <trkpt lat="-33.428837656974792" lon="22.551994202658534">
        <ele>548.57000000000005</ele>
        <time>2022-01-29T04:52:38Z</time>
      </trkpt>
      <trkpt lat="-33.42870807275176" lon="22.551884399726987">
        <ele>548.57000000000005</ele>
        <time>2022-01-29T04:52:39Z</time>
      </trkpt>
      <trkpt lat="-33.428562059998512" lon="22.551791444420815">
        <ele>549.04999999999995</ele>
        <time>2022-01-29T04:52:40Z</time>
      </trkpt>
      <trkpt lat="-33.428394421935081" lon="22.551711481064558">
        <ele>549.52999999999997</ele>
        <time>2022-01-29T04:52:41Z</time>
      </trkpt>
      <trkpt lat="-33.428222257643938" lon="22.551656076684594">
        <ele>549.52999999999997</ele>
        <time>2022-01-29T04:52:42Z</time>
      </trkpt>
      <trkpt lat="-33.428040202707052" lon="22.551615843549371">
        <ele>550.00999999999999</ele>
        <time>2022-01-29T04:52:43Z</time>
      </trkpt>
      <trkpt lat="-33.427852699533105" lon="22.551577370613813">
        <ele>550.97000000000003</ele>
        <time>2022-01-29T04:52:44Z</time>
      </trkpt>
      <trkpt lat="-33.427337883040309" lon="22.551407385617495">
        <ele>552.40999999999997</ele>
        <time>2022-01-29T04:52:47Z</time>
      </trkpt>
      <trkpt lat="-33.427202180027962" lon="22.551328847184777">
        <ele>553.38</ele>
        <time>2022-01-29T04:52:48Z</time>
      </trkpt>
      <trkpt lat="-33.427075864747167" lon="22.551236310973763">
        <ele>553.86000000000001</ele>
        <time>2022-01-29T04:52:49Z</time>
      </trkpt>
      <trkpt lat="-33.426957596093416" lon="22.55111837759614">
        <ele>554.34000000000003</ele>
        <time>2022-01-29T04:52:50Z</time>
      </trkpt>
      <trkpt lat="-33.426849469542503" lon="22.550974460318685">
        <ele>555.29999999999995</ele>
        <time>2022-01-29T04:52:51Z</time>
      </trkpt>
      <trkpt lat="-33.426754418760538" lon="22.55080807954073">
        <ele>555.77999999999997</ele>
        <time>2022-01-29T04:52:52Z</time>
      </trkpt>
      <trkpt lat="-33.426663307473063" lon="22.550624264404178">
        <ele>556.25999999999999</ele>
        <time>2022-01-29T04:52:53Z</time>
      </trkpt>
      <trkpt lat="-33.425787147134542" lon="22.549476530402899">
        <ele>559.62</ele>
        <time>2022-01-29T04:53:00Z</time>
      </trkpt>
      <trkpt lat="-33.425627974793315" lon="22.549372930079699">
        <ele>559.62</ele>
        <time>2022-01-29T04:53:01Z</time>
      </trkpt>
      <trkpt lat="-33.425467712804675" lon="22.549301432445645">
        <ele>559.13999999999999</ele>
        <time>2022-01-29T04:53:02Z</time>
      </trkpt>
      <trkpt lat="-33.425298482179642" lon="22.549254493787885">
        <ele>559.13999999999999</ele>
        <time>2022-01-29T04:53:03Z</time>
      </trkpt>
      <trkpt lat="-33.42512296512723" lon="22.549230018630624">
        <ele>559.13999999999999</ele>
        <time>2022-01-29T04:53:04Z</time>
      </trkpt>
      <trkpt lat="-33.424944095313549" lon="22.549219792708755">
        <ele>559.13999999999999</ele>
        <time>2022-01-29T04:53:05Z</time>
      </trkpt>
      <trkpt lat="-33.424587026238441" lon="22.549158856272697">
        <ele>559.13999999999999</ele>
        <time>2022-01-29T04:53:07Z</time>
      </trkpt>
      <trkpt lat="-33.424404133111238" lon="22.549086855724454">
        <ele>559.13999999999999</ele>
        <time>2022-01-29T04:53:08Z</time>
      </trkpt>
      <trkpt lat="-33.424242781475186" lon="22.5490050483495">
        <ele>559.62</ele>
        <time>2022-01-29T04:53:09Z</time>
      </trkpt>
      <trkpt lat="-33.423933908343315" lon="22.548858029767871">
        <ele>559.62</ele>
        <time>2022-01-29T04:53:11Z</time>
      </trkpt>
      <trkpt lat="-33.423767611384392" lon="22.54881301894784">
        <ele>560.11000000000001</ele>
        <time>2022-01-29T04:53:12Z</time>
      </trkpt>
      <trkpt lat="-33.423595614731312" lon="22.548790303990245">
        <ele>560.11000000000001</ele>
        <time>2022-01-29T04:53:13Z</time>
      </trkpt>
      <trkpt lat="-33.423410374671221" lon="22.54879298619926">
        <ele>560.11000000000001</ele>
        <time>2022-01-29T04:53:14Z</time>
      </trkpt>
      <trkpt lat="-33.42323443852365" lon="22.548823077231646">
        <ele>560.59000000000003</ele>
        <time>2022-01-29T04:53:15Z</time>
      </trkpt>
      <trkpt lat="-33.423060933127999" lon="22.548875547945499">
        <ele>561.07000000000005</ele>
        <time>2022-01-29T04:53:16Z</time>
      </trkpt>
      <trkpt lat="-33.422891283407807" lon="22.548943106085062">
        <ele>561.07000000000005</ele>
        <time>2022-01-29T04:53:17Z</time>
      </trkpt>
      <trkpt lat="-33.422727081924677" lon="22.549018040299416">
        <ele>561.54999999999995</ele>
        <time>2022-01-29T04:53:18Z</time>
      </trkpt>
      <trkpt lat="-33.42229139059782" lon="22.549259439110756">
        <ele>562.02999999999997</ele>
        <time>2022-01-29T04:53:21Z</time>
      </trkpt>
      <trkpt lat="-33.422163734212518" lon="22.549372259527445">
        <ele>562.02999999999997</ele>
        <time>2022-01-29T04:53:22Z</time>
      </trkpt>
      <trkpt lat="-33.422059463337064" lon="22.549503268674016">
        <ele>562.50999999999999</ele>
        <time>2022-01-29T04:53:23Z</time>
      </trkpt>
      <trkpt lat="-33.421971788629889" lon="22.549659255892038">
        <ele>562.50999999999999</ele>
        <time>2022-01-29T04:53:24Z</time>
      </trkpt>
      <trkpt lat="-33.421897357329726" lon="22.549830330535769">
        <ele>562.50999999999999</ele>
        <time>2022-01-29T04:53:25Z</time>
      </trkpt>
      <trkpt lat="-33.421827871352434" lon="22.550003752112389">
        <ele>562.50999999999999</ele>
        <time>2022-01-29T04:53:26Z</time>
      </trkpt>
      <trkpt lat="-33.421680182218552" lon="22.550306422635913">
        <ele>562.99000000000001</ele>
        <time>2022-01-29T04:53:28Z</time>
      </trkpt>
      <trkpt lat="-33.421582952141762" lon="22.550439778715372">
        <ele>562.99000000000001</ele>
        <time>2022-01-29T04:53:29Z</time>
      </trkpt>
      <trkpt lat="-33.421473065391183" lon="22.550545306876302">
        <ele>562.99000000000001</ele>
        <time>2022-01-29T04:53:30Z</time>
      </trkpt>
      <trkpt lat="-33.42134834267199" lon="22.550626946613193">
        <ele>563.47000000000003</ele>
        <time>2022-01-29T04:53:31Z</time>
      </trkpt>
      <trkpt lat="-33.421208783984184" lon="22.550685200840235">
        <ele>563.47000000000003</ele>
        <time>2022-01-29T04:53:32Z</time>
      </trkpt>
      <trkpt lat="-33.421054976060987" lon="22.550723338499665">
        <ele>563.95000000000005</ele>
        <time>2022-01-29T04:53:33Z</time>
      </trkpt>
      <trkpt lat="-33.420886332169175" lon="22.550751250237226">
        <ele>563.95000000000005</ele>
        <time>2022-01-29T04:53:34Z</time>
      </trkpt>
      <trkpt lat="-33.420035485178232" lon="22.550826100632548">
        <ele>564.90999999999997</ele>
        <time>2022-01-29T04:53:39Z</time>
      </trkpt>
      <trkpt lat="-33.419888215139508" lon="22.550786202773452">
        <ele>564.90999999999997</ele>
        <time>2022-01-29T04:53:40Z</time>
      </trkpt>
      <trkpt lat="-33.419742872938514" lon="22.550717387348413">
        <ele>565.38999999999999</ele>
        <time>2022-01-29T04:53:41Z</time>
      </trkpt>
      <trkpt lat="-33.419596357271075" lon="22.550626946613193">
        <ele>565.87</ele>
        <time>2022-01-29T04:53:42Z</time>
      </trkpt>
      <trkpt lat="-33.419445147737861" lon="22.550520412623882">
        <ele>566.35000000000002</ele>
        <time>2022-01-29T04:53:43Z</time>
      </trkpt>
      <trkpt lat="-33.419284801930189" lon="22.550395103171468">
        <ele>566.83000000000004</ele>
        <time>2022-01-29T04:53:44Z</time>
      </trkpt>
      <trkpt lat="-33.418024331331253" lon="22.5493642129004">
        <ele>569.24000000000001</ele>
        <time>2022-01-29T04:53:53Z</time>
      </trkpt>
      <trkpt lat="-33.417658628895879" lon="22.549135135486722">
        <ele>569.72000000000003</ele>
        <time>2022-01-29T04:53:56Z</time>
      </trkpt>
      <trkpt lat="-33.417528541758657" lon="22.549095824360847">
        <ele>569.72000000000003</ele>
        <time>2022-01-29T04:53:57Z</time>
      </trkpt>
      <trkpt lat="-33.417394934222102" lon="22.54908375442028">
        <ele>570.20000000000005</ele>
        <time>2022-01-29T04:53:58Z</time>
      </trkpt>
      <trkpt lat="-33.417260069400072" lon="22.549095572903752">
        <ele>570.20000000000005</ele>
        <time>2022-01-29T04:53:59Z</time>
      </trkpt>
      <trkpt lat="-33.417137693613768" lon="22.549129268154502">
        <ele>570.67999999999995</ele>
        <time>2022-01-29T04:54:00Z</time>
      </trkpt>
      <trkpt lat="-33.417002744972706" lon="22.549202106893063">
        <ele>571.63999999999999</ele>
        <time>2022-01-29T04:54:01Z</time>
      </trkpt>
      <trkpt lat="-33.41688715852797" lon="22.549290284514427">
        <ele>572.12</ele>
        <time>2022-01-29T04:54:02Z</time>
      </trkpt>
      <trkpt lat="-33.416782049462199" lon="22.5493832398206">
        <ele>572.60000000000002</ele>
        <time>2022-01-29T04:54:03Z</time>
      </trkpt>
      <trkpt lat="-33.416690267622471" lon="22.549506369978189">
        <ele>572.60000000000002</ele>
        <time>2022-01-29T04:54:04Z</time>
      </trkpt>
      <trkpt lat="-33.416606029495597" lon="22.549657998606563">
        <ele>573.08000000000004</ele>
        <time>2022-01-29T04:54:05Z</time>
      </trkpt>
      <trkpt lat="-33.416517600417137" lon="22.549810968339443">
        <ele>573.55999999999995</ele>
        <time>2022-01-29T04:54:06Z</time>
      </trkpt>
      <trkpt lat="-33.416420454159379" lon="22.549947677180171">
        <ele>574.52999999999997</ele>
        <time>2022-01-29T04:54:07Z</time>
      </trkpt>
      <trkpt lat="-33.416299754753709" lon="22.55008639767766">
        <ele>575.00999999999999</ele>
        <time>2022-01-29T04:54:08Z</time>
      </trkpt>
      <trkpt lat="-33.41616103425622" lon="22.550214640796185">
        <ele>575.00999999999999</ele>
        <time>2022-01-29T04:54:09Z</time>
      </trkpt>
      <trkpt lat="-33.415992138907313" lon="22.550353445112705">
        <ele>575.97000000000003</ele>
        <time>2022-01-29T04:54:10Z</time>
      </trkpt>
      <trkpt lat="-33.415507581084967" lon="22.550687715411186">
        <ele>577.40999999999997</ele>
        <time>2022-01-29T04:54:13Z</time>
      </trkpt>
      <trkpt lat="-33.415339021012187" lon="22.550763571634889">
        <ele>578.37</ele>
        <time>2022-01-29T04:54:14Z</time>
      </trkpt>
      <trkpt lat="-33.415176076814532" lon="22.550810091197491">
        <ele>578.85000000000002</ele>
        <time>2022-01-29T04:54:15Z</time>
      </trkpt>
      <trkpt lat="-33.415001230314374" lon="22.550839427858591">
        <ele>579.33000000000004</ele>
        <time>2022-01-29T04:54:16Z</time>
      </trkpt>
      <trkpt lat="-33.414823450148106" lon="22.550848983228207">
        <ele>579.80999999999995</ele>
        <time>2022-01-29T04:54:17Z</time>
      </trkpt>
      <trkpt lat="-33.414642317220569" lon="22.550847055390477">
        <ele>580.28999999999996</ele>
        <time>2022-01-29T04:54:18Z</time>
      </trkpt>
      <trkpt lat="-33.412669049575925" lon="22.550986697897315">
        <ele>588.46000000000004</ele>
        <time>2022-01-29T04:54:28Z</time>
      </trkpt>
      <trkpt lat="-33.411388043314219" lon="22.551620369777083">
        <ele>592.78999999999996</ele>
        <time>2022-01-29T04:54:35Z</time>
      </trkpt>
      <trkpt lat="-33.411259045824409" lon="22.551736123859882">
        <ele>593.26999999999998</ele>
        <time>2022-01-29T04:54:36Z</time>
      </trkpt>
      <trkpt lat="-33.411137424409389" lon="22.551876772195101">
        <ele>593.75</ele>
        <time>2022-01-29T04:54:37Z</time>
      </trkpt>
      <trkpt lat="-33.41102703474462" lon="22.552041057497263">
        <ele>593.75</ele>
        <time>2022-01-29T04:54:38Z</time>
      </trkpt>
      <trkpt lat="-33.410671390593052" lon="22.552595688030124">
        <ele>594.23000000000002</ele>
        <time>2022-01-29T04:54:41Z</time>
      </trkpt>
      <trkpt lat="-33.410523114725947" lon="22.552748573943973">
        <ele>594.23000000000002</ele>
        <time>2022-01-29T04:54:42Z</time>
      </trkpt>
      <trkpt lat="-33.410368552431464" lon="22.552870446816087">
        <ele>594.23000000000002</ele>
        <time>2022-01-29T04:54:43Z</time>
      </trkpt>
      <trkpt lat="-33.410200327634811" lon="22.55297957919538">
        <ele>594.71000000000004</ele>
        <time>2022-01-29T04:54:44Z</time>
      </trkpt>
      <trkpt lat="-33.410036880522966" lon="22.55308510735631">
        <ele>594.71000000000004</ele>
        <time>2022-01-29T04:54:45Z</time>
      </trkpt>
      <trkpt lat="-33.409886257722974" lon="22.553200526162982">
        <ele>594.71000000000004</ele>
        <time>2022-01-29T04:54:46Z</time>
      </trkpt>
      <trkpt lat="-33.409750638529658" lon="22.553335893899202">
        <ele>594.71000000000004</ele>
        <time>2022-01-29T04:54:47Z</time>
      </trkpt>
      <trkpt lat="-33.409631196409464" lon="22.553488947451115">
        <ele>595.19000000000005</ele>
        <time>2022-01-29T04:54:48Z</time>
      </trkpt>
      <trkpt lat="-33.409516364336014" lon="22.553677707910538">
        <ele>595.19000000000005</ele>
        <time>2022-01-29T04:54:49Z</time>
      </trkpt>
      <trkpt lat="-33.409433215856552" lon="22.553866216912866">
        <ele>595.19000000000005</ele>
        <time>2022-01-29T04:54:50Z</time>
      </trkpt>
      <trkpt lat="-33.409372614696622" lon="22.554056569933891">
        <ele>595.66999999999996</ele>
        <time>2022-01-29T04:54:51Z</time>
      </trkpt>
      <trkpt lat="-33.409325759857893" lon="22.554270811378956">
        <ele>595.66999999999996</ele>
        <time>2022-01-29T04:54:52Z</time>
      </trkpt>
      <trkpt lat="-33.40929139405489" lon="22.554493770003319">
        <ele>595.66999999999996</ele>
        <time>2022-01-29T04:54:53Z</time>
      </trkpt>
      <trkpt lat="-33.40917807072401" lon="22.555166250094771">
        <ele>596.63999999999999</ele>
        <time>2022-01-29T04:54:56Z</time>
      </trkpt>
      <trkpt lat="-33.409096682444215" lon="22.55540412850678">
        <ele>596.63999999999999</ele>
        <time>2022-01-29T04:54:57Z</time>
      </trkpt>
      <trkpt lat="-33.409011354669929" lon="22.55561183206737">
        <ele>596.63999999999999</ele>
        <time>2022-01-29T04:54:58Z</time>
      </trkpt>
      <trkpt lat="-33.40805565007031" lon="22.557655591517687">
        <ele>601.44000000000005</ele>
        <time>2022-01-29T04:55:07Z</time>
      </trkpt>
      <trkpt lat="-33.407663712278008" lon="22.558360090479255">
        <ele>602.88</ele>
        <time>2022-01-29T04:55:11Z</time>
      </trkpt>
      <trkpt lat="-33.407538067549467" lon="22.558506270870566">
        <ele>603.36000000000001</ele>
        <time>2022-01-29T04:55:12Z</time>
      </trkpt>
      <trkpt lat="-33.407391048967838" lon="22.558634849265218">
        <ele>603.85000000000002</ele>
        <time>2022-01-29T04:55:13Z</time>
      </trkpt>
      <trkpt lat="-33.407232044264674" lon="22.558732498437166">
        <ele>604.33000000000004</ele>
        <time>2022-01-29T04:55:14Z</time>
      </trkpt>
      <trkpt lat="-33.407057533040643" lon="22.558810953050852">
        <ele>604.80999999999995</ele>
        <time>2022-01-29T04:55:15Z</time>
      </trkpt>
      <trkpt lat="-33.40687170624733" lon="22.558877505362034">
        <ele>605.28999999999996</ele>
        <time>2022-01-29T04:55:16Z</time>
      </trkpt>
      <trkpt lat="-33.406679006293416" lon="22.558933915570378">
        <ele>605.76999999999998</ele>
        <time>2022-01-29T04:55:17Z</time>
      </trkpt>
      <trkpt lat="-33.405956905335188" lon="22.559166848659515">
        <ele>607.21000000000004</ele>
        <time>2022-01-29T04:55:21Z</time>
      </trkpt>
      <trkpt lat="-33.405811060220003" lon="22.559248572215438">
        <ele>607.21000000000004</ele>
        <time>2022-01-29T04:55:22Z</time>
      </trkpt>
      <trkpt lat="-33.405681308358908" lon="22.559351418167353">
        <ele>607.21000000000004</ele>
        <time>2022-01-29T04:55:23Z</time>
      </trkpt>
      <trkpt lat="-33.40556563809514" lon="22.559470944106579">
        <ele>607.69000000000005</ele>
        <time>2022-01-29T04:55:24Z</time>
      </trkpt>
      <trkpt lat="-33.405460361391306" lon="22.559607485309243">
        <ele>607.69000000000005</ele>
        <time>2022-01-29T04:55:25Z</time>
      </trkpt>
      <trkpt lat="-33.405360030010343" lon="22.559760790318251">
        <ele>608.16999999999996</ele>
        <time>2022-01-29T04:55:26Z</time>
      </trkpt>
      <trkpt lat="-33.404480516910553" lon="22.560674669221044">
        <ele>610.09000000000003</ele>
        <time>2022-01-29T04:55:32Z</time>
      </trkpt>
      <trkpt lat="-33.403517100960016" lon="22.561032408848405">
        <ele>611.53999999999996</ele>
        <time>2022-01-29T04:55:37Z</time>
      </trkpt>
      <trkpt lat="-33.403314091265202" lon="22.561034336686134">
        <ele>612.01999999999998</ele>
        <time>2022-01-29T04:55:38Z</time>
      </trkpt>
      <trkpt lat="-33.40311124920845" lon="22.561012795194983">
        <ele>612.5</ele>
        <time>2022-01-29T04:55:39Z</time>
      </trkpt>
      <trkpt lat="-33.402908490970731" lon="22.560973484069109">
        <ele>612.98000000000002</ele>
        <time>2022-01-29T04:55:40Z</time>
      </trkpt>
      <trkpt lat="-33.402706906199455" lon="22.56092076189816">
        <ele>612.98000000000002</ele>
        <time>2022-01-29T04:55:41Z</time>
      </trkpt>
      <trkpt lat="-33.400893732905388" lon="22.560067065060139">
        <ele>617.29999999999995</ele>
        <time>2022-01-29T04:55:50Z</time>
      </trkpt>
      <trkpt lat="-33.398365583270788" lon="22.558126822113991">
        <ele>620.66999999999996</ele>
        <time>2022-01-29T04:56:03Z</time>
      </trkpt>
      <trkpt lat="-33.397046690806746" lon="22.557262815535069">
        <ele>623.07000000000005</ele>
        <time>2022-01-29T04:56:10Z</time>
      </trkpt>
      <trkpt lat="-33.396833371371031" lon="22.557207997888327">
        <ele>623.54999999999995</ele>
        <time>2022-01-29T04:56:11Z</time>
      </trkpt>
      <trkpt lat="-33.396602449938655" lon="22.557172207161784">
        <ele>623.54999999999995</ele>
        <time>2022-01-29T04:56:12Z</time>
      </trkpt>
      <trkpt lat="-33.396383263170719" lon="22.5571627356112">
        <ele>624.02999999999997</ele>
        <time>2022-01-29T04:56:13Z</time>
      </trkpt>
      <trkpt lat="-33.396164746955037" lon="22.557178493589163">
        <ele>624.50999999999999</ele>
        <time>2022-01-29T04:56:14Z</time>
      </trkpt>
      <trkpt lat="-33.395950254052877" lon="22.557217217981815">
        <ele>624.50999999999999</ele>
        <time>2022-01-29T04:56:15Z</time>
      </trkpt>
      <trkpt lat="-33.39573928155005" lon="22.557274885475636">
        <ele>624.99000000000001</ele>
        <time>2022-01-29T04:56:16Z</time>
      </trkpt>
      <trkpt lat="-33.395538115873933" lon="22.557350406423211">
        <ele>625.47000000000003</ele>
        <time>2022-01-29T04:56:17Z</time>
      </trkpt>
      <trkpt lat="-33.395333345979452" lon="22.557450821623206">
        <ele>625.47000000000003</ele>
        <time>2022-01-29T04:56:18Z</time>
      </trkpt>
      <trkpt lat="-33.395137209445238" lon="22.5575668271631">
        <ele>625.47000000000003</ele>
        <time>2022-01-29T04:56:19Z</time>
      </trkpt>
      <trkpt lat="-33.394934367388487" lon="22.557705128565431">
        <ele>624.99000000000001</ele>
        <time>2022-01-29T04:56:20Z</time>
      </trkpt>
      <trkpt lat="-33.393142400309443" lon="22.559196269139647">
        <ele>624.50999999999999</ele>
        <time>2022-01-29T04:56:30Z</time>
      </trkpt>
      <trkpt lat="-33.39294140227139" lon="22.55931219086051">
        <ele>624.99000000000001</ele>
        <time>2022-01-29T04:56:31Z</time>
      </trkpt>
      <trkpt lat="-33.392736045643687" lon="22.55939869210124">
        <ele>624.99000000000001</ele>
        <time>2022-01-29T04:56:32Z</time>
      </trkpt>
      <trkpt lat="-33.392517697066069" lon="22.559460131451488">
        <ele>624.99000000000001</ele>
        <time>2022-01-29T04:56:33Z</time>
      </trkpt>
      <trkpt lat="-33.39229297824204" lon="22.559495335444808">
        <ele>624.99000000000001</ele>
        <time>2022-01-29T04:56:34Z</time>
      </trkpt>
      <trkpt lat="-33.392054345458746" lon="22.559504806995392">
        <ele>624.99000000000001</ele>
        <time>2022-01-29T04:56:35Z</time>
      </trkpt>
      <trkpt lat="-33.391831805929542" lon="22.559491898864508">
        <ele>625.47000000000003</ele>
        <time>2022-01-29T04:56:36Z</time>
      </trkpt>
      <trkpt lat="-33.391611780971289" lon="22.559466753154993">
        <ele>625.47000000000003</ele>
        <time>2022-01-29T04:56:37Z</time>
      </trkpt>
      <trkpt lat="-33.39020018465817" lon="22.559191910549998">
        <ele>627.39999999999998</ele>
        <time>2022-01-29T04:56:44Z</time>
      </trkpt>
      <trkpt lat="-33.39003405533731" lon="22.559105912223458">
        <ele>628.36000000000001</ele>
        <time>2022-01-29T04:56:45Z</time>
      </trkpt>
      <trkpt lat="-33.389881337061524" lon="22.559003904461861">
        <ele>628.36000000000001</ele>
        <time>2022-01-29T04:56:46Z</time>
      </trkpt>
      <trkpt lat="-33.389743706211448" lon="22.558887479826808">
        <ele>628.84000000000003</ele>
        <time>2022-01-29T04:56:47Z</time>
      </trkpt>
      <trkpt lat="-33.389622839167714" lon="22.558766193687916">
        <ele>629.79999999999995</ele>
        <time>2022-01-29T04:56:48Z</time>
      </trkpt>
      <trkpt lat="-33.389505911618471" lon="22.55863887257874">
        <ele>630.27999999999997</ele>
        <time>2022-01-29T04:56:49Z</time>
      </trkpt>
      <trkpt lat="-33.389390660449862" lon="22.558522867038846">
        <ele>630.75999999999999</ele>
        <time>2022-01-29T04:56:50Z</time>
      </trkpt>
      <trkpt lat="-33.38925956748426" lon="22.558422619476914">
        <ele>631.24000000000001</ele>
        <time>2022-01-29T04:56:51Z</time>
      </trkpt>
      <trkpt lat="-33.389123445376754" lon="22.558353468775749">
        <ele>632.20000000000005</ele>
        <time>2022-01-29T04:56:52Z</time>
      </trkpt>
      <trkpt lat="-33.388978186994791" lon="22.558308038860559">
        <ele>632.67999999999995</ele>
        <time>2022-01-29T04:56:53Z</time>
      </trkpt>
      <trkpt lat="-33.388822786509991" lon="22.558286329731345">
        <ele>633.16999999999996</ele>
        <time>2022-01-29T04:56:54Z</time>
      </trkpt>
      <trkpt lat="-33.388669649139047" lon="22.558289598673582">
        <ele>633.64999999999998</ele>
        <time>2022-01-29T04:56:55Z</time>
      </trkpt>
      <trkpt lat="-33.38850419037044" lon="22.558314576745033">
        <ele>634.13</ele>
        <time>2022-01-29T04:56:56Z</time>
      </trkpt>
      <trkpt lat="-33.388341916725039" lon="22.558368220925331">
        <ele>634.61000000000001</ele>
        <time>2022-01-29T04:56:57Z</time>
      </trkpt>
      <trkpt lat="-33.388187019154429" lon="22.558454051613808">
        <ele>636.04999999999995</ele>
        <time>2022-01-29T04:56:58Z</time>
      </trkpt>
      <trkpt lat="-33.388032959774137" lon="22.558576595038176">
        <ele>637.00999999999999</ele>
        <time>2022-01-29T04:56:59Z</time>
      </trkpt>
      <trkpt lat="-33.387900860980153" lon="22.558716991916299">
        <ele>637.97000000000003</ele>
        <time>2022-01-29T04:57:00Z</time>
      </trkpt>
      <trkpt lat="-33.387777982279658" lon="22.558874571695924">
        <ele>639.40999999999997</ele>
        <time>2022-01-29T04:57:01Z</time>
      </trkpt>
      <trkpt lat="-33.387661390006542" lon="22.559045562520623">
        <ele>640.38</ele>
        <time>2022-01-29T04:57:02Z</time>
      </trkpt>
      <trkpt lat="-33.387417392805219" lon="22.559383017942309">
        <ele>642.77999999999997</ele>
        <time>2022-01-29T04:57:04Z</time>
      </trkpt>
      <trkpt lat="-33.387274062260985" lon="22.559533892199397">
        <ele>643.74000000000001</ele>
        <time>2022-01-29T04:57:05Z</time>
      </trkpt>
      <trkpt lat="-33.387103825807571" lon="22.559672864153981">
        <ele>644.70000000000005</ele>
        <time>2022-01-29T04:57:06Z</time>
      </trkpt>
      <trkpt lat="-33.386935265734792" lon="22.559778727591038">
        <ele>645.65999999999997</ele>
        <time>2022-01-29T04:57:07Z</time>
      </trkpt>
      <trkpt lat="-33.386756479740143" lon="22.559867324307561">
        <ele>646.13999999999999</ele>
        <time>2022-01-29T04:57:08Z</time>
      </trkpt>
      <trkpt lat="-33.386588674038649" lon="22.55994544364512">
        <ele>647.10000000000002</ele>
        <time>2022-01-29T04:57:09Z</time>
      </trkpt>
      <trkpt lat="-33.386078383773565" lon="22.560135209932923">
        <ele>649.02999999999997</ele>
        <time>2022-01-29T04:57:12Z</time>
      </trkpt>
      <trkpt lat="-33.385900016874075" lon="22.560160607099533">
        <ele>649.50999999999999</ele>
        <time>2022-01-29T04:57:13Z</time>
      </trkpt>
      <trkpt lat="-33.385703880339861" lon="22.560161277651787">
        <ele>649.99000000000001</ele>
        <time>2022-01-29T04:57:14Z</time>
      </trkpt>
      <trkpt lat="-33.385517969727516" lon="22.560141915455461">
        <ele>650.95000000000005</ele>
        <time>2022-01-29T04:57:15Z</time>
      </trkpt>
      <trkpt lat="-33.385332562029362" lon="22.560107633471489">
        <ele>651.42999999999995</ele>
        <time>2022-01-29T04:57:16Z</time>
      </trkpt>
      <trkpt lat="-33.383295340463519" lon="22.559587955474854">
        <ele>657.67999999999995</ele>
        <time>2022-01-29T04:57:26Z</time>
      </trkpt>
      <trkpt lat="-33.38104329071939" lon="22.559179253876209">
        <ele>655.27999999999997</ele>
        <time>2022-01-29T04:57:36Z</time>
      </trkpt>
      <trkpt lat="-33.380616316571832" lon="22.559064840897918">
        <ele>654.79999999999995</ele>
        <time>2022-01-29T04:57:38Z</time>
      </trkpt>
      <trkpt lat="-33.380433674901724" lon="22.558979345485568">
        <ele>654.79999999999995</ele>
        <time>2022-01-29T04:57:39Z</time>
      </trkpt>
      <trkpt lat="-33.380252374336123" lon="22.558869458734989">
        <ele>655.27999999999997</ele>
        <time>2022-01-29T04:57:40Z</time>
      </trkpt>
      <trkpt lat="-33.380076019093394" lon="22.558742137625813">
        <ele>655.27999999999997</ele>
        <time>2022-01-29T04:57:41Z</time>
      </trkpt>
      <trkpt lat="-33.3799047768116" lon="22.558603081852198">
        <ele>655.27999999999997</ele>
        <time>2022-01-29T04:57:42Z</time>
      </trkpt>
      <trkpt lat="-33.377886330708861" lon="22.557032816112041">
        <ele>657.20000000000005</ele>
        <time>2022-01-29T04:57:53Z</time>
      </trkpt>
      <trkpt lat="-33.375275116413832" lon="22.55562205798924">
        <ele>660.08000000000004</ele>
        <time>2022-01-29T04:58:05Z</time>
      </trkpt>
      <trkpt lat="-33.374870521947742" lon="22.555360710248351">
        <ele>660.55999999999995</ele>
        <time>2022-01-29T04:58:07Z</time>
      </trkpt>
      <trkpt lat="-33.374651418998837" lon="22.55526096560061">
        <ele>660.55999999999995</ele>
        <time>2022-01-29T04:58:08Z</time>
      </trkpt>
      <trkpt lat="-33.373524891212583" lon="22.554884199053049">
        <ele>662.00999999999999</ele>
        <time>2022-01-29T04:58:13Z</time>
      </trkpt>
      <trkpt lat="-33.373283408582211" lon="22.554859388619661">
        <ele>662.49000000000001</ele>
        <time>2022-01-29T04:58:14Z</time>
      </trkpt>
      <trkpt lat="-33.373076627030969" lon="22.554866345599294">
        <ele>662.97000000000003</ele>
        <time>2022-01-29T04:58:15Z</time>
      </trkpt>
      <trkpt lat="-33.372861295938492" lon="22.55489693954587">
        <ele>662.97000000000003</ele>
        <time>2022-01-29T04:58:16Z</time>
      </trkpt>
      <trkpt lat="-33.372650407254696" lon="22.554938932880759">
        <ele>663.92999999999995</ele>
        <time>2022-01-29T04:58:17Z</time>
      </trkpt>
      <trkpt lat="-33.371038231998682" lon="22.555371271446347">
        <ele>666.80999999999995</ele>
        <time>2022-01-29T04:58:25Z</time>
      </trkpt>
      <trkpt lat="-33.370863804593682" lon="22.555484427139163">
        <ele>666.80999999999995</ele>
        <time>2022-01-29T04:58:26Z</time>
      </trkpt>
      <trkpt lat="-33.370701698586345" lon="22.555631026625633">
        <ele>666.80999999999995</ele>
        <time>2022-01-29T04:58:27Z</time>
      </trkpt>
      <trkpt lat="-33.370557697489858" lon="22.555802017450333">
        <ele>667.28999999999996</ele>
        <time>2022-01-29T04:58:28Z</time>
      </trkpt>
      <trkpt lat="-33.370428532361984" lon="22.555997231975198">
        <ele>667.76999999999998</ele>
        <time>2022-01-29T04:58:29Z</time>
      </trkpt>
      <trkpt lat="-33.370311185717583" lon="22.556195380166173">
        <ele>668.25</ele>
        <time>2022-01-29T04:58:30Z</time>
      </trkpt>
      <trkpt lat="-33.369925199076533" lon="22.556758727878332">
        <ele>670.17999999999995</ele>
        <time>2022-01-29T04:58:33Z</time>
      </trkpt>
      <trkpt lat="-33.369764937087893" lon="22.556912703439593">
        <ele>670.65999999999997</ele>
        <time>2022-01-29T04:58:34Z</time>
      </trkpt>
      <trkpt lat="-33.369587156921625" lon="22.557037174701691">
        <ele>671.13999999999999</ele>
        <time>2022-01-29T04:58:35Z</time>
      </trkpt>
      <trkpt lat="-33.369395127519965" lon="22.557125771418214">
        <ele>671.62</ele>
        <time>2022-01-29T04:58:36Z</time>
      </trkpt>
      <trkpt lat="-33.369188513606787" lon="22.557177068665624">
        <ele>672.10000000000002</ele>
        <time>2022-01-29T04:58:37Z</time>
      </trkpt>
      <trkpt lat="-33.36898248642683" lon="22.557188887149096">
        <ele>672.10000000000002</ele>
        <time>2022-01-29T04:58:38Z</time>
      </trkpt>
      <trkpt lat="-33.368776626884937" lon="22.557161059230566">
        <ele>672.58000000000004</ele>
        <time>2022-01-29T04:58:39Z</time>
      </trkpt>
      <trkpt lat="-33.368576634675264" lon="22.55709626711905">
        <ele>673.05999999999995</ele>
        <time>2022-01-29T04:58:40Z</time>
      </trkpt>
      <trkpt lat="-33.36838535964489" lon="22.556997779756784">
        <ele>673.53999999999996</ele>
        <time>2022-01-29T04:58:41Z</time>
      </trkpt>
      <trkpt lat="-33.368208585307002" lon="22.556865345686674">
        <ele>674.01999999999998</ele>
        <time>2022-01-29T04:58:42Z</time>
      </trkpt>
      <trkpt lat="-33.368053939193487" lon="22.556701228022575">
        <ele>674.01999999999998</ele>
        <time>2022-01-29T04:58:43Z</time>
      </trkpt>
      <trkpt lat="-33.367919242009521" lon="22.556510958820581">
        <ele>674.5</ele>
        <time>2022-01-29T04:58:44Z</time>
      </trkpt>
      <trkpt lat="-33.367805499583483" lon="22.556296214461327">
        <ele>674.5</ele>
        <time>2022-01-29T04:58:45Z</time>
      </trkpt>
      <trkpt lat="-33.367724195122719" lon="22.556068981066346">
        <ele>674.98000000000002</ele>
        <time>2022-01-29T04:58:46Z</time>
      </trkpt>
      <trkpt lat="-33.367669964209199" lon="22.555826911702752">
        <ele>675.46000000000004</ele>
        <time>2022-01-29T04:58:47Z</time>
      </trkpt>
      <trkpt lat="-33.367629982531071" lon="22.555569671094418">
        <ele>675.94000000000005</ele>
        <time>2022-01-29T04:58:48Z</time>
      </trkpt>
      <trkpt lat="-33.36733628064394" lon="22.553350478410721">
        <ele>677.38999999999999</ele>
        <time>2022-01-29T04:58:55Z</time>
      </trkpt>
      <trkpt lat="-33.366962280124426" lon="22.550086565315723">
        <ele>680.75</ele>
        <time>2022-01-29T04:59:04Z</time>
      </trkpt>
      <trkpt lat="-33.366414019837976" lon="22.547932080924511">
        <ele>684.12</ele>
        <time>2022-01-29T04:59:11Z</time>
      </trkpt>
      <trkpt lat="-33.36543895304203" lon="22.546076076105237">
        <ele>684.60000000000002</ele>
        <time>2022-01-29T04:59:18Z</time>
      </trkpt>
      <trkpt lat="-33.364632027223706" lon="22.545005287975073">
        <ele>684.12</ele>
        <time>2022-01-29T04:59:23Z</time>
      </trkpt>
      <trkpt lat="-33.364448631182313" lon="22.54484293051064">
        <ele>684.12</ele>
        <time>2022-01-29T04:59:24Z</time>
      </trkpt>
      <trkpt lat="-33.36425106972456" lon="22.544692726805806">
        <ele>684.12</ele>
        <time>2022-01-29T04:59:25Z</time>
      </trkpt>
      <trkpt lat="-33.364035822451115" lon="22.544553000479937">
        <ele>684.12</ele>
        <time>2022-01-29T04:59:26Z</time>
      </trkpt>
      <trkpt lat="-33.363811271265149" lon="22.544423667714">
        <ele>684.12</ele>
        <time>2022-01-29T04:59:27Z</time>
      </trkpt>
      <trkpt lat="-33.362151067703962" lon="22.543247686699033">
        <ele>685.55999999999995</ele>
        <time>2022-01-29T04:59:35Z</time>
      </trkpt>
      <trkpt lat="-33.361292257905006" lon="22.542406646534801">
        <ele>686.51999999999998</ele>
        <time>2022-01-29T04:59:40Z</time>
      </trkpt>
      <trkpt lat="-33.361104503273964" lon="22.542309248819947">
        <ele>687</ele>
        <time>2022-01-29T04:59:41Z</time>
      </trkpt>
      <trkpt lat="-33.360895710065961" lon="22.542249485850334">
        <ele>687</ele>
        <time>2022-01-29T04:59:42Z</time>
      </trkpt>
      <trkpt lat="-33.360700411722064" lon="22.542232889682055">
        <ele>686.51999999999998</ele>
        <time>2022-01-29T04:59:43Z</time>
      </trkpt>
      <trkpt lat="-33.360493713989854" lon="22.542252670973539">
        <ele>686.51999999999998</ele>
        <time>2022-01-29T04:59:44Z</time>
      </trkpt>
      <trkpt lat="-33.360287100076675" lon="22.542310003191233">
        <ele>686.51999999999998</ele>
        <time>2022-01-29T04:59:45Z</time>
      </trkpt>
      <trkpt lat="-33.360076462849975" lon="22.542409664019942">
        <ele>686.51999999999998</ele>
        <time>2022-01-29T04:59:46Z</time>
      </trkpt>
      <trkpt lat="-33.359877141192555" lon="22.542533045634627">
        <ele>686.51999999999998</ele>
        <time>2022-01-29T04:59:47Z</time>
      </trkpt>
      <trkpt lat="-33.35967312566936" lon="22.542676543816924">
        <ele>686.51999999999998</ele>
        <time>2022-01-29T04:59:48Z</time>
      </trkpt>
      <trkpt lat="-33.357616374269128" lon="22.544223256409168">
        <ele>688.91999999999996</ele>
        <time>2022-01-29T04:59:59Z</time>
      </trkpt>
      <trkpt lat="-33.357283445075154" lon="22.544430205598474">
        <ele>690.36000000000001</ele>
        <time>2022-01-29T05:00:01Z</time>
      </trkpt>
      <trkpt lat="-33.357116645202041" lon="22.544494075700641">
        <ele>690.84000000000003</ele>
        <time>2022-01-29T05:00:02Z</time>
      </trkpt>
      <trkpt lat="-33.356945822015405" lon="22.544524418190122">
        <ele>690.84000000000003</ele>
        <time>2022-01-29T05:00:03Z</time>
      </trkpt>
      <trkpt lat="-33.356769299134612" lon="22.544522490352392">
        <ele>691.33000000000004</ele>
        <time>2022-01-29T05:00:04Z</time>
      </trkpt>
      <trkpt lat="-33.356588333845139" lon="22.544488124549389">
        <ele>691.33000000000004</ele>
        <time>2022-01-29T05:00:05Z</time>
      </trkpt>
      <trkpt lat="-33.356407033279538" lon="22.54442073404789">
        <ele>691.33000000000004</ele>
        <time>2022-01-29T05:00:06Z</time>
      </trkpt>
      <trkpt lat="-33.356228163465858" lon="22.544321324676275">
        <ele>691.33000000000004</ele>
        <time>2022-01-29T05:00:07Z</time>
      </trkpt>
      <trkpt lat="-33.356053819879889" lon="22.544193165376782">
        <ele>691.80999999999995</ele>
        <time>2022-01-29T05:00:08Z</time>
      </trkpt>
      <trkpt lat="-33.355885343626142" lon="22.544046230614185">
        <ele>692.28999999999996</ele>
        <time>2022-01-29T05:00:09Z</time>
      </trkpt>
      <trkpt lat="-33.35571963340044" lon="22.543890327215195">
        <ele>692.28999999999996</ele>
        <time>2022-01-29T05:00:10Z</time>
      </trkpt>
      <trkpt lat="-33.354994598776102" lon="22.543333768844604">
        <ele>692.28999999999996</ele>
        <time>2022-01-29T05:00:14Z</time>
      </trkpt>
      <trkpt lat="-33.354792427271605" lon="22.543244250118732">
        <ele>692.28999999999996</ele>
        <time>2022-01-29T05:00:15Z</time>
      </trkpt>
      <trkpt lat="-33.354583214968443" lon="22.543184068053961">
        <ele>692.28999999999996</ele>
        <time>2022-01-29T05:00:16Z</time>
      </trkpt>
      <trkpt lat="-33.354369141161442" lon="22.543154479935765">
        <ele>692.28999999999996</ele>
        <time>2022-01-29T05:00:17Z</time>
      </trkpt>
      <trkpt lat="-33.354149451479316" lon="22.543146852403879">
        <ele>692.28999999999996</ele>
        <time>2022-01-29T05:00:18Z</time>
      </trkpt>
      <trkpt lat="-33.353923810645938" lon="22.543146098032594">
        <ele>692.28999999999996</ele>
        <time>2022-01-29T05:00:19Z</time>
      </trkpt>
      <trkpt lat="-33.352272491902113" lon="22.542894976213574">
        <ele>692.76999999999998</ele>
        <time>2022-01-29T05:00:26Z</time>
      </trkpt>
      <trkpt lat="-33.352065626531839" lon="22.54279020242393">
        <ele>693.25</ele>
        <time>2022-01-29T05:00:27Z</time>
      </trkpt>
      <trkpt lat="-33.351881057024002" lon="22.542663803324103">
        <ele>693.73000000000002</ele>
        <time>2022-01-29T05:00:28Z</time>
      </trkpt>
      <trkpt lat="-33.351696655154228" lon="22.542505972087383">
        <ele>694.21000000000004</ele>
        <time>2022-01-29T05:00:29Z</time>
      </trkpt>
      <trkpt lat="-33.351513426750898" lon="22.542328275740147">
        <ele>694.69000000000005</ele>
        <time>2022-01-29T05:00:30Z</time>
      </trkpt>
      <trkpt lat="-33.350198054686189" lon="22.541295792907476">
        <ele>696.13</ele>
        <time>2022-01-29T05:00:36Z</time>
      </trkpt>
      <trkpt lat="-33.348527457565069" lon="22.540714591741562">
        <ele>697.57000000000005</ele>
        <time>2022-01-29T05:00:42Z</time>
      </trkpt>
      <trkpt lat="-33.346852166578174" lon="22.540693050250411">
        <ele>699.98000000000002</ele>
        <time>2022-01-29T05:00:48Z</time>
      </trkpt>
      <trkpt lat="-33.345388853922486" lon="22.540430277585983">
        <ele>702.86000000000001</ele>
        <time>2022-01-29T05:00:54Z</time>
      </trkpt>
      <trkpt lat="-33.344052527099848" lon="22.539450852200389">
        <ele>706.23000000000002</ele>
        <time>2022-01-29T05:01:00Z</time>
      </trkpt>
      <trkpt lat="-33.342283274978399" lon="22.538184681907296">
        <ele>713.44000000000005</ele>
        <time>2022-01-29T05:01:08Z</time>
      </trkpt>
      <trkpt lat="-33.341073347255588" lon="22.537993909791112">
        <ele>715.84000000000003</ele>
        <time>2022-01-29T05:01:13Z</time>
      </trkpt>
      <trkpt lat="-33.340827003121376" lon="22.538024168461561">
        <ele>715.84000000000003</ele>
        <time>2022-01-29T05:01:14Z</time>
      </trkpt>
      <trkpt lat="-33.34057898260653" lon="22.538074208423495">
        <ele>715.36000000000001</ele>
        <time>2022-01-29T05:01:15Z</time>
      </trkpt>
      <trkpt lat="-33.337995260953903" lon="22.538784658536315">
        <ele>715.84000000000003</ele>
        <time>2022-01-29T05:01:25Z</time>
      </trkpt>
      <trkpt lat="-33.336717104539275" lon="22.539657969027758">
        <ele>717.75999999999999</ele>
        <time>2022-01-29T05:01:31Z</time>
      </trkpt>
      <trkpt lat="-33.334207059815526" lon="22.542165918275714">
        <ele>727.37</ele>
        <time>2022-01-29T05:01:44Z</time>
      </trkpt>
    </trkseg>
  </trk>

</gpx>