<?xml version="1.0" encoding="utf-8"?><gpx creator="Garmin Desktop App" version="1.1" xsi:schemaLocation="http://www.topografix.com/GPX/1/1 http://www.topografix.com/GPX/1/1/gpx.xsd http://www.garmin.com/xmlschemas/WaypointExtension/v1 http://www8.garmin.com/xmlschemas/WaypointExtensionv1.xsd http://www.garmin.com/xmlschemas/TrackPointExtension/v1 http://www.garmin.com/xmlschemas/TrackPointExtensionv1.xsd http://www.garmin.com/xmlschemas/GpxExtensions/v3 http://www8.garmin.com/xmlschemas/GpxExtensionsv3.xsd http://www.garmin.com/xmlschemas/ActivityExtension/v1 http://www8.garmin.com/xmlschemas/ActivityExtensionv1.xsd http://www.garmin.com/xmlschemas/AdventuresExtensions/v1 http://www8.garmin.com/xmlschemas/AdventuresExtensionv1.xsd http://www.garmin.com/xmlschemas/PressureExtension/v1 http://www.garmin.com/xmlschemas/PressureExtensionv1.xsd http://www.garmin.com/xmlschemas/TripExtensions/v1 http://www.garmin.com/xmlschemas/TripExtensionsv1.xsd http://www.garmin.com/xmlschemas/TripMetaDataExtensions/v1 http://www.garmin.com/xmlschemas/TripMetaDataExtensionsv1.xsd http://www.garmin.com/xmlschemas/ViaPointTransportationModeExtensions/v1 http://www.garmin.com/xmlschemas/ViaPointTransportationModeExtensionsv1.xsd http://www.garmin.com/xmlschemas/CreationTimeExtension/v1 http://www.garmin.com/xmlschemas/CreationTimeExtensionsv1.xsd http://www.garmin.com/xmlschemas/AccelerationExtension/v1 http://www.garmin.com/xmlschemas/AccelerationExtensionv1.xsd http://www.garmin.com/xmlschemas/PowerExtension/v1 http://www.garmin.com/xmlschemas/PowerExtensionv1.xsd http://www.garmin.com/xmlschemas/VideoExtension/v1 http://www.garmin.com/xmlschemas/VideoExtensionv1.xsd" xmlns="http://www.topografix.com/GPX/1/1" xmlns:xsi="http://www.w3.org/2001/XMLSchema-instance" xmlns:wptx1="http://www.garmin.com/xmlschemas/WaypointExtension/v1" xmlns:gpxtrx="http://www.garmin.com/xmlschemas/GpxExtensions/v3" xmlns:gpxtpx="http://www.garmin.com/xmlschemas/TrackPointExtension/v1" xmlns:gpxx="http://www.garmin.com/xmlschemas/GpxExtensions/v3" xmlns:trp="http://www.garmin.com/xmlschemas/TripExtensions/v1" xmlns:adv="http://www.garmin.com/xmlschemas/AdventuresExtensions/v1" xmlns:prs="http://www.garmin.com/xmlschemas/PressureExtension/v1" xmlns:tmd="http://www.garmin.com/xmlschemas/TripMetaDataExtensions/v1" xmlns:vptm="http://www.garmin.com/xmlschemas/ViaPointTransportationModeExtensions/v1" xmlns:ctx="http://www.garmin.com/xmlschemas/CreationTimeExtension/v1" xmlns:gpxacc="http://www.garmin.com/xmlschemas/AccelerationExtension/v1" xmlns:gpxpx="http://www.garmin.com/xmlschemas/PowerExtension/v1" xmlns:vidx1="http://www.garmin.com/xmlschemas/VideoExtension/v1">

  <metadata>
    <link href="http://www.garmin.com">
      <text>Garmin International</text>
    </link>
    <time>2022-07-02T19:27:07Z</time>
    <bounds maxlat="-30.622687032446265" maxlon="25.048228986561298" minlat="-30.650759031996131" minlon="25.028322972357273" />
  </metadata>

  <trk>
    <name>[260] Basternek Pas</name>
    <extensions>
      <gpxx:TrackExtension>
        <gpxx:DisplayColor>Green</gpxx:DisplayColor>
      </gpxx:TrackExtension>
    </extensions>
    <trkseg>
      <trkpt lat="-30.650759031996131" lon="25.048228986561298">
        <ele>1338.77</ele>
        <time>2022-01-31T06:24:47Z</time>
      </trkpt>
      <trkpt lat="-30.649231011047959" lon="25.046560987830162">
        <ele>1342.6199999999999</ele>
        <time>2022-01-31T06:24:54Z</time>
      </trkpt>
      <trkpt lat="-30.649015009403229" lon="25.046325037255883">
        <ele>1342.6199999999999</ele>
        <time>2022-01-31T06:24:55Z</time>
      </trkpt>
      <trkpt lat="-30.647931983694434" lon="25.045142015442252">
        <ele>1345.98</ele>
        <time>2022-01-31T06:25:00Z</time>
      </trkpt>
      <trkpt lat="-30.646667992696166" lon="25.04376201890409">
        <ele>1350.3099999999999</ele>
        <time>2022-01-31T06:25:06Z</time>
      </trkpt>
      <trkpt lat="-30.646028034389019" lon="25.043062968179584">
        <ele>1352.23</ele>
        <time>2022-01-31T06:25:09Z</time>
      </trkpt>
      <trkpt lat="-30.644745016470551" lon="25.041663022711873">
        <ele>1355.5999999999999</ele>
        <time>2022-01-31T06:25:15Z</time>
      </trkpt>
      <trkpt lat="-30.644533960148692" lon="25.041432017460465">
        <ele>1355.5999999999999</ele>
        <time>2022-01-31T06:25:16Z</time>
      </trkpt>
      <trkpt lat="-30.64280703663826" lon="25.039546005427837">
        <ele>1358.96</ele>
        <time>2022-01-31T06:25:23Z</time>
      </trkpt>
      <trkpt lat="-30.641946969553828" lon="25.038611004129052">
        <ele>1362.3299999999999</ele>
        <time>2022-01-31T06:25:28Z</time>
      </trkpt>
      <trkpt lat="-30.641294019296765" lon="25.037914970889688">
        <ele>1366.1700000000001</ele>
        <time>2022-01-31T06:25:31Z</time>
      </trkpt>
      <trkpt lat="-30.640431018546224" lon="25.037000002339482">
        <ele>1370.5</ele>
        <time>2022-01-31T06:25:35Z</time>
      </trkpt>
      <trkpt lat="-30.639962973073125" lon="25.036604963243008">
        <ele>1374.3399999999999</ele>
        <time>2022-01-31T06:25:37Z</time>
      </trkpt>
      <trkpt lat="-30.639485036954284" lon="25.036236997693777">
        <ele>1380.1099999999999</ele>
        <time>2022-01-31T06:25:39Z</time>
      </trkpt>
      <trkpt lat="-30.638994025066495" lon="25.035895016044378">
        <ele>1383.96</ele>
        <time>2022-01-31T06:25:41Z</time>
      </trkpt>
      <trkpt lat="-30.638481974601746" lon="25.035630986094475">
        <ele>1388.76</ele>
        <time>2022-01-31T06:25:43Z</time>
      </trkpt>
      <trkpt lat="-30.63795399852097" lon="25.03540500998497">
        <ele>1392.1300000000001</ele>
        <time>2022-01-31T06:25:45Z</time>
      </trkpt>
      <trkpt lat="-30.637153023853898" lon="25.03512698225677">
        <ele>1395.49</ele>
        <time>2022-01-31T06:25:48Z</time>
      </trkpt>
      <trkpt lat="-30.636302009224892" lon="25.034918021410704">
        <ele>1398.8599999999999</ele>
        <time>2022-01-31T06:25:51Z</time>
      </trkpt>
      <trkpt lat="-30.634694024920464" lon="25.034575033932924">
        <ele>1395.01</ele>
        <time>2022-01-31T06:25:57Z</time>
      </trkpt>
      <trkpt lat="-30.63391299918294" lon="25.034316033124924">
        <ele>1390.2</ele>
        <time>2022-01-31T06:26:00Z</time>
      </trkpt>
      <trkpt lat="-30.633394997566938" lon="25.034077987074852">
        <ele>1384.9200000000001</ele>
        <time>2022-01-31T06:26:02Z</time>
      </trkpt>
      <trkpt lat="-30.632850006222725" lon="25.033820997923613">
        <ele>1380.1099999999999</ele>
        <time>2022-01-31T06:26:04Z</time>
      </trkpt>
      <trkpt lat="-30.63230199739337" lon="25.033547999337316">
        <ele>1375.3</ele>
        <time>2022-01-31T06:26:06Z</time>
      </trkpt>
      <trkpt lat="-30.631748037412763" lon="25.033258991315961">
        <ele>1371.46</ele>
        <time>2022-01-31T06:26:08Z</time>
      </trkpt>
      <trkpt lat="-30.631203968077898" lon="25.032963026314974">
        <ele>1367.6099999999999</ele>
        <time>2022-01-31T06:26:10Z</time>
      </trkpt>
      <trkpt lat="-30.630384972319007" lon="25.032516019418836">
        <ele>1364.73</ele>
        <time>2022-01-31T06:26:12Z</time>
      </trkpt>
      <trkpt lat="-30.629577962681651" lon="25.03207697533071">
        <ele>1361.3599999999999</ele>
        <time>2022-01-31T06:26:16Z</time>
      </trkpt>
      <trkpt lat="-30.628770031034946" lon="25.031637009233236">
        <ele>1358</ele>
        <time>2022-01-31T06:26:19Z</time>
      </trkpt>
      <trkpt lat="-30.627434039488435" lon="25.030909040942788">
        <ele>1354.1500000000001</ele>
        <time>2022-01-31T06:26:23Z</time>
      </trkpt>
      <trkpt lat="-30.626367023214698" lon="25.030328007414937">
        <ele>1350.79</ele>
        <time>2022-01-31T06:26:28Z</time>
      </trkpt>
      <trkpt lat="-30.625309981405735" lon="25.029752003028989">
        <ele>1347.4300000000001</ele>
        <time>2022-01-31T06:26:32Z</time>
      </trkpt>
      <trkpt lat="-30.623997040092945" lon="25.029037026688457">
        <ele>1344.0599999999999</ele>
        <time>2022-01-31T06:26:37Z</time>
      </trkpt>
      <trkpt lat="-30.622687032446265" lon="25.028322972357273">
        <ele>1340.7</ele>
        <time>2022-01-31T06:26:42Z</time>
      </trkpt>
    </trkseg>
  </trk>

</gpx>