<?xml version="1.0" encoding="utf-8"?><gpx creator="Garmin Desktop App" version="1.1" xsi:schemaLocation="http://www.topografix.com/GPX/1/1 http://www.topografix.com/GPX/1/1/gpx.xsd http://www.garmin.com/xmlschemas/WaypointExtension/v1 http://www8.garmin.com/xmlschemas/WaypointExtensionv1.xsd http://www.garmin.com/xmlschemas/TrackPointExtension/v1 http://www.garmin.com/xmlschemas/TrackPointExtensionv1.xsd http://www.garmin.com/xmlschemas/GpxExtensions/v3 http://www8.garmin.com/xmlschemas/GpxExtensionsv3.xsd http://www.garmin.com/xmlschemas/ActivityExtension/v1 http://www8.garmin.com/xmlschemas/ActivityExtensionv1.xsd http://www.garmin.com/xmlschemas/AdventuresExtensions/v1 http://www8.garmin.com/xmlschemas/AdventuresExtensionv1.xsd http://www.garmin.com/xmlschemas/PressureExtension/v1 http://www.garmin.com/xmlschemas/PressureExtensionv1.xsd http://www.garmin.com/xmlschemas/TripExtensions/v1 http://www.garmin.com/xmlschemas/TripExtensionsv1.xsd http://www.garmin.com/xmlschemas/TripMetaDataExtensions/v1 http://www.garmin.com/xmlschemas/TripMetaDataExtensionsv1.xsd http://www.garmin.com/xmlschemas/ViaPointTransportationModeExtensions/v1 http://www.garmin.com/xmlschemas/ViaPointTransportationModeExtensionsv1.xsd http://www.garmin.com/xmlschemas/CreationTimeExtension/v1 http://www.garmin.com/xmlschemas/CreationTimeExtensionsv1.xsd http://www.garmin.com/xmlschemas/AccelerationExtension/v1 http://www.garmin.com/xmlschemas/AccelerationExtensionv1.xsd http://www.garmin.com/xmlschemas/PowerExtension/v1 http://www.garmin.com/xmlschemas/PowerExtensionv1.xsd http://www.garmin.com/xmlschemas/VideoExtension/v1 http://www.garmin.com/xmlschemas/VideoExtensionv1.xsd" xmlns="http://www.topografix.com/GPX/1/1" xmlns:xsi="http://www.w3.org/2001/XMLSchema-instance" xmlns:wptx1="http://www.garmin.com/xmlschemas/WaypointExtension/v1" xmlns:gpxtrx="http://www.garmin.com/xmlschemas/GpxExtensions/v3" xmlns:gpxtpx="http://www.garmin.com/xmlschemas/TrackPointExtension/v1" xmlns:gpxx="http://www.garmin.com/xmlschemas/GpxExtensions/v3" xmlns:trp="http://www.garmin.com/xmlschemas/TripExtensions/v1" xmlns:adv="http://www.garmin.com/xmlschemas/AdventuresExtensions/v1" xmlns:prs="http://www.garmin.com/xmlschemas/PressureExtension/v1" xmlns:tmd="http://www.garmin.com/xmlschemas/TripMetaDataExtensions/v1" xmlns:vptm="http://www.garmin.com/xmlschemas/ViaPointTransportationModeExtensions/v1" xmlns:ctx="http://www.garmin.com/xmlschemas/CreationTimeExtension/v1" xmlns:gpxacc="http://www.garmin.com/xmlschemas/AccelerationExtension/v1" xmlns:gpxpx="http://www.garmin.com/xmlschemas/PowerExtension/v1" xmlns:vidx1="http://www.garmin.com/xmlschemas/VideoExtension/v1">

  <metadata>
    <link href="http://www.garmin.com">
      <text>Garmin International</text>
    </link>
    <time>2023-01-21T16:05:23Z</time>
    <bounds maxlat="-25.775512643158436" maxlon="28.212383100762963" minlat="-25.783216618001461" minlon="28.205030160024762" />
  </metadata>

  <trk>
    <name>[268] Fort Klapperkop pass</name>
    <extensions>
      <gpxx:TrackExtension>
        <gpxx:DisplayColor>Green</gpxx:DisplayColor>
      </gpxx:TrackExtension>
    </extensions>
    <trkseg>
      <trkpt lat="-25.781514421105385" lon="28.210522988811135">
        <ele>1533.4400000000001</ele>
        <time>2022-07-24T09:29:27Z</time>
      </trkpt>
      <trkpt lat="-25.781516768038273" lon="28.210540004074574">
        <ele>1532.96</ele>
        <time>2022-07-24T09:29:34Z</time>
      </trkpt>
      <trkpt lat="-25.781516097486019" lon="28.210566490888596">
        <ele>1532.96</ele>
        <time>2022-07-24T09:29:35Z</time>
      </trkpt>
      <trkpt lat="-25.781523892655969" lon="28.210590714588761">
        <ele>1532.96</ele>
        <time>2022-07-24T09:29:36Z</time>
      </trkpt>
      <trkpt lat="-25.781689770519733" lon="28.211096646264195">
        <ele>1530.5599999999999</ele>
        <time>2022-07-24T09:29:44Z</time>
      </trkpt>
      <trkpt lat="-25.78158650547266" lon="28.211940452456474">
        <ele>1526.23</ele>
        <time>2022-07-24T09:29:54Z</time>
      </trkpt>
      <trkpt lat="-25.781496316194534" lon="28.212097864598036">
        <ele>1525.27</ele>
        <time>2022-07-24T09:29:56Z</time>
      </trkpt>
      <trkpt lat="-25.781441498547792" lon="28.212164836004376">
        <ele>1524.79</ele>
        <time>2022-07-24T09:29:57Z</time>
      </trkpt>
      <trkpt lat="-25.78137787990272" lon="28.212224179878831">
        <ele>1524.3099999999999</ele>
        <time>2022-07-24T09:29:58Z</time>
      </trkpt>
      <trkpt lat="-25.781304622069001" lon="28.21227497421205">
        <ele>1523.8299999999999</ele>
        <time>2022-07-24T09:29:59Z</time>
      </trkpt>
      <trkpt lat="-25.781222060322762" lon="28.212315542623401">
        <ele>1523.3499999999999</ele>
        <time>2022-07-24T09:30:00Z</time>
      </trkpt>
      <trkpt lat="-25.781135391443968" lon="28.212341945618391">
        <ele>1522.8699999999999</ele>
        <time>2022-07-24T09:30:01Z</time>
      </trkpt>
      <trkpt lat="-25.781046627089381" lon="28.212355691939592">
        <ele>1522.3900000000001</ele>
        <time>2022-07-24T09:30:02Z</time>
      </trkpt>
      <trkpt lat="-25.780958533287048" lon="28.212359547615051">
        <ele>1521.4200000000001</ele>
        <time>2022-07-24T09:30:03Z</time>
      </trkpt>
      <trkpt lat="-25.780872954055667" lon="28.212352087721229">
        <ele>1520.9400000000001</ele>
        <time>2022-07-24T09:30:04Z</time>
      </trkpt>
      <trkpt lat="-25.780790811404586" lon="28.212335826829076">
        <ele>1520.46</ele>
        <time>2022-07-24T09:30:05Z</time>
      </trkpt>
      <trkpt lat="-25.780711518600583" lon="28.212315374985337">
        <ele>1519.5</ele>
        <time>2022-07-24T09:30:06Z</time>
      </trkpt>
      <trkpt lat="-25.780161498114467" lon="28.212178247049451">
        <ele>1515.6600000000001</ele>
        <time>2022-07-24T09:30:16Z</time>
      </trkpt>
      <trkpt lat="-25.77955037355423" lon="28.212023014202714">
        <ele>1512.29</ele>
        <time>2022-07-24T09:30:28Z</time>
      </trkpt>
      <trkpt lat="-25.778740094974637" lon="28.211494870483875">
        <ele>1507.97</ele>
        <time>2022-07-24T09:30:41Z</time>
      </trkpt>
      <trkpt lat="-25.777989998459816" lon="28.210769584402442">
        <ele>1504.1199999999999</ele>
        <time>2022-07-24T09:30:48Z</time>
      </trkpt>
      <trkpt lat="-25.776794906705618" lon="28.209611959755421">
        <ele>1495.95</ele>
        <time>2022-07-24T09:31:00Z</time>
      </trkpt>
      <trkpt lat="-25.775887398049235" lon="28.208598839119077">
        <ele>1489.22</ele>
        <time>2022-07-24T09:31:12Z</time>
      </trkpt>
      <trkpt lat="-25.775833586230874" lon="28.208519211038947">
        <ele>1489.22</ele>
        <time>2022-07-24T09:31:13Z</time>
      </trkpt>
      <trkpt lat="-25.775782708078623" lon="28.208427177742124">
        <ele>1488.74</ele>
        <time>2022-07-24T09:31:14Z</time>
      </trkpt>
      <trkpt lat="-25.775738786906004" lon="28.20832684636116">
        <ele>1488.26</ele>
        <time>2022-07-24T09:31:15Z</time>
      </trkpt>
      <trkpt lat="-25.775706181302667" lon="28.208228442817926">
        <ele>1487.78</ele>
        <time>2022-07-24T09:31:16Z</time>
      </trkpt>
      <trkpt lat="-25.775679191574454" lon="28.208123417571187">
        <ele>1487.3</ele>
        <time>2022-07-24T09:31:17Z</time>
      </trkpt>
      <trkpt lat="-25.775655722245574" lon="28.208016213029623">
        <ele>1487.3</ele>
        <time>2022-07-24T09:31:18Z</time>
      </trkpt>
      <trkpt lat="-25.775523204356432" lon="28.207250023260713">
        <ele>1484.4100000000001</ele>
        <time>2022-07-24T09:31:25Z</time>
      </trkpt>
      <trkpt lat="-25.775524629279971" lon="28.207145584747195">
        <ele>1483.9300000000001</ele>
        <time>2022-07-24T09:31:26Z</time>
      </trkpt>
      <trkpt lat="-25.775535022839904" lon="28.207049947232008">
        <ele>1483.45</ele>
        <time>2022-07-24T09:31:27Z</time>
      </trkpt>
      <trkpt lat="-25.775553798303008" lon="28.206953471526504">
        <ele>1482.97</ele>
        <time>2022-07-24T09:31:28Z</time>
      </trkpt>
      <trkpt lat="-25.775582632049918" lon="28.206857331097126">
        <ele>1482.49</ele>
        <time>2022-07-24T09:31:29Z</time>
      </trkpt>
      <trkpt lat="-25.77562035061419" lon="28.206764040514827">
        <ele>1482.01</ele>
        <time>2022-07-24T09:31:30Z</time>
      </trkpt>
      <trkpt lat="-25.775668881833553" lon="28.206669744104147">
        <ele>1481.53</ele>
        <time>2022-07-24T09:31:31Z</time>
      </trkpt>
      <trkpt lat="-25.775720179080963" lon="28.206589696928859">
        <ele>1481.05</ele>
        <time>2022-07-24T09:31:32Z</time>
      </trkpt>
      <trkpt lat="-25.775784803554416" lon="28.206508811563253">
        <ele>1480.5699999999999</ele>
        <time>2022-07-24T09:31:33Z</time>
      </trkpt>
      <trkpt lat="-25.775857642292976" lon="28.206434212625027">
        <ele>1480.5699999999999</ele>
        <time>2022-07-24T09:31:34Z</time>
      </trkpt>
      <trkpt lat="-25.775937270373106" lon="28.206365816295147">
        <ele>1480.0899999999999</ele>
        <time>2022-07-24T09:31:35Z</time>
      </trkpt>
      <trkpt lat="-25.776024023070931" lon="28.206302197650075">
        <ele>1479.6099999999999</ele>
        <time>2022-07-24T09:31:36Z</time>
      </trkpt>
      <trkpt lat="-25.776115888729692" lon="28.206247380003333">
        <ele>1479.1300000000001</ele>
        <time>2022-07-24T09:31:37Z</time>
      </trkpt>
      <trkpt lat="-25.776214627549052" lon="28.20619834586978">
        <ele>1479.1300000000001</ele>
        <time>2022-07-24T09:31:38Z</time>
      </trkpt>
      <trkpt lat="-25.776318395510316" lon="28.206153083592653">
        <ele>1478.6500000000001</ele>
        <time>2022-07-24T09:31:39Z</time>
      </trkpt>
      <trkpt lat="-25.777252307161689" lon="28.206006987020373">
        <ele>1474.8</ele>
        <time>2022-07-24T09:31:47Z</time>
      </trkpt>
      <trkpt lat="-25.778177082538605" lon="28.206331031396985">
        <ele>1469.99</ele>
        <time>2022-07-24T09:31:55Z</time>
      </trkpt>
      <trkpt lat="-25.778497355058789" lon="28.206435972824693">
        <ele>1468.0699999999999</ele>
        <time>2022-07-24T09:31:58Z</time>
      </trkpt>
      <trkpt lat="-25.778609504923224" lon="28.206449132412672">
        <ele>1467.5899999999999</ele>
        <time>2022-07-24T09:31:59Z</time>
      </trkpt>
      <trkpt lat="-25.77872458845377" lon="28.206452820450068">
        <ele>1467.1099999999999</ele>
        <time>2022-07-24T09:32:00Z</time>
      </trkpt>
      <trkpt lat="-25.779873160645366" lon="28.206575782969594">
        <ele>1462.3</ele>
        <time>2022-07-24T09:32:09Z</time>
      </trkpt>
      <trkpt lat="-25.78023886308074" lon="28.20662984624505">
        <ele>1460.3800000000001</ele>
        <time>2022-07-24T09:32:12Z</time>
      </trkpt>
      <trkpt lat="-25.780351432040334" lon="28.206625152379274">
        <ele>1459.9000000000001</ele>
        <time>2022-07-24T09:32:13Z</time>
      </trkpt>
      <trkpt lat="-25.780462576076388" lon="28.206604029983282">
        <ele>1459.4200000000001</ele>
        <time>2022-07-24T09:32:14Z</time>
      </trkpt>
      <trkpt lat="-25.780569864436984" lon="28.20656924508512">
        <ele>1458.9400000000001</ele>
        <time>2022-07-24T09:32:15Z</time>
      </trkpt>
      <trkpt lat="-25.780673129484057" lon="28.206522054970264">
        <ele>1458.46</ele>
        <time>2022-07-24T09:32:16Z</time>
      </trkpt>
      <trkpt lat="-25.780772119760513" lon="28.206463800743222">
        <ele>1457.98</ele>
        <time>2022-07-24T09:32:17Z</time>
      </trkpt>
      <trkpt lat="-25.780866835266352" lon="28.20639674551785">
        <ele>1457.5</ele>
        <time>2022-07-24T09:32:18Z</time>
      </trkpt>
      <trkpt lat="-25.780961215496063" lon="28.20632298476994">
        <ele>1457.02</ele>
        <time>2022-07-24T09:32:19Z</time>
      </trkpt>
      <trkpt lat="-25.781877608969808" lon="28.205863405019045">
        <ele>1452.6900000000001</ele>
        <time>2022-07-24T09:32:28Z</time>
      </trkpt>
      <trkpt lat="-25.782700879499316" lon="28.205461576581001">
        <ele>1447.4000000000001</ele>
        <time>2022-07-24T09:32:38Z</time>
      </trkpt>
      <trkpt lat="-25.783176468685269" lon="28.205090928822756">
        <ele>1443.0799999999999</ele>
        <time>2022-07-24T09:32:50Z</time>
      </trkpt>
      <trkpt lat="-25.783187616616488" lon="28.205079361796379">
        <ele>1442.5999999999999</ele>
        <time>2022-07-24T09:32:51Z</time>
      </trkpt>
      <trkpt lat="-25.783189041540027" lon="28.205066286027431">
        <ele>1442.5999999999999</ele>
        <time>2022-07-24T09:32:52Z</time>
      </trkpt>
      <trkpt lat="-25.783150736242533" lon="28.205058490857482">
        <ele>1442.1099999999999</ele>
        <time>2022-07-24T09:33:01Z</time>
      </trkpt>
      <trkpt lat="-25.783142270520329" lon="28.205057820305228">
        <ele>1440.6700000000001</ele>
        <time>2022-07-24T09:33:20Z</time>
      </trkpt>
      <trkpt lat="-25.78314964659512" lon="28.20506427437067">
        <ele>1441.1500000000001</ele>
        <time>2022-07-24T09:33:42Z</time>
      </trkpt>
      <trkpt lat="-25.783154759556055" lon="28.20506083779037">
        <ele>1444.04</ele>
        <time>2022-07-24T09:34:02Z</time>
      </trkpt>
      <trkpt lat="-25.783157693222165" lon="28.205063603818417">
        <ele>1444.04</ele>
        <time>2022-07-24T09:34:35Z</time>
      </trkpt>
      <trkpt lat="-25.783216618001461" lon="28.205034686252475">
        <ele>1443.5599999999999</ele>
        <time>2022-07-24T09:35:05Z</time>
      </trkpt>
      <trkpt lat="-25.783209577202797" lon="28.205030160024762">
        <ele>1445.48</ele>
        <time>2022-07-24T09:35:33Z</time>
      </trkpt>
      <trkpt lat="-25.783180240541697" lon="28.205061508342624">
        <ele>1445.48</ele>
        <time>2022-07-24T09:35:35Z</time>
      </trkpt>
      <trkpt lat="-25.782759804278612" lon="28.205404579639435">
        <ele>1447.8800000000001</ele>
        <time>2022-07-24T09:35:43Z</time>
      </trkpt>
      <trkpt lat="-25.781902251765132" lon="28.205839935690165">
        <ele>1452.6900000000001</ele>
        <time>2022-07-24T09:35:54Z</time>
      </trkpt>
      <trkpt lat="-25.780814699828625" lon="28.206403534859419">
        <ele>1458.9400000000001</ele>
        <time>2022-07-24T09:36:07Z</time>
      </trkpt>
      <trkpt lat="-25.78057061880827" lon="28.2065374776721">
        <ele>1459.9000000000001</ele>
        <time>2022-07-24T09:36:10Z</time>
      </trkpt>
      <trkpt lat="-25.780484704300761" lon="28.20656530559063">
        <ele>1460.3800000000001</ele>
        <time>2022-07-24T09:36:11Z</time>
      </trkpt>
      <trkpt lat="-25.780397783964872" lon="28.206584751605988">
        <ele>1460.8599999999999</ele>
        <time>2022-07-24T09:36:12Z</time>
      </trkpt>
      <trkpt lat="-25.780054209753871" lon="28.206596570089459">
        <ele>1462.3</ele>
        <time>2022-07-24T09:36:16Z</time>
      </trkpt>
      <trkpt lat="-25.77997206710279" lon="28.20658097974956">
        <ele>1462.78</ele>
        <time>2022-07-24T09:36:17Z</time>
      </trkpt>
      <trkpt lat="-25.778705812990665" lon="28.206427926197648">
        <ele>1467.5899999999999</ele>
        <time>2022-07-24T09:36:31Z</time>
      </trkpt>
      <trkpt lat="-25.778315467759967" lon="28.206363301724195">
        <ele>1468.55</ele>
        <time>2022-07-24T09:36:35Z</time>
      </trkpt>
      <trkpt lat="-25.77822083607316" lon="28.206326337531209">
        <ele>1469.03</ele>
        <time>2022-07-24T09:36:36Z</time>
      </trkpt>
      <trkpt lat="-25.777116855606437" lon="28.205982847139239">
        <ele>1474.3199999999999</ele>
        <time>2022-07-24T09:36:48Z</time>
      </trkpt>
      <trkpt lat="-25.776178333908319" lon="28.206198681145906">
        <ele>1477.6800000000001</ele>
        <time>2022-07-24T09:36:58Z</time>
      </trkpt>
      <trkpt lat="-25.775715820491314" lon="28.206571927294135">
        <ele>1480.0899999999999</ele>
        <time>2022-07-24T09:37:04Z</time>
      </trkpt>
      <trkpt lat="-25.775661924853921" lon="28.20665281265974">
        <ele>1480.5699999999999</ele>
        <time>2022-07-24T09:37:05Z</time>
      </trkpt>
      <trkpt lat="-25.775616494938731" lon="28.206740403547883">
        <ele>1480.5699999999999</ele>
        <time>2022-07-24T09:37:06Z</time>
      </trkpt>
      <trkpt lat="-25.77557978220284" lon="28.206833945587277">
        <ele>1481.05</ele>
        <time>2022-07-24T09:37:07Z</time>
      </trkpt>
      <trkpt lat="-25.775548852980137" lon="28.206934696063399">
        <ele>1481.05</ele>
        <time>2022-07-24T09:37:08Z</time>
      </trkpt>
      <trkpt lat="-25.775526892393827" lon="28.207035111263394">
        <ele>1481.53</ele>
        <time>2022-07-24T09:37:09Z</time>
      </trkpt>
      <trkpt lat="-25.775514990091324" lon="28.207139382138848">
        <ele>1482.01</ele>
        <time>2022-07-24T09:37:10Z</time>
      </trkpt>
      <trkpt lat="-25.775512643158436" lon="28.207252202555537">
        <ele>1482.01</ele>
        <time>2022-07-24T09:37:11Z</time>
      </trkpt>
      <trkpt lat="-25.775523958727717" lon="28.207359490916133">
        <ele>1482.49</ele>
        <time>2022-07-24T09:37:12Z</time>
      </trkpt>
      <trkpt lat="-25.775544913485646" lon="28.207466444000602">
        <ele>1482.97</ele>
        <time>2022-07-24T09:37:13Z</time>
      </trkpt>
      <trkpt lat="-25.775568298995495" lon="28.207575911656022">
        <ele>1482.97</ele>
        <time>2022-07-24T09:37:14Z</time>
      </trkpt>
      <trkpt lat="-25.775754796341062" lon="28.20837814360857">
        <ele>1486.3399999999999</ele>
        <time>2022-07-24T09:37:21Z</time>
      </trkpt>
      <trkpt lat="-25.775805842131376" lon="28.208482582122087">
        <ele>1486.8199999999999</ele>
        <time>2022-07-24T09:37:22Z</time>
      </trkpt>
      <trkpt lat="-25.775866275653243" lon="28.208579728379846">
        <ele>1487.3</ele>
        <time>2022-07-24T09:37:23Z</time>
      </trkpt>
      <trkpt lat="-25.775937857106328" lon="28.208674862980843">
        <ele>1487.78</ele>
        <time>2022-07-24T09:37:24Z</time>
      </trkpt>
      <trkpt lat="-25.776009103283286" lon="28.208758933469653">
        <ele>1488.26</ele>
        <time>2022-07-24T09:37:25Z</time>
      </trkpt>
      <trkpt lat="-25.777027755975723" lon="28.209868697449565">
        <ele>1494.99</ele>
        <time>2022-07-24T09:37:40Z</time>
      </trkpt>
      <trkpt lat="-25.778577066957951" lon="28.211353300139308">
        <ele>1504.1199999999999</ele>
        <time>2022-07-24T09:37:59Z</time>
      </trkpt>
      <trkpt lat="-25.779578117653728" lon="28.212049249559641">
        <ele>1510.3699999999999</ele>
        <time>2022-07-24T09:38:11Z</time>
      </trkpt>
      <trkpt lat="-25.780842108651996" lon="28.21237220428884">
        <ele>1516.6199999999999</ele>
        <time>2022-07-24T09:38:24Z</time>
      </trkpt>
      <trkpt lat="-25.780940847471356" lon="28.212383100762963">
        <ele>1517.0999999999999</ele>
        <time>2022-07-24T09:38:25Z</time>
      </trkpt>
      <trkpt lat="-25.781040843576193" lon="28.212379831820726">
        <ele>1517.5799999999999</ele>
        <time>2022-07-24T09:38:26Z</time>
      </trkpt>
      <trkpt lat="-25.781139833852649" lon="28.212360218167305">
        <ele>1518.0599999999999</ele>
        <time>2022-07-24T09:38:27Z</time>
      </trkpt>
      <trkpt lat="-25.781235722824931" lon="28.212328031659126">
        <ele>1519.02</ele>
        <time>2022-07-24T09:38:28Z</time>
      </trkpt>
      <trkpt lat="-25.781327253207564" lon="28.212281009182334">
        <ele>1519.5</ele>
        <time>2022-07-24T09:38:29Z</time>
      </trkpt>
      <trkpt lat="-25.781415095552802" lon="28.21221437305212">
        <ele>1519.98</ele>
        <time>2022-07-24T09:38:30Z</time>
      </trkpt>
      <trkpt lat="-25.781482318416238" lon="28.212141953408718">
        <ele>1520.46</ele>
        <time>2022-07-24T09:38:31Z</time>
      </trkpt>
      <trkpt lat="-25.781543338671327" lon="28.212054697796702">
        <ele>1520.9400000000001</ele>
        <time>2022-07-24T09:38:32Z</time>
      </trkpt>
      <trkpt lat="-25.781593294814229" lon="28.211959144100547">
        <ele>1521.4200000000001</ele>
        <time>2022-07-24T09:38:33Z</time>
      </trkpt>
      <trkpt lat="-25.781633360311389" lon="28.211857723072171">
        <ele>1521.9000000000001</ele>
        <time>2022-07-24T09:38:34Z</time>
      </trkpt>
      <trkpt lat="-25.781664876267314" lon="28.211751943454146">
        <ele>1522.3900000000001</ele>
        <time>2022-07-24T09:38:35Z</time>
      </trkpt>
      <trkpt lat="-25.781689267605543" lon="28.211641637608409">
        <ele>1522.8699999999999</ele>
        <time>2022-07-24T09:38:36Z</time>
      </trkpt>
      <trkpt lat="-25.781706785783172" lon="28.211531667038798">
        <ele>1523.3499999999999</ele>
        <time>2022-07-24T09:38:37Z</time>
      </trkpt>
      <trkpt lat="-25.781722208485007" lon="28.211299991235137">
        <ele>1524.3099999999999</ele>
        <time>2022-07-24T09:38:39Z</time>
      </trkpt>
      <trkpt lat="-25.781717346981168" lon="28.211195301264524">
        <ele>1524.79</ele>
        <time>2022-07-24T09:38:40Z</time>
      </trkpt>
      <trkpt lat="-25.78170427121222" lon="28.211087677627802">
        <ele>1525.27</ele>
        <time>2022-07-24T09:38:41Z</time>
      </trkpt>
      <trkpt lat="-25.781684070825577" lon="28.210984999313951">
        <ele>1525.75</ele>
        <time>2022-07-24T09:38:42Z</time>
      </trkpt>
      <trkpt lat="-25.781658254563808" lon="28.210891373455524">
        <ele>1526.23</ele>
        <time>2022-07-24T09:38:43Z</time>
      </trkpt>
      <trkpt lat="-25.781630678102374" lon="28.210809985175729">
        <ele>1526.71</ele>
        <time>2022-07-24T09:38:44Z</time>
      </trkpt>
      <trkpt lat="-25.781604023650289" lon="28.210739241912961">
        <ele>1527.1900000000001</ele>
        <time>2022-07-24T09:38:45Z</time>
      </trkpt>
      <trkpt lat="-25.781551050022244" lon="28.210631031543016">
        <ele>1528.1500000000001</ele>
        <time>2022-07-24T09:38:47Z</time>
      </trkpt>
      <trkpt lat="-25.781524311751127" lon="28.210597671568394">
        <ele>1528.1500000000001</ele>
        <time>2022-07-24T09:38:48Z</time>
      </trkpt>
      <trkpt lat="-25.781509727239609" lon="28.210577219724655">
        <ele>1528.6300000000001</ele>
        <time>2022-07-24T09:38:49Z</time>
      </trkpt>
      <trkpt lat="-25.781507045030594" lon="28.210561294108629">
        <ele>1529.1099999999999</ele>
        <time>2022-07-24T09:38:50Z</time>
      </trkpt>
      <trkpt lat="-25.781518947333097" lon="28.210551487281919">
        <ele>1530.0799999999999</ele>
        <time>2022-07-24T09:39:01Z</time>
      </trkpt>
      <trkpt lat="-25.781518779695034" lon="28.21056766435504">
        <ele>1530.0799999999999</ele>
        <time>2022-07-24T09:39:23Z</time>
      </trkpt>
      <trkpt lat="-25.781512660905719" lon="28.210567831993103">
        <ele>1527.6700000000001</ele>
        <time>2022-07-24T09:39:47Z</time>
      </trkpt>
      <trkpt lat="-25.781512409448624" lon="28.210570430383086">
        <ele>1526.71</ele>
        <time>2022-07-24T09:40:07Z</time>
      </trkpt>
      <trkpt lat="-25.781512912362814" lon="28.210563892498612">
        <ele>1526.71</ele>
        <time>2022-07-24T09:40:18Z</time>
      </trkpt>
    </trkseg>
  </trk>

</gpx>