<?xml version="1.0" encoding="utf-8"?><gpx creator="Garmin Desktop App" version="1.1" xsi:schemaLocation="http://www.topografix.com/GPX/1/1 http://www.topografix.com/GPX/1/1/gpx.xsd http://www.garmin.com/xmlschemas/WaypointExtension/v1 http://www8.garmin.com/xmlschemas/WaypointExtensionv1.xsd http://www.garmin.com/xmlschemas/TrackPointExtension/v1 http://www.garmin.com/xmlschemas/TrackPointExtensionv1.xsd http://www.garmin.com/xmlschemas/GpxExtensions/v3 http://www8.garmin.com/xmlschemas/GpxExtensionsv3.xsd http://www.garmin.com/xmlschemas/ActivityExtension/v1 http://www8.garmin.com/xmlschemas/ActivityExtensionv1.xsd http://www.garmin.com/xmlschemas/AdventuresExtensions/v1 http://www8.garmin.com/xmlschemas/AdventuresExtensionv1.xsd http://www.garmin.com/xmlschemas/PressureExtension/v1 http://www.garmin.com/xmlschemas/PressureExtensionv1.xsd http://www.garmin.com/xmlschemas/TripExtensions/v1 http://www.garmin.com/xmlschemas/TripExtensionsv1.xsd http://www.garmin.com/xmlschemas/TripMetaDataExtensions/v1 http://www.garmin.com/xmlschemas/TripMetaDataExtensionsv1.xsd http://www.garmin.com/xmlschemas/ViaPointTransportationModeExtensions/v1 http://www.garmin.com/xmlschemas/ViaPointTransportationModeExtensionsv1.xsd http://www.garmin.com/xmlschemas/CreationTimeExtension/v1 http://www.garmin.com/xmlschemas/CreationTimeExtensionsv1.xsd http://www.garmin.com/xmlschemas/AccelerationExtension/v1 http://www.garmin.com/xmlschemas/AccelerationExtensionv1.xsd http://www.garmin.com/xmlschemas/PowerExtension/v1 http://www.garmin.com/xmlschemas/PowerExtensionv1.xsd http://www.garmin.com/xmlschemas/VideoExtension/v1 http://www.garmin.com/xmlschemas/VideoExtensionv1.xsd" xmlns="http://www.topografix.com/GPX/1/1" xmlns:xsi="http://www.w3.org/2001/XMLSchema-instance" xmlns:wptx1="http://www.garmin.com/xmlschemas/WaypointExtension/v1" xmlns:gpxtrx="http://www.garmin.com/xmlschemas/GpxExtensions/v3" xmlns:gpxtpx="http://www.garmin.com/xmlschemas/TrackPointExtension/v1" xmlns:gpxx="http://www.garmin.com/xmlschemas/GpxExtensions/v3" xmlns:trp="http://www.garmin.com/xmlschemas/TripExtensions/v1" xmlns:adv="http://www.garmin.com/xmlschemas/AdventuresExtensions/v1" xmlns:prs="http://www.garmin.com/xmlschemas/PressureExtension/v1" xmlns:tmd="http://www.garmin.com/xmlschemas/TripMetaDataExtensions/v1" xmlns:vptm="http://www.garmin.com/xmlschemas/ViaPointTransportationModeExtensions/v1" xmlns:ctx="http://www.garmin.com/xmlschemas/CreationTimeExtension/v1" xmlns:gpxacc="http://www.garmin.com/xmlschemas/AccelerationExtension/v1" xmlns:gpxpx="http://www.garmin.com/xmlschemas/PowerExtension/v1" xmlns:vidx1="http://www.garmin.com/xmlschemas/VideoExtension/v1">

  <metadata>
    <link href="http://www.garmin.com">
      <text>Garmin International</text>
    </link>
    <time>2023-01-21T16:08:28Z</time>
    <bounds maxlat="-27.847688086330891" maxlon="29.753013867884874" minlat="-27.870577471330762" minlon="29.706441583111882" />
  </metadata>

  <trk>
    <name>[280] Mullers Pass</name>
    <extensions>
      <gpxx:TrackExtension>
        <gpxx:DisplayColor>Red</gpxx:DisplayColor>
      </gpxx:TrackExtension>
    </extensions>
    <trkseg>
      <trkpt lat="-27.870577471330762" lon="29.706441583111882">
        <ele>1818.47</ele>
        <time>2022-08-07T09:43:06Z</time>
      </trkpt>
      <trkpt lat="-27.868864042684436" lon="29.707442633807659">
        <ele>1807.9000000000001</ele>
        <time>2022-08-07T09:43:20Z</time>
      </trkpt>
      <trkpt lat="-27.868150323629379" lon="29.707942362874746">
        <ele>1809.8199999999999</ele>
        <time>2022-08-07T09:43:26Z</time>
      </trkpt>
      <trkpt lat="-27.868052590638399" lon="29.708048393949866">
        <ele>1810.78</ele>
        <time>2022-08-07T09:43:27Z</time>
      </trkpt>
      <trkpt lat="-27.867959635332227" lon="29.708164567127824">
        <ele>1811.74</ele>
        <time>2022-08-07T09:43:28Z</time>
      </trkpt>
      <trkpt lat="-27.867871792986989" lon="29.708291636779904">
        <ele>1812.7</ele>
        <time>2022-08-07T09:43:29Z</time>
      </trkpt>
      <trkpt lat="-27.867789566516876" lon="29.708432285115123">
        <ele>1813.6600000000001</ele>
        <time>2022-08-07T09:43:30Z</time>
      </trkpt>
      <trkpt lat="-27.867709519341588" lon="29.708581818267703">
        <ele>1815.1099999999999</ele>
        <time>2022-08-07T09:43:31Z</time>
      </trkpt>
      <trkpt lat="-27.867111470550299" lon="29.709772383794188">
        <ele>1827.5999999999999</ele>
        <time>2022-08-07T09:43:40Z</time>
      </trkpt>
      <trkpt lat="-27.866981383413076" lon="29.710047142580152">
        <ele>1831.45</ele>
        <time>2022-08-07T09:43:46Z</time>
      </trkpt>
      <trkpt lat="-27.86697082221508" lon="29.710036497563124">
        <ele>1834.3299999999999</ele>
        <time>2022-08-07T09:44:12Z</time>
      </trkpt>
      <trkpt lat="-27.866974091157317" lon="29.710043538361788">
        <ele>1835.77</ele>
        <time>2022-08-07T09:45:04Z</time>
      </trkpt>
      <trkpt lat="-27.866951879113913" lon="29.710118724033237">
        <ele>1835.77</ele>
        <time>2022-08-07T09:45:30Z</time>
      </trkpt>
      <trkpt lat="-27.866687010973692" lon="29.710708390921354">
        <ele>1836.74</ele>
        <time>2022-08-07T09:45:38Z</time>
      </trkpt>
      <trkpt lat="-27.866581985726953" lon="29.71140299923718">
        <ele>1831.9300000000001</ele>
        <time>2022-08-07T09:45:47Z</time>
      </trkpt>
      <trkpt lat="-27.866590535268188" lon="29.711484303697944">
        <ele>1831.45</ele>
        <time>2022-08-07T09:45:48Z</time>
      </trkpt>
      <trkpt lat="-27.866830173879862" lon="29.712303802371025">
        <ele>1822.8</ele>
        <time>2022-08-07T09:45:58Z</time>
      </trkpt>
      <trkpt lat="-27.866837969049811" lon="29.712378904223442">
        <ele>1822.3199999999999</ele>
        <time>2022-08-07T09:45:59Z</time>
      </trkpt>
      <trkpt lat="-27.86683595739305" lon="29.712453335523605">
        <ele>1821.8399999999999</ele>
        <time>2022-08-07T09:46:00Z</time>
      </trkpt>
      <trkpt lat="-27.866824558004737" lon="29.712533801794052">
        <ele>1821.8399999999999</ele>
        <time>2022-08-07T09:46:01Z</time>
      </trkpt>
      <trkpt lat="-27.866798993200064" lon="29.712608736008406">
        <ele>1821.3499999999999</ele>
        <time>2022-08-07T09:46:02Z</time>
      </trkpt>
      <trkpt lat="-27.86675825715065" lon="29.712684256955981">
        <ele>1820.8699999999999</ele>
        <time>2022-08-07T09:46:03Z</time>
      </trkpt>
      <trkpt lat="-27.866699583828449" lon="29.712760867550969">
        <ele>1820.8699999999999</ele>
        <time>2022-08-07T09:46:04Z</time>
      </trkpt>
      <trkpt lat="-27.86663219332695" lon="29.712830437347293">
        <ele>1820.8699999999999</ele>
        <time>2022-08-07T09:46:05Z</time>
      </trkpt>
      <trkpt lat="-27.866555750370026" lon="29.712897660210729">
        <ele>1820.8699999999999</ele>
        <time>2022-08-07T09:46:06Z</time>
      </trkpt>
      <trkpt lat="-27.866471009328961" lon="29.712966056540608">
        <ele>1820.3900000000001</ele>
        <time>2022-08-07T09:46:07Z</time>
      </trkpt>
      <trkpt lat="-27.865716889500618" lon="29.713818160817027">
        <ele>1811.74</ele>
        <time>2022-08-07T09:46:17Z</time>
      </trkpt>
      <trkpt lat="-27.864735284820199" lon="29.715573498979211">
        <ele>1788.6700000000001</ele>
        <time>2022-08-07T09:46:33Z</time>
      </trkpt>
      <trkpt lat="-27.864539232105017" lon="29.716481510549784">
        <ele>1780.98</ele>
        <time>2022-08-07T09:46:41Z</time>
      </trkpt>
      <trkpt lat="-27.864549625664949" lon="29.716580417007208">
        <ele>1780.02</ele>
        <time>2022-08-07T09:46:42Z</time>
      </trkpt>
      <trkpt lat="-27.864569993689656" lon="29.716676641255617">
        <ele>1779.0599999999999</ele>
        <time>2022-08-07T09:46:43Z</time>
      </trkpt>
      <trkpt lat="-27.864599749445915" lon="29.716762974858284">
        <ele>1778.0999999999999</ele>
        <time>2022-08-07T09:46:44Z</time>
      </trkpt>
      <trkpt lat="-27.864640736952424" lon="29.716842686757445">
        <ele>1777.6099999999999</ele>
        <time>2022-08-07T09:46:45Z</time>
      </trkpt>
      <trkpt lat="-27.864695470780134" lon="29.716918123885989">
        <ele>1776.6500000000001</ele>
        <time>2022-08-07T09:46:46Z</time>
      </trkpt>
      <trkpt lat="-27.864755820482969" lon="29.716979060322046">
        <ele>1775.6900000000001</ele>
        <time>2022-08-07T09:46:47Z</time>
      </trkpt>
      <trkpt lat="-27.86482572555542" lon="29.717033291235566">
        <ele>1774.73</ele>
        <time>2022-08-07T09:46:48Z</time>
      </trkpt>
      <trkpt lat="-27.864898229017854" lon="29.717075116932392">
        <ele>1773.77</ele>
        <time>2022-08-07T09:46:49Z</time>
      </trkpt>
      <trkpt lat="-27.864974420517683" lon="29.717108979821205">
        <ele>1772.8099999999999</ele>
        <time>2022-08-07T09:46:50Z</time>
      </trkpt>
      <trkpt lat="-27.865055808797479" lon="29.717136221006513">
        <ele>1771.8499999999999</ele>
        <time>2022-08-07T09:46:51Z</time>
      </trkpt>
      <trkpt lat="-27.865134682506323" lon="29.717156421393156">
        <ele>1770.8900000000001</ele>
        <time>2022-08-07T09:46:52Z</time>
      </trkpt>
      <trkpt lat="-27.865213807672262" lon="29.717173017561436">
        <ele>1769.9200000000001</ele>
        <time>2022-08-07T09:46:53Z</time>
      </trkpt>
      <trkpt lat="-27.866155179217458" lon="29.717283407226205">
        <ele>1764.1600000000001</ele>
        <time>2022-08-07T09:47:03Z</time>
      </trkpt>
      <trkpt lat="-27.866294654086232" lon="29.717312576249242">
        <ele>1763.2</ele>
        <time>2022-08-07T09:47:05Z</time>
      </trkpt>
      <trkpt lat="-27.866352656856179" lon="29.717339314520359">
        <ele>1762.71</ele>
        <time>2022-08-07T09:47:06Z</time>
      </trkpt>
      <trkpt lat="-27.866409067064524" lon="29.717378206551075">
        <ele>1762.23</ele>
        <time>2022-08-07T09:47:07Z</time>
      </trkpt>
      <trkpt lat="-27.86646262742579" lon="29.717427659779787">
        <ele>1761.75</ele>
        <time>2022-08-07T09:47:08Z</time>
      </trkpt>
      <trkpt lat="-27.866502441465855" lon="29.717481890693307">
        <ele>1761.75</ele>
        <time>2022-08-07T09:47:09Z</time>
      </trkpt>
      <trkpt lat="-27.866531778126955" lon="29.717543749138713">
        <ele>1761.27</ele>
        <time>2022-08-07T09:47:10Z</time>
      </trkpt>
      <trkpt lat="-27.866548793390393" lon="29.717603512108326">
        <ele>1760.79</ele>
        <time>2022-08-07T09:47:11Z</time>
      </trkpt>
      <trkpt lat="-27.866557175293565" lon="29.717663526535034">
        <ele>1760.79</ele>
        <time>2022-08-07T09:47:12Z</time>
      </trkpt>
      <trkpt lat="-27.866557845845819" lon="29.717729240655899">
        <ele>1760.3099999999999</ele>
        <time>2022-08-07T09:47:13Z</time>
      </trkpt>
      <trkpt lat="-27.866549296304584" lon="29.717795709148049">
        <ele>1760.3099999999999</ele>
        <time>2022-08-07T09:47:14Z</time>
      </trkpt>
      <trkpt lat="-27.866528257727623" lon="29.717867709696293">
        <ele>1759.8299999999999</ele>
        <time>2022-08-07T09:47:15Z</time>
      </trkpt>
      <trkpt lat="-27.866498166695237" lon="29.717934848740697">
        <ele>1759.3499999999999</ele>
        <time>2022-08-07T09:47:16Z</time>
      </trkpt>
      <trkpt lat="-27.866460867226124" lon="29.717999054118991">
        <ele>1758.8699999999999</ele>
        <time>2022-08-07T09:47:17Z</time>
      </trkpt>
      <trkpt lat="-27.866419209167361" lon="29.718055799603462">
        <ele>1757.9100000000001</ele>
        <time>2022-08-07T09:47:18Z</time>
      </trkpt>
      <trkpt lat="-27.866372354328632" lon="29.718105169013143">
        <ele>1756.95</ele>
        <time>2022-08-07T09:47:19Z</time>
      </trkpt>
      <trkpt lat="-27.866324074566364" lon="29.718146743252873">
        <ele>1755.99</ele>
        <time>2022-08-07T09:47:20Z</time>
      </trkpt>
      <trkpt lat="-27.866268837824464" lon="29.718183958902955">
        <ele>1754.54</ele>
        <time>2022-08-07T09:47:21Z</time>
      </trkpt>
      <trkpt lat="-27.866211757063866" lon="29.718213463202119">
        <ele>1753.5799999999999</ele>
        <time>2022-08-07T09:47:22Z</time>
      </trkpt>
      <trkpt lat="-27.866150485351682" lon="29.718240285292268">
        <ele>1752.1400000000001</ele>
        <time>2022-08-07T09:47:23Z</time>
      </trkpt>
      <trkpt lat="-27.865217830985785" lon="29.718558043241501">
        <ele>1734.3599999999999</ele>
        <time>2022-08-07T09:47:37Z</time>
      </trkpt>
      <trkpt lat="-27.865095790475607" lon="29.718612525612116">
        <ele>1731.95</ele>
        <time>2022-08-07T09:47:39Z</time>
      </trkpt>
      <trkpt lat="-27.865022113546729" lon="29.718656362965703">
        <ele>1730.99</ele>
        <time>2022-08-07T09:47:40Z</time>
      </trkpt>
      <trkpt lat="-27.86494835279882" lon="29.718710258603096">
        <ele>1730.03</ele>
        <time>2022-08-07T09:47:41Z</time>
      </trkpt>
      <trkpt lat="-27.864512912929058" lon="29.719072273001075">
        <ele>1723.3</ele>
        <time>2022-08-07T09:47:47Z</time>
      </trkpt>
      <trkpt lat="-27.864441080018878" lon="29.719110075384378">
        <ele>1722.3399999999999</ele>
        <time>2022-08-07T09:47:48Z</time>
      </trkpt>
      <trkpt lat="-27.864365559071302" lon="29.719139412045479">
        <ele>1720.9000000000001</ele>
        <time>2022-08-07T09:47:49Z</time>
      </trkpt>
      <trkpt lat="-27.864293307065964" lon="29.719159947708249">
        <ele>1719.46</ele>
        <time>2022-08-07T09:47:50Z</time>
      </trkpt>
      <trkpt lat="-27.864220552146435" lon="29.719177465885878">
        <ele>1718.49</ele>
        <time>2022-08-07T09:47:51Z</time>
      </trkpt>
      <trkpt lat="-27.863375823944807" lon="29.719543671235442">
        <ele>1698.79</ele>
        <time>2022-08-07T09:48:04Z</time>
      </trkpt>
      <trkpt lat="-27.862514583393931" lon="29.720333833247423">
        <ele>1678.1199999999999</ele>
        <time>2022-08-07T09:48:21Z</time>
      </trkpt>
      <trkpt lat="-27.862281231209636" lon="29.720553271472454">
        <ele>1673.79</ele>
        <time>2022-08-07T09:48:28Z</time>
      </trkpt>
      <trkpt lat="-27.862269831821322" lon="29.720556708052754">
        <ele>1673.3099999999999</ele>
        <time>2022-08-07T09:48:29Z</time>
      </trkpt>
      <trkpt lat="-27.862270418554544" lon="29.720564419403672">
        <ele>1674.27</ele>
        <time>2022-08-07T09:48:42Z</time>
      </trkpt>
      <trkpt lat="-27.862222893163562" lon="29.720581769943237">
        <ele>1674.75</ele>
        <time>2022-08-07T09:48:58Z</time>
      </trkpt>
      <trkpt lat="-27.862221384420991" lon="29.720604903995991">
        <ele>1674.75</ele>
        <time>2022-08-07T09:49:11Z</time>
      </trkpt>
      <trkpt lat="-27.862220294773579" lon="29.720595180988312">
        <ele>1676.2</ele>
        <time>2022-08-07T09:49:43Z</time>
      </trkpt>
      <trkpt lat="-27.86222473718226" lon="29.720591995865107">
        <ele>1676.2</ele>
        <time>2022-08-07T09:50:15Z</time>
      </trkpt>
      <trkpt lat="-27.862230353057384" lon="29.72059166058898">
        <ele>1675.23</ele>
        <time>2022-08-07T09:50:42Z</time>
      </trkpt>
      <trkpt lat="-27.862221468240023" lon="29.72059266641736">
        <ele>1675.23</ele>
        <time>2022-08-07T09:51:06Z</time>
      </trkpt>
      <trkpt lat="-27.862213840708137" lon="29.720596857368946">
        <ele>1675.72</ele>
        <time>2022-08-07T09:51:40Z</time>
      </trkpt>
      <trkpt lat="-27.862219121307135" lon="29.720600796863437">
        <ele>1675.23</ele>
        <time>2022-08-07T09:52:03Z</time>
      </trkpt>
      <trkpt lat="-27.862213086336851" lon="29.720611860975623">
        <ele>1675.23</ele>
        <time>2022-08-07T09:52:05Z</time>
      </trkpt>
      <trkpt lat="-27.862200178205967" lon="29.72062636166811">
        <ele>1674.75</ele>
        <time>2022-08-07T09:52:06Z</time>
      </trkpt>
      <trkpt lat="-27.862179558724165" lon="29.720642622560263">
        <ele>1674.75</ele>
        <time>2022-08-07T09:52:07Z</time>
      </trkpt>
      <trkpt lat="-27.862110994756222" lon="29.720688723027706">
        <ele>1674.27</ele>
        <time>2022-08-07T09:52:09Z</time>
      </trkpt>
      <trkpt lat="-27.862077634781599" lon="29.720718981698155">
        <ele>1673.79</ele>
        <time>2022-08-07T09:52:10Z</time>
      </trkpt>
      <trkpt lat="-27.861487297341228" lon="29.721326753497124">
        <ele>1666.0999999999999</ele>
        <time>2022-08-07T09:52:22Z</time>
      </trkpt>
      <trkpt lat="-27.860759329050779" lon="29.72207123413682">
        <ele>1656.97</ele>
        <time>2022-08-07T09:52:31Z</time>
      </trkpt>
      <trkpt lat="-27.860267395153642" lon="29.722989303991199">
        <ele>1653.5999999999999</ele>
        <time>2022-08-07T09:52:39Z</time>
      </trkpt>
      <trkpt lat="-27.860066816210747" lon="29.724528305232525">
        <ele>1646.8800000000001</ele>
        <time>2022-08-07T09:52:50Z</time>
      </trkpt>
      <trkpt lat="-27.859965311363339" lon="29.725885502994061">
        <ele>1641.5899999999999</ele>
        <time>2022-08-07T09:52:59Z</time>
      </trkpt>
      <trkpt lat="-27.859791554510593" lon="29.728151801973581">
        <ele>1618.52</ele>
        <time>2022-08-07T09:53:13Z</time>
      </trkpt>
      <trkpt lat="-27.859417051076889" lon="29.730862090364099">
        <ele>1593.52</ele>
        <time>2022-08-07T09:53:29Z</time>
      </trkpt>
      <trkpt lat="-27.858900558203459" lon="29.732606615871191">
        <ele>1586.79</ele>
        <time>2022-08-07T09:53:38Z</time>
      </trkpt>
      <trkpt lat="-27.858054656535387" lon="29.734144359827042">
        <ele>1593.52</ele>
        <time>2022-08-07T09:53:47Z</time>
      </trkpt>
      <trkpt lat="-27.857443783432245" lon="29.735071649774909">
        <ele>1593.52</ele>
        <time>2022-08-07T09:53:54Z</time>
      </trkpt>
      <trkpt lat="-27.856209129095078" lon="29.736847188323736">
        <ele>1570.45</ele>
        <time>2022-08-07T09:54:08Z</time>
      </trkpt>
      <trkpt lat="-27.85536540672183" lon="29.737426126375794">
        <ele>1565.6400000000001</ele>
        <time>2022-08-07T09:54:16Z</time>
      </trkpt>
      <trkpt lat="-27.854497041553259" lon="29.738128278404474">
        <ele>1555.55</ele>
        <time>2022-08-07T09:54:23Z</time>
      </trkpt>
      <trkpt lat="-27.853750633075833" lon="29.739349689334631">
        <ele>1555.0699999999999</ele>
        <time>2022-08-07T09:54:31Z</time>
      </trkpt>
      <trkpt lat="-27.853233637288213" lon="29.740868657827377">
        <ele>1552.6700000000001</ele>
        <time>2022-08-07T09:54:39Z</time>
      </trkpt>
      <trkpt lat="-27.852797107771039" lon="29.742550402879715">
        <ele>1550.74</ele>
        <time>2022-08-07T09:54:47Z</time>
      </trkpt>
      <trkpt lat="-27.852283632382751" lon="29.743776591494679">
        <ele>1553.1500000000001</ele>
        <time>2022-08-07T09:54:55Z</time>
      </trkpt>
      <trkpt lat="-27.851334633305669" lon="29.744755597785115">
        <ele>1545.9400000000001</ele>
        <time>2022-08-07T09:55:05Z</time>
      </trkpt>
      <trkpt lat="-27.849415009841323" lon="29.74612838588655">
        <ele>1518.54</ele>
        <time>2022-08-07T09:55:25Z</time>
      </trkpt>
      <trkpt lat="-27.849334962666035" lon="29.746211199089885">
        <ele>1517.0999999999999</ele>
        <time>2022-08-07T09:55:26Z</time>
      </trkpt>
      <trkpt lat="-27.849259944632649" lon="29.746301556006074">
        <ele>1515.6600000000001</ele>
        <time>2022-08-07T09:55:27Z</time>
      </trkpt>
      <trkpt lat="-27.849188195541501" lon="29.746397864073515">
        <ele>1514.21</ele>
        <time>2022-08-07T09:55:28Z</time>
      </trkpt>
      <trkpt lat="-27.849122816696763" lon="29.746501967310905">
        <ele>1512.29</ele>
        <time>2022-08-07T09:55:29Z</time>
      </trkpt>
      <trkpt lat="-27.849064478650689" lon="29.746614787727594">
        <ele>1510.8499999999999</ele>
        <time>2022-08-07T09:55:30Z</time>
      </trkpt>
      <trkpt lat="-27.849012175574899" lon="29.74673381075263">
        <ele>1508.9300000000001</ele>
        <time>2022-08-07T09:55:31Z</time>
      </trkpt>
      <trkpt lat="-27.848964985460043" lon="29.746860461309552">
        <ele>1507</ele>
        <time>2022-08-07T09:55:32Z</time>
      </trkpt>
      <trkpt lat="-27.848924333229661" lon="29.746989542618394">
        <ele>1505.5599999999999</ele>
        <time>2022-08-07T09:55:33Z</time>
      </trkpt>
      <trkpt lat="-27.848633732646704" lon="29.748175917193294">
        <ele>1493.55</ele>
        <time>2022-08-07T09:55:40Z</time>
      </trkpt>
      <trkpt lat="-27.848237436264753" lon="29.749916587024927">
        <ele>1481.53</ele>
        <time>2022-08-07T09:55:48Z</time>
      </trkpt>
      <trkpt lat="-27.84785614348948" lon="29.751542508602142">
        <ele>1473.3599999999999</ele>
        <time>2022-08-07T09:55:56Z</time>
      </trkpt>
      <trkpt lat="-27.847688086330891" lon="29.753013867884874">
        <ele>1470.95</ele>
        <time>2022-08-07T09:56:05Z</time>
      </trkpt>
    </trkseg>
  </trk>

</gpx>