<?xml version="1.0" encoding="utf-8"?><gpx creator="Garmin Desktop App" version="1.1" xsi:schemaLocation="http://www.topografix.com/GPX/1/1 http://www.topografix.com/GPX/1/1/gpx.xsd http://www.garmin.com/xmlschemas/WaypointExtension/v1 http://www8.garmin.com/xmlschemas/WaypointExtensionv1.xsd http://www.garmin.com/xmlschemas/TrackPointExtension/v1 http://www.garmin.com/xmlschemas/TrackPointExtensionv1.xsd http://www.garmin.com/xmlschemas/GpxExtensions/v3 http://www8.garmin.com/xmlschemas/GpxExtensionsv3.xsd http://www.garmin.com/xmlschemas/ActivityExtension/v1 http://www8.garmin.com/xmlschemas/ActivityExtensionv1.xsd http://www.garmin.com/xmlschemas/AdventuresExtensions/v1 http://www8.garmin.com/xmlschemas/AdventuresExtensionv1.xsd http://www.garmin.com/xmlschemas/PressureExtension/v1 http://www.garmin.com/xmlschemas/PressureExtensionv1.xsd http://www.garmin.com/xmlschemas/TripExtensions/v1 http://www.garmin.com/xmlschemas/TripExtensionsv1.xsd http://www.garmin.com/xmlschemas/TripMetaDataExtensions/v1 http://www.garmin.com/xmlschemas/TripMetaDataExtensionsv1.xsd http://www.garmin.com/xmlschemas/ViaPointTransportationModeExtensions/v1 http://www.garmin.com/xmlschemas/ViaPointTransportationModeExtensionsv1.xsd http://www.garmin.com/xmlschemas/CreationTimeExtension/v1 http://www.garmin.com/xmlschemas/CreationTimeExtensionsv1.xsd http://www.garmin.com/xmlschemas/AccelerationExtension/v1 http://www.garmin.com/xmlschemas/AccelerationExtensionv1.xsd http://www.garmin.com/xmlschemas/PowerExtension/v1 http://www.garmin.com/xmlschemas/PowerExtensionv1.xsd http://www.garmin.com/xmlschemas/VideoExtension/v1 http://www.garmin.com/xmlschemas/VideoExtensionv1.xsd" xmlns="http://www.topografix.com/GPX/1/1" xmlns:xsi="http://www.w3.org/2001/XMLSchema-instance" xmlns:wptx1="http://www.garmin.com/xmlschemas/WaypointExtension/v1" xmlns:gpxtrx="http://www.garmin.com/xmlschemas/GpxExtensions/v3" xmlns:gpxtpx="http://www.garmin.com/xmlschemas/TrackPointExtension/v1" xmlns:gpxx="http://www.garmin.com/xmlschemas/GpxExtensions/v3" xmlns:trp="http://www.garmin.com/xmlschemas/TripExtensions/v1" xmlns:adv="http://www.garmin.com/xmlschemas/AdventuresExtensions/v1" xmlns:prs="http://www.garmin.com/xmlschemas/PressureExtension/v1" xmlns:tmd="http://www.garmin.com/xmlschemas/TripMetaDataExtensions/v1" xmlns:vptm="http://www.garmin.com/xmlschemas/ViaPointTransportationModeExtensions/v1" xmlns:ctx="http://www.garmin.com/xmlschemas/CreationTimeExtension/v1" xmlns:gpxacc="http://www.garmin.com/xmlschemas/AccelerationExtension/v1" xmlns:gpxpx="http://www.garmin.com/xmlschemas/PowerExtension/v1" xmlns:vidx1="http://www.garmin.com/xmlschemas/VideoExtension/v1">

  <metadata>
    <link href="http://www.garmin.com">
      <text>Garmin International</text>
    </link>
    <time>2022-11-07T13:21:21Z</time>
    <bounds maxlat="-27.543449476361275" maxlon="29.716546554118395" minlat="-27.630717493593693" minlon="29.691607793793082" />
  </metadata>

  <trk>
    <name>[296] Oom Louis se Hoogte Dirt Road</name>
    <extensions>
      <gpxx:TrackExtension>
        <gpxx:DisplayColor>Blue</gpxx:DisplayColor>
      </gpxx:TrackExtension>
    </extensions>
    <trkseg>
      <trkpt lat="-27.543449476361275" lon="29.695359617471695">
        <ele>1711.76</ele>
        <time>2022-08-08T11:47:21Z</time>
      </trkpt>
      <trkpt lat="-27.543476549908519" lon="29.695318462327123">
        <ele>1711.76</ele>
        <time>2022-08-08T11:47:22Z</time>
      </trkpt>
      <trkpt lat="-27.543516028672457" lon="29.695279402658343">
        <ele>1711.76</ele>
        <time>2022-08-08T11:47:23Z</time>
      </trkpt>
      <trkpt lat="-27.543559782207012" lon="29.695252496749163">
        <ele>1711.76</ele>
        <time>2022-08-08T11:47:24Z</time>
      </trkpt>
      <trkpt lat="-27.543627759441733" lon="29.69522257335484">
        <ele>1711.76</ele>
        <time>2022-08-08T11:47:25Z</time>
      </trkpt>
      <trkpt lat="-27.543717361986637" lon="29.695191560313106">
        <ele>1711.76</ele>
        <time>2022-08-08T11:47:26Z</time>
      </trkpt>
      <trkpt lat="-27.543820375576615" lon="29.695160966366529">
        <ele>1711.76</ele>
        <time>2022-08-08T11:47:27Z</time>
      </trkpt>
      <trkpt lat="-27.544797454029322" lon="29.694925518706441">
        <ele>1713.21</ele>
        <time>2022-08-08T11:47:33Z</time>
      </trkpt>
      <trkpt lat="-27.547005079686642" lon="29.694368541240692">
        <ele>1716.5699999999999</ele>
        <time>2022-08-08T11:47:44Z</time>
      </trkpt>
      <trkpt lat="-27.550502931699157" lon="29.693471007049084">
        <ele>1719.9400000000001</ele>
        <time>2022-08-08T11:48:01Z</time>
      </trkpt>
      <trkpt lat="-27.554362546652555" lon="29.692493006587029">
        <ele>1728.5899999999999</ele>
        <time>2022-08-08T11:48:18Z</time>
      </trkpt>
      <trkpt lat="-27.557402746751904" lon="29.691730421036482">
        <ele>1740.1199999999999</ele>
        <time>2022-08-08T11:48:31Z</time>
      </trkpt>
      <trkpt lat="-27.558586271479726" lon="29.691607793793082">
        <ele>1746.8499999999999</ele>
        <time>2022-08-08T11:48:37Z</time>
      </trkpt>
      <trkpt lat="-27.559685809537768" lon="29.69194583594799">
        <ele>1747.8099999999999</ele>
        <time>2022-08-08T11:48:44Z</time>
      </trkpt>
      <trkpt lat="-27.561067566275597" lon="29.6928018797189">
        <ele>1738.2</ele>
        <time>2022-08-08T11:48:54Z</time>
      </trkpt>
      <trkpt lat="-27.562913848087192" lon="29.69393745996058">
        <ele>1738.2</ele>
        <time>2022-08-08T11:49:06Z</time>
      </trkpt>
      <trkpt lat="-27.565486505627632" lon="29.695511581376195">
        <ele>1754.0599999999999</ele>
        <time>2022-08-08T11:49:21Z</time>
      </trkpt>
      <trkpt lat="-27.56789093837142" lon="29.696973636746407">
        <ele>1780.02</ele>
        <time>2022-08-08T11:49:35Z</time>
      </trkpt>
      <trkpt lat="-27.569562122225761" lon="29.69800922088325">
        <ele>1797.3199999999999</ele>
        <time>2022-08-08T11:49:45Z</time>
      </trkpt>
      <trkpt lat="-27.570661408826709" lon="29.69902703538537">
        <ele>1795.8800000000001</ele>
        <time>2022-08-08T11:49:54Z</time>
      </trkpt>
      <trkpt lat="-27.572237374261022" lon="29.701038189232349">
        <ele>1778.5799999999999</ele>
        <time>2022-08-08T11:50:09Z</time>
      </trkpt>
      <trkpt lat="-27.573566325008869" lon="29.702711803838611">
        <ele>1758.8699999999999</ele>
        <time>2022-08-08T11:50:20Z</time>
      </trkpt>
      <trkpt lat="-27.574259927496314" lon="29.703965904191136">
        <ele>1748.29</ele>
        <time>2022-08-08T11:50:28Z</time>
      </trkpt>
      <trkpt lat="-27.574563436210155" lon="29.705434329807758">
        <ele>1743.01</ele>
        <time>2022-08-08T11:50:34Z</time>
      </trkpt>
      <trkpt lat="-27.574854288250208" lon="29.707251694053411">
        <ele>1740.1199999999999</ele>
        <time>2022-08-08T11:50:43Z</time>
      </trkpt>
      <trkpt lat="-27.575188977643847" lon="29.70939964056015">
        <ele>1726.1800000000001</ele>
        <time>2022-08-08T11:50:55Z</time>
      </trkpt>
      <trkpt lat="-27.575520230457187" lon="29.710569670423865">
        <ele>1726.6700000000001</ele>
        <time>2022-08-08T11:51:03Z</time>
      </trkpt>
      <trkpt lat="-27.576017947867513" lon="29.711342230439186">
        <ele>1732.4300000000001</ele>
        <time>2022-08-08T11:51:10Z</time>
      </trkpt>
      <trkpt lat="-27.576669724658132" lon="29.711944721639156">
        <ele>1737.24</ele>
        <time>2022-08-08T11:51:17Z</time>
      </trkpt>
      <trkpt lat="-27.577669266611338" lon="29.712420729920268">
        <ele>1745.8900000000001</ele>
        <time>2022-08-08T11:51:27Z</time>
      </trkpt>
      <trkpt lat="-27.578796967864037" lon="29.712563306093216">
        <ele>1751.6600000000001</ele>
        <time>2022-08-08T11:51:35Z</time>
      </trkpt>
      <trkpt lat="-27.581498371437192" lon="29.712849380448461">
        <ele>1763.2</ele>
        <time>2022-08-08T11:51:50Z</time>
      </trkpt>
      <trkpt lat="-27.583500975742936" lon="29.713061610236764">
        <ele>1765.5999999999999</ele>
        <time>2022-08-08T11:52:01Z</time>
      </trkpt>
      <trkpt lat="-27.585557894781232" lon="29.713286831974983">
        <ele>1765.5999999999999</ele>
        <time>2022-08-08T11:52:12Z</time>
      </trkpt>
      <trkpt lat="-27.586501277983189" lon="29.71339319832623">
        <ele>1768.48</ele>
        <time>2022-08-08T11:52:19Z</time>
      </trkpt>
      <trkpt lat="-27.587731406092644" lon="29.713516579940915">
        <ele>1775.6900000000001</ele>
        <time>2022-08-08T11:52:27Z</time>
      </trkpt>
      <trkpt lat="-27.589423963800073" lon="29.71370785497129">
        <ele>1779.0599999999999</ele>
        <time>2022-08-08T11:52:37Z</time>
      </trkpt>
      <trkpt lat="-27.591190617531538" lon="29.713916061446071">
        <ele>1779.0599999999999</ele>
        <time>2022-08-08T11:52:48Z</time>
      </trkpt>
      <trkpt lat="-27.593139493837953" lon="29.714139103889465">
        <ele>1783.3800000000001</ele>
        <time>2022-08-08T11:52:58Z</time>
      </trkpt>
      <trkpt lat="-27.595208985731006" lon="29.714351333677769">
        <ele>1781.46</ele>
        <time>2022-08-08T11:53:09Z</time>
      </trkpt>
      <trkpt lat="-27.59722332470119" lon="29.714548140764236">
        <ele>1774.25</ele>
        <time>2022-08-08T11:53:20Z</time>
      </trkpt>
      <trkpt lat="-27.600205773487687" lon="29.714889284223318">
        <ele>1771.8499999999999</ele>
        <time>2022-08-08T11:53:36Z</time>
      </trkpt>
      <trkpt lat="-27.602467881515622" lon="29.715147446841002">
        <ele>1780.5</ele>
        <time>2022-08-08T11:53:47Z</time>
      </trkpt>
      <trkpt lat="-27.603978803381324" lon="29.715298572555184">
        <ele>1782.9000000000001</ele>
        <time>2022-08-08T11:53:56Z</time>
      </trkpt>
      <trkpt lat="-27.606532350182533" lon="29.715567296370864">
        <ele>1780.98</ele>
        <time>2022-08-08T11:54:10Z</time>
      </trkpt>
      <trkpt lat="-27.607903545722365" lon="29.715723283588886">
        <ele>1783.3800000000001</ele>
        <time>2022-08-08T11:54:18Z</time>
      </trkpt>
      <trkpt lat="-27.609272478148341" lon="29.715876337140799">
        <ele>1786.75</ele>
        <time>2022-08-08T11:54:25Z</time>
      </trkpt>
      <trkpt lat="-27.611579261720181" lon="29.716126620769501">
        <ele>1786.27</ele>
        <time>2022-08-08T11:54:39Z</time>
      </trkpt>
      <trkpt lat="-27.613106360659003" lon="29.716305322945118">
        <ele>1783.8599999999999</ele>
        <time>2022-08-08T11:54:49Z</time>
      </trkpt>
      <trkpt lat="-27.614564811810851" lon="29.716469440609217">
        <ele>1789.6300000000001</ele>
        <time>2022-08-08T11:54:59Z</time>
      </trkpt>
      <trkpt lat="-27.615886554121971" lon="29.716546554118395">
        <ele>1793.48</ele>
        <time>2022-08-08T11:55:08Z</time>
      </trkpt>
      <trkpt lat="-27.617052979767323" lon="29.716261234134436">
        <ele>1793</ele>
        <time>2022-08-08T11:55:17Z</time>
      </trkpt>
      <trkpt lat="-27.618263829499483" lon="29.715668214485049">
        <ele>1784.8199999999999</ele>
        <time>2022-08-08T11:55:26Z</time>
      </trkpt>
      <trkpt lat="-27.61956830509007" lon="29.714988693594933">
        <ele>1784.3399999999999</ele>
        <time>2022-08-08T11:55:34Z</time>
      </trkpt>
      <trkpt lat="-27.621007980778813" lon="29.714462477713823">
        <ele>1779.54</ele>
        <time>2022-08-08T11:55:44Z</time>
      </trkpt>
      <trkpt lat="-27.622481938451529" lon="29.714117143303156">
        <ele>1773.77</ele>
        <time>2022-08-08T11:55:53Z</time>
      </trkpt>
      <trkpt lat="-27.623806362971663" lon="29.713742220774293">
        <ele>1777.6099999999999</ele>
        <time>2022-08-08T11:56:00Z</time>
      </trkpt>
      <trkpt lat="-27.62509030289948" lon="29.71294803544879">
        <ele>1781.9400000000001</ele>
        <time>2022-08-08T11:56:09Z</time>
      </trkpt>
      <trkpt lat="-27.626235270872712" lon="29.711785046383739">
        <ele>1776.6500000000001</ele>
        <time>2022-08-08T11:56:17Z</time>
      </trkpt>
      <trkpt lat="-27.628003098070621" lon="29.709905572235584">
        <ele>1780.02</ele>
        <time>2022-08-08T11:56:28Z</time>
      </trkpt>
      <trkpt lat="-27.629750389605761" lon="29.70801243558526">
        <ele>1791.55</ele>
        <time>2022-08-08T11:56:40Z</time>
      </trkpt>
      <trkpt lat="-27.630412057042122" lon="29.707468533888459">
        <ele>1800.21</ele>
        <time>2022-08-08T11:56:47Z</time>
      </trkpt>
      <trkpt lat="-27.630627891048789" lon="29.707353198900819">
        <ele>1803.5699999999999</ele>
        <time>2022-08-08T11:56:50Z</time>
      </trkpt>
      <trkpt lat="-27.630677092820406" lon="29.707337357103825">
        <ele>1804.53</ele>
        <time>2022-08-08T11:56:51Z</time>
      </trkpt>
      <trkpt lat="-27.630717493593693" lon="29.707332327961922">
        <ele>1805.01</ele>
        <time>2022-08-08T11:56:52Z</time>
      </trkpt>
    </trkseg>
  </trk>

</gpx>