<?xml version="1.0" encoding="utf-8"?><gpx creator="Garmin Desktop App" version="1.1" xsi:schemaLocation="http://www.topografix.com/GPX/1/1 http://www.topografix.com/GPX/1/1/gpx.xsd http://www.garmin.com/xmlschemas/WaypointExtension/v1 http://www8.garmin.com/xmlschemas/WaypointExtensionv1.xsd http://www.garmin.com/xmlschemas/TrackPointExtension/v1 http://www.garmin.com/xmlschemas/TrackPointExtensionv1.xsd http://www.garmin.com/xmlschemas/GpxExtensions/v3 http://www8.garmin.com/xmlschemas/GpxExtensionsv3.xsd http://www.garmin.com/xmlschemas/ActivityExtension/v1 http://www8.garmin.com/xmlschemas/ActivityExtensionv1.xsd http://www.garmin.com/xmlschemas/AdventuresExtensions/v1 http://www8.garmin.com/xmlschemas/AdventuresExtensionv1.xsd http://www.garmin.com/xmlschemas/PressureExtension/v1 http://www.garmin.com/xmlschemas/PressureExtensionv1.xsd http://www.garmin.com/xmlschemas/TripExtensions/v1 http://www.garmin.com/xmlschemas/TripExtensionsv1.xsd http://www.garmin.com/xmlschemas/TripMetaDataExtensions/v1 http://www.garmin.com/xmlschemas/TripMetaDataExtensionsv1.xsd http://www.garmin.com/xmlschemas/ViaPointTransportationModeExtensions/v1 http://www.garmin.com/xmlschemas/ViaPointTransportationModeExtensionsv1.xsd http://www.garmin.com/xmlschemas/CreationTimeExtension/v1 http://www.garmin.com/xmlschemas/CreationTimeExtensionsv1.xsd http://www.garmin.com/xmlschemas/AccelerationExtension/v1 http://www.garmin.com/xmlschemas/AccelerationExtensionv1.xsd http://www.garmin.com/xmlschemas/PowerExtension/v1 http://www.garmin.com/xmlschemas/PowerExtensionv1.xsd http://www.garmin.com/xmlschemas/VideoExtension/v1 http://www.garmin.com/xmlschemas/VideoExtensionv1.xsd" xmlns="http://www.topografix.com/GPX/1/1" xmlns:xsi="http://www.w3.org/2001/XMLSchema-instance" xmlns:wptx1="http://www.garmin.com/xmlschemas/WaypointExtension/v1" xmlns:gpxtrx="http://www.garmin.com/xmlschemas/GpxExtensions/v3" xmlns:gpxtpx="http://www.garmin.com/xmlschemas/TrackPointExtension/v1" xmlns:gpxx="http://www.garmin.com/xmlschemas/GpxExtensions/v3" xmlns:trp="http://www.garmin.com/xmlschemas/TripExtensions/v1" xmlns:adv="http://www.garmin.com/xmlschemas/AdventuresExtensions/v1" xmlns:prs="http://www.garmin.com/xmlschemas/PressureExtension/v1" xmlns:tmd="http://www.garmin.com/xmlschemas/TripMetaDataExtensions/v1" xmlns:vptm="http://www.garmin.com/xmlschemas/ViaPointTransportationModeExtensions/v1" xmlns:ctx="http://www.garmin.com/xmlschemas/CreationTimeExtension/v1" xmlns:gpxacc="http://www.garmin.com/xmlschemas/AccelerationExtension/v1" xmlns:gpxpx="http://www.garmin.com/xmlschemas/PowerExtension/v1" xmlns:vidx1="http://www.garmin.com/xmlschemas/VideoExtension/v1">

  <metadata>
    <link href="http://www.garmin.com">
      <text>Garmin International</text>
    </link>
    <time>2022-11-07T13:24:06Z</time>
    <bounds maxlat="-27.180644832551479" maxlon="29.885644074529409" minlat="-27.221988653764129" minlon="29.877180028706789" />
  </metadata>

  <trk>
    <name>[300] Grasnek Pass</name>
    <extensions>
      <gpxx:TrackExtension>
        <gpxx:DisplayColor>Green</gpxx:DisplayColor>
      </gpxx:TrackExtension>
    </extensions>
    <trkseg>
      <trkpt lat="-27.221988653764129" lon="29.885644074529409">
        <ele>1694.46</ele>
        <time>2022-08-09T07:32:38Z</time>
      </trkpt>
      <trkpt lat="-27.216971665620804" lon="29.884403888136148">
        <ele>1703.5899999999999</ele>
        <time>2022-08-09T07:32:54Z</time>
      </trkpt>
      <trkpt lat="-27.215365692973137" lon="29.883375344797969">
        <ele>1712.25</ele>
        <time>2022-08-09T07:33:00Z</time>
      </trkpt>
      <trkpt lat="-27.212230945006013" lon="29.880964457988739">
        <ele>1743.01</ele>
        <time>2022-08-09T07:33:12Z</time>
      </trkpt>
      <trkpt lat="-27.210381310433149" lon="29.880015626549721">
        <ele>1754.54</ele>
        <time>2022-08-09T07:33:19Z</time>
      </trkpt>
      <trkpt lat="-27.206654464825988" lon="29.878782732412219">
        <ele>1763.6800000000001</ele>
        <time>2022-08-09T07:33:31Z</time>
      </trkpt>
      <trkpt lat="-27.202538447454572" lon="29.877404496073723">
        <ele>1795.4000000000001</ele>
        <time>2022-08-09T07:33:45Z</time>
      </trkpt>
      <trkpt lat="-27.200837172567844" lon="29.877180028706789">
        <ele>1802.1300000000001</ele>
        <time>2022-08-09T07:33:51Z</time>
      </trkpt>
      <trkpt lat="-27.197965700179338" lon="29.877449171617627">
        <ele>1794.4400000000001</ele>
        <time>2022-08-09T07:34:00Z</time>
      </trkpt>
      <trkpt lat="-27.192764142528176" lon="29.878005981445312">
        <ele>1757.9100000000001</ele>
        <time>2022-08-09T07:34:16Z</time>
      </trkpt>
      <trkpt lat="-27.184453653171659" lon="29.878834616392851">
        <ele>1732.9100000000001</ele>
        <time>2022-08-09T07:34:42Z</time>
      </trkpt>
      <trkpt lat="-27.180644832551479" lon="29.879017425701022">
        <ele>1725.7</ele>
        <time>2022-08-09T07:34:54Z</time>
      </trkpt>
    </trkseg>
  </trk>

</gpx>