<?xml version="1.0" encoding="utf-8"?><gpx creator="Garmin Desktop App" version="1.1" xsi:schemaLocation="http://www.topografix.com/GPX/1/1 http://www.topografix.com/GPX/1/1/gpx.xsd http://www.garmin.com/xmlschemas/WaypointExtension/v1 http://www8.garmin.com/xmlschemas/WaypointExtensionv1.xsd http://www.garmin.com/xmlschemas/TrackPointExtension/v1 http://www.garmin.com/xmlschemas/TrackPointExtensionv1.xsd http://www.garmin.com/xmlschemas/GpxExtensions/v3 http://www8.garmin.com/xmlschemas/GpxExtensionsv3.xsd http://www.garmin.com/xmlschemas/ActivityExtension/v1 http://www8.garmin.com/xmlschemas/ActivityExtensionv1.xsd http://www.garmin.com/xmlschemas/AdventuresExtensions/v1 http://www8.garmin.com/xmlschemas/AdventuresExtensionv1.xsd http://www.garmin.com/xmlschemas/PressureExtension/v1 http://www.garmin.com/xmlschemas/PressureExtensionv1.xsd http://www.garmin.com/xmlschemas/TripExtensions/v1 http://www.garmin.com/xmlschemas/TripExtensionsv1.xsd http://www.garmin.com/xmlschemas/TripMetaDataExtensions/v1 http://www.garmin.com/xmlschemas/TripMetaDataExtensionsv1.xsd http://www.garmin.com/xmlschemas/ViaPointTransportationModeExtensions/v1 http://www.garmin.com/xmlschemas/ViaPointTransportationModeExtensionsv1.xsd http://www.garmin.com/xmlschemas/CreationTimeExtension/v1 http://www.garmin.com/xmlschemas/CreationTimeExtensionsv1.xsd http://www.garmin.com/xmlschemas/AccelerationExtension/v1 http://www.garmin.com/xmlschemas/AccelerationExtensionv1.xsd http://www.garmin.com/xmlschemas/PowerExtension/v1 http://www.garmin.com/xmlschemas/PowerExtensionv1.xsd http://www.garmin.com/xmlschemas/VideoExtension/v1 http://www.garmin.com/xmlschemas/VideoExtensionv1.xsd" xmlns="http://www.topografix.com/GPX/1/1" xmlns:xsi="http://www.w3.org/2001/XMLSchema-instance" xmlns:wptx1="http://www.garmin.com/xmlschemas/WaypointExtension/v1" xmlns:gpxtrx="http://www.garmin.com/xmlschemas/GpxExtensions/v3" xmlns:gpxtpx="http://www.garmin.com/xmlschemas/TrackPointExtension/v1" xmlns:gpxx="http://www.garmin.com/xmlschemas/GpxExtensions/v3" xmlns:trp="http://www.garmin.com/xmlschemas/TripExtensions/v1" xmlns:adv="http://www.garmin.com/xmlschemas/AdventuresExtensions/v1" xmlns:prs="http://www.garmin.com/xmlschemas/PressureExtension/v1" xmlns:tmd="http://www.garmin.com/xmlschemas/TripMetaDataExtensions/v1" xmlns:vptm="http://www.garmin.com/xmlschemas/ViaPointTransportationModeExtensions/v1" xmlns:ctx="http://www.garmin.com/xmlschemas/CreationTimeExtension/v1" xmlns:gpxacc="http://www.garmin.com/xmlschemas/AccelerationExtension/v1" xmlns:gpxpx="http://www.garmin.com/xmlschemas/PowerExtension/v1" xmlns:vidx1="http://www.garmin.com/xmlschemas/VideoExtension/v1">

  <metadata>
    <link href="http://www.garmin.com">
      <text>Garmin International</text>
    </link>
    <time>2023-04-15T10:46:04Z</time>
    <bounds maxlat="-28.059821482747793" maxlon="30.357526279985905" minlat="-28.093525115400553" minlon="30.320253884419799" />
  </metadata>

  <trk>
    <name>[356] Gregorys Nek</name>
    <extensions>
      <gpxx:TrackExtension>
        <gpxx:DisplayColor>Green</gpxx:DisplayColor>
      </gpxx:TrackExtension>
    </extensions>
    <trkseg>
      <trkpt lat="-28.093525115400553" lon="30.320253884419799">
        <ele>1182.5599999999999</ele>
        <time>2023-04-09T05:46:10Z</time>
      </trkpt>
      <trkpt lat="-28.089906563982368" lon="30.324852531775832">
        <ele>1188.8099999999999</ele>
        <time>2023-04-09T05:46:29Z</time>
      </trkpt>
      <trkpt lat="-28.08625515550375" lon="30.329629629850388">
        <ele>1196.02</ele>
        <time>2023-04-09T05:46:48Z</time>
      </trkpt>
      <trkpt lat="-28.085340354591608" lon="30.331698702648282">
        <ele>1209</ele>
        <time>2023-04-09T05:46:55Z</time>
      </trkpt>
      <trkpt lat="-28.084463272243738" lon="30.33477352000773">
        <ele>1225.8199999999999</ele>
        <time>2023-04-09T05:47:05Z</time>
      </trkpt>
      <trkpt lat="-28.0835828371346" lon="30.336604211479425">
        <ele>1235.9100000000001</ele>
        <time>2023-04-09T05:47:12Z</time>
      </trkpt>
      <trkpt lat="-28.08143338188529" lon="30.339693613350391">
        <ele>1255.6199999999999</ele>
        <time>2023-04-09T05:47:25Z</time>
      </trkpt>
      <trkpt lat="-28.077937373891473" lon="30.34464044496417">
        <ele>1266.1900000000001</ele>
        <time>2023-04-09T05:47:45Z</time>
      </trkpt>
      <trkpt lat="-28.07450607419014" lon="30.349424248561263">
        <ele>1219.5699999999999</ele>
        <time>2023-04-09T05:48:03Z</time>
      </trkpt>
      <trkpt lat="-28.072734139859676" lon="30.351166762411594">
        <ele>1205.6300000000001</ele>
        <time>2023-04-09T05:48:11Z</time>
      </trkpt>
      <trkpt lat="-28.070680405944586" lon="30.352424802258611">
        <ele>1195.0599999999999</ele>
        <time>2023-04-09T05:48:19Z</time>
      </trkpt>
      <trkpt lat="-28.064092062413692" lon="30.355510264635086">
        <ele>1170.0599999999999</ele>
        <time>2023-04-09T05:48:44Z</time>
      </trkpt>
      <trkpt lat="-28.059821482747793" lon="30.357526279985905">
        <ele>1164.29</ele>
        <time>2023-04-09T05:49:01Z</time>
      </trkpt>
    </trkseg>
  </trk>

</gpx>