<?xml version="1.0" encoding="utf-8"?><gpx creator="Garmin Desktop App" version="1.1" xsi:schemaLocation="http://www.topografix.com/GPX/1/1 http://www.topografix.com/GPX/1/1/gpx.xsd http://www.garmin.com/xmlschemas/WaypointExtension/v1 http://www8.garmin.com/xmlschemas/WaypointExtensionv1.xsd http://www.garmin.com/xmlschemas/TrackPointExtension/v1 http://www.garmin.com/xmlschemas/TrackPointExtensionv1.xsd http://www.garmin.com/xmlschemas/GpxExtensions/v3 http://www8.garmin.com/xmlschemas/GpxExtensionsv3.xsd http://www.garmin.com/xmlschemas/ActivityExtension/v1 http://www8.garmin.com/xmlschemas/ActivityExtensionv1.xsd http://www.garmin.com/xmlschemas/AdventuresExtensions/v1 http://www8.garmin.com/xmlschemas/AdventuresExtensionv1.xsd http://www.garmin.com/xmlschemas/PressureExtension/v1 http://www.garmin.com/xmlschemas/PressureExtensionv1.xsd http://www.garmin.com/xmlschemas/TripExtensions/v1 http://www.garmin.com/xmlschemas/TripExtensionsv1.xsd http://www.garmin.com/xmlschemas/TripMetaDataExtensions/v1 http://www.garmin.com/xmlschemas/TripMetaDataExtensionsv1.xsd http://www.garmin.com/xmlschemas/ViaPointTransportationModeExtensions/v1 http://www.garmin.com/xmlschemas/ViaPointTransportationModeExtensionsv1.xsd http://www.garmin.com/xmlschemas/CreationTimeExtension/v1 http://www.garmin.com/xmlschemas/CreationTimeExtensionsv1.xsd http://www.garmin.com/xmlschemas/AccelerationExtension/v1 http://www.garmin.com/xmlschemas/AccelerationExtensionv1.xsd http://www.garmin.com/xmlschemas/PowerExtension/v1 http://www.garmin.com/xmlschemas/PowerExtensionv1.xsd http://www.garmin.com/xmlschemas/VideoExtension/v1 http://www.garmin.com/xmlschemas/VideoExtensionv1.xsd" xmlns="http://www.topografix.com/GPX/1/1" xmlns:xsi="http://www.w3.org/2001/XMLSchema-instance" xmlns:wptx1="http://www.garmin.com/xmlschemas/WaypointExtension/v1" xmlns:gpxtrx="http://www.garmin.com/xmlschemas/GpxExtensions/v3" xmlns:gpxtpx="http://www.garmin.com/xmlschemas/TrackPointExtension/v1" xmlns:gpxx="http://www.garmin.com/xmlschemas/GpxExtensions/v3" xmlns:trp="http://www.garmin.com/xmlschemas/TripExtensions/v1" xmlns:adv="http://www.garmin.com/xmlschemas/AdventuresExtensions/v1" xmlns:prs="http://www.garmin.com/xmlschemas/PressureExtension/v1" xmlns:tmd="http://www.garmin.com/xmlschemas/TripMetaDataExtensions/v1" xmlns:vptm="http://www.garmin.com/xmlschemas/ViaPointTransportationModeExtensions/v1" xmlns:ctx="http://www.garmin.com/xmlschemas/CreationTimeExtension/v1" xmlns:gpxacc="http://www.garmin.com/xmlschemas/AccelerationExtension/v1" xmlns:gpxpx="http://www.garmin.com/xmlschemas/PowerExtension/v1" xmlns:vidx1="http://www.garmin.com/xmlschemas/VideoExtension/v1">

  <metadata>
    <link href="http://www.garmin.com">
      <text>Garmin International</text>
    </link>
    <time>2025-10-16T09:08:46Z</time>
    <bounds maxlat="-24.327237876132131" maxlon="28.382351836189628" minlat="-24.347957605496049" minlon="28.372129183262587" />
  </metadata>

  <trk>
    <name>[400] Papstraat</name>
    <extensions>
      <gpxx:TrackExtension>
        <gpxx:DisplayColor>Red</gpxx:DisplayColor>
      </gpxx:TrackExtension>
    </extensions>
    <trkseg>
      <trkpt lat="-24.347957605496049" lon="28.372129183262587">
        <ele>1568.05</ele>
        <time>2025-09-24T10:21:18Z</time>
      </trkpt>
      <trkpt lat="-24.346642317250371" lon="28.373958198353648">
        <ele>1559.4000000000001</ele>
        <time>2025-09-24T10:21:31Z</time>
      </trkpt>
      <trkpt lat="-24.345157714560628" lon="28.376002879813313">
        <ele>1544.98</ele>
        <time>2025-09-24T10:21:46Z</time>
      </trkpt>
      <trkpt lat="-24.344027917832136" lon="28.377590915188193">
        <ele>1533.4400000000001</ele>
        <time>2025-09-24T10:21:57Z</time>
      </trkpt>
      <trkpt lat="-24.34337823651731" lon="28.378215450793505">
        <ele>1526.71</ele>
        <time>2025-09-24T10:22:03Z</time>
      </trkpt>
      <trkpt lat="-24.342241315171123" lon="28.379065962508321">
        <ele>1517.0999999999999</ele>
        <time>2025-09-24T10:22:13Z</time>
      </trkpt>
      <trkpt lat="-24.340877076610923" lon="28.380086710676551">
        <ele>1506.52</ele>
        <time>2025-09-24T10:22:24Z</time>
      </trkpt>
      <trkpt lat="-24.340045507997274" lon="28.380750138312578">
        <ele>1499.79</ele>
        <time>2025-09-24T10:22:31Z</time>
      </trkpt>
      <trkpt lat="-24.339760104194283" lon="28.38097644969821">
        <ele>1496.9100000000001</ele>
        <time>2025-09-24T10:22:36Z</time>
      </trkpt>
      <trkpt lat="-24.339464977383614" lon="28.381202174350619">
        <ele>1495.95</ele>
        <time>2025-09-24T10:22:45Z</time>
      </trkpt>
      <trkpt lat="-24.338985867798328" lon="28.381589837372303">
        <ele>1496.4300000000001</ele>
        <time>2025-09-24T10:22:52Z</time>
      </trkpt>
      <trkpt lat="-24.338720329105854" lon="28.38176510296762">
        <ele>1498.3499999999999</ele>
        <time>2025-09-24T10:22:55Z</time>
      </trkpt>
      <trkpt lat="-24.338618824258447" lon="28.381807096302509">
        <ele>1499.3099999999999</ele>
        <time>2025-09-24T10:22:56Z</time>
      </trkpt>
      <trkpt lat="-24.338516900315881" lon="28.381839031353593">
        <ele>1499.79</ele>
        <time>2025-09-24T10:22:57Z</time>
      </trkpt>
      <trkpt lat="-24.338400308042765" lon="28.381867026910186">
        <ele>1500.76</ele>
        <time>2025-09-24T10:22:58Z</time>
      </trkpt>
      <trkpt lat="-24.338290169835091" lon="28.381886389106512">
        <ele>1501.72</ele>
        <time>2025-09-24T10:22:59Z</time>
      </trkpt>
      <trkpt lat="-24.33700748719275" lon="28.382085543125868">
        <ele>1510.3699999999999</ele>
        <time>2025-09-24T10:23:10Z</time>
      </trkpt>
      <trkpt lat="-24.335384080186486" lon="28.382351584732533">
        <ele>1523.8299999999999</ele>
        <time>2025-09-24T10:23:23Z</time>
      </trkpt>
      <trkpt lat="-24.335142849013209" lon="28.382351836189628">
        <ele>1526.23</ele>
        <time>2025-09-24T10:23:25Z</time>
      </trkpt>
      <trkpt lat="-24.3350172881037" lon="28.382335659116507">
        <ele>1527.6700000000001</ele>
        <time>2025-09-24T10:23:26Z</time>
      </trkpt>
      <trkpt lat="-24.334000563248992" lon="28.381968615576625">
        <ele>1537.77</ele>
        <time>2025-09-24T10:23:34Z</time>
      </trkpt>
      <trkpt lat="-24.332539597526193" lon="28.381043924018741">
        <ele>1553.1500000000001</ele>
        <time>2025-09-24T10:23:46Z</time>
      </trkpt>
      <trkpt lat="-24.331467719748616" lon="28.380385106429458">
        <ele>1564.6800000000001</ele>
        <time>2025-09-24T10:23:55Z</time>
      </trkpt>
      <trkpt lat="-24.330428363755345" lon="28.379783621057868">
        <ele>1575.74</ele>
        <time>2025-09-24T10:24:04Z</time>
      </trkpt>
      <trkpt lat="-24.33029324747622" lon="28.379738358780742">
        <ele>1576.7</ele>
        <time>2025-09-24T10:24:05Z</time>
      </trkpt>
      <trkpt lat="-24.330152347683907" lon="28.379707764834166">
        <ele>1577.6600000000001</ele>
        <time>2025-09-24T10:24:06Z</time>
      </trkpt>
      <trkpt lat="-24.330001976341009" lon="28.37968890555203">
        <ele>1578.6199999999999</ele>
        <time>2025-09-24T10:24:07Z</time>
      </trkpt>
      <trkpt lat="-24.328685766085982" lon="28.379692677408457">
        <ele>1588.24</ele>
        <time>2025-09-24T10:24:16Z</time>
      </trkpt>
      <trkpt lat="-24.327237876132131" lon="28.379722097888589">
        <ele>1596.4100000000001</ele>
        <time>2025-09-24T10:24:26Z</time>
      </trkpt>
    </trkseg>
  </trk>

</gpx>