<?xml version="1.0" encoding="utf-8"?><gpx creator="Garmin Desktop App" version="1.1" xsi:schemaLocation="http://www.topografix.com/GPX/1/1 http://www.topografix.com/GPX/1/1/gpx.xsd http://www.garmin.com/xmlschemas/WaypointExtension/v1 http://www8.garmin.com/xmlschemas/WaypointExtensionv1.xsd http://www.garmin.com/xmlschemas/TrackPointExtension/v1 http://www.garmin.com/xmlschemas/TrackPointExtensionv1.xsd http://www.garmin.com/xmlschemas/GpxExtensions/v3 http://www8.garmin.com/xmlschemas/GpxExtensionsv3.xsd http://www.garmin.com/xmlschemas/ActivityExtension/v1 http://www8.garmin.com/xmlschemas/ActivityExtensionv1.xsd http://www.garmin.com/xmlschemas/AdventuresExtensions/v1 http://www8.garmin.com/xmlschemas/AdventuresExtensionv1.xsd http://www.garmin.com/xmlschemas/PressureExtension/v1 http://www.garmin.com/xmlschemas/PressureExtensionv1.xsd http://www.garmin.com/xmlschemas/TripExtensions/v1 http://www.garmin.com/xmlschemas/TripExtensionsv1.xsd http://www.garmin.com/xmlschemas/TripMetaDataExtensions/v1 http://www.garmin.com/xmlschemas/TripMetaDataExtensionsv1.xsd http://www.garmin.com/xmlschemas/ViaPointTransportationModeExtensions/v1 http://www.garmin.com/xmlschemas/ViaPointTransportationModeExtensionsv1.xsd http://www.garmin.com/xmlschemas/CreationTimeExtension/v1 http://www.garmin.com/xmlschemas/CreationTimeExtensionsv1.xsd http://www.garmin.com/xmlschemas/AccelerationExtension/v1 http://www.garmin.com/xmlschemas/AccelerationExtensionv1.xsd http://www.garmin.com/xmlschemas/PowerExtension/v1 http://www.garmin.com/xmlschemas/PowerExtensionv1.xsd http://www.garmin.com/xmlschemas/VideoExtension/v1 http://www.garmin.com/xmlschemas/VideoExtensionv1.xsd" xmlns="http://www.topografix.com/GPX/1/1" xmlns:xsi="http://www.w3.org/2001/XMLSchema-instance" xmlns:wptx1="http://www.garmin.com/xmlschemas/WaypointExtension/v1" xmlns:gpxtrx="http://www.garmin.com/xmlschemas/GpxExtensions/v3" xmlns:gpxtpx="http://www.garmin.com/xmlschemas/TrackPointExtension/v1" xmlns:gpxx="http://www.garmin.com/xmlschemas/GpxExtensions/v3" xmlns:trp="http://www.garmin.com/xmlschemas/TripExtensions/v1" xmlns:adv="http://www.garmin.com/xmlschemas/AdventuresExtensions/v1" xmlns:prs="http://www.garmin.com/xmlschemas/PressureExtension/v1" xmlns:tmd="http://www.garmin.com/xmlschemas/TripMetaDataExtensions/v1" xmlns:vptm="http://www.garmin.com/xmlschemas/ViaPointTransportationModeExtensions/v1" xmlns:ctx="http://www.garmin.com/xmlschemas/CreationTimeExtension/v1" xmlns:gpxacc="http://www.garmin.com/xmlschemas/AccelerationExtension/v1" xmlns:gpxpx="http://www.garmin.com/xmlschemas/PowerExtension/v1" xmlns:vidx1="http://www.garmin.com/xmlschemas/VideoExtension/v1">

  <metadata>
    <link href="http://www.garmin.com">
      <text>Garmin International</text>
    </link>
    <time>2025-10-16T09:11:24Z</time>
    <bounds maxlat="-24.418981997296214" maxlon="30.647436026483774" minlat="-24.569060979411006" minlon="30.60383596457541" />
  </metadata>

  <trk>
    <name>[405] Abel Erasmus Pass</name>
    <extensions>
      <gpxx:TrackExtension>
        <gpxx:DisplayColor>Green</gpxx:DisplayColor>
      </gpxx:TrackExtension>
    </extensions>
    <trkseg>
      <trkpt lat="-24.418981997296214" lon="30.632338039577007">
        <ele>556.25999999999999</ele>
        <time>2025-09-28T08:04:48Z</time>
      </trkpt>
      <trkpt lat="-24.420097963884473" lon="30.631181001663208">
        <ele>553.38</ele>
        <time>2025-09-28T08:04:54Z</time>
      </trkpt>
      <trkpt lat="-24.420645972713828" lon="30.630612038075924">
        <ele>550.00999999999999</ele>
        <time>2025-09-28T08:04:57Z</time>
      </trkpt>
      <trkpt lat="-24.42101402208209" lon="30.630230996757746">
        <ele>547.13</ele>
        <time>2025-09-28T08:04:59Z</time>
      </trkpt>
      <trkpt lat="-24.421566976234317" lon="30.629657004028559">
        <ele>543.27999999999997</ele>
        <time>2025-09-28T08:05:02Z</time>
      </trkpt>
      <trkpt lat="-24.422135017812252" lon="30.629068007692695">
        <ele>539.44000000000005</ele>
        <time>2025-09-28T08:05:05Z</time>
      </trkpt>
      <trkpt lat="-24.42232402972877" lon="30.628872038796544">
        <ele>538.96000000000004</ele>
        <time>2025-09-28T08:05:06Z</time>
      </trkpt>
      <trkpt lat="-24.425691040232778" lon="30.625377958640456">
        <ele>537.02999999999997</ele>
        <time>2025-09-28T08:05:23Z</time>
      </trkpt>
      <trkpt lat="-24.426057999953628" lon="30.624989038333297">
        <ele>535.59000000000003</ele>
        <time>2025-09-28T08:05:26Z</time>
      </trkpt>
      <trkpt lat="-24.426975985988975" lon="30.624054037034512">
        <ele>531.26999999999998</ele>
        <time>2025-09-28T08:05:31Z</time>
      </trkpt>
      <trkpt lat="-24.427733039483428" lon="30.623353980481625">
        <ele>526.46000000000004</ele>
        <time>2025-09-28T08:05:34Z</time>
      </trkpt>
      <trkpt lat="-24.428161019459367" lon="30.623059021309018">
        <ele>523.58000000000004</ele>
        <time>2025-09-28T08:05:36Z</time>
      </trkpt>
      <trkpt lat="-24.428596962243319" lon="30.622759032994509">
        <ele>519.73000000000002</ele>
        <time>2025-09-28T08:05:39Z</time>
      </trkpt>
      <trkpt lat="-24.429583009332418" lon="30.622279001399875">
        <ele>516.37</ele>
        <time>2025-09-28T08:05:43Z</time>
      </trkpt>
      <trkpt lat="-24.429834969341755" lon="30.622175987809896">
        <ele>516.37</ele>
        <time>2025-09-28T08:05:44Z</time>
      </trkpt>
      <trkpt lat="-24.431708995252848" lon="30.621659997850657">
        <ele>513</ele>
        <time>2025-09-28T08:05:52Z</time>
      </trkpt>
      <trkpt lat="-24.432811969891191" lon="30.621398985385895">
        <ele>509.16000000000003</ele>
        <time>2025-09-28T08:05:56Z</time>
      </trkpt>
      <trkpt lat="-24.435098972171545" lon="30.620886012911797">
        <ele>509.63999999999999</ele>
        <time>2025-09-28T08:06:08Z</time>
      </trkpt>
      <trkpt lat="-24.435507003217936" lon="30.620784005150199">
        <ele>510.60000000000002</ele>
        <time>2025-09-28T08:06:12Z</time>
      </trkpt>
      <trkpt lat="-24.435529969632626" lon="30.620778976008296">
        <ele>511.56</ele>
        <time>2025-09-28T08:06:27Z</time>
      </trkpt>
      <trkpt lat="-24.435778995975852" lon="30.620724996551871">
        <ele>510.12</ele>
        <time>2025-09-28T08:07:34Z</time>
      </trkpt>
      <trkpt lat="-24.435980999842286" lon="30.620681997388601">
        <ele>513.48000000000002</ele>
        <time>2025-09-28T08:07:37Z</time>
      </trkpt>
      <trkpt lat="-24.43637503311038" lon="30.620595999062061">
        <ele>516.85000000000002</ele>
        <time>2025-09-28T08:07:40Z</time>
      </trkpt>
      <trkpt lat="-24.436959000304341" lon="30.620517041534185">
        <ele>520.69000000000005</ele>
        <time>2025-09-28T08:07:44Z</time>
      </trkpt>
      <trkpt lat="-24.437124039977789" lon="30.62052802182734">
        <ele>522.61000000000001</ele>
        <time>2025-09-28T08:07:45Z</time>
      </trkpt>
      <trkpt lat="-24.437295030802488" lon="30.620540007948875">
        <ele>523.58000000000004</ele>
        <time>2025-09-28T08:07:46Z</time>
      </trkpt>
      <trkpt lat="-24.437469039112329" lon="30.620560040697455">
        <ele>524.53999999999996</ele>
        <time>2025-09-28T08:07:47Z</time>
      </trkpt>
      <trkpt lat="-24.437633994966745" lon="30.620615025982261">
        <ele>525.01999999999998</ele>
        <time>2025-09-28T08:07:48Z</time>
      </trkpt>
      <trkpt lat="-24.437802974134684" lon="30.620681997388601">
        <ele>527.41999999999996</ele>
        <time>2025-09-28T08:07:49Z</time>
      </trkpt>
      <trkpt lat="-24.437961978837848" lon="30.620772019028664">
        <ele>528.86000000000001</ele>
        <time>2025-09-28T08:07:50Z</time>
      </trkpt>
      <trkpt lat="-24.438122995197773" lon="30.6208720151335">
        <ele>530.29999999999995</ele>
        <time>2025-09-28T08:07:51Z</time>
      </trkpt>
      <trkpt lat="-24.438260961323977" lon="30.621009981259704">
        <ele>531.75</ele>
        <time>2025-09-28T08:07:52Z</time>
      </trkpt>
      <trkpt lat="-24.438405968248844" lon="30.621154988184571">
        <ele>532.71000000000004</ele>
        <time>2025-09-28T08:07:53Z</time>
      </trkpt>
      <trkpt lat="-24.438550975173712" lon="30.621301000937819">
        <ele>533.19000000000005</ele>
        <time>2025-09-28T08:07:54Z</time>
      </trkpt>
      <trkpt lat="-24.438826991245151" lon="30.621614987030625">
        <ele>536.54999999999995</ele>
        <time>2025-09-28T08:07:56Z</time>
      </trkpt>
      <trkpt lat="-24.438962023705244" lon="30.621770974248648">
        <ele>537.02999999999997</ele>
        <time>2025-09-28T08:07:57Z</time>
      </trkpt>
      <trkpt lat="-24.439090015366673" lon="30.621945988386869">
        <ele>538.96000000000004</ele>
        <time>2025-09-28T08:07:58Z</time>
      </trkpt>
      <trkpt lat="-24.439263017848134" lon="30.622038021683693">
        <ele>539.91999999999996</ele>
        <time>2025-09-28T08:07:59Z</time>
      </trkpt>
      <trkpt lat="-24.439422022551298" lon="30.622119996696711">
        <ele>540.88</ele>
        <time>2025-09-28T08:08:00Z</time>
      </trkpt>
      <trkpt lat="-24.439596030861139" lon="30.622184034436941">
        <ele>542.32000000000005</ele>
        <time>2025-09-28T08:08:01Z</time>
      </trkpt>
      <trkpt lat="-24.439775990322232" lon="30.622200965881348">
        <ele>544.72000000000003</ele>
        <time>2025-09-28T08:08:02Z</time>
      </trkpt>
      <trkpt lat="-24.439958967268467" lon="30.622200965881348">
        <ele>546.64999999999998</ele>
        <time>2025-09-28T08:08:03Z</time>
      </trkpt>
      <trkpt lat="-24.440141022205353" lon="30.622170036658645">
        <ele>548.57000000000005</ele>
        <time>2025-09-28T08:08:04Z</time>
      </trkpt>
      <trkpt lat="-24.440312013030052" lon="30.622121002525091">
        <ele>550.00999999999999</ele>
        <time>2025-09-28T08:08:05Z</time>
      </trkpt>
      <trkpt lat="-24.440849041566253" lon="30.621968032792211">
        <ele>554.34000000000003</ele>
        <time>2025-09-28T08:08:08Z</time>
      </trkpt>
      <trkpt lat="-24.44138104096055" lon="30.621791006997228">
        <ele>557.70000000000005</ele>
        <time>2025-09-28T08:08:10Z</time>
      </trkpt>
      <trkpt lat="-24.44138104096055" lon="30.621791006997228">
        <ele>559.13999999999999</ele>
        <time>2025-09-28T08:08:11Z</time>
      </trkpt>
      <trkpt lat="-24.441513977944851" lon="30.621672989800572">
        <ele>561.07000000000005</ele>
        <time>2025-09-28T08:08:12Z</time>
      </trkpt>
      <trkpt lat="-24.441636018455029" lon="30.621531000360847">
        <ele>563.47000000000003</ele>
        <time>2025-09-28T08:08:13Z</time>
      </trkpt>
      <trkpt lat="-24.441837016493082" lon="30.621204022318125">
        <ele>565.38999999999999</ele>
        <time>2025-09-28T08:08:14Z</time>
      </trkpt>
      <trkpt lat="-24.441837016493082" lon="30.621204022318125">
        <ele>567.79999999999995</ele>
        <time>2025-09-28T08:08:15Z</time>
      </trkpt>
      <trkpt lat="-24.441886972635984" lon="30.621014004573226">
        <ele>569.24000000000001</ele>
        <time>2025-09-28T08:08:16Z</time>
      </trkpt>
      <trkpt lat="-24.441916979849339" lon="30.620833039283752">
        <ele>571.63999999999999</ele>
        <time>2025-09-28T08:08:17Z</time>
      </trkpt>
      <trkpt lat="-24.441905999556184" lon="30.620632963255048">
        <ele>573.08000000000004</ele>
        <time>2025-09-28T08:08:18Z</time>
      </trkpt>
      <trkpt lat="-24.441894013434649" lon="30.620422996580601">
        <ele>573.55999999999995</ele>
        <time>2025-09-28T08:08:19Z</time>
      </trkpt>
      <trkpt lat="-24.441883033141494" lon="30.620225016027689">
        <ele>575.00999999999999</ele>
        <time>2025-09-28T08:08:20Z</time>
      </trkpt>
      <trkpt lat="-24.441894013434649" lon="30.620030974969268">
        <ele>575.97000000000003</ele>
        <time>2025-09-28T08:08:21Z</time>
      </trkpt>
      <trkpt lat="-24.441931983456016" lon="30.619843974709511">
        <ele>577.40999999999997</ele>
        <time>2025-09-28T08:08:22Z</time>
      </trkpt>
      <trkpt lat="-24.441969031468034" lon="30.619657980278134">
        <ele>578.85000000000002</ele>
        <time>2025-09-28T08:08:23Z</time>
      </trkpt>
      <trkpt lat="-24.442041032016277" lon="30.619501993060112">
        <ele>579.80999999999995</ele>
        <time>2025-09-28T08:08:24Z</time>
      </trkpt>
      <trkpt lat="-24.442152008414268" lon="30.619352040812373">
        <ele>580.76999999999998</ele>
        <time>2025-09-28T08:08:25Z</time>
      </trkpt>
      <trkpt lat="-24.442295003682375" lon="30.619219020009041">
        <ele>581.73000000000002</ele>
        <time>2025-09-28T08:08:26Z</time>
      </trkpt>
      <trkpt lat="-24.442573031410575" lon="30.618961025029421">
        <ele>584.62</ele>
        <time>2025-09-28T08:08:28Z</time>
      </trkpt>
      <trkpt lat="-24.44271401502192" lon="30.618829010054469">
        <ele>584.62</ele>
        <time>2025-09-28T08:08:29Z</time>
      </trkpt>
      <trkpt lat="-24.443371994420886" lon="30.618374962359667">
        <ele>588.95000000000005</ele>
        <time>2025-09-28T08:08:33Z</time>
      </trkpt>
      <trkpt lat="-24.443726968020201" lon="30.618246970698237">
        <ele>592.78999999999996</ele>
        <time>2025-09-28T08:08:35Z</time>
      </trkpt>
      <trkpt lat="-24.443889996036887" lon="30.618170024827123">
        <ele>593.75</ele>
        <time>2025-09-28T08:08:36Z</time>
      </trkpt>
      <trkpt lat="-24.444039026275277" lon="30.618071034550667">
        <ele>594.71000000000004</ele>
        <time>2025-09-28T08:08:37Z</time>
      </trkpt>
      <trkpt lat="-24.444180009886622" lon="30.617976989597082">
        <ele>595.19000000000005</ele>
        <time>2025-09-28T08:08:38Z</time>
      </trkpt>
      <trkpt lat="-24.444259973242879" lon="30.617857966572046">
        <ele>596.14999999999998</ele>
        <time>2025-09-28T08:08:39Z</time>
      </trkpt>
      <trkpt lat="-24.444332979619503" lon="30.617699967697263">
        <ele>596.63999999999999</ele>
        <time>2025-09-28T08:08:40Z</time>
      </trkpt>
      <trkpt lat="-24.444378996267915" lon="30.617559989914298">
        <ele>597.12</ele>
        <time>2025-09-28T08:08:41Z</time>
      </trkpt>
      <trkpt lat="-24.444362986832857" lon="30.617228988558054">
        <ele>597.60000000000002</ele>
        <time>2025-09-28T08:08:42Z</time>
      </trkpt>
      <trkpt lat="-24.444362986832857" lon="30.617228988558054">
        <ele>599.03999999999996</ele>
        <time>2025-09-28T08:08:43Z</time>
      </trkpt>
      <trkpt lat="-24.444311019033194" lon="30.617045005783439">
        <ele>600</ele>
        <time>2025-09-28T08:08:44Z</time>
      </trkpt>
      <trkpt lat="-24.444258967414498" lon="30.616856999695301">
        <ele>600.96000000000004</ele>
        <time>2025-09-28T08:08:45Z</time>
      </trkpt>
      <trkpt lat="-24.444209011271596" lon="30.616674022749066">
        <ele>601.91999999999996</ele>
        <time>2025-09-28T08:08:46Z</time>
      </trkpt>
      <trkpt lat="-24.444177998229861" lon="30.616476964205503">
        <ele>602.88</ele>
        <time>2025-09-28T08:08:47Z</time>
      </trkpt>
      <trkpt lat="-24.444198030978441" lon="30.616264985874295">
        <ele>603.85000000000002</ele>
        <time>2025-09-28T08:08:48Z</time>
      </trkpt>
      <trkpt lat="-24.444252010434866" lon="30.616084020584822">
        <ele>605.28999999999996</ele>
        <time>2025-09-28T08:08:49Z</time>
      </trkpt>
      <trkpt lat="-24.444361981004477" lon="30.615714965388179">
        <ele>605.76999999999998</ele>
        <time>2025-09-28T08:08:50Z</time>
      </trkpt>
      <trkpt lat="-24.444415038451552" lon="30.615534000098705">
        <ele>607.69000000000005</ele>
        <time>2025-09-28T08:08:52Z</time>
      </trkpt>
      <trkpt lat="-24.44449701346457" lon="30.615381030365825">
        <ele>609.13</ele>
        <time>2025-09-28T08:08:53Z</time>
      </trkpt>
      <trkpt lat="-24.444599021226168" lon="30.615222025662661">
        <ele>610.57000000000005</ele>
        <time>2025-09-28T08:08:54Z</time>
      </trkpt>
      <trkpt lat="-24.444730030372739" lon="30.615112977102399">
        <ele>611.53999999999996</ele>
        <time>2025-09-28T08:08:55Z</time>
      </trkpt>
      <trkpt lat="-24.444888029247522" lon="30.61500602401793">
        <ele>612.98000000000002</ele>
        <time>2025-09-28T08:08:56Z</time>
      </trkpt>
      <trkpt lat="-24.445202015340328" lon="30.61479396186769">
        <ele>614.41999999999996</ele>
        <time>2025-09-28T08:08:58Z</time>
      </trkpt>
      <trkpt lat="-24.445660002529621" lon="30.614471007138491">
        <ele>617.29999999999995</ele>
        <time>2025-09-28T08:09:01Z</time>
      </trkpt>
      <trkpt lat="-24.446094017475843" lon="30.61412500217557">
        <ele>621.63</ele>
        <time>2025-09-28T08:09:04Z</time>
      </trkpt>
      <trkpt lat="-24.446533983573318" lon="30.613774973899126">
        <ele>625.96000000000004</ele>
        <time>2025-09-28T08:09:07Z</time>
      </trkpt>
      <trkpt lat="-24.446823997423053" lon="30.613543968647718">
        <ele>629.32000000000005</ele>
        <time>2025-09-28T08:09:09Z</time>
      </trkpt>
      <trkpt lat="-24.446966992691159" lon="30.613428968936205">
        <ele>630.75999999999999</ele>
        <time>2025-09-28T08:09:10Z</time>
      </trkpt>
      <trkpt lat="-24.447094984352589" lon="30.613303994759917">
        <ele>632.67999999999995</ele>
        <time>2025-09-28T08:09:11Z</time>
      </trkpt>
      <trkpt lat="-24.447192968800664" lon="30.613156976178288">
        <ele>634.13</ele>
        <time>2025-09-28T08:09:12Z</time>
      </trkpt>
      <trkpt lat="-24.447251977398992" lon="30.612969975918531">
        <ele>637.00999999999999</ele>
        <time>2025-09-28T08:09:13Z</time>
      </trkpt>
      <trkpt lat="-24.447283996269107" lon="30.612778030335903">
        <ele>639.40999999999997</ele>
        <time>2025-09-28T08:09:14Z</time>
      </trkpt>
      <trkpt lat="-24.447283996269107" lon="30.612569991499186">
        <ele>641.82000000000005</ele>
        <time>2025-09-28T08:09:15Z</time>
      </trkpt>
      <trkpt lat="-24.447306962683797" lon="30.6123620364815">
        <ele>644.22000000000003</ele>
        <time>2025-09-28T08:09:16Z</time>
      </trkpt>
      <trkpt lat="-24.447404025122523" lon="30.611985018476844">
        <ele>644.70000000000005</ele>
        <time>2025-09-28T08:09:17Z</time>
      </trkpt>
      <trkpt lat="-24.447404025122523" lon="30.611985018476844">
        <ele>646.62</ele>
        <time>2025-09-28T08:09:18Z</time>
      </trkpt>
      <trkpt lat="-24.447507038712502" lon="30.61184998601675">
        <ele>649.02999999999997</ele>
        <time>2025-09-28T08:09:19Z</time>
      </trkpt>
      <trkpt lat="-24.447623966261744" lon="30.61172098852694">
        <ele>650.95000000000005</ele>
        <time>2025-09-28T08:09:20Z</time>
      </trkpt>
      <trkpt lat="-24.447743995115161" lon="30.611599031835794">
        <ele>652.87</ele>
        <time>2025-09-28T08:09:21Z</time>
      </trkpt>
      <trkpt lat="-24.447887996211648" lon="30.611489983275533">
        <ele>654.79999999999995</ele>
        <time>2025-09-28T08:09:22Z</time>
      </trkpt>
      <trkpt lat="-24.448179015889764" lon="30.611261995509267">
        <ele>658.15999999999997</ele>
        <time>2025-09-28T08:09:24Z</time>
      </trkpt>
      <trkpt lat="-24.448298960924149" lon="30.611122017726302">
        <ele>660.08000000000004</ele>
        <time>2025-09-28T08:09:25Z</time>
      </trkpt>
      <trkpt lat="-24.448416978120804" lon="30.610985979437828">
        <ele>661.51999999999998</ele>
        <time>2025-09-28T08:09:26Z</time>
      </trkpt>
      <trkpt lat="-24.44853700697422" lon="30.610847007483244">
        <ele>662.97000000000003</ele>
        <time>2025-09-28T08:09:27Z</time>
      </trkpt>
      <trkpt lat="-24.448624011129141" lon="30.610675010830164">
        <ele>664.40999999999997</ele>
        <time>2025-09-28T08:09:28Z</time>
      </trkpt>
      <trkpt lat="-24.448768012225628" lon="30.610316013917327">
        <ele>666.33000000000004</ele>
        <time>2025-09-28T08:09:29Z</time>
      </trkpt>
      <trkpt lat="-24.448913019150496" lon="30.609952993690968">
        <ele>670.17999999999995</ele>
        <time>2025-09-28T08:09:32Z</time>
      </trkpt>
      <trkpt lat="-24.449133966118097" lon="30.609401967376471">
        <ele>673.53999999999996</ele>
        <time>2025-09-28T08:09:35Z</time>
      </trkpt>
      <trkpt lat="-24.449361031875014" lon="30.608834009617567">
        <ele>677.87</ele>
        <time>2025-09-28T08:09:38Z</time>
      </trkpt>
      <trkpt lat="-24.449561024084687" lon="30.608249958604574">
        <ele>681.23000000000002</ele>
        <time>2025-09-28T08:09:41Z</time>
      </trkpt>
      <trkpt lat="-24.44965498521924" lon="30.608079973608255">
        <ele>682.66999999999996</ele>
        <time>2025-09-28T08:09:42Z</time>
      </trkpt>
      <trkpt lat="-24.449779037386179" lon="30.607939995825291">
        <ele>683.63</ele>
        <time>2025-09-28T08:09:43Z</time>
      </trkpt>
      <trkpt lat="-24.44991298019886" lon="30.607797000557184">
        <ele>685.08000000000004</ele>
        <time>2025-09-28T08:09:44Z</time>
      </trkpt>
      <trkpt lat="-24.450048012658954" lon="30.607683006674051">
        <ele>686.03999999999996</ele>
        <time>2025-09-28T08:09:45Z</time>
      </trkpt>
      <trkpt lat="-24.450207017362118" lon="30.60759399086237">
        <ele>687</ele>
        <time>2025-09-28T08:09:46Z</time>
      </trkpt>
      <trkpt lat="-24.450367027893662" lon="30.607503969222307">
        <ele>687.48000000000002</ele>
        <time>2025-09-28T08:09:47Z</time>
      </trkpt>
      <trkpt lat="-24.450673973187804" lon="30.607330966740847">
        <ele>688.44000000000005</ele>
        <time>2025-09-28T08:09:48Z</time>
      </trkpt>
      <trkpt lat="-24.450673973187804" lon="30.607330966740847">
        <ele>689.39999999999998</ele>
        <time>2025-09-28T08:09:49Z</time>
      </trkpt>
      <trkpt lat="-24.450837001204491" lon="30.60731696896255">
        <ele>690.36000000000001</ele>
        <time>2025-09-28T08:09:50Z</time>
      </trkpt>
      <trkpt lat="-24.451404036954045" lon="30.607330966740847">
        <ele>693.25</ele>
        <time>2025-09-28T08:09:54Z</time>
      </trkpt>
      <trkpt lat="-24.451594976708293" lon="30.60744202695787">
        <ele>693.25</ele>
        <time>2025-09-28T08:09:55Z</time>
      </trkpt>
      <trkpt lat="-24.451920026913285" lon="30.607629027217627">
        <ele>693.25</ele>
        <time>2025-09-28T08:09:57Z</time>
      </trkpt>
      <trkpt lat="-24.452139968052506" lon="30.607904959470034">
        <ele>693.25</ele>
        <time>2025-09-28T08:09:59Z</time>
      </trkpt>
      <trkpt lat="-24.452310036867857" lon="30.608363030478358">
        <ele>693.25</ele>
        <time>2025-09-28T08:10:01Z</time>
      </trkpt>
      <trkpt lat="-24.452319005504251" lon="30.608728984370828">
        <ele>718.72000000000003</ele>
        <time>2025-09-28T08:10:03Z</time>
      </trkpt>
      <trkpt lat="-24.452124964445829" lon="30.607884004712105">
        <ele>712.47000000000003</ele>
        <time>2025-09-28T08:10:04Z</time>
      </trkpt>
      <trkpt lat="-24.452172992751002" lon="30.607951981946826">
        <ele>706.23000000000002</ele>
        <time>2025-09-28T08:10:05Z</time>
      </trkpt>
      <trkpt lat="-24.452172992751002" lon="30.607951981946826">
        <ele>704.77999999999997</ele>
        <time>2025-09-28T08:10:06Z</time>
      </trkpt>
      <trkpt lat="-24.452225966379046" lon="30.608031023293734">
        <ele>693.73000000000002</ele>
        <time>2025-09-28T08:10:07Z</time>
      </trkpt>
      <trkpt lat="-24.452271983027458" lon="30.608123978599906">
        <ele>689.39999999999998</ele>
        <time>2025-09-28T08:10:08Z</time>
      </trkpt>
      <trkpt lat="-24.452307019382715" lon="30.608249036595225">
        <ele>688.44000000000005</ele>
        <time>2025-09-28T08:10:09Z</time>
      </trkpt>
      <trkpt lat="-24.452309031039476" lon="30.60832598246634">
        <ele>687.96000000000004</ele>
        <time>2025-09-28T08:10:10Z</time>
      </trkpt>
      <trkpt lat="-24.452310958877206" lon="30.608403012156487">
        <ele>687.48000000000002</ele>
        <time>2025-09-28T08:10:11Z</time>
      </trkpt>
      <trkpt lat="-24.452312970533967" lon="30.608477024361491">
        <ele>687.48000000000002</ele>
        <time>2025-09-28T08:10:12Z</time>
      </trkpt>
      <trkpt lat="-24.452315988019109" lon="30.608612978830934">
        <ele>689.88</ele>
        <time>2025-09-28T08:10:19Z</time>
      </trkpt>
      <trkpt lat="-24.452323028817773" lon="30.60888497158885">
        <ele>690.84000000000003</ele>
        <time>2025-09-28T08:10:27Z</time>
      </trkpt>
      <trkpt lat="-24.452425958588719" lon="30.609433986246586">
        <ele>694.21000000000004</ele>
        <time>2025-09-28T08:10:42Z</time>
      </trkpt>
      <trkpt lat="-24.452512040734291" lon="30.609809998422861">
        <ele>697.09000000000003</ele>
        <time>2025-09-28T08:10:48Z</time>
      </trkpt>
      <trkpt lat="-24.452512040734291" lon="30.609890967607498">
        <ele>697.57000000000005</ele>
        <time>2025-09-28T08:10:49Z</time>
      </trkpt>
      <trkpt lat="-24.452500976622105" lon="30.609967997297645">
        <ele>698.04999999999995</ele>
        <time>2025-09-28T08:10:50Z</time>
      </trkpt>
      <trkpt lat="-24.45248999632895" lon="30.610041003674269">
        <ele>698.52999999999997</ele>
        <time>2025-09-28T08:10:51Z</time>
      </trkpt>
      <trkpt lat="-24.452479016035795" lon="30.610110992565751">
        <ele>698.52999999999997</ele>
        <time>2025-09-28T08:10:52Z</time>
      </trkpt>
      <trkpt lat="-24.452469041571021" lon="30.610178969800472">
        <ele>699.01999999999998</ele>
        <time>2025-09-28T08:10:53Z</time>
      </trkpt>
      <trkpt lat="-24.452458983287215" lon="30.610243007540703">
        <ele>699.5</ele>
        <time>2025-09-28T08:10:54Z</time>
      </trkpt>
      <trkpt lat="-24.452443979680538" lon="30.610304027795792">
        <ele>699.98000000000002</ele>
        <time>2025-09-28T08:10:55Z</time>
      </trkpt>
      <trkpt lat="-24.452296039089561" lon="30.610733013600111">
        <ele>703.34000000000003</ele>
        <time>2025-09-28T08:11:05Z</time>
      </trkpt>
      <trkpt lat="-24.452278017997742" lon="30.610785987228155">
        <ele>703.82000000000005</ele>
        <time>2025-09-28T08:11:06Z</time>
      </trkpt>
      <trkpt lat="-24.452257985249162" lon="30.610844995826483">
        <ele>704.29999999999995</ele>
        <time>2025-09-28T08:11:07Z</time>
      </trkpt>
      <trkpt lat="-24.452238036319613" lon="30.61090400442481">
        <ele>704.77999999999997</ele>
        <time>2025-09-28T08:11:08Z</time>
      </trkpt>
      <trkpt lat="-24.452220015227795" lon="30.610961001366377">
        <ele>704.77999999999997</ele>
        <time>2025-09-28T08:11:09Z</time>
      </trkpt>
      <trkpt lat="-24.452224038541317" lon="30.611027972772717">
        <ele>705.25999999999999</ele>
        <time>2025-09-28T08:11:10Z</time>
      </trkpt>
      <trkpt lat="-24.452227978035808" lon="30.611093016341329">
        <ele>705.25999999999999</ele>
        <time>2025-09-28T08:11:11Z</time>
      </trkpt>
      <trkpt lat="-24.45223200134933" lon="30.611156970262527">
        <ele>705.75</ele>
        <time>2025-09-28T08:11:12Z</time>
      </trkpt>
      <trkpt lat="-24.452236024662852" lon="30.611221008002758">
        <ele>706.23000000000002</ele>
        <time>2025-09-28T08:11:13Z</time>
      </trkpt>
      <trkpt lat="-24.452302996069193" lon="30.611522002145648">
        <ele>709.59000000000003</ele>
        <time>2025-09-28T08:11:22Z</time>
      </trkpt>
      <trkpt lat="-24.452406009659171" lon="30.611888039857149">
        <ele>711.99000000000001</ele>
        <time>2025-09-28T08:11:30Z</time>
      </trkpt>
      <trkpt lat="-24.452427970245481" lon="30.611966997385025">
        <ele>712.47000000000003</ele>
        <time>2025-09-28T08:11:31Z</time>
      </trkpt>
      <trkpt lat="-24.452401986345649" lon="30.612689014524221">
        <ele>715.84000000000003</ele>
        <time>2025-09-28T08:11:39Z</time>
      </trkpt>
      <trkpt lat="-24.452406009659171" lon="30.61296503059566">
        <ele>716.79999999999995</ele>
        <time>2025-09-28T08:11:42Z</time>
      </trkpt>
      <trkpt lat="-24.452473986893892" lon="30.613111965358257">
        <ele>717.27999999999997</ele>
        <time>2025-09-28T08:11:43Z</time>
      </trkpt>
      <trkpt lat="-24.452503994107246" lon="30.613177008926868">
        <ele>717.75999999999999</ele>
        <time>2025-09-28T08:11:44Z</time>
      </trkpt>
      <trkpt lat="-24.452534001320601" lon="30.613221013918519">
        <ele>718.24000000000001</ele>
        <time>2025-09-28T08:11:45Z</time>
      </trkpt>
      <trkpt lat="-24.452577000483871" lon="30.613252026960254">
        <ele>718.72000000000003</ele>
        <time>2025-09-28T08:11:46Z</time>
      </trkpt>
      <trkpt lat="-24.452577000483871" lon="30.613252026960254">
        <ele>719.20000000000005</ele>
        <time>2025-09-28T08:11:47Z</time>
      </trkpt>
      <trkpt lat="-24.452665010467172" lon="30.613314975053072">
        <ele>719.67999999999995</ele>
        <time>2025-09-28T08:11:49Z</time>
      </trkpt>
      <trkpt lat="-24.452670039609075" lon="30.613317992538214">
        <ele>720.64999999999998</ele>
        <time>2025-09-28T08:11:50Z</time>
      </trkpt>
      <trkpt lat="-24.45274799130857" lon="30.61333199031651">
        <ele>721.13</ele>
        <time>2025-09-28T08:11:51Z</time>
      </trkpt>
      <trkpt lat="-24.452802976593375" lon="30.613341964781284">
        <ele>721.61000000000001</ele>
        <time>2025-09-28T08:11:52Z</time>
      </trkpt>
      <trkpt lat="-24.452857039868832" lon="30.61335202306509">
        <ele>722.09000000000003</ele>
        <time>2025-09-28T08:11:53Z</time>
      </trkpt>
      <trkpt lat="-24.452905990183353" lon="30.613360991701484">
        <ele>722.57000000000005</ele>
        <time>2025-09-28T08:11:54Z</time>
      </trkpt>
      <trkpt lat="-24.452942032366991" lon="30.613356968387961">
        <ele>723.04999999999995</ele>
        <time>2025-09-28T08:11:55Z</time>
      </trkpt>
      <trkpt lat="-24.452994000166655" lon="30.61335202306509">
        <ele>723.52999999999997</ele>
        <time>2025-09-28T08:11:56Z</time>
      </trkpt>
      <trkpt lat="-24.453046973794699" lon="30.613346993923187">
        <ele>724.00999999999999</ele>
        <time>2025-09-28T08:11:57Z</time>
      </trkpt>
      <trkpt lat="-24.453100031241775" lon="30.613340958952904">
        <ele>724.49000000000001</ele>
        <time>2025-09-28T08:11:58Z</time>
      </trkpt>
      <trkpt lat="-24.453157028183341" lon="30.613336013630033">
        <ele>724.97000000000003</ele>
        <time>2025-09-28T08:11:59Z</time>
      </trkpt>
      <trkpt lat="-24.453214025124907" lon="30.613329978659749">
        <ele>725.45000000000005</ele>
        <time>2025-09-28T08:12:00Z</time>
      </trkpt>
      <trkpt lat="-24.453272027894855" lon="30.613324027508497">
        <ele>725.92999999999995</ele>
        <time>2025-09-28T08:12:01Z</time>
      </trkpt>
      <trkpt lat="-24.453332964330912" lon="30.613317992538214">
        <ele>725.92999999999995</ele>
        <time>2025-09-28T08:12:02Z</time>
      </trkpt>
      <trkpt lat="-24.453373029828072" lon="30.613291002810001">
        <ele>726.40999999999997</ele>
        <time>2025-09-28T08:12:03Z</time>
      </trkpt>
      <trkpt lat="-24.453428015112877" lon="30.613251021131873">
        <ele>726.88999999999999</ele>
        <time>2025-09-28T08:12:04Z</time>
      </trkpt>
      <trkpt lat="-24.453483000397682" lon="30.613212967291474">
        <ele>727.37</ele>
        <time>2025-09-28T08:12:05Z</time>
      </trkpt>
      <trkpt lat="-24.453858006745577" lon="30.612806025892496">
        <ele>730.74000000000001</ele>
        <time>2025-09-28T08:12:16Z</time>
      </trkpt>
      <trkpt lat="-24.454290010035038" lon="30.612308979034424">
        <ele>733.62</ele>
        <time>2025-09-28T08:12:26Z</time>
      </trkpt>
      <trkpt lat="-24.454412972554564" lon="30.612210994586349">
        <ele>734.10000000000002</ele>
        <time>2025-09-28T08:12:28Z</time>
      </trkpt>
      <trkpt lat="-24.454485978931189" lon="30.61217000707984">
        <ele>734.10000000000002</ele>
        <time>2025-09-28T08:12:29Z</time>
      </trkpt>
      <trkpt lat="-24.454565020278096" lon="30.612146034836769">
        <ele>734.58000000000004</ele>
        <time>2025-09-28T08:12:30Z</time>
      </trkpt>
      <trkpt lat="-24.454645989462733" lon="30.612120972946286">
        <ele>734.58000000000004</ele>
        <time>2025-09-28T08:12:31Z</time>
      </trkpt>
      <trkpt lat="-24.454727964475751" lon="30.612094989046454">
        <ele>735.07000000000005</ele>
        <time>2025-09-28T08:12:32Z</time>
      </trkpt>
      <trkpt lat="-24.454813962802291" lon="30.612099012359977">
        <ele>735.07000000000005</ele>
        <time>2025-09-28T08:12:33Z</time>
      </trkpt>
      <trkpt lat="-24.454979002475739" lon="30.612105969339609">
        <ele>735.54999999999995</ele>
        <time>2025-09-28T08:12:34Z</time>
      </trkpt>
      <trkpt lat="-24.455554001033306" lon="30.612131031230092">
        <ele>736.99000000000001</ele>
        <time>2025-09-28T08:12:42Z</time>
      </trkpt>
      <trkpt lat="-24.455631030723453" lon="30.612134970724583">
        <ele>736.99000000000001</ele>
        <time>2025-09-28T08:12:43Z</time>
      </trkpt>
      <trkpt lat="-24.456094969063997" lon="30.612034974619746">
        <ele>737.95000000000005</ele>
        <time>2025-09-28T08:12:49Z</time>
      </trkpt>
      <trkpt lat="-24.45618499070406" lon="30.612025000154972">
        <ele>737.95000000000005</ele>
        <time>2025-09-28T08:12:50Z</time>
      </trkpt>
      <trkpt lat="-24.456277024000883" lon="30.612015025690198">
        <ele>738.42999999999995</ele>
        <time>2025-09-28T08:12:51Z</time>
      </trkpt>
      <trkpt lat="-24.456694023683667" lon="30.611972026526928">
        <ele>738.90999999999997</ele>
        <time>2025-09-28T08:12:55Z</time>
      </trkpt>
      <trkpt lat="-24.456820003688335" lon="30.611927015706897">
        <ele>738.90999999999997</ele>
        <time>2025-09-28T08:12:56Z</time>
      </trkpt>
      <trkpt lat="-24.457740001380444" lon="30.61143902130425">
        <ele>738.90999999999997</ele>
        <time>2025-09-28T08:13:05Z</time>
      </trkpt>
      <trkpt lat="-24.458557991310954" lon="30.610851030796766">
        <ele>737.95000000000005</ele>
        <time>2025-09-28T08:13:12Z</time>
      </trkpt>
      <trkpt lat="-24.459809996187687" lon="30.609735986217856">
        <ele>736.50999999999999</ele>
        <time>2025-09-28T08:13:22Z</time>
      </trkpt>
      <trkpt lat="-24.459926001727581" lon="30.609665997326374">
        <ele>736.99000000000001</ele>
        <time>2025-09-28T08:13:23Z</time>
      </trkpt>
      <trkpt lat="-24.460043013095856" lon="30.609602965414524">
        <ele>736.99000000000001</ele>
        <time>2025-09-28T08:13:24Z</time>
      </trkpt>
      <trkpt lat="-24.460167987272143" lon="30.609539011493325">
        <ele>736.99000000000001</ele>
        <time>2025-09-28T08:13:25Z</time>
      </trkpt>
      <trkpt lat="-24.460434028878808" lon="30.609480002894998">
        <ele>736.99000000000001</ele>
        <time>2025-09-28T08:13:26Z</time>
      </trkpt>
      <trkpt lat="-24.460434028878808" lon="30.609480002894998">
        <ele>737.47000000000003</ele>
        <time>2025-09-28T08:13:27Z</time>
      </trkpt>
      <trkpt lat="-24.460579035803676" lon="30.609457958489656">
        <ele>737.95000000000005</ele>
        <time>2025-09-28T08:13:28Z</time>
      </trkpt>
      <trkpt lat="-24.46071800775826" lon="30.609468016773462">
        <ele>738.42999999999995</ele>
        <time>2025-09-28T08:13:29Z</time>
      </trkpt>
      <trkpt lat="-24.461763985455036" lon="30.609557032585144">
        <ele>740.35000000000002</ele>
        <time>2025-09-28T08:13:38Z</time>
      </trkpt>
      <trkpt lat="-24.462360022589564" lon="30.609524007886648">
        <ele>742.27999999999997</ele>
        <time>2025-09-28T08:13:44Z</time>
      </trkpt>
      <trkpt lat="-24.46243797428906" lon="30.609468016773462">
        <ele>742.75999999999999</ele>
        <time>2025-09-28T08:13:45Z</time>
      </trkpt>
      <trkpt lat="-24.462985983118415" lon="30.60892503708601">
        <ele>746.60000000000002</ele>
        <time>2025-09-28T08:13:51Z</time>
      </trkpt>
      <trkpt lat="-24.46346702054143" lon="30.608350960537791">
        <ele>749.97000000000003</ele>
        <time>2025-09-28T08:13:55Z</time>
      </trkpt>
      <trkpt lat="-24.463970018550754" lon="30.607777973636985">
        <ele>753.80999999999995</ele>
        <time>2025-09-28T08:13:59Z</time>
      </trkpt>
      <trkpt lat="-24.464388024061918" lon="30.60740003362298">
        <ele>757.17999999999995</ele>
        <time>2025-09-28T08:14:02Z</time>
      </trkpt>
      <trkpt lat="-24.464820027351379" lon="30.607023015618324">
        <ele>760.05999999999995</ele>
        <time>2025-09-28T08:14:05Z</time>
      </trkpt>
      <trkpt lat="-24.464923962950706" lon="30.606867028400302">
        <ele>761.01999999999998</ele>
        <time>2025-09-28T08:14:06Z</time>
      </trkpt>
      <trkpt lat="-24.465004010125995" lon="30.606690002605319">
        <ele>761.98000000000002</ele>
        <time>2025-09-28T08:14:07Z</time>
      </trkpt>
      <trkpt lat="-24.465043991804123" lon="30.606505014002323">
        <ele>762.46000000000004</ele>
        <time>2025-09-28T08:14:08Z</time>
      </trkpt>
      <trkpt lat="-24.465242978185415" lon="30.60574603267014">
        <ele>765.35000000000002</ele>
        <time>2025-09-28T08:14:12Z</time>
      </trkpt>
      <trkpt lat="-24.465327970683575" lon="30.605575041845441">
        <ele>766.30999999999995</ele>
        <time>2025-09-28T08:14:13Z</time>
      </trkpt>
      <trkpt lat="-24.465443976223469" lon="30.605442021042109">
        <ele>768.23000000000002</ele>
        <time>2025-09-28T08:14:14Z</time>
      </trkpt>
      <trkpt lat="-24.465829962864518" lon="30.605001971125603">
        <ele>771.60000000000002</ele>
        <time>2025-09-28T08:14:17Z</time>
      </trkpt>
      <trkpt lat="-24.466221984475851" lon="30.604594023898244">
        <ele>774.96000000000004</ele>
        <time>2025-09-28T08:14:20Z</time>
      </trkpt>
      <trkpt lat="-24.466663962230086" lon="30.604225974529982">
        <ele>778.80999999999995</ele>
        <time>2025-09-28T08:14:23Z</time>
      </trkpt>
      <trkpt lat="-24.467200990766287" lon="30.603990023955703">
        <ele>782.16999999999996</ele>
        <time>2025-09-28T08:14:26Z</time>
      </trkpt>
      <trkpt lat="-24.467565016821027" lon="30.603871000930667">
        <ele>784.09000000000003</ele>
        <time>2025-09-28T08:14:28Z</time>
      </trkpt>
      <trkpt lat="-24.467767020687461" lon="30.603849040344357">
        <ele>784.57000000000005</ele>
        <time>2025-09-28T08:14:29Z</time>
      </trkpt>
      <trkpt lat="-24.467961983755231" lon="30.60383596457541">
        <ele>786.01999999999998</ele>
        <time>2025-09-28T08:14:30Z</time>
      </trkpt>
      <trkpt lat="-24.468163987621665" lon="30.603846022859216">
        <ele>786.98000000000002</ele>
        <time>2025-09-28T08:14:31Z</time>
      </trkpt>
      <trkpt lat="-24.468358028680086" lon="30.60385599732399">
        <ele>787.46000000000004</ele>
        <time>2025-09-28T08:14:32Z</time>
      </trkpt>
      <trkpt lat="-24.468563972041011" lon="30.603896984830499">
        <ele>787.94000000000005</ele>
        <time>2025-09-28T08:14:33Z</time>
      </trkpt>
      <trkpt lat="-24.469182975590229" lon="30.604079039767385">
        <ele>789.86000000000001</ele>
        <time>2025-09-28T08:14:36Z</time>
      </trkpt>
      <trkpt lat="-24.471472995355725" lon="30.604901975020766">
        <ele>789.86000000000001</ele>
        <time>2025-09-28T08:14:46Z</time>
      </trkpt>
      <trkpt lat="-24.471967024728656" lon="30.605079000815749">
        <ele>790.82000000000005</ele>
        <time>2025-09-28T08:14:48Z</time>
      </trkpt>
      <trkpt lat="-24.472968997433782" lon="30.605434980243444">
        <ele>793.71000000000004</ele>
        <time>2025-09-28T08:14:52Z</time>
      </trkpt>
      <trkpt lat="-24.474482014775276" lon="30.605969997122884">
        <ele>797.07000000000005</ele>
        <time>2025-09-28T08:14:58Z</time>
      </trkpt>
      <trkpt lat="-24.475491028279066" lon="30.606321031227708">
        <ele>800.44000000000005</ele>
        <time>2025-09-28T08:15:01Z</time>
      </trkpt>
      <trkpt lat="-24.475982962176204" lon="30.606492022052407">
        <ele>804.75999999999999</ele>
        <time>2025-09-28T08:15:04Z</time>
      </trkpt>
      <trkpt lat="-24.47694000788033" lon="30.60684397816658">
        <ele>808.13</ele>
        <time>2025-09-28T08:15:07Z</time>
      </trkpt>
      <trkpt lat="-24.477394977584481" lon="30.60699200257659">
        <ele>812.45000000000005</ele>
        <time>2025-09-28T08:15:10Z</time>
      </trkpt>
      <trkpt lat="-24.477841984480619" lon="30.607139021158218">
        <ele>815.34000000000003</ele>
        <time>2025-09-28T08:15:12Z</time>
      </trkpt>
      <trkpt lat="-24.478268036618829" lon="30.607303977012634">
        <ele>818.70000000000005</ele>
        <time>2025-09-28T08:15:14Z</time>
      </trkpt>
      <trkpt lat="-24.478679001331329" lon="30.607452001422644">
        <ele>821.10000000000002</ele>
        <time>2025-09-28T08:15:16Z</time>
      </trkpt>
      <trkpt lat="-24.478860972449183" lon="30.607547974213958">
        <ele>822.05999999999995</ele>
        <time>2025-09-28T08:15:17Z</time>
      </trkpt>
      <trkpt lat="-24.479031041264534" lon="30.607645036652684">
        <ele>823.02999999999997</ele>
        <time>2025-09-28T08:15:18Z</time>
      </trkpt>
      <trkpt lat="-24.479160960763693" lon="30.607801023870707">
        <ele>824.95000000000005</ele>
        <time>2025-09-28T08:15:19Z</time>
      </trkpt>
      <trkpt lat="-24.479267997667193" lon="30.607956005260348">
        <ele>826.38999999999999</ele>
        <time>2025-09-28T08:15:20Z</time>
      </trkpt>
      <trkpt lat="-24.479358019307256" lon="30.608134958893061">
        <ele>827.83000000000004</ele>
        <time>2025-09-28T08:15:21Z</time>
      </trkpt>
      <trkpt lat="-24.479403030127287" lon="30.608318019658327">
        <ele>829.26999999999998</ele>
        <time>2025-09-28T08:15:22Z</time>
      </trkpt>
      <trkpt lat="-24.479428008198738" lon="30.608703000470996">
        <ele>831.20000000000005</ele>
        <time>2025-09-28T08:15:23Z</time>
      </trkpt>
      <trkpt lat="-24.479401018470526" lon="30.608882959932089">
        <ele>832.63999999999999</ele>
        <time>2025-09-28T08:15:24Z</time>
      </trkpt>
      <trkpt lat="-24.479401018470526" lon="30.608882959932089">
        <ele>834.08000000000004</ele>
        <time>2025-09-28T08:15:25Z</time>
      </trkpt>
      <trkpt lat="-24.479361958801746" lon="30.609082030132413">
        <ele>835.51999999999998</ele>
        <time>2025-09-28T08:15:26Z</time>
      </trkpt>
      <trkpt lat="-24.479246037080884" lon="30.609676977619529">
        <ele>839.37</ele>
        <time>2025-09-28T08:15:29Z</time>
      </trkpt>
      <trkpt lat="-24.479203037917614" lon="30.610067993402481">
        <ele>842.73000000000002</ele>
        <time>2025-09-28T08:15:31Z</time>
      </trkpt>
      <trkpt lat="-24.479185016825795" lon="30.610260022804141">
        <ele>844.17999999999995</ele>
        <time>2025-09-28T08:15:32Z</time>
      </trkpt>
      <trkpt lat="-24.47917303070426" lon="30.610447023063898">
        <ele>845.13999999999999</ele>
        <time>2025-09-28T08:15:33Z</time>
      </trkpt>
      <trkpt lat="-24.47926196269691" lon="30.611011041328311">
        <ele>848.01999999999998</ele>
        <time>2025-09-28T08:15:36Z</time>
      </trkpt>
      <trkpt lat="-24.479318959638476" lon="30.611198963597417">
        <ele>848.98000000000002</ele>
        <time>2025-09-28T08:15:37Z</time>
      </trkpt>
      <trkpt lat="-24.479620959609747" lon="30.611945036798716">
        <ele>852.35000000000002</ele>
        <time>2025-09-28T08:15:41Z</time>
      </trkpt>
      <trkpt lat="-24.479869985952973" lon="30.612475024536252">
        <ele>856.19000000000005</ele>
        <time>2025-09-28T08:15:44Z</time>
      </trkpt>
      <trkpt lat="-24.479910973459482" lon="30.612651966512203">
        <ele>857.63</ele>
        <time>2025-09-28T08:15:45Z</time>
      </trkpt>
      <trkpt lat="-24.479910973459482" lon="30.612808037549257">
        <ele>858.59000000000003</ele>
        <time>2025-09-28T08:15:46Z</time>
      </trkpt>
      <trkpt lat="-24.479880966246128" lon="30.612957989796996">
        <ele>861</ele>
        <time>2025-09-28T08:15:47Z</time>
      </trkpt>
      <trkpt lat="-24.479784993454814" lon="30.613088998943567">
        <ele>862.91999999999996</ele>
        <time>2025-09-28T08:15:48Z</time>
      </trkpt>
      <trkpt lat="-24.479677034541965" lon="30.613197041675448">
        <ele>864.36000000000001</ele>
        <time>2025-09-28T08:15:49Z</time>
      </trkpt>
      <trkpt lat="-24.479563040658832" lon="30.61328899115324">
        <ele>865.79999999999995</ele>
        <time>2025-09-28T08:15:50Z</time>
      </trkpt>
      <trkpt lat="-24.47941199876368" lon="30.613339031115174">
        <ele>866.76999999999998</ele>
        <time>2025-09-28T08:15:51Z</time>
      </trkpt>
      <trkpt lat="-24.479249976575375" lon="30.613338025286794">
        <ele>868.21000000000004</ele>
        <time>2025-09-28T08:15:52Z</time>
      </trkpt>
      <trkpt lat="-24.479099018499255" lon="30.613300977274776">
        <ele>870.13</ele>
        <time>2025-09-28T08:15:53Z</time>
      </trkpt>
      <trkpt lat="-24.478651005774736" lon="30.613193018361926">
        <ele>873.5</ele>
        <time>2025-09-28T08:15:56Z</time>
      </trkpt>
      <trkpt lat="-24.478516979143023" lon="30.613139038905501">
        <ele>874.94000000000005</ele>
        <time>2025-09-28T08:15:57Z</time>
      </trkpt>
      <trkpt lat="-24.478258984163404" lon="30.613150019198656">
        <ele>875.41999999999996</ele>
        <time>2025-09-28T08:15:58Z</time>
      </trkpt>
      <trkpt lat="-24.478258984163404" lon="30.613150019198656">
        <ele>876.38</ele>
        <time>2025-09-28T08:15:59Z</time>
      </trkpt>
      <trkpt lat="-24.478004006668925" lon="30.613258983939886">
        <ele>877.82000000000005</ele>
        <time>2025-09-28T08:16:00Z</time>
      </trkpt>
      <trkpt lat="-24.478004006668925" lon="30.613258983939886">
        <ele>879.74000000000001</ele>
        <time>2025-09-28T08:16:01Z</time>
      </trkpt>
      <trkpt lat="-24.477894036099315" lon="30.613358980044723">
        <ele>880.71000000000004</ele>
        <time>2025-09-28T08:16:02Z</time>
      </trkpt>
      <trkpt lat="-24.47777995839715" lon="30.613464005291462">
        <ele>882.14999999999998</ele>
        <time>2025-09-28T08:16:03Z</time>
      </trkpt>
      <trkpt lat="-24.477677028626204" lon="30.613591996952891">
        <ele>882.63</ele>
        <time>2025-09-28T08:16:04Z</time>
      </trkpt>
      <trkpt lat="-24.477291963994503" lon="30.614103963598609">
        <ele>886.47000000000003</ele>
        <time>2025-09-28T08:16:07Z</time>
      </trkpt>
      <trkpt lat="-24.47713203728199" lon="30.614358019083738">
        <ele>890.32000000000005</ele>
        <time>2025-09-28T08:16:10Z</time>
      </trkpt>
      <trkpt lat="-24.476888962090015" lon="30.614755991846323">
        <ele>893.20000000000005</ele>
        <time>2025-09-28T08:16:13Z</time>
      </trkpt>
      <trkpt lat="-24.476841017603874" lon="30.614909967407584">
        <ele>894.15999999999997</ele>
        <time>2025-09-28T08:16:14Z</time>
      </trkpt>
      <trkpt lat="-24.476791983470321" lon="30.615066038444638">
        <ele>894.63999999999999</ele>
        <time>2025-09-28T08:16:15Z</time>
      </trkpt>
      <trkpt lat="-24.476761976256967" lon="30.615226970985532">
        <ele>895.61000000000001</ele>
        <time>2025-09-28T08:16:16Z</time>
      </trkpt>
      <trkpt lat="-24.476644964888692" lon="30.615900037810206">
        <ele>899.45000000000005</ele>
        <time>2025-09-28T08:16:20Z</time>
      </trkpt>
      <trkpt lat="-24.476504987105727" lon="30.616398006677628">
        <ele>903.29999999999995</ele>
        <time>2025-09-28T08:16:23Z</time>
      </trkpt>
      <trkpt lat="-24.476343970745802" lon="30.616696989163756">
        <ele>905.70000000000005</ele>
        <time>2025-09-28T08:16:25Z</time>
      </trkpt>
      <trkpt lat="-24.476256966590881" lon="30.616844007745385">
        <ele>907.13999999999999</ele>
        <time>2025-09-28T08:16:26Z</time>
      </trkpt>
      <trkpt lat="-24.476173985749483" lon="30.616985997185111">
        <ele>908.10000000000002</ele>
        <time>2025-09-28T08:16:27Z</time>
      </trkpt>
      <trkpt lat="-24.476091004908085" lon="30.617106026038527">
        <ele>909.05999999999995</ele>
        <time>2025-09-28T08:16:28Z</time>
      </trkpt>
      <trkpt lat="-24.475990002974868" lon="30.617211973294616">
        <ele>910.50999999999999</ele>
        <time>2025-09-28T08:16:29Z</time>
      </trkpt>
      <trkpt lat="-24.475622037425637" lon="30.617594020441175">
        <ele>913.38999999999999</ele>
        <time>2025-09-28T08:16:32Z</time>
      </trkpt>
      <trkpt lat="-24.475622037425637" lon="30.617594020441175">
        <ele>914.35000000000002</ele>
        <time>2025-09-28T08:16:33Z</time>
      </trkpt>
      <trkpt lat="-24.475562022998929" lon="30.617700973525643">
        <ele>914.83000000000004</ele>
        <time>2025-09-28T08:16:34Z</time>
      </trkpt>
      <trkpt lat="-24.475522041320801" lon="30.617813039571047">
        <ele>915.78999999999996</ele>
        <time>2025-09-28T08:16:35Z</time>
      </trkpt>
      <trkpt lat="-24.475482981652021" lon="30.617920998483896">
        <ele>916.26999999999998</ele>
        <time>2025-09-28T08:16:36Z</time>
      </trkpt>
      <trkpt lat="-24.475478958338499" lon="30.618025017902255">
        <ele>916.75</ele>
        <time>2025-09-28T08:16:37Z</time>
      </trkpt>
      <trkpt lat="-24.475478958338499" lon="30.618137000128627">
        <ele>917.24000000000001</ele>
        <time>2025-09-28T08:16:38Z</time>
      </trkpt>
      <trkpt lat="-24.475503014400601" lon="30.618219980970025">
        <ele>917.24000000000001</ele>
        <time>2025-09-28T08:16:39Z</time>
      </trkpt>
      <trkpt lat="-24.475548025220633" lon="30.6183179654181">
        <ele>918.67999999999995</ele>
        <time>2025-09-28T08:16:40Z</time>
      </trkpt>
      <trkpt lat="-24.47558700107038" lon="30.618403041735291">
        <ele>919.15999999999997</ele>
        <time>2025-09-28T08:16:41Z</time>
      </trkpt>
      <trkpt lat="-24.475655984133482" lon="30.618488034233451">
        <ele>919.63999999999999</ele>
        <time>2025-09-28T08:16:42Z</time>
      </trkpt>
      <trkpt lat="-24.475726978853345" lon="30.618575038388371">
        <ele>920.12</ele>
        <time>2025-09-28T08:16:43Z</time>
      </trkpt>
      <trkpt lat="-24.476031996309757" lon="30.618945015594363">
        <ele>923.48000000000002</ele>
        <time>2025-09-28T08:16:47Z</time>
      </trkpt>
      <trkpt lat="-24.47610299102962" lon="30.619055991992354">
        <ele>924.92999999999995</ele>
        <time>2025-09-28T08:16:48Z</time>
      </trkpt>
      <trkpt lat="-24.47614498436451" lon="30.61915397644043">
        <ele>925.40999999999997</ele>
        <time>2025-09-28T08:16:49Z</time>
      </trkpt>
      <trkpt lat="-24.47614498436451" lon="30.61930300667882">
        <ele>925.88999999999999</ele>
        <time>2025-09-28T08:16:50Z</time>
      </trkpt>
      <trkpt lat="-24.47614498436451" lon="30.619446001946926">
        <ele>926.85000000000002</ele>
        <time>2025-09-28T08:16:51Z</time>
      </trkpt>
      <trkpt lat="-24.47614498436451" lon="30.61954096890986">
        <ele>927.33000000000004</ele>
        <time>2025-09-28T08:16:52Z</time>
      </trkpt>
      <trkpt lat="-24.476063009351492" lon="30.619683964177966">
        <ele>928.28999999999996</ele>
        <time>2025-09-28T08:16:53Z</time>
      </trkpt>
      <trkpt lat="-24.475992014631629" lon="30.619808016344905">
        <ele>929.25</ele>
        <time>2025-09-28T08:16:54Z</time>
      </trkpt>
      <trkpt lat="-24.475772995501757" lon="30.620185034349561">
        <ele>932.62</ele>
        <time>2025-09-28T08:16:57Z</time>
      </trkpt>
      <trkpt lat="-24.475527992472053" lon="30.620561968535185">
        <ele>935.5</ele>
        <time>2025-09-28T08:17:00Z</time>
      </trkpt>
      <trkpt lat="-24.475273014977574" lon="30.62093697488308">
        <ele>938.38</ele>
        <time>2025-09-28T08:17:03Z</time>
      </trkpt>
      <trkpt lat="-24.475089032202959" lon="30.621161023154855">
        <ele>939.83000000000004</ele>
        <time>2025-09-28T08:17:04Z</time>
      </trkpt>
      <trkpt lat="-24.475089032202959" lon="30.621161023154855">
        <ele>940.30999999999995</ele>
        <time>2025-09-28T08:17:05Z</time>
      </trkpt>
      <trkpt lat="-24.474745960906148" lon="30.621428992599249">
        <ele>943.66999999999996</ele>
        <time>2025-09-28T08:17:08Z</time>
      </trkpt>
      <trkpt lat="-24.474644958972931" lon="30.62151700258255">
        <ele>944.63</ele>
        <time>2025-09-28T08:17:09Z</time>
      </trkpt>
      <trkpt lat="-24.474558960646391" lon="30.621624961495399">
        <ele>945.59000000000003</ele>
        <time>2025-09-28T08:17:10Z</time>
      </trkpt>
      <trkpt lat="-24.474485032260418" lon="30.621728980913758">
        <ele>946.07000000000005</ele>
        <time>2025-09-28T08:17:11Z</time>
      </trkpt>
      <trkpt lat="-24.474441027268767" lon="30.621859990060329">
        <ele>947.03999999999996</ele>
        <time>2025-09-28T08:17:12Z</time>
      </trkpt>
      <trkpt lat="-24.474399033933878" lon="30.621986975893378">
        <ele>948</ele>
        <time>2025-09-28T08:17:13Z</time>
      </trkpt>
      <trkpt lat="-24.474357962608337" lon="30.622109016403556">
        <ele>948.96000000000004</ele>
        <time>2025-09-28T08:17:14Z</time>
      </trkpt>
      <trkpt lat="-24.474314041435719" lon="30.622242037206888">
        <ele>949.44000000000005</ele>
        <time>2025-09-28T08:17:15Z</time>
      </trkpt>
      <trkpt lat="-24.474226031452417" lon="30.622359970584512">
        <ele>950.88</ele>
        <time>2025-09-28T08:17:16Z</time>
      </trkpt>
      <trkpt lat="-24.474139027297497" lon="30.622447980567813">
        <ele>951.84000000000003</ele>
        <time>2025-09-28T08:17:17Z</time>
      </trkpt>
      <trkpt lat="-24.474044982343912" lon="30.622542025521398">
        <ele>951.84000000000003</ele>
        <time>2025-09-28T08:17:18Z</time>
      </trkpt>
      <trkpt lat="-24.473919002339244" lon="30.622602039948106">
        <ele>952.79999999999995</ele>
        <time>2025-09-28T08:17:19Z</time>
      </trkpt>
      <trkpt lat="-24.473795033991337" lon="30.622625006362796">
        <ele>953.76999999999998</ele>
        <time>2025-09-28T08:17:20Z</time>
      </trkpt>
      <trkpt lat="-24.473671987652779" lon="30.622646966949105">
        <ele>955.21000000000004</ele>
        <time>2025-09-28T08:17:21Z</time>
      </trkpt>
      <trkpt lat="-24.47354500181973" lon="30.622670017182827">
        <ele>956.64999999999998</ele>
        <time>2025-09-28T08:17:22Z</time>
      </trkpt>
      <trkpt lat="-24.473163038492203" lon="30.622673034667969">
        <ele>960.00999999999999</ele>
        <time>2025-09-28T08:17:25Z</time>
      </trkpt>
      <trkpt lat="-24.472791971638799" lon="30.622678985819221">
        <ele>963.38</ele>
        <time>2025-09-28T08:17:28Z</time>
      </trkpt>
      <trkpt lat="-24.472539005801082" lon="30.622711004689336">
        <ele>965.77999999999997</ele>
        <time>2025-09-28T08:17:30Z</time>
      </trkpt>
      <trkpt lat="-24.472415959462523" lon="30.622726008296013">
        <ele>967.22000000000003</ele>
        <time>2025-09-28T08:17:31Z</time>
      </trkpt>
      <trkpt lat="-24.472291991114616" lon="30.622754003852606">
        <ele>968.66999999999996</ele>
        <time>2025-09-28T08:17:32Z</time>
      </trkpt>
      <trkpt lat="-24.472168022766709" lon="30.622814018279314">
        <ele>969.63</ele>
        <time>2025-09-28T08:17:33Z</time>
      </trkpt>
      <trkpt lat="-24.472038019448519" lon="30.622876966372132">
        <ele>970.59000000000003</ele>
        <time>2025-09-28T08:17:34Z</time>
      </trkpt>
      <trkpt lat="-24.471508031710982" lon="30.623139990493655">
        <ele>974.90999999999997</ele>
        <time>2025-09-28T08:17:38Z</time>
      </trkpt>
      <trkpt lat="-24.471232015639544" lon="30.623283991590142">
        <ele>977.79999999999995</ele>
        <time>2025-09-28T08:17:40Z</time>
      </trkpt>
      <trkpt lat="-24.470814010128379" lon="30.623503010720015">
        <ele>981.63999999999999</ele>
        <time>2025-09-28T08:17:43Z</time>
      </trkpt>
      <trkpt lat="-24.470403967425227" lon="30.623718006536365">
        <ele>985.49000000000001</ele>
        <time>2025-09-28T08:17:46Z</time>
      </trkpt>
      <trkpt lat="-24.470011023804545" lon="30.623886985704303">
        <ele>988.37</ele>
        <time>2025-09-28T08:17:49Z</time>
      </trkpt>
      <trkpt lat="-24.469620008021593" lon="30.623997040092945">
        <ele>992.22000000000003</ele>
        <time>2025-09-28T08:17:52Z</time>
      </trkpt>
      <trkpt lat="-24.469242990016937" lon="30.624100975692272">
        <ele>996.53999999999996</ele>
        <time>2025-09-28T08:17:55Z</time>
      </trkpt>
      <trkpt lat="-24.46911801584065" lon="30.624139029532671">
        <ele>997.50999999999999</ele>
        <time>2025-09-28T08:17:56Z</time>
      </trkpt>
      <trkpt lat="-24.468996981158853" lon="30.624219998717308">
        <ele>998.95000000000005</ele>
        <time>2025-09-28T08:17:57Z</time>
      </trkpt>
      <trkpt lat="-24.468875024467707" lon="30.624300967901945">
        <ele>1000.39</ele>
        <time>2025-09-28T08:17:58Z</time>
      </trkpt>
      <trkpt lat="-24.468769999220967" lon="30.624414961785078">
        <ele>1001.83</ele>
        <time>2025-09-28T08:17:59Z</time>
      </trkpt>
      <trkpt lat="-24.46866899728775" lon="30.624532978981733">
        <ele>1002.79</ele>
        <time>2025-09-28T08:18:00Z</time>
      </trkpt>
      <trkpt lat="-24.468587022274733" lon="30.624673962593079">
        <ele>1004.23</ele>
        <time>2025-09-28T08:18:01Z</time>
      </trkpt>
      <trkpt lat="-24.468505969271064" lon="30.624815030023456">
        <ele>1005.2</ele>
        <time>2025-09-28T08:18:02Z</time>
      </trkpt>
      <trkpt lat="-24.468438997864723" lon="30.624951990321279">
        <ele>1006.16</ele>
        <time>2025-09-28T08:18:03Z</time>
      </trkpt>
      <trkpt lat="-24.468426005914807" lon="30.625102026388049">
        <ele>1006.64</ele>
        <time>2025-09-28T08:18:04Z</time>
      </trkpt>
      <trkpt lat="-24.468413013964891" lon="30.625253990292549">
        <ele>1008.5599999999999</ele>
        <time>2025-09-28T08:18:05Z</time>
      </trkpt>
      <trkpt lat="-24.468400022014976" lon="30.625400003045797">
        <ele>1008.08</ele>
        <time>2025-09-28T08:18:06Z</time>
      </trkpt>
      <trkpt lat="-24.468417959287763" lon="30.62553302384913">
        <ele>1008.08</ele>
        <time>2025-09-28T08:18:07Z</time>
      </trkpt>
      <trkpt lat="-24.468443021178246" lon="30.625673001632094">
        <ele>1008.5599999999999</ele>
        <time>2025-09-28T08:18:08Z</time>
      </trkpt>
      <trkpt lat="-24.468475040048361" lon="30.625815996900201">
        <ele>1009.04</ele>
        <time>2025-09-28T08:18:09Z</time>
      </trkpt>
      <trkpt lat="-24.468639995902777" lon="30.62624498270452">
        <ele>1010.96</ele>
        <time>2025-09-28T08:18:12Z</time>
      </trkpt>
      <trkpt lat="-24.469207031652331" lon="30.62772698700428">
        <ele>1010.96</ele>
        <time>2025-09-28T08:18:20Z</time>
      </trkpt>
      <trkpt lat="-24.469986967742443" lon="30.629567988216877">
        <ele>1010.48</ele>
        <time>2025-09-28T08:18:29Z</time>
      </trkpt>
      <trkpt lat="-24.471060018986464" lon="30.630925018340349">
        <ele>1012.41</ele>
        <time>2025-09-28T08:18:37Z</time>
      </trkpt>
      <trkpt lat="-24.472111025825143" lon="30.631732027977705">
        <ele>1015.77</ele>
        <time>2025-09-28T08:18:45Z</time>
      </trkpt>
      <trkpt lat="-24.473227998241782" lon="30.632621012628078">
        <ele>1018.65</ele>
        <time>2025-09-28T08:18:52Z</time>
      </trkpt>
      <trkpt lat="-24.473885977640748" lon="30.633134990930557">
        <ele>1022.5</ele>
        <time>2025-09-28T08:18:56Z</time>
      </trkpt>
      <trkpt lat="-24.47449098341167" lon="30.633607981726527">
        <ele>1026.3399999999999</ele>
        <time>2025-09-28T08:19:00Z</time>
      </trkpt>
      <trkpt lat="-24.47491804137826" lon="30.633942000567913">
        <ele>1029.71</ele>
        <time>2025-09-28T08:19:03Z</time>
      </trkpt>
      <trkpt lat="-24.475491028279066" lon="30.634389007464051">
        <ele>1033.0699999999999</ele>
        <time>2025-09-28T08:19:07Z</time>
      </trkpt>
      <trkpt lat="-24.475634023547173" lon="30.634500989690423">
        <ele>1033.0699999999999</ele>
        <time>2025-09-28T08:19:08Z</time>
      </trkpt>
      <trkpt lat="-24.47620801627636" lon="30.634949002414942">
        <ele>1035.96</ele>
        <time>2025-09-28T08:19:12Z</time>
      </trkpt>
      <trkpt lat="-24.478226965293288" lon="30.636526979506016">
        <ele>1037.8800000000001</ele>
        <time>2025-09-28T08:19:25Z</time>
      </trkpt>
      <trkpt lat="-24.480671966448426" lon="30.638436963781714">
        <ele>1037.8800000000001</ele>
        <time>2025-09-28T08:19:41Z</time>
      </trkpt>
      <trkpt lat="-24.482334014028311" lon="30.639803968369961">
        <ele>1040.28</ele>
        <time>2025-09-28T08:19:52Z</time>
      </trkpt>
      <trkpt lat="-24.483547965064645" lon="30.640842989087105">
        <ele>1043.6500000000001</ele>
        <time>2025-09-28T08:20:00Z</time>
      </trkpt>
      <trkpt lat="-24.484663009643555" lon="30.64179802313447">
        <ele>1046.53</ele>
        <time>2025-09-28T08:20:07Z</time>
      </trkpt>
      <trkpt lat="-24.486231012269855" lon="30.643158992752433">
        <ele>1049.9000000000001</ele>
        <time>2025-09-28T08:20:16Z</time>
      </trkpt>
      <trkpt lat="-24.487763978540897" lon="30.644488027319312">
        <ele>1053.74</ele>
        <time>2025-09-28T08:20:25Z</time>
      </trkpt>
      <trkpt lat="-24.489180017262697" lon="30.645716981962323">
        <ele>1056.6300000000001</ele>
        <time>2025-09-28T08:20:33Z</time>
      </trkpt>
      <trkpt lat="-24.490249967202544" lon="30.646614013239741">
        <ele>1059.99</ele>
        <time>2025-09-28T08:20:40Z</time>
      </trkpt>
      <trkpt lat="-24.490738967433572" lon="30.64697602763772">
        <ele>1063.3599999999999</ele>
        <time>2025-09-28T08:20:43Z</time>
      </trkpt>
      <trkpt lat="-24.491505995392799" lon="30.647278027608991">
        <ele>1067.2</ele>
        <time>2025-09-28T08:20:47Z</time>
      </trkpt>
      <trkpt lat="-24.49169903062284" lon="30.64734198153019">
        <ele>1067.6800000000001</ele>
        <time>2025-09-28T08:20:48Z</time>
      </trkpt>
      <trkpt lat="-24.492639983072877" lon="30.647436026483774">
        <ele>1071.05</ele>
        <time>2025-09-28T08:20:53Z</time>
      </trkpt>
      <trkpt lat="-24.493384966626763" lon="30.647399984300137">
        <ele>1074.8900000000001</ele>
        <time>2025-09-28T08:20:57Z</time>
      </trkpt>
      <trkpt lat="-24.494416024535894" lon="30.647317003458738">
        <ele>1078.26</ele>
        <time>2025-09-28T08:21:02Z</time>
      </trkpt>
      <trkpt lat="-24.495704993605614" lon="30.647217007353902">
        <ele>1081.6199999999999</ele>
        <time>2025-09-28T08:21:07Z</time>
      </trkpt>
      <trkpt lat="-24.496331959962845" lon="30.647171996533871">
        <ele>1084.99</ele>
        <time>2025-09-28T08:21:11Z</time>
      </trkpt>
      <trkpt lat="-24.49732999317348" lon="30.647097984328866">
        <ele>1088.3499999999999</ele>
        <time>2025-09-28T08:21:16Z</time>
      </trkpt>
      <trkpt lat="-24.498495999723673" lon="30.646992959082127">
        <ele>1091.23</ele>
        <time>2025-09-28T08:21:21Z</time>
      </trkpt>
      <trkpt lat="-24.499874990433455" lon="30.646874019876122">
        <ele>1091.23</ele>
        <time>2025-09-28T08:21:30Z</time>
      </trkpt>
      <trkpt lat="-24.500942006707191" lon="30.646780980750918">
        <ele>1093.6400000000001</ele>
        <time>2025-09-28T08:21:40Z</time>
      </trkpt>
      <trkpt lat="-24.501624964177608" lon="30.646730018779635">
        <ele>1095.5599999999999</ele>
        <time>2025-09-28T08:21:44Z</time>
      </trkpt>
      <trkpt lat="-24.503156002610922" lon="30.646616024896502">
        <ele>1097</ele>
        <time>2025-09-28T08:21:51Z</time>
      </trkpt>
      <trkpt lat="-24.504297031089664" lon="30.646540001034737">
        <ele>1099.4000000000001</ele>
        <time>2025-09-28T08:21:59Z</time>
      </trkpt>
      <trkpt lat="-24.506143983453512" lon="30.646386025473475">
        <ele>1102.77</ele>
        <time>2025-09-28T08:22:09Z</time>
      </trkpt>
      <trkpt lat="-24.506541034206748" lon="30.646356018260121">
        <ele>1104.21</ele>
        <time>2025-09-28T08:22:12Z</time>
      </trkpt>
      <trkpt lat="-24.507737969979644" lon="30.64624797552824">
        <ele>1107.0999999999999</ele>
        <time>2025-09-28T08:22:18Z</time>
      </trkpt>
      <trkpt lat="-24.508122028782964" lon="30.646212017163634">
        <ele>1108.54</ele>
        <time>2025-09-28T08:22:20Z</time>
      </trkpt>
      <trkpt lat="-24.508917974308133" lon="30.646153008565307">
        <ele>1111.9000000000001</ele>
        <time>2025-09-28T08:22:24Z</time>
      </trkpt>
      <trkpt lat="-24.510129997506738" lon="30.646062986925244">
        <ele>1115.27</ele>
        <time>2025-09-28T08:22:30Z</time>
      </trkpt>
      <trkpt lat="-24.510999033227563" lon="30.645998027175665">
        <ele>1119.1099999999999</ele>
        <time>2025-09-28T08:22:34Z</time>
      </trkpt>
      <trkpt lat="-24.512462010607123" lon="30.645889984443784">
        <ele>1122.48</ele>
        <time>2025-09-28T08:22:39Z</time>
      </trkpt>
      <trkpt lat="-24.513301961123943" lon="30.645811026915908">
        <ele>1125.8399999999999</ele>
        <time>2025-09-28T08:22:43Z</time>
      </trkpt>
      <trkpt lat="-24.514390015974641" lon="30.645656967535615">
        <ele>1129.6900000000001</ele>
        <time>2025-09-28T08:22:49Z</time>
      </trkpt>
      <trkpt lat="-24.515315964818001" lon="30.645457981154323">
        <ele>1133.53</ele>
        <time>2025-09-28T08:22:55Z</time>
      </trkpt>
      <trkpt lat="-24.51591401360929" lon="30.645284978672862">
        <ele>1137.3800000000001</ele>
        <time>2025-09-28T08:22:58Z</time>
      </trkpt>
      <trkpt lat="-24.516578027978539" lon="30.645091021433473">
        <ele>1141.22</ele>
        <time>2025-09-28T08:23:01Z</time>
      </trkpt>
      <trkpt lat="-24.517483022063971" lon="30.644825985655189">
        <ele>1145.0699999999999</ele>
        <time>2025-09-28T08:23:05Z</time>
      </trkpt>
      <trkpt lat="-24.518033964559436" lon="30.644707968458533">
        <ele>1148.9100000000001</ele>
        <time>2025-09-28T08:23:08Z</time>
      </trkpt>
      <trkpt lat="-24.518748018890619" lon="30.644494984298944">
        <ele>1152.28</ele>
        <time>2025-09-28T08:23:12Z</time>
      </trkpt>
      <trkpt lat="-24.519300973042846" lon="30.644331034272909">
        <ele>1155.6400000000001</ele>
        <time>2025-09-28T08:23:15Z</time>
      </trkpt>
      <trkpt lat="-24.519886029884219" lon="30.644157025963068">
        <ele>1159.49</ele>
        <time>2025-09-28T08:23:18Z</time>
      </trkpt>
      <trkpt lat="-24.520504027605057" lon="30.643972959369421">
        <ele>1162.8499999999999</ele>
        <time>2025-09-28T08:23:20Z</time>
      </trkpt>
      <trkpt lat="-24.520718017593026" lon="30.643910011276603">
        <ele>1166.22</ele>
        <time>2025-09-28T08:23:22Z</time>
      </trkpt>
      <trkpt lat="-24.521153960376978" lon="30.643780007958412">
        <ele>1170.0599999999999</ele>
        <time>2025-09-28T08:23:24Z</time>
      </trkpt>
      <trkpt lat="-24.521601973101497" lon="30.64364698715508">
        <ele>1174.3900000000001</ele>
        <time>2025-09-28T08:23:26Z</time>
      </trkpt>
      <trkpt lat="-24.522064989432693" lon="30.643510026857257">
        <ele>1178.23</ele>
        <time>2025-09-28T08:23:28Z</time>
      </trkpt>
      <trkpt lat="-24.522533034905791" lon="30.64336996525526">
        <ele>1182.0799999999999</ele>
        <time>2025-09-28T08:23:30Z</time>
      </trkpt>
      <trkpt lat="-24.522996973246336" lon="30.643233004957438">
        <ele>1185.9200000000001</ele>
        <time>2025-09-28T08:23:32Z</time>
      </trkpt>
      <trkpt lat="-24.523448003455997" lon="30.643098978325725">
        <ele>1189.77</ele>
        <time>2025-09-28T08:23:34Z</time>
      </trkpt>
      <trkpt lat="-24.523892998695374" lon="30.642966041341424">
        <ele>1193.1300000000001</ele>
        <time>2025-09-28T08:23:36Z</time>
      </trkpt>
      <trkpt lat="-24.524341011419892" lon="30.642857998609543">
        <ele>1196.5</ele>
        <time>2025-09-28T08:23:38Z</time>
      </trkpt>
      <trkpt lat="-24.524788018316031" lon="30.642759008333087">
        <ele>1200.8199999999999</ele>
        <time>2025-09-28T08:23:40Z</time>
      </trkpt>
      <trkpt lat="-24.525228990241885" lon="30.642662029713392">
        <ele>1204.1900000000001</ele>
        <time>2025-09-28T08:23:42Z</time>
      </trkpt>
      <trkpt lat="-24.525880012661219" lon="30.642636967822909">
        <ele>1208.03</ele>
        <time>2025-09-28T08:23:45Z</time>
      </trkpt>
      <trkpt lat="-24.526776038110256" lon="30.642693964764476">
        <ele>1210.9200000000001</ele>
        <time>2025-09-28T08:23:49Z</time>
      </trkpt>
      <trkpt lat="-24.527201000601053" lon="30.642817011103034">
        <ele>1214.28</ele>
        <time>2025-09-28T08:23:51Z</time>
      </trkpt>
      <trkpt lat="-24.52762302942574" lon="30.64293896779418">
        <ele>1218.1300000000001</ele>
        <time>2025-09-28T08:23:53Z</time>
      </trkpt>
      <trkpt lat="-24.528039023280144" lon="30.643058996647596">
        <ele>1221.49</ele>
        <time>2025-09-28T08:23:55Z</time>
      </trkpt>
      <trkpt lat="-24.528453005477786" lon="30.643178019672632">
        <ele>1225.3399999999999</ele>
        <time>2025-09-28T08:23:57Z</time>
      </trkpt>
      <trkpt lat="-24.528651991859078" lon="30.643236022442579">
        <ele>1227.74</ele>
        <time>2025-09-28T08:23:58Z</time>
      </trkpt>
      <trkpt lat="-24.528850978240371" lon="30.643270974978805">
        <ele>1229.1800000000001</ele>
        <time>2025-09-28T08:23:59Z</time>
      </trkpt>
      <trkpt lat="-24.52906396239996" lon="30.643265023827553">
        <ele>1231.1099999999999</ele>
        <time>2025-09-28T08:24:00Z</time>
      </trkpt>
      <trkpt lat="-24.529281975701451" lon="30.64325999468565">
        <ele>1233.03</ele>
        <time>2025-09-28T08:24:01Z</time>
      </trkpt>
      <trkpt lat="-24.529494037851691" lon="30.643253959715366">
        <ele>1234.95</ele>
        <time>2025-09-28T08:24:02Z</time>
      </trkpt>
      <trkpt lat="-24.529698975384235" lon="30.643212972208858">
        <ele>1237.3499999999999</ele>
        <time>2025-09-28T08:24:03Z</time>
      </trkpt>
      <trkpt lat="-24.529894022271037" lon="30.643122028559446">
        <ele>1239.28</ele>
        <time>2025-09-28T08:24:04Z</time>
      </trkpt>
      <trkpt lat="-24.530076999217272" lon="30.643009040504694">
        <ele>1241.2</ele>
        <time>2025-09-28T08:24:05Z</time>
      </trkpt>
      <trkpt lat="-24.530257964506745" lon="30.642888005822897">
        <ele>1241.6800000000001</ele>
        <time>2025-09-28T08:24:06Z</time>
      </trkpt>
      <trkpt lat="-24.530437001958489" lon="30.642768982797861">
        <ele>1242.6400000000001</ele>
        <time>2025-09-28T08:24:07Z</time>
      </trkpt>
      <trkpt lat="-24.530581003054976" lon="30.642596986144781">
        <ele>1244.0799999999999</ele>
        <time>2025-09-28T08:24:08Z</time>
      </trkpt>
      <trkpt lat="-24.530721986666322" lon="30.642419960349798">
        <ele>1245.53</ele>
        <time>2025-09-28T08:24:09Z</time>
      </trkpt>
      <trkpt lat="-24.530862970277667" lon="30.642241006717086">
        <ele>1246.97</ele>
        <time>2025-09-28T08:24:10Z</time>
      </trkpt>
      <trkpt lat="-24.531288016587496" lon="30.641704984009266">
        <ele>1249.8499999999999</ele>
        <time>2025-09-28T08:24:13Z</time>
      </trkpt>
      <trkpt lat="-24.531714990735054" lon="30.64117600210011">
        <ele>1251.77</ele>
        <time>2025-09-28T08:24:16Z</time>
      </trkpt>
      <trkpt lat="-24.532850990071893" lon="30.640098005533218">
        <ele>1253.22</ele>
        <time>2025-09-28T08:24:24Z</time>
      </trkpt>
      <trkpt lat="-24.533282993361354" lon="30.63980002887547">
        <ele>1251.77</ele>
        <time>2025-09-28T08:24:28Z</time>
      </trkpt>
      <trkpt lat="-24.533889004960656" lon="30.639513032510877">
        <ele>1251.77</ele>
        <time>2025-09-28T08:24:38Z</time>
      </trkpt>
      <trkpt lat="-24.534569028764963" lon="30.639388980343938">
        <ele>1248.8900000000001</ele>
        <time>2025-09-28T08:24:46Z</time>
      </trkpt>
      <trkpt lat="-24.535502018406987" lon="30.639364002272487">
        <ele>1246.01</ele>
        <time>2025-09-28T08:25:00Z</time>
      </trkpt>
      <trkpt lat="-24.536133008077741" lon="30.639237016439438">
        <ele>1243.1199999999999</ele>
        <time>2025-09-28T08:25:05Z</time>
      </trkpt>
      <trkpt lat="-24.536955021321774" lon="30.638799984008074">
        <ele>1239.28</ele>
        <time>2025-09-28T08:25:10Z</time>
      </trkpt>
      <trkpt lat="-24.537419965490699" lon="30.638419026508927">
        <ele>1234.95</ele>
        <time>2025-09-28T08:25:13Z</time>
      </trkpt>
      <trkpt lat="-24.537662034854293" lon="30.638096993789077">
        <ele>1231.5899999999999</ele>
        <time>2025-09-28T08:25:15Z</time>
      </trkpt>
      <trkpt lat="-24.537874013185501" lon="30.637740008533001">
        <ele>1226.78</ele>
        <time>2025-09-28T08:25:17Z</time>
      </trkpt>
      <trkpt lat="-24.538062019273639" lon="30.637354021891952">
        <ele>1221.49</ele>
        <time>2025-09-28T08:25:19Z</time>
      </trkpt>
      <trkpt lat="-24.538224041461945" lon="30.636952025815845">
        <ele>1217.1700000000001</ele>
        <time>2025-09-28T08:25:21Z</time>
      </trkpt>
      <trkpt lat="-24.538336023688316" lon="30.636283988133073">
        <ele>1213.3199999999999</ele>
        <time>2025-09-28T08:25:24Z</time>
      </trkpt>
      <trkpt lat="-24.538453035056591" lon="30.635593989863992">
        <ele>1208.51</ele>
        <time>2025-09-28T08:25:27Z</time>
      </trkpt>
      <trkpt lat="-24.538549007847905" lon="30.635128039866686">
        <ele>1205.6300000000001</ele>
        <time>2025-09-28T08:25:29Z</time>
      </trkpt>
      <trkpt lat="-24.538652021437883" lon="30.634914971888065">
        <ele>1204.1900000000001</ele>
        <time>2025-09-28T08:25:30Z</time>
      </trkpt>
      <trkpt lat="-24.5387530233711" lon="30.634705005213618">
        <ele>1202.75</ele>
        <time>2025-09-28T08:25:31Z</time>
      </trkpt>
      <trkpt lat="-24.539001965895295" lon="30.634305020794272">
        <ele>1200.8199999999999</ele>
        <time>2025-09-28T08:25:32Z</time>
      </trkpt>
      <trkpt lat="-24.539001965895295" lon="30.634305020794272">
        <ele>1199.3800000000001</ele>
        <time>2025-09-28T08:25:33Z</time>
      </trkpt>
      <trkpt lat="-24.539146972820163" lon="30.634112991392612">
        <ele>1195.54</ele>
        <time>2025-09-28T08:25:34Z</time>
      </trkpt>
      <trkpt lat="-24.53933103941381" lon="30.633964966982603">
        <ele>1193.6099999999999</ele>
        <time>2025-09-28T08:25:35Z</time>
      </trkpt>
      <trkpt lat="-24.539520973339677" lon="30.633813003078103">
        <ele>1191.6900000000001</ele>
        <time>2025-09-28T08:25:36Z</time>
      </trkpt>
      <trkpt lat="-24.53991400077939" lon="30.633499016985297">
        <ele>1188.3299999999999</ele>
        <time>2025-09-28T08:25:38Z</time>
      </trkpt>
      <trkpt lat="-24.540286995470524" lon="30.633201040327549">
        <ele>1184.96</ele>
        <time>2025-09-28T08:25:40Z</time>
      </trkpt>
      <trkpt lat="-24.540631994605064" lon="30.632880013436079">
        <ele>1181.1199999999999</ele>
        <time>2025-09-28T08:25:42Z</time>
      </trkpt>
      <trkpt lat="-24.540946986526251" lon="30.632506012916565">
        <ele>1177.75</ele>
        <time>2025-09-28T08:25:44Z</time>
      </trkpt>
      <trkpt lat="-24.541268013417721" lon="30.632124971598387">
        <ele>1173.9100000000001</ele>
        <time>2025-09-28T08:25:46Z</time>
      </trkpt>
      <trkpt lat="-24.541724994778633" lon="30.631570005789399">
        <ele>1170.0599999999999</ele>
        <time>2025-09-28T08:25:49Z</time>
      </trkpt>
      <trkpt lat="-24.541991958394647" lon="30.631214026361704">
        <ele>1167.1800000000001</ele>
        <time>2025-09-28T08:25:51Z</time>
      </trkpt>
      <trkpt lat="-24.542090026661754" lon="30.631031971424818">
        <ele>1165.74</ele>
        <time>2025-09-28T08:25:52Z</time>
      </trkpt>
      <trkpt lat="-24.542343998327851" lon="30.630429983139038">
        <ele>1161.8900000000001</ele>
        <time>2025-09-28T08:25:55Z</time>
      </trkpt>
      <trkpt lat="-24.542581038549542" lon="30.629885997623205">
        <ele>1159.01</ele>
        <time>2025-09-28T08:25:58Z</time>
      </trkpt>
      <trkpt lat="-24.542682040482759" lon="30.62972498126328">
        <ele>1157.5599999999999</ele>
        <time>2025-09-28T08:25:59Z</time>
      </trkpt>
      <trkpt lat="-24.542787987738848" lon="30.629556002095342">
        <ele>1155.1600000000001</ele>
        <time>2025-09-28T08:26:00Z</time>
      </trkpt>
      <trkpt lat="-24.542901981621981" lon="30.629392974078655">
        <ele>1151.3199999999999</ele>
        <time>2025-09-28T08:26:01Z</time>
      </trkpt>
      <trkpt lat="-24.543069032952189" lon="30.629271017387509">
        <ele>1148.9100000000001</ele>
        <time>2025-09-28T08:26:02Z</time>
      </trkpt>
      <trkpt lat="-24.543228959664702" lon="30.629153000190854">
        <ele>1147.47</ele>
        <time>2025-09-28T08:26:03Z</time>
      </trkpt>
      <trkpt lat="-24.543404979631305" lon="30.629073958843946">
        <ele>1146.03</ele>
        <time>2025-09-28T08:26:04Z</time>
      </trkpt>
      <trkpt lat="-24.543598014861345" lon="30.629015034064651">
        <ele>1145.55</ele>
        <time>2025-09-28T08:26:05Z</time>
      </trkpt>
      <trkpt lat="-24.543797001242638" lon="30.628953007981181">
        <ele>1144.1099999999999</ele>
        <time>2025-09-28T08:26:06Z</time>
      </trkpt>
      <trkpt lat="-24.544570986181498" lon="30.628714961931109">
        <ele>1139.78</ele>
        <time>2025-09-28T08:26:09Z</time>
      </trkpt>
      <trkpt lat="-24.544744994491339" lon="30.628646984696388">
        <ele>1136.9000000000001</ele>
        <time>2025-09-28T08:26:11Z</time>
      </trkpt>
      <trkpt lat="-24.544911039993167" lon="30.628556963056326">
        <ele>1135.9400000000001</ele>
        <time>2025-09-28T08:26:12Z</time>
      </trkpt>
      <trkpt lat="-24.545052023604512" lon="30.628438023850322">
        <ele>1134.01</ele>
        <time>2025-09-28T08:26:13Z</time>
      </trkpt>
      <trkpt lat="-24.545185966417193" lon="30.628305003046989">
        <ele>1132.0899999999999</ele>
        <time>2025-09-28T08:26:14Z</time>
      </trkpt>
      <trkpt lat="-24.545297026634216" lon="30.628161001950502">
        <ele>1131.1300000000001</ele>
        <time>2025-09-28T08:26:15Z</time>
      </trkpt>
      <trkpt lat="-24.545402973890305" lon="30.627996968105435">
        <ele>1129.21</ele>
        <time>2025-09-28T08:26:16Z</time>
      </trkpt>
      <trkpt lat="-24.545494001358747" lon="30.627826983109117">
        <ele>1127.76</ele>
        <time>2025-09-28T08:26:17Z</time>
      </trkpt>
      <trkpt lat="-24.545582011342049" lon="30.627648029476404">
        <ele>1126.8</ele>
        <time>2025-09-28T08:26:18Z</time>
      </trkpt>
      <trkpt lat="-24.545620987191796" lon="30.627451976761222">
        <ele>1124.8800000000001</ele>
        <time>2025-09-28T08:26:19Z</time>
      </trkpt>
      <trkpt lat="-24.545660968869925" lon="30.62725299037993">
        <ele>1122.96</ele>
        <time>2025-09-28T08:26:20Z</time>
      </trkpt>
      <trkpt lat="-24.545678989961743" lon="30.627052998170257">
        <ele>1120.55</ele>
        <time>2025-09-28T08:26:21Z</time>
      </trkpt>
      <trkpt lat="-24.545683013275266" lon="30.626858035102487">
        <ele>1118.6300000000001</ele>
        <time>2025-09-28T08:26:22Z</time>
      </trkpt>
      <trkpt lat="-24.545654011890292" lon="30.626656031236053">
        <ele>1116.71</ele>
        <time>2025-09-28T08:26:23Z</time>
      </trkpt>
      <trkpt lat="-24.545601960271597" lon="30.62645603902638">
        <ele>1113.8199999999999</ele>
        <time>2025-09-28T08:26:24Z</time>
      </trkpt>
      <trkpt lat="-24.545540018007159" lon="30.626252023503184">
        <ele>1111.9000000000001</ele>
        <time>2025-09-28T08:26:25Z</time>
      </trkpt>
      <trkpt lat="-24.545464999973774" lon="30.626055970788002">
        <ele>1110.9400000000001</ele>
        <time>2025-09-28T08:26:26Z</time>
      </trkpt>
      <trkpt lat="-24.545361986383796" lon="30.625887997448444">
        <ele>1110.46</ele>
        <time>2025-09-28T08:26:27Z</time>
      </trkpt>
      <trkpt lat="-24.545256961137056" lon="30.625717006623745">
        <ele>1109.98</ele>
        <time>2025-09-28T08:26:28Z</time>
      </trkpt>
      <trkpt lat="-24.545121006667614" lon="30.625579040497541">
        <ele>1109.02</ele>
        <time>2025-09-28T08:26:29Z</time>
      </trkpt>
      <trkpt lat="-24.54498597420752" lon="30.625441996380687">
        <ele>1108.0599999999999</ele>
        <time>2025-09-28T08:26:30Z</time>
      </trkpt>
      <trkpt lat="-24.544562017545104" lon="30.625010998919606">
        <ele>1104.6900000000001</ele>
        <time>2025-09-28T08:26:33Z</time>
      </trkpt>
      <trkpt lat="-24.544136971235275" lon="30.624578995630145">
        <ele>1100.3699999999999</ele>
        <time>2025-09-28T08:26:36Z</time>
      </trkpt>
      <trkpt lat="-24.544001016765833" lon="30.624424014240503">
        <ele>1098.9200000000001</ele>
        <time>2025-09-28T08:26:37Z</time>
      </trkpt>
      <trkpt lat="-24.543906971812248" lon="30.624229973182082">
        <ele>1097.48</ele>
        <time>2025-09-28T08:26:38Z</time>
      </trkpt>
      <trkpt lat="-24.543716032058001" lon="30.623835017904639">
        <ele>1095.5599999999999</ele>
        <time>2025-09-28T08:26:39Z</time>
      </trkpt>
      <trkpt lat="-24.543632967397571" lon="30.623632008209825">
        <ele>1092.2</ele>
        <time>2025-09-28T08:26:41Z</time>
      </trkpt>
      <trkpt lat="-24.543392993509769" lon="30.623004036024213">
        <ele>1087.8699999999999</ele>
        <time>2025-09-28T08:26:44Z</time>
      </trkpt>
      <trkpt lat="-24.543148996308446" lon="30.622368017211556">
        <ele>1083.54</ele>
        <time>2025-09-28T08:26:47Z</time>
      </trkpt>
      <trkpt lat="-24.54298697412014" lon="30.621943976730108">
        <ele>1079.7</ele>
        <time>2025-09-28T08:26:49Z</time>
      </trkpt>
      <trkpt lat="-24.542869962751865" lon="30.621535023674369">
        <ele>1076.8099999999999</ele>
        <time>2025-09-28T08:26:51Z</time>
      </trkpt>
      <trkpt lat="-24.542845990508795" lon="30.621334025636315">
        <ele>1076.3299999999999</ele>
        <time>2025-09-28T08:26:52Z</time>
      </trkpt>
      <trkpt lat="-24.542815983295441" lon="30.620927000418305">
        <ele>1075.3699999999999</ele>
        <time>2025-09-28T08:26:53Z</time>
      </trkpt>
      <trkpt lat="-24.542869040742517" lon="30.62072197906673">
        <ele>1074.8900000000001</ele>
        <time>2025-09-28T08:26:54Z</time>
      </trkpt>
      <trkpt lat="-24.542869040742517" lon="30.62072197906673">
        <ele>1074.4100000000001</ele>
        <time>2025-09-28T08:26:55Z</time>
      </trkpt>
      <trkpt lat="-24.542923020198941" lon="30.620516035705805">
        <ele>1072.97</ele>
        <time>2025-09-28T08:26:56Z</time>
      </trkpt>
      <trkpt lat="-24.543004995211959" lon="30.620328029617667">
        <ele>1072.01</ele>
        <time>2025-09-28T08:26:57Z</time>
      </trkpt>
      <trkpt lat="-24.543116977438331" lon="30.620148992165923">
        <ele>1071.05</ele>
        <time>2025-09-28T08:26:58Z</time>
      </trkpt>
      <trkpt lat="-24.543251004070044" lon="30.619985964149237">
        <ele>1070.5699999999999</ele>
        <time>2025-09-28T08:26:59Z</time>
      </trkpt>
      <trkpt lat="-24.543424006551504" lon="30.619865013286471">
        <ele>1070.0799999999999</ele>
        <time>2025-09-28T08:27:00Z</time>
      </trkpt>
      <trkpt lat="-24.543612012639642" lon="30.619764011353254">
        <ele>1070.0799999999999</ele>
        <time>2025-09-28T08:27:01Z</time>
      </trkpt>
      <trkpt lat="-24.544046027585864" lon="30.619625961408019">
        <ele>1070.0799999999999</ele>
        <time>2025-09-28T08:27:02Z</time>
      </trkpt>
      <trkpt lat="-24.544046027585864" lon="30.619625961408019">
        <ele>1070.5699999999999</ele>
        <time>2025-09-28T08:27:03Z</time>
      </trkpt>
      <trkpt lat="-24.544268986210227" lon="30.619625961408019">
        <ele>1071.53</ele>
        <time>2025-09-28T08:27:04Z</time>
      </trkpt>
      <trkpt lat="-24.544485993683338" lon="30.619673989713192">
        <ele>1071.53</ele>
        <time>2025-09-28T08:27:05Z</time>
      </trkpt>
      <trkpt lat="-24.544696966186166" lon="30.6197530310601">
        <ele>1072.49</ele>
        <time>2025-09-28T08:27:06Z</time>
      </trkpt>
      <trkpt lat="-24.544897964224219" lon="30.619869958609343">
        <ele>1071.53</ele>
        <time>2025-09-28T08:27:07Z</time>
      </trkpt>
      <trkpt lat="-24.545077001675963" lon="30.620023012161255">
        <ele>1071.05</ele>
        <time>2025-09-28T08:27:08Z</time>
      </trkpt>
      <trkpt lat="-24.545227959752083" lon="30.620216969400644">
        <ele>1070.0799999999999</ele>
        <time>2025-09-28T08:27:09Z</time>
      </trkpt>
      <trkpt lat="-24.545373972505331" lon="30.620428025722504">
        <ele>1069.1199999999999</ele>
        <time>2025-09-28T08:27:10Z</time>
      </trkpt>
      <trkpt lat="-24.545656023547053" lon="30.620833961293101">
        <ele>1065.28</ele>
        <time>2025-09-28T08:27:12Z</time>
      </trkpt>
      <trkpt lat="-24.545943019911647" lon="30.621249033138156">
        <ele>1061.9100000000001</ele>
        <time>2025-09-28T08:27:14Z</time>
      </trkpt>
      <trkpt lat="-24.546220963820815" lon="30.621649017557502">
        <ele>1058.55</ele>
        <time>2025-09-28T08:27:16Z</time>
      </trkpt>
      <trkpt lat="-24.546493040397763" lon="30.622025029733777">
        <ele>1055.6700000000001</ele>
        <time>2025-09-28T08:27:18Z</time>
      </trkpt>
      <trkpt lat="-24.546783976256847" lon="30.62235401943326">
        <ele>1052.3</ele>
        <time>2025-09-28T08:27:20Z</time>
      </trkpt>
      <trkpt lat="-24.547116989269853" lon="30.622647972777486">
        <ele>1047.97</ele>
        <time>2025-09-28T08:27:22Z</time>
      </trkpt>
      <trkpt lat="-24.547493001446128" lon="30.622879983857274">
        <ele>1044.1300000000001</ele>
        <time>2025-09-28T08:27:24Z</time>
      </trkpt>
      <trkpt lat="-24.547916036099195" lon="30.623048963025212">
        <ele>1040.76</ele>
        <time>2025-09-28T08:27:26Z</time>
      </trkpt>
      <trkpt lat="-24.548135977238417" lon="30.623093973845243">
        <ele>1038.3599999999999</ele>
        <time>2025-09-28T08:27:27Z</time>
      </trkpt>
      <trkpt lat="-24.548354996368289" lon="30.623123981058598">
        <ele>1036.9200000000001</ele>
        <time>2025-09-28T08:27:28Z</time>
      </trkpt>
      <trkpt lat="-24.548589019104838" lon="30.623123981058598">
        <ele>1035</ele>
        <time>2025-09-28T08:27:29Z</time>
      </trkpt>
      <trkpt lat="-24.548820024356246" lon="30.623123981058598">
        <ele>1033.0699999999999</ele>
        <time>2025-09-28T08:27:30Z</time>
      </trkpt>
      <trkpt lat="-24.549041977152228" lon="30.623108977451921">
        <ele>1031.1500000000001</ele>
        <time>2025-09-28T08:27:31Z</time>
      </trkpt>
      <trkpt lat="-24.549266025424004" lon="30.623041000217199">
        <ele>1029.23</ele>
        <time>2025-09-28T08:27:32Z</time>
      </trkpt>
      <trkpt lat="-24.549726024270058" lon="30.622902028262615">
        <ele>1025.8599999999999</ele>
        <time>2025-09-28T08:27:34Z</time>
      </trkpt>
      <trkpt lat="-24.550176970660686" lon="30.622711004689336">
        <ele>1022.98</ele>
        <time>2025-09-28T08:27:36Z</time>
      </trkpt>
      <trkpt lat="-24.55085095949471" lon="30.622318983078003">
        <ele>1019.13</ele>
        <time>2025-09-28T08:27:39Z</time>
      </trkpt>
      <trkpt lat="-24.551264019683003" lon="30.622004996985197">
        <ele>1015.77</ele>
        <time>2025-09-28T08:27:41Z</time>
      </trkpt>
      <trkpt lat="-24.551669033244252" lon="30.621675001457334">
        <ele>1011.4400000000001</ele>
        <time>2025-09-28T08:27:43Z</time>
      </trkpt>
      <trkpt lat="-24.552050996571779" lon="30.62136503867805">
        <ele>1006.64</ele>
        <time>2025-09-28T08:27:45Z</time>
      </trkpt>
      <trkpt lat="-24.552414016798139" lon="30.621069995686412">
        <ele>1001.35</ele>
        <time>2025-09-28T08:27:47Z</time>
      </trkpt>
      <trkpt lat="-24.552608979865909" lon="30.620968993753195">
        <ele>998.47000000000003</ele>
        <time>2025-09-28T08:27:48Z</time>
      </trkpt>
      <trkpt lat="-24.552816012874246" lon="30.620873020961881">
        <ele>996.05999999999995</ele>
        <time>2025-09-28T08:27:49Z</time>
      </trkpt>
      <trkpt lat="-24.553022962063551" lon="30.620777970179915">
        <ele>993.17999999999995</ele>
        <time>2025-09-28T08:27:50Z</time>
      </trkpt>
      <trkpt lat="-24.55323401838541" lon="30.620681997388601">
        <ele>991.25999999999999</ele>
        <time>2025-09-28T08:27:51Z</time>
      </trkpt>
      <trkpt lat="-24.553456977009773" lon="30.620605973526835">
        <ele>988.37</ele>
        <time>2025-09-28T08:27:52Z</time>
      </trkpt>
      <trkpt lat="-24.553928039968014" lon="30.620522992685437">
        <ele>982.12</ele>
        <time>2025-09-28T08:27:54Z</time>
      </trkpt>
      <trkpt lat="-24.554161978885531" lon="30.620519975200295">
        <ele>979.24000000000001</ele>
        <time>2025-09-28T08:27:55Z</time>
      </trkpt>
      <trkpt lat="-24.554405976086855" lon="30.620551994070411">
        <ele>976.84000000000003</ele>
        <time>2025-09-28T08:27:56Z</time>
      </trkpt>
      <trkpt lat="-24.554636981338263" lon="30.620599016547203">
        <ele>974.42999999999995</ele>
        <time>2025-09-28T08:27:57Z</time>
      </trkpt>
      <trkpt lat="-24.554877039045095" lon="30.62067897990346">
        <ele>972.50999999999999</ele>
        <time>2025-09-28T08:27:58Z</time>
      </trkpt>
      <trkpt lat="-24.555117012932897" lon="30.620759027078748">
        <ele>970.59000000000003</ele>
        <time>2025-09-28T08:27:59Z</time>
      </trkpt>
      <trkpt lat="-24.555337959900498" lon="30.620861034840345">
        <ele>968.66999999999996</ele>
        <time>2025-09-28T08:28:00Z</time>
      </trkpt>
      <trkpt lat="-24.555760994553566" lon="30.621156999841332">
        <ele>966.74000000000001</ele>
        <time>2025-09-28T08:28:01Z</time>
      </trkpt>
      <trkpt lat="-24.555760994553566" lon="30.621156999841332">
        <ele>964.82000000000005</ele>
        <time>2025-09-28T08:28:02Z</time>
      </trkpt>
      <trkpt lat="-24.555967021733522" lon="30.621299995109439">
        <ele>963.86000000000001</ele>
        <time>2025-09-28T08:28:03Z</time>
      </trkpt>
      <trkpt lat="-24.556128960102797" lon="30.621489007025957">
        <ele>962.41999999999996</ele>
        <time>2025-09-28T08:28:04Z</time>
      </trkpt>
      <trkpt lat="-24.55628695897758" lon="30.621673995628953">
        <ele>960.98000000000002</ele>
        <time>2025-09-28T08:28:05Z</time>
      </trkpt>
      <trkpt lat="-24.556523999199271" lon="30.62207599170506">
        <ele>960.00999999999999</ele>
        <time>2025-09-28T08:28:06Z</time>
      </trkpt>
      <trkpt lat="-24.556523999199271" lon="30.62207599170506">
        <ele>959.04999999999995</ele>
        <time>2025-09-28T08:28:07Z</time>
      </trkpt>
      <trkpt lat="-24.556633969768882" lon="30.622284030541778">
        <ele>958.09000000000003</ele>
        <time>2025-09-28T08:28:08Z</time>
      </trkpt>
      <trkpt lat="-24.556900011375546" lon="30.622901022434235">
        <ele>954.73000000000002</ele>
        <time>2025-09-28T08:28:11Z</time>
      </trkpt>
      <trkpt lat="-24.557216009125113" lon="30.623709037899971">
        <ele>951.36000000000001</ele>
        <time>2025-09-28T08:28:15Z</time>
      </trkpt>
      <trkpt lat="-24.557410972192883" lon="30.624108016490936">
        <ele>948.48000000000002</ele>
        <time>2025-09-28T08:28:17Z</time>
      </trkpt>
      <trkpt lat="-24.557796958833933" lon="30.62467304058373">
        <ele>945.11000000000001</ele>
        <time>2025-09-28T08:28:20Z</time>
      </trkpt>
      <trkpt lat="-24.558202978223562" lon="30.625266982242465">
        <ele>941.75</ele>
        <time>2025-09-28T08:28:23Z</time>
      </trkpt>
      <trkpt lat="-24.558620983734727" lon="30.625879028812051">
        <ele>937.89999999999998</ele>
        <time>2025-09-28T08:28:26Z</time>
      </trkpt>
      <trkpt lat="-24.559045024216175" lon="30.626498032361269">
        <ele>934.53999999999996</ele>
        <time>2025-09-28T08:28:29Z</time>
      </trkpt>
      <trkpt lat="-24.559751031920314" lon="30.627466980367899">
        <ele>931.64999999999998</ele>
        <time>2025-09-28T08:28:34Z</time>
      </trkpt>
      <trkpt lat="-24.561083000153303" lon="30.628560986369848">
        <ele>929.25</ele>
        <time>2025-09-28T08:28:42Z</time>
      </trkpt>
      <trkpt lat="-24.562078015878797" lon="30.62946698628366">
        <ele>925.88999999999999</ele>
        <time>2025-09-28T08:28:48Z</time>
      </trkpt>
      <trkpt lat="-24.562450004741549" lon="30.630037961527705">
        <ele>925.40999999999997</ele>
        <time>2025-09-28T08:28:50Z</time>
      </trkpt>
      <trkpt lat="-24.562985021620989" lon="30.631075976416469">
        <ele>921.55999999999995</ele>
        <time>2025-09-28T08:28:56Z</time>
      </trkpt>
      <trkpt lat="-24.56343999132514" lon="30.631860019639134">
        <ele>918.20000000000005</ele>
        <time>2025-09-28T08:29:00Z</time>
      </trkpt>
      <trkpt lat="-24.564307015389204" lon="30.632640961557627">
        <ele>915.78999999999996</ele>
        <time>2025-09-28T08:29:06Z</time>
      </trkpt>
      <trkpt lat="-24.565366990864277" lon="30.632972968742251">
        <ele>913.38999999999999</ele>
        <time>2025-09-28T08:29:12Z</time>
      </trkpt>
      <trkpt lat="-24.565573018044233" lon="30.632972968742251">
        <ele>913.38999999999999</ele>
        <time>2025-09-28T08:29:13Z</time>
      </trkpt>
      <trkpt lat="-24.565784996375442" lon="30.63294698484242">
        <ele>913.38999999999999</ele>
        <time>2025-09-28T08:29:14Z</time>
      </trkpt>
      <trkpt lat="-24.565998986363411" lon="30.632908008992672">
        <ele>914.35000000000002</ele>
        <time>2025-09-28T08:29:15Z</time>
      </trkpt>
      <trkpt lat="-24.56713498570025" lon="30.63262403011322">
        <ele>918.20000000000005</ele>
        <time>2025-09-28T08:29:20Z</time>
      </trkpt>
      <trkpt lat="-24.569060979411006" lon="30.631817020475864">
        <ele>920.12</ele>
        <time>2025-09-28T08:29:28Z</time>
      </trkpt>
    </trkseg>
  </trk>

</gpx>