<?xml version="1.0" encoding="utf-8"?><gpx creator="Garmin Desktop App" version="1.1" xsi:schemaLocation="http://www.topografix.com/GPX/1/1 http://www.topografix.com/GPX/1/1/gpx.xsd http://www.garmin.com/xmlschemas/WaypointExtension/v1 http://www8.garmin.com/xmlschemas/WaypointExtensionv1.xsd http://www.garmin.com/xmlschemas/TrackPointExtension/v1 http://www.garmin.com/xmlschemas/TrackPointExtensionv1.xsd http://www.garmin.com/xmlschemas/GpxExtensions/v3 http://www8.garmin.com/xmlschemas/GpxExtensionsv3.xsd http://www.garmin.com/xmlschemas/ActivityExtension/v1 http://www8.garmin.com/xmlschemas/ActivityExtensionv1.xsd http://www.garmin.com/xmlschemas/AdventuresExtensions/v1 http://www8.garmin.com/xmlschemas/AdventuresExtensionv1.xsd http://www.garmin.com/xmlschemas/PressureExtension/v1 http://www.garmin.com/xmlschemas/PressureExtensionv1.xsd http://www.garmin.com/xmlschemas/TripExtensions/v1 http://www.garmin.com/xmlschemas/TripExtensionsv1.xsd http://www.garmin.com/xmlschemas/TripMetaDataExtensions/v1 http://www.garmin.com/xmlschemas/TripMetaDataExtensionsv1.xsd http://www.garmin.com/xmlschemas/ViaPointTransportationModeExtensions/v1 http://www.garmin.com/xmlschemas/ViaPointTransportationModeExtensionsv1.xsd http://www.garmin.com/xmlschemas/CreationTimeExtension/v1 http://www.garmin.com/xmlschemas/CreationTimeExtensionsv1.xsd http://www.garmin.com/xmlschemas/AccelerationExtension/v1 http://www.garmin.com/xmlschemas/AccelerationExtensionv1.xsd http://www.garmin.com/xmlschemas/PowerExtension/v1 http://www.garmin.com/xmlschemas/PowerExtensionv1.xsd http://www.garmin.com/xmlschemas/VideoExtension/v1 http://www.garmin.com/xmlschemas/VideoExtensionv1.xsd" xmlns="http://www.topografix.com/GPX/1/1" xmlns:xsi="http://www.w3.org/2001/XMLSchema-instance" xmlns:wptx1="http://www.garmin.com/xmlschemas/WaypointExtension/v1" xmlns:gpxtrx="http://www.garmin.com/xmlschemas/GpxExtensions/v3" xmlns:gpxtpx="http://www.garmin.com/xmlschemas/TrackPointExtension/v1" xmlns:gpxx="http://www.garmin.com/xmlschemas/GpxExtensions/v3" xmlns:trp="http://www.garmin.com/xmlschemas/TripExtensions/v1" xmlns:adv="http://www.garmin.com/xmlschemas/AdventuresExtensions/v1" xmlns:prs="http://www.garmin.com/xmlschemas/PressureExtension/v1" xmlns:tmd="http://www.garmin.com/xmlschemas/TripMetaDataExtensions/v1" xmlns:vptm="http://www.garmin.com/xmlschemas/ViaPointTransportationModeExtensions/v1" xmlns:ctx="http://www.garmin.com/xmlschemas/CreationTimeExtension/v1" xmlns:gpxacc="http://www.garmin.com/xmlschemas/AccelerationExtension/v1" xmlns:gpxpx="http://www.garmin.com/xmlschemas/PowerExtension/v1" xmlns:vidx1="http://www.garmin.com/xmlschemas/VideoExtension/v1">

  <metadata>
    <link href="http://www.garmin.com">
      <text>Garmin International</text>
    </link>
    <time>2026-06-29T12:40:26Z</time>
    <bounds maxlat="-23.84666757658124" maxlon="27.660419857129455" minlat="-23.911869982257485" minlon="27.622677236795425" />
  </metadata>

  <trk>
    <name>[423] Olieboomspoort - 2026-04-28</name>
    <extensions>
      <gpxx:TrackExtension>
        <gpxx:DisplayColor>Green</gpxx:DisplayColor>
      </gpxx:TrackExtension>
    </extensions>
    <trkseg>
      <trkpt lat="-23.911869982257485" lon="27.629384770989418">
        <ele>968.17999999999995</ele>
        <time>2026-04-28T07:18:42Z</time>
      </trkpt>
      <trkpt lat="-23.910798188298941" lon="27.628283053636551">
        <ele>965.77999999999997</ele>
        <time>2026-04-28T07:18:47Z</time>
      </trkpt>
      <trkpt lat="-23.90973636880517" lon="27.627185359597206">
        <ele>964.82000000000005</ele>
        <time>2026-04-28T07:18:52Z</time>
      </trkpt>
      <trkpt lat="-23.908691816031933" lon="27.626114236190915">
        <ele>963.86000000000001</ele>
        <time>2026-04-28T07:18:57Z</time>
      </trkpt>
      <trkpt lat="-23.907741727307439" lon="27.625131877139211">
        <ele>963.38</ele>
        <time>2026-04-28T07:19:02Z</time>
      </trkpt>
      <trkpt lat="-23.906859448179603" lon="27.624218836426735">
        <ele>964.34000000000003</ele>
        <time>2026-04-28T07:19:07Z</time>
      </trkpt>
      <trkpt lat="-23.905938947573304" lon="27.623378802090883">
        <ele>967.70000000000005</ele>
        <time>2026-04-28T07:19:12Z</time>
      </trkpt>
      <trkpt lat="-23.904824825003743" lon="27.622842947021127">
        <ele>972.02999999999997</ele>
        <time>2026-04-28T07:19:17Z</time>
      </trkpt>
      <trkpt lat="-23.903575502336025" lon="27.622677236795425">
        <ele>976.36000000000001</ele>
        <time>2026-04-28T07:19:22Z</time>
      </trkpt>
      <trkpt lat="-23.902361383661628" lon="27.622899943962693">
        <ele>980.67999999999995</ele>
        <time>2026-04-28T07:19:27Z</time>
      </trkpt>
      <trkpt lat="-23.901134859770536" lon="27.623238740488887">
        <ele>985.00999999999999</ele>
        <time>2026-04-28T07:19:32Z</time>
      </trkpt>
      <trkpt lat="-23.899907330051064" lon="27.623576447367668">
        <ele>990.29999999999995</ele>
        <time>2026-04-28T07:19:37Z</time>
      </trkpt>
      <trkpt lat="-23.898682650178671" lon="27.62391566298902">
        <ele>995.58000000000004</ele>
        <time>2026-04-28T07:19:42Z</time>
      </trkpt>
      <trkpt lat="-23.897449672222137" lon="27.624252866953611">
        <ele>1000.39</ele>
        <time>2026-04-28T07:19:47Z</time>
      </trkpt>
      <trkpt lat="-23.896207306534052" lon="27.624636590480804">
        <ele>1004.72</ele>
        <time>2026-04-28T07:19:52Z</time>
      </trkpt>
      <trkpt lat="-23.894981453195214" lon="27.625118549913168">
        <ele>1008.5599999999999</ele>
        <time>2026-04-28T07:19:57Z</time>
      </trkpt>
      <trkpt lat="-23.893728107213974" lon="27.625635545700788">
        <ele>1010.96</ele>
        <time>2026-04-28T07:20:02Z</time>
      </trkpt>
      <trkpt lat="-23.892429163679481" lon="27.626178190112114">
        <ele>1011.4400000000001</ele>
        <time>2026-04-28T07:20:07Z</time>
      </trkpt>
      <trkpt lat="-23.89103265479207" lon="27.626752182841301">
        <ele>1008.5599999999999</ele>
        <time>2026-04-28T07:20:12Z</time>
      </trkpt>
      <trkpt lat="-23.889551153406501" lon="27.627365654334426">
        <ele>1003.75</ele>
        <time>2026-04-28T07:20:17Z</time>
      </trkpt>
      <trkpt lat="-23.888037381693721" lon="27.627999577671289">
        <ele>998.95000000000005</ele>
        <time>2026-04-28T07:20:22Z</time>
      </trkpt>
      <trkpt lat="-23.886450184509158" lon="27.628655545413494">
        <ele>994.13999999999999</ele>
        <time>2026-04-28T07:20:27Z</time>
      </trkpt>
      <trkpt lat="-23.884865837171674" lon="27.629308914765716">
        <ele>988.37</ele>
        <time>2026-04-28T07:20:32Z</time>
      </trkpt>
      <trkpt lat="-23.883340079337358" lon="27.629939233884215">
        <ele>982.12</ele>
        <time>2026-04-28T07:20:37Z</time>
      </trkpt>
      <trkpt lat="-23.881949856877327" lon="27.630515154451132">
        <ele>975.88</ele>
        <time>2026-04-28T07:20:42Z</time>
      </trkpt>
      <trkpt lat="-23.880451340228319" lon="27.631133235991001">
        <ele>970.59000000000003</ele>
        <time>2026-04-28T07:20:47Z</time>
      </trkpt>
      <trkpt lat="-23.879015687853098" lon="27.631727764382958">
        <ele>965.77999999999997</ele>
        <time>2026-04-28T07:20:52Z</time>
      </trkpt>
      <trkpt lat="-23.877481631934643" lon="27.632353221997619">
        <ele>957.61000000000001</ele>
        <time>2026-04-28T07:20:57Z</time>
      </trkpt>
      <trkpt lat="-23.876167852431536" lon="27.632995443418622">
        <ele>950.88</ele>
        <time>2026-04-28T07:21:02Z</time>
      </trkpt>
      <trkpt lat="-23.875143583863974" lon="27.634090455248952">
        <ele>947.03999999999996</ele>
        <time>2026-04-28T07:21:07Z</time>
      </trkpt>
      <trkpt lat="-23.874601358547807" lon="27.635413119569421">
        <ele>944.63</ele>
        <time>2026-04-28T07:21:12Z</time>
      </trkpt>
      <trkpt lat="-23.874537320807576" lon="27.636953797191381">
        <ele>942.71000000000004</ele>
        <time>2026-04-28T07:21:17Z</time>
      </trkpt>
      <trkpt lat="-23.874911908060312" lon="27.638345444574952">
        <ele>940.30999999999995</ele>
        <time>2026-04-28T07:21:22Z</time>
      </trkpt>
      <trkpt lat="-23.875410882756114" lon="27.639867849647999">
        <ele>936.46000000000004</ele>
        <time>2026-04-28T07:21:27Z</time>
      </trkpt>
      <trkpt lat="-23.875886220484972" lon="27.641324121505022">
        <ele>931.64999999999998</ele>
        <time>2026-04-28T07:21:32Z</time>
      </trkpt>
      <trkpt lat="-23.876364743337035" lon="27.642781063914299">
        <ele>925.40999999999997</ele>
        <time>2026-04-28T07:21:37Z</time>
      </trkpt>
      <trkpt lat="-23.876705216243863" lon="27.644005827605724">
        <ele>921.08000000000004</ele>
        <time>2026-04-28T07:21:42Z</time>
      </trkpt>
      <trkpt lat="-23.876595580950379" lon="27.645351458340883">
        <ele>916.26999999999998</ele>
        <time>2026-04-28T07:21:47Z</time>
      </trkpt>
      <trkpt lat="-23.875955622643232" lon="27.646513106301427">
        <ele>912.42999999999995</ele>
        <time>2026-04-28T07:21:52Z</time>
      </trkpt>
      <trkpt lat="-23.874893803149462" lon="27.647473085671663">
        <ele>908.58000000000004</ele>
        <time>2026-04-28T07:21:57Z</time>
      </trkpt>
      <trkpt lat="-23.873925106599927" lon="27.648363243788481">
        <ele>906.17999999999995</ele>
        <time>2026-04-28T07:22:02Z</time>
      </trkpt>
      <trkpt lat="-23.873412050306797" lon="27.649465631693602">
        <ele>905.70000000000005</ele>
        <time>2026-04-28T07:22:07Z</time>
      </trkpt>
      <trkpt lat="-23.873201496899128" lon="27.650669775903225">
        <ele>906.65999999999997</ele>
        <time>2026-04-28T07:22:12Z</time>
      </trkpt>
      <trkpt lat="-23.872650051489472" lon="27.651635119691491">
        <ele>905.70000000000005</ele>
        <time>2026-04-28T07:22:17Z</time>
      </trkpt>
      <trkpt lat="-23.871625615283847" lon="27.652246076613665">
        <ele>901.85000000000002</ele>
        <time>2026-04-28T07:22:22Z</time>
      </trkpt>
      <trkpt lat="-23.870468912646174" lon="27.652836162596941">
        <ele>897.52999999999997</ele>
        <time>2026-04-28T07:22:27Z</time>
      </trkpt>
      <trkpt lat="-23.869233084842563" lon="27.653242349624634">
        <ele>896.57000000000005</ele>
        <time>2026-04-28T07:22:32Z</time>
      </trkpt>
      <trkpt lat="-23.867932381108403" lon="27.653204631060362">
        <ele>897.04999999999995</ele>
        <time>2026-04-28T07:22:37Z</time>
      </trkpt>
      <trkpt lat="-23.866654224693775" lon="27.652858374640346">
        <ele>894.63999999999999</ele>
        <time>2026-04-28T07:22:42Z</time>
      </trkpt>
      <trkpt lat="-23.865423426032066" lon="27.652512453496456">
        <ele>890.32000000000005</ele>
        <time>2026-04-28T07:22:47Z</time>
      </trkpt>
      <trkpt lat="-23.864319445565343" lon="27.652440369129181">
        <ele>886.95000000000005</ele>
        <time>2026-04-28T07:22:52Z</time>
      </trkpt>
      <trkpt lat="-23.863315209746361" lon="27.653036741539836">
        <ele>884.07000000000005</ele>
        <time>2026-04-28T07:22:57Z</time>
      </trkpt>
      <trkpt lat="-23.862362774088979" lon="27.653964031487703">
        <ele>882.14999999999998</ele>
        <time>2026-04-28T07:23:02Z</time>
      </trkpt>
      <trkpt lat="-23.861403297632933" lon="27.654935661703348">
        <ele>880.22000000000003</ele>
        <time>2026-04-28T07:23:07Z</time>
      </trkpt>
      <trkpt lat="-23.86070491746068" lon="27.656009467318654">
        <ele>878.77999999999997</ele>
        <time>2026-04-28T07:23:12Z</time>
      </trkpt>
      <trkpt lat="-23.860269729048014" lon="27.657169019803405">
        <ele>878.29999999999995</ele>
        <time>2026-04-28T07:23:17Z</time>
      </trkpt>
      <trkpt lat="-23.860122878104448" lon="27.658356484025717">
        <ele>876.86000000000001</ele>
        <time>2026-04-28T07:23:22Z</time>
      </trkpt>
      <trkpt lat="-23.860059091821313" lon="27.659446382895112">
        <ele>874.94000000000005</ele>
        <time>2026-04-28T07:23:27Z</time>
      </trkpt>
      <trkpt lat="-23.859510244801641" lon="27.6602534763515">
        <ele>873.98000000000002</ele>
        <time>2026-04-28T07:23:32Z</time>
      </trkpt>
      <trkpt lat="-23.85846845805645" lon="27.660371493548155">
        <ele>873.5</ele>
        <time>2026-04-28T07:23:37Z</time>
      </trkpt>
      <trkpt lat="-23.857265403494239" lon="27.660312401130795">
        <ele>872.04999999999995</ele>
        <time>2026-04-28T07:23:42Z</time>
      </trkpt>
      <trkpt lat="-23.855927987024188" lon="27.660249955952168">
        <ele>870.13</ele>
        <time>2026-04-28T07:23:47Z</time>
      </trkpt>
      <trkpt lat="-23.854484790936112" lon="27.660178709775209">
        <ele>867.73000000000002</ele>
        <time>2026-04-28T07:23:52Z</time>
      </trkpt>
      <trkpt lat="-23.852970013394952" lon="27.660133698955178">
        <ele>865.79999999999995</ele>
        <time>2026-04-28T07:23:57Z</time>
      </trkpt>
      <trkpt lat="-23.851427407935262" lon="27.660165466368198">
        <ele>864.84000000000003</ele>
        <time>2026-04-28T07:24:02Z</time>
      </trkpt>
      <trkpt lat="-23.849874744191766" lon="27.660244591534138">
        <ele>864.36000000000001</ele>
        <time>2026-04-28T07:24:07Z</time>
      </trkpt>
      <trkpt lat="-23.848268017172813" lon="27.660326985642314">
        <ele>863.88</ele>
        <time>2026-04-28T07:24:12Z</time>
      </trkpt>
      <trkpt lat="-23.84666757658124" lon="27.660419857129455">
        <ele>864.84000000000003</ele>
        <time>2026-04-28T07:24:17Z</time>
      </trkpt>
    </trkseg>
  </trk>

</gpx>