<?xml version="1.0" encoding="utf-8"?><kml xmlns="http://www.opengis.net/kml/2.2" xmlns:xsi="http://www.w3.org/2001/XMLSchema-instance" xmlns:kmlx="http://www.google.com/kml/ext/2.2" xmlns:atom="http://www.w3.org/2005/Atom" xmlns:gpxx="http://www.garmin.com/xmlschemas/GpxExtensions/v3"><Document><Style id="point"><IconStyle><scale>0.9</scale><Icon><href>http://maps.google.com/mapfiles/kml/shapes/placemark_circle.png</href></Icon></IconStyle></Style><Folder><name>Tracks</name><Folder><name>[117] Goukou Pass</name><Folder><name>Points</name><Style><ListStyle><listItemType>checkHideChildren</listItemType></ListStyle></Style><Placemark><TimeSpan><begin>2020-02-25T06:06:41Z</begin><end>2020-02-25T06:06:41Z</end></TimeSpan><Style><IconStyle><scale>0.9</scale><Icon><href>http://connect.garmin.com/image/main/icons/kml/grn-play.png</href></Icon></IconStyle></Style><Point><altitudeMode>clampToGround</altitudeMode><coordinates>21.297428989782929,-34.150902992114425,150.58000000000001</coordinates></Point></Placemark><Placemark><TimeSpan><begin>2020-02-25T06:06:41Z</begin><end>2020-02-25T06:06:56Z</end></TimeSpan><styleUrl>#point</styleUrl><Point><altitudeMode>clampToGround</altitudeMode><coordinates>21.292472016066313,-34.148540971800685,130.40000000000001</coordinates></Point></Placemark><Placemark><TimeSpan><begin>2020-02-25T06:06:56Z</begin><end>2020-02-25T06:07:09Z</end></TimeSpan><styleUrl>#point</styleUrl><Point><altitudeMode>clampToGround</altitudeMode><coordinates>21.288377037271857,-34.14655496366322,113.56999999999999</coordinates></Point></Placemark><Placemark><TimeSpan><begin>2020-02-25T06:07:09Z</begin><end>2020-02-25T06:07:15Z</end></TimeSpan><styleUrl>#point</styleUrl><Point><altitudeMode>clampToGround</altitudeMode><coordinates>21.28662496805191,-34.145983988419175,108.29000000000001</coordinates></Point></Placemark><Placemark><TimeSpan><begin>2020-02-25T06:07:15Z</begin><end>2020-02-25T06:07:16Z</end></TimeSpan><styleUrl>#point</styleUrl><Point><altitudeMode>clampToGround</altitudeMode><coordinates>21.286306036636233,-34.145965967327356,106.36</coordinates></Point></Placemark><Placemark><TimeSpan><begin>2020-02-25T06:07:16Z</begin><end>2020-02-25T06:07:17Z</end></TimeSpan><styleUrl>#point</styleUrl><Point><altitudeMode>clampToGround</altitudeMode><coordinates>21.285988027229905,-34.145968984812498,104.44</coordinates></Point></Placemark><Placemark><TimeSpan><begin>2020-02-25T06:07:17Z</begin><end>2020-02-25T06:07:18Z</end></TimeSpan><styleUrl>#point</styleUrl><Point><altitudeMode>clampToGround</altitudeMode><coordinates>21.285669011995196,-34.145996980369091,103.48</coordinates></Point></Placemark><Placemark><TimeSpan><begin>2020-02-25T06:07:18Z</begin><end>2020-02-25T06:07:19Z</end></TimeSpan><styleUrl>#point</styleUrl><Point><altitudeMode>clampToGround</altitudeMode><coordinates>21.285349996760488,-34.146049031987786,102.04000000000001</coordinates></Point></Placemark><Placemark><TimeSpan><begin>2020-02-25T06:07:19Z</begin><end>2020-02-25T06:07:20Z</end></TimeSpan><styleUrl>#point</styleUrl><Point><altitudeMode>clampToGround</altitudeMode><coordinates>21.285028969869018,-34.14612396620214,99.629999999999995</coordinates></Point></Placemark><Placemark><TimeSpan><begin>2020-02-25T06:07:20Z</begin><end>2020-02-25T06:07:21Z</end></TimeSpan><styleUrl>#point</styleUrl><Point><altitudeMode>clampToGround</altitudeMode><coordinates>21.284718001261353,-34.146222034469247,99.629999999999995</coordinates></Point></Placemark><Placemark><TimeSpan><begin>2020-02-25T06:07:21Z</begin><end>2020-02-25T06:07:22Z</end></TimeSpan><styleUrl>#point</styleUrl><Point><altitudeMode>clampToGround</altitudeMode><coordinates>21.284404015168548,-34.14633896201849,98.670000000000002</coordinates></Point></Placemark><Placemark><TimeSpan><begin>2020-02-25T06:07:22Z</begin><end>2020-02-25T06:07:23Z</end></TimeSpan><styleUrl>#point</styleUrl><Point><altitudeMode>clampToGround</altitudeMode><coordinates>21.284096986055374,-34.146467037498951,97.230000000000004</coordinates></Point></Placemark><Placemark><TimeSpan><begin>2020-02-25T06:07:23Z</begin><end>2020-02-25T06:07:27Z</end></TimeSpan><styleUrl>#point</styleUrl><Point><altitudeMode>clampToGround</altitudeMode><coordinates>21.282914970070124,-34.146889988332987,93.390000000000001</coordinates></Point></Placemark><Placemark><TimeSpan><begin>2020-02-25T06:07:27Z</begin><end>2020-02-25T06:07:28Z</end></TimeSpan><styleUrl>#point</styleUrl><Point><altitudeMode>clampToGround</altitudeMode><coordinates>21.282615987583995,-34.146941034123302,89.540000000000006</coordinates></Point></Placemark><Placemark><TimeSpan><begin>2020-02-25T06:07:28Z</begin><end>2020-02-25T06:07:29Z</end></TimeSpan><styleUrl>#point</styleUrl><Point><altitudeMode>clampToGround</altitudeMode><coordinates>21.282309964299202,-34.146965006366372,89.060000000000002</coordinates></Point></Placemark><Placemark><TimeSpan><begin>2020-02-25T06:07:29Z</begin><end>2020-02-25T06:07:30Z</end></TimeSpan><styleUrl>#point</styleUrl><Point><altitudeMode>clampToGround</altitudeMode><coordinates>21.282006036490202,-34.146968023851514,87.140000000000001</coordinates></Point></Placemark><Placemark><TimeSpan><begin>2020-02-25T06:07:30Z</begin><end>2020-02-25T06:07:31Z</end></TimeSpan><styleUrl>#point</styleUrl><Point><altitudeMode>clampToGround</altitudeMode><coordinates>21.28170495852828,-34.146946985274553,85.209999999999994</coordinates></Point></Placemark><Placemark><TimeSpan><begin>2020-02-25T06:07:31Z</begin><end>2020-02-25T06:07:32Z</end></TimeSpan><styleUrl>#point</styleUrl><Point><altitudeMode>clampToGround</altitudeMode><coordinates>21.281411005184054,-34.146898034960032,84.25</coordinates></Point></Placemark><Placemark><TimeSpan><begin>2020-02-25T06:07:32Z</begin><end>2020-02-25T06:07:33Z</end></TimeSpan><styleUrl>#point</styleUrl><Point><altitudeMode>clampToGround</altitudeMode><coordinates>21.281127026304603,-34.146821005269885,83.290000000000006</coordinates></Point></Placemark><Placemark><TimeSpan><begin>2020-02-25T06:07:33Z</begin><end>2020-02-25T06:07:34Z</end></TimeSpan><styleUrl>#point</styleUrl><Point><altitudeMode>clampToGround</altitudeMode><coordinates>21.280859978869557,-34.146717991679907,82.329999999999998</coordinates></Point></Placemark><Placemark><TimeSpan><begin>2020-02-25T06:07:34Z</begin><end>2020-02-25T06:07:35Z</end></TimeSpan><styleUrl>#point</styleUrl><Point><altitudeMode>clampToGround</altitudeMode><coordinates>21.280598966404796,-34.146578013896942,83.290000000000006</coordinates></Point></Placemark><Placemark><TimeSpan><begin>2020-02-25T06:07:35Z</begin><end>2020-02-25T06:07:36Z</end></TimeSpan><styleUrl>#point</styleUrl><Point><altitudeMode>clampToGround</altitudeMode><coordinates>21.280361004173756,-34.146437030285597,82.810000000000002</coordinates></Point></Placemark><Placemark><TimeSpan><begin>2020-02-25T06:07:36Z</begin><end>2020-02-25T06:07:37Z</end></TimeSpan><styleUrl>#point</styleUrl><Point><altitudeMode>clampToGround</altitudeMode><coordinates>21.280139973387122,-34.146277019754052,82.329999999999998</coordinates></Point></Placemark><Placemark><TimeSpan><begin>2020-02-25T06:07:37Z</begin><end>2020-02-25T06:07:38Z</end></TimeSpan><styleUrl>#point</styleUrl><Point><altitudeMode>clampToGround</altitudeMode><coordinates>21.279935035854578,-34.146095970645547,82.810000000000002</coordinates></Point></Placemark><Placemark><TimeSpan><begin>2020-02-25T06:07:38Z</begin><end>2020-02-25T06:07:39Z</end></TimeSpan><styleUrl>#point</styleUrl><Point><altitudeMode>clampToGround</altitudeMode><coordinates>21.279751975089312,-34.145898995921016,83.290000000000006</coordinates></Point></Placemark><Placemark><TimeSpan><begin>2020-02-25T06:07:39Z</begin><end>2020-02-25T06:07:40Z</end></TimeSpan><styleUrl>#point</styleUrl><Point><altitudeMode>clampToGround</altitudeMode><coordinates>21.279605040326715,-34.145696992054582,83.769999999999996</coordinates></Point></Placemark><Placemark><TimeSpan><begin>2020-02-25T06:07:40Z</begin><end>2020-02-25T06:07:41Z</end></TimeSpan><styleUrl>#point</styleUrl><Point><altitudeMode>clampToGround</altitudeMode><coordinates>21.279474031180143,-34.145470010116696,85.209999999999994</coordinates></Point></Placemark><Placemark><TimeSpan><begin>2020-02-25T06:07:41Z</begin><end>2020-02-25T06:07:42Z</end></TimeSpan><styleUrl>#point</styleUrl><Point><altitudeMode>clampToGround</altitudeMode><coordinates>21.27936297096312,-34.145229030400515,85.209999999999994</coordinates></Point></Placemark><Placemark><TimeSpan><begin>2020-02-25T06:07:42Z</begin><end>2020-02-25T06:07:43Z</end></TimeSpan><styleUrl>#point</styleUrl><Point><altitudeMode>clampToGround</altitudeMode><coordinates>21.279286025092006,-34.144985033199191,85.209999999999994</coordinates></Point></Placemark><Placemark><TimeSpan><begin>2020-02-25T06:07:43Z</begin><end>2020-02-25T06:07:44Z</end></TimeSpan><styleUrl>#point</styleUrl><Point><altitudeMode>clampToGround</altitudeMode><coordinates>21.279236990958452,-34.144714968279004,85.209999999999994</coordinates></Point></Placemark><Placemark><TimeSpan><begin>2020-02-25T06:07:44Z</begin><end>2020-02-25T06:07:45Z</end></TimeSpan><styleUrl>#point</styleUrl><Point><altitudeMode>clampToGround</altitudeMode><coordinates>21.279225004836917,-34.144429983571172,85.689999999999998</coordinates></Point></Placemark><Placemark><TimeSpan><begin>2020-02-25T06:07:45Z</begin><end>2020-02-25T06:07:46Z</end></TimeSpan><styleUrl>#point</styleUrl><Point><altitudeMode>clampToGround</altitudeMode><coordinates>21.279222993180156,-34.144138963893056,86.180000000000007</coordinates></Point></Placemark><Placemark><TimeSpan><begin>2020-02-25T06:07:46Z</begin><end>2020-02-25T06:07:55Z</end></TimeSpan><styleUrl>#point</styleUrl><Point><altitudeMode>clampToGround</altitudeMode><coordinates>21.279130959883332,-34.141386011615396,92.420000000000002</coordinates></Point></Placemark><Placemark><TimeSpan><begin>2020-02-25T06:07:55Z</begin><end>2020-02-25T06:08:03Z</end></TimeSpan><styleUrl>#point</styleUrl><Point><altitudeMode>clampToGround</altitudeMode><coordinates>21.278434004634619,-34.13914100266993,93.870000000000005</coordinates></Point></Placemark><Placemark><TimeSpan><begin>2020-02-25T06:08:03Z</begin><end>2020-02-25T06:08:21Z</end></TimeSpan><styleUrl>#point</styleUrl><Point><altitudeMode>clampToGround</altitudeMode><coordinates>21.276428969576955,-34.134182017296553,79.450000000000003</coordinates></Point></Placemark><Placemark><TimeSpan><begin>2020-02-25T06:08:21Z</begin><end>2020-02-25T06:08:28Z</end></TimeSpan><styleUrl>#point</styleUrl><Point><altitudeMode>clampToGround</altitudeMode><coordinates>21.27517101354897,-34.132507983595133,78</coordinates></Point></Placemark><Placemark><TimeSpan><begin>2020-02-25T06:08:28Z</begin><end>2020-02-25T06:08:38Z</end></TimeSpan><styleUrl>#point</styleUrl><Point><altitudeMode>clampToGround</altitudeMode><coordinates>21.273244014009833,-34.130476964637637,90.019999999999996</coordinates></Point></Placemark><Placemark><TimeSpan><begin>2020-02-25T06:08:38Z</begin><end>2020-02-25T06:08:41Z</end></TimeSpan><styleUrl>#point</styleUrl><Point><altitudeMode>clampToGround</altitudeMode><coordinates>21.27240196801722,-34.130107993260026,96.269999999999996</coordinates></Point></Placemark><Placemark><TimeSpan><begin>2020-02-25T06:08:41Z</begin><end>2020-02-25T06:08:42Z</end></TimeSpan><styleUrl>#point</styleUrl><Point><altitudeMode>clampToGround</altitudeMode><coordinates>21.272089993581176,-34.130023000761867,98.189999999999998</coordinates></Point></Placemark><Placemark><TimeSpan><begin>2020-02-25T06:08:42Z</begin><end>2020-02-25T06:08:43Z</end></TimeSpan><styleUrl>#point</styleUrl><Point><altitudeMode>clampToGround</altitudeMode><coordinates>21.271758992224932,-34.129961980506778,100.11</coordinates></Point></Placemark><Placemark><TimeSpan><begin>2020-02-25T06:08:43Z</begin><end>2020-02-25T06:08:53Z</end></TimeSpan><styleUrl>#point</styleUrl><Point><altitudeMode>clampToGround</altitudeMode><coordinates>21.268244963139296,-34.129467029124498,121.26000000000001</coordinates></Point></Placemark><Placemark><TimeSpan><begin>2020-02-25T06:08:53Z</begin><end>2020-02-25T06:09:02Z</end></TimeSpan><styleUrl>#point</styleUrl><Point><altitudeMode>clampToGround</altitudeMode><coordinates>21.265427973121405,-34.128932012245059,137.61000000000001</coordinates></Point></Placemark><Placemark><TimeSpan><begin>2020-02-25T06:09:02Z</begin><end>2020-02-25T06:09:09Z</end></TimeSpan><styleUrl>#point</styleUrl><Point><altitudeMode>clampToGround</altitudeMode><coordinates>21.263725021854043,-34.128050990402699,149.13999999999999</coordinates></Point></Placemark><Placemark><TimeSpan><begin>2020-02-25T06:09:09Z</begin><end>2020-02-25T06:09:16Z</end></TimeSpan><styleUrl>#point</styleUrl><Point><altitudeMode>clampToGround</altitudeMode><coordinates>21.262445021420717,-34.126761015504599,155.38999999999999</coordinates></Point></Placemark><Placemark><TimeSpan><begin>2020-02-25T06:09:16Z</begin><end>2020-02-25T06:09:22Z</end></TimeSpan><styleUrl>#point</styleUrl><Point><altitudeMode>clampToGround</altitudeMode><coordinates>21.261293012648821,-34.125275993719697,158.27000000000001</coordinates></Point></Placemark><Placemark><TimeSpan><begin>2020-02-25T06:09:22Z</begin><end>2020-02-25T06:09:40Z</end></TimeSpan><styleUrl>#point</styleUrl><Point><altitudeMode>clampToGround</altitudeMode><coordinates>21.25748704187572,-34.120435025542974,184.22999999999999</coordinates></Point></Placemark><Placemark><TimeSpan><begin>2020-02-25T06:09:40Z</begin><end>2020-02-25T06:09:52Z</end></TimeSpan><styleUrl>#point</styleUrl><Point><altitudeMode>clampToGround</altitudeMode><coordinates>21.255048997700214,-34.117307988926768,202.00999999999999</coordinates></Point></Placemark><Placemark><TimeSpan><begin>2020-02-25T06:09:52Z</begin><end>2020-02-25T06:09:59Z</end></TimeSpan><styleUrl>#point</styleUrl><Point><altitudeMode>clampToGround</altitudeMode><coordinates>21.254118019714952,-34.115305971354246,206.34</coordinates></Point></Placemark><Placemark><TimeSpan><begin>2020-02-25T06:09:59Z</begin><end>2020-02-25T06:10:06Z</end></TimeSpan><styleUrl>#point</styleUrl><Point><altitudeMode>clampToGround</altitudeMode><coordinates>21.25385700725019,-34.11327101290226,206.34</coordinates></Point></Placemark><Placemark><TimeSpan><begin>2020-02-25T06:10:06Z</begin><end>2020-02-25T06:10:14Z</end></TimeSpan><styleUrl>#point</styleUrl><Point><altitudeMode>clampToGround</altitudeMode><coordinates>21.254005031660199,-34.111174028366804,204.41999999999999</coordinates></Point></Placemark></Folder><Placemark><name>[117] Goukou Pass</name><Style><LineStyle><color>ffff4040</color><width>4</width></LineStyle></Style><MultiGeometry><LineString><coordinates>21.297428989782929,-34.150902992114425,150.58000000000001 21.292472016066313,-34.148540971800685,130.40000000000001 21.288377037271857,-34.14655496366322,113.56999999999999 21.28662496805191,-34.145983988419175,108.29000000000001 21.286306036636233,-34.145965967327356,106.36 21.285988027229905,-34.145968984812498,104.44 21.285669011995196,-34.145996980369091,103.48 21.285349996760488,-34.146049031987786,102.04000000000001 21.285028969869018,-34.14612396620214,99.629999999999995 21.284718001261353,-34.146222034469247,99.629999999999995 21.284404015168548,-34.14633896201849,98.670000000000002 21.284096986055374,-34.146467037498951,97.230000000000004 21.282914970070124,-34.146889988332987,93.390000000000001 21.282615987583995,-34.146941034123302,89.540000000000006 21.282309964299202,-34.146965006366372,89.060000000000002 21.282006036490202,-34.146968023851514,87.140000000000001 21.28170495852828,-34.146946985274553,85.209999999999994 21.281411005184054,-34.146898034960032,84.25 21.281127026304603,-34.146821005269885,83.290000000000006 21.280859978869557,-34.146717991679907,82.329999999999998 21.280598966404796,-34.146578013896942,83.290000000000006 21.280361004173756,-34.146437030285597,82.810000000000002 21.280139973387122,-34.146277019754052,82.329999999999998 21.279935035854578,-34.146095970645547,82.810000000000002 21.279751975089312,-34.145898995921016,83.290000000000006 21.279605040326715,-34.145696992054582,83.769999999999996 21.279474031180143,-34.145470010116696,85.209999999999994 21.27936297096312,-34.145229030400515,85.209999999999994 21.279286025092006,-34.144985033199191,85.209999999999994 21.279236990958452,-34.144714968279004,85.209999999999994 21.279225004836917,-34.144429983571172,85.689999999999998 21.279222993180156,-34.144138963893056,86.180000000000007 21.279130959883332,-34.141386011615396,92.420000000000002 21.278434004634619,-34.13914100266993,93.870000000000005 21.276428969576955,-34.134182017296553,79.450000000000003 21.27517101354897,-34.132507983595133,78 21.273244014009833,-34.130476964637637,90.019999999999996 21.27240196801722,-34.130107993260026,96.269999999999996 21.272089993581176,-34.130023000761867,98.189999999999998 21.271758992224932,-34.129961980506778,100.11 21.268244963139296,-34.129467029124498,121.26000000000001 21.265427973121405,-34.128932012245059,137.61000000000001 21.263725021854043,-34.128050990402699,149.13999999999999 21.262445021420717,-34.126761015504599,155.38999999999999 21.261293012648821,-34.125275993719697,158.27000000000001 21.25748704187572,-34.120435025542974,184.22999999999999 21.255048997700214,-34.117307988926768,202.00999999999999 21.254118019714952,-34.115305971354246,206.34 21.25385700725019,-34.11327101290226,206.34 21.254005031660199,-34.111174028366804,204.41999999999999 </coordinates></LineString></MultiGeometry></Placemark></Folder></Folder></Document></kml>