<?xml version="1.0" encoding="utf-8"?><kml xmlns="http://www.opengis.net/kml/2.2" xmlns:xsi="http://www.w3.org/2001/XMLSchema-instance" xmlns:kmlx="http://www.google.com/kml/ext/2.2" xmlns:atom="http://www.w3.org/2005/Atom" xmlns:gpxx="http://www.garmin.com/xmlschemas/GpxExtensions/v3"><Document><Style id="point"><IconStyle><scale>0.9</scale><Icon><href>http://maps.google.com/mapfiles/kml/shapes/placemark_circle.png</href></Icon></IconStyle></Style><Folder><name>Tracks</name><Folder><name>[119] Cole's Pass</name><Folder><name>Points</name><Style><ListStyle><listItemType>checkHideChildren</listItemType></ListStyle></Style><Placemark><TimeSpan><begin>2020-02-25T09:42:46Z</begin><end>2020-02-25T09:42:46Z</end></TimeSpan><Style><IconStyle><scale>0.9</scale><Icon><href>http://connect.garmin.com/image/main/icons/kml/grn-play.png</href></Icon></IconStyle></Style><Point><altitudeMode>clampToGround</altitudeMode><coordinates>19.129537995904684,-34.197514001280069,316.88999999999999</coordinates></Point></Placemark><Placemark><TimeSpan><begin>2020-02-25T09:42:46Z</begin><end>2020-02-25T09:42:52Z</end></TimeSpan><styleUrl>#point</styleUrl><Point><altitudeMode>clampToGround</altitudeMode><coordinates>19.128489000722766,-34.196284040808678,319.77999999999997</coordinates></Point></Placemark><Placemark><TimeSpan><begin>2020-02-25T09:42:52Z</begin><end>2020-02-25T09:43:03Z</end></TimeSpan><styleUrl>#point</styleUrl><Point><altitudeMode>clampToGround</altitudeMode><coordinates>19.126829970628023,-34.194131987169385,320.25999999999999</coordinates></Point></Placemark><Placemark><TimeSpan><begin>2020-02-25T09:43:03Z</begin><end>2020-02-25T09:43:09Z</end></TimeSpan><styleUrl>#point</styleUrl><Point><altitudeMode>clampToGround</altitudeMode><coordinates>19.12559699267149,-34.192756013944745,314.97000000000003</coordinates></Point></Placemark><Placemark><TimeSpan><begin>2020-02-25T09:43:09Z</begin><end>2020-02-25T09:43:17Z</end></TimeSpan><styleUrl>#point</styleUrl><Point><altitudeMode>clampToGround</altitudeMode><coordinates>19.123796978965402,-34.191185999661684,306.31999999999999</coordinates></Point></Placemark><Placemark><TimeSpan><begin>2020-02-25T09:43:17Z</begin><end>2020-02-25T09:43:23Z</end></TimeSpan><styleUrl>#point</styleUrl><Point><altitudeMode>clampToGround</altitudeMode><coordinates>19.122190000489354,-34.190477980300784,301.02999999999997</coordinates></Point></Placemark><Placemark><TimeSpan><begin>2020-02-25T09:43:23Z</begin><end>2020-02-25T09:43:29Z</end></TimeSpan><styleUrl>#point</styleUrl><Point><altitudeMode>clampToGround</altitudeMode><coordinates>19.120452012866735,-34.190328028053045,296.22000000000003</coordinates></Point></Placemark><Placemark><TimeSpan><begin>2020-02-25T09:43:29Z</begin><end>2020-02-25T09:43:34Z</end></TimeSpan><styleUrl>#point</styleUrl><Point><altitudeMode>clampToGround</altitudeMode><coordinates>19.118772028014064,-34.190650982782245,285.17000000000002</coordinates></Point></Placemark><Placemark><TimeSpan><begin>2020-02-25T09:43:34Z</begin><end>2020-02-25T09:43:43Z</end></TimeSpan><styleUrl>#point</styleUrl><Point><altitudeMode>clampToGround</altitudeMode><coordinates>19.115519011393189,-34.191368976607919,268.35000000000002</coordinates></Point></Placemark><Placemark><TimeSpan><begin>2020-02-25T09:43:43Z</begin><end>2020-02-25T09:43:52Z</end></TimeSpan><styleUrl>#point</styleUrl><Point><altitudeMode>clampToGround</altitudeMode><coordinates>19.112650975584984,-34.191872980445623,255.37</coordinates></Point></Placemark><Placemark><TimeSpan><begin>2020-02-25T09:43:52Z</begin><end>2020-02-25T09:44:00Z</end></TimeSpan><styleUrl>#point</styleUrl><Point><altitudeMode>clampToGround</altitudeMode><coordinates>19.109872039407492,-34.192012958228588,249.12</coordinates></Point></Placemark><Placemark><TimeSpan><begin>2020-02-25T09:44:00Z</begin><end>2020-02-25T09:44:08Z</end></TimeSpan><styleUrl>#point</styleUrl><Point><altitudeMode>clampToGround</altitudeMode><coordinates>19.107166025787592,-34.192688958719373,245.27000000000001</coordinates></Point></Placemark><Placemark><TimeSpan><begin>2020-02-25T09:44:08Z</begin><end>2020-02-25T09:44:18Z</end></TimeSpan><styleUrl>#point</styleUrl><Point><altitudeMode>clampToGround</altitudeMode><coordinates>19.103889036923647,-34.193539973348379,242.87</coordinates></Point></Placemark><Placemark><TimeSpan><begin>2020-02-25T09:44:18Z</begin><end>2020-02-25T09:44:25Z</end></TimeSpan><styleUrl>#point</styleUrl><Point><altitudeMode>clampToGround</altitudeMode><coordinates>19.102086005732417,-34.193840967491269,245.75</coordinates></Point></Placemark><Placemark><TimeSpan><begin>2020-02-25T09:44:25Z</begin><end>2020-02-25T09:44:28Z</end></TimeSpan><styleUrl>#point</styleUrl><Point><altitudeMode>clampToGround</altitudeMode><coordinates>19.101347979158163,-34.193806014955044,247.19999999999999</coordinates></Point></Placemark><Placemark><TimeSpan><begin>2020-02-25T09:44:28Z</begin><end>2020-02-25T09:44:35Z</end></TimeSpan><styleUrl>#point</styleUrl><Point><altitudeMode>clampToGround</altitudeMode><coordinates>19.099648967385292,-34.193322965875268,246.72</coordinates></Point></Placemark><Placemark><TimeSpan><begin>2020-02-25T09:44:35Z</begin><end>2020-02-25T09:44:41Z</end></TimeSpan><styleUrl>#point</styleUrl><Point><altitudeMode>clampToGround</altitudeMode><coordinates>19.098414983600378,-34.192471029236913,246.22999999999999</coordinates></Point></Placemark><Placemark><TimeSpan><begin>2020-02-25T09:44:41Z</begin><end>2020-02-25T09:44:48Z</end></TimeSpan><styleUrl>#point</styleUrl><Point><altitudeMode>clampToGround</altitudeMode><coordinates>19.097456010058522,-34.191138977184892,241.43000000000001</coordinates></Point></Placemark><Placemark><TimeSpan><begin>2020-02-25T09:44:48Z</begin><end>2020-02-25T09:45:00Z</end></TimeSpan><styleUrl>#point</styleUrl><Point><altitudeMode>clampToGround</altitudeMode><coordinates>19.096015999093652,-34.188924981281161,240.94999999999999</coordinates></Point></Placemark><Placemark><TimeSpan><begin>2020-02-25T09:45:00Z</begin><end>2020-02-25T09:45:06Z</end></TimeSpan><styleUrl>#point</styleUrl><Point><altitudeMode>clampToGround</altitudeMode><coordinates>19.094800036400557,-34.187832986935973,248.63999999999999</coordinates></Point></Placemark><Placemark><TimeSpan><begin>2020-02-25T09:45:06Z</begin><end>2020-02-25T09:45:13Z</end></TimeSpan><styleUrl>#point</styleUrl><Point><altitudeMode>clampToGround</altitudeMode><coordinates>19.092913018539548,-34.186911983415484,262.10000000000002</coordinates></Point></Placemark><Placemark><TimeSpan><begin>2020-02-25T09:45:13Z</begin><end>2020-02-25T09:45:26Z</end></TimeSpan><styleUrl>#point</styleUrl><Point><altitudeMode>clampToGround</altitudeMode><coordinates>19.089272003620863,-34.185746982693672,277.48000000000002</coordinates></Point></Placemark><Placemark><TimeSpan><begin>2020-02-25T09:45:26Z</begin><end>2020-02-25T09:45:33Z</end></TimeSpan><styleUrl>#point</styleUrl><Point><altitudeMode>clampToGround</altitudeMode><coordinates>19.087394960224628,-34.184835031628609,289.49000000000001</coordinates></Point></Placemark><Placemark><TimeSpan><begin>2020-02-25T09:45:33Z</begin><end>2020-02-25T09:45:46Z</end></TimeSpan><styleUrl>#point</styleUrl><Point><altitudeMode>clampToGround</altitudeMode><coordinates>19.084127023816109,-34.182822033762932,308.72000000000003</coordinates></Point></Placemark><Placemark><TimeSpan><begin>2020-02-25T09:45:46Z</begin><end>2020-02-25T09:46:07Z</end></TimeSpan><styleUrl>#point</styleUrl><Point><altitudeMode>clampToGround</altitudeMode><coordinates>19.078861009329557,-34.179600030183792,330.82999999999998</coordinates></Point></Placemark><Placemark><TimeSpan><begin>2020-02-25T09:46:07Z</begin><end>2020-02-25T09:46:14Z</end></TimeSpan><styleUrl>#point</styleUrl><Point><altitudeMode>clampToGround</altitudeMode><coordinates>19.077107012271881,-34.178873989731073,331.79000000000002</coordinates></Point></Placemark><Placemark><TimeSpan><begin>2020-02-25T09:46:14Z</begin><end>2020-02-25T09:46:23Z</end></TimeSpan><styleUrl>#point</styleUrl><Point><altitudeMode>clampToGround</altitudeMode><coordinates>19.075213959440589,-34.178431006148458,328.91000000000003</coordinates></Point></Placemark><Placemark><TimeSpan><begin>2020-02-25T09:46:23Z</begin><end>2020-02-25T09:46:33Z</end></TimeSpan><styleUrl>#point</styleUrl><Point><altitudeMode>clampToGround</altitudeMode><coordinates>19.072881024330854,-34.178241994231939,333.23000000000002</coordinates></Point></Placemark><Placemark><TimeSpan><begin>2020-02-25T09:46:33Z</begin><end>2020-02-25T09:46:39Z</end></TimeSpan><styleUrl>#point</styleUrl><Point><altitudeMode>clampToGround</altitudeMode><coordinates>19.070856962352991,-34.178170999512076,338.04000000000002</coordinates></Point></Placemark><Placemark><TimeSpan><begin>2020-02-25T09:46:39Z</begin><end>2020-02-25T09:46:54Z</end></TimeSpan><styleUrl>#point</styleUrl><Point><altitudeMode>clampToGround</altitudeMode><coordinates>19.066204000264406,-34.177976958453655,334.68000000000001</coordinates></Point></Placemark><Placemark><TimeSpan><begin>2020-02-25T09:46:54Z</begin><end>2020-02-25T09:47:08Z</end></TimeSpan><styleUrl>#point</styleUrl><Point><altitudeMode>clampToGround</altitudeMode><coordinates>19.061983963474631,-34.177639000117779,336.60000000000002</coordinates></Point></Placemark><Placemark><TimeSpan><begin>2020-02-25T09:47:08Z</begin><end>2020-02-25T09:47:16Z</end></TimeSpan><styleUrl>#point</styleUrl><Point><altitudeMode>clampToGround</altitudeMode><coordinates>19.059696961194277,-34.176893010735512,339.48000000000002</coordinates></Point></Placemark><Placemark><TimeSpan><begin>2020-02-25T09:47:16Z</begin><end>2020-02-25T09:47:35Z</end></TimeSpan><styleUrl>#point</styleUrl><Point><altitudeMode>clampToGround</altitudeMode><coordinates>19.054576959460974,-34.174549011513591,339.95999999999998</coordinates></Point></Placemark><Placemark><TimeSpan><begin>2020-02-25T09:47:35Z</begin><end>2020-02-25T09:47:56Z</end></TimeSpan><styleUrl>#point</styleUrl><Point><altitudeMode>clampToGround</altitudeMode><coordinates>19.04898296110332,-34.171675024554133,329.87</coordinates></Point></Placemark><Placemark><TimeSpan><begin>2020-02-25T09:47:56Z</begin><end>2020-02-25T09:48:20Z</end></TimeSpan><styleUrl>#point</styleUrl><Point><altitudeMode>clampToGround</altitudeMode><coordinates>19.042631993070245,-34.168408010154963,321.69999999999999</coordinates></Point></Placemark><Placemark><TimeSpan><begin>2020-02-25T09:48:20Z</begin><end>2020-02-25T09:48:29Z</end></TimeSpan><styleUrl>#point</styleUrl><Point><altitudeMode>clampToGround</altitudeMode><coordinates>19.040425037965178,-34.16726203635335,316.88999999999999</coordinates></Point></Placemark><Placemark><TimeSpan><begin>2020-02-25T09:48:29Z</begin><end>2020-02-25T09:48:39Z</end></TimeSpan><styleUrl>#point</styleUrl><Point><altitudeMode>clampToGround</altitudeMode><coordinates>19.038331992924213,-34.165926966816187,311.60000000000002</coordinates></Point></Placemark><Placemark><TimeSpan><begin>2020-02-25T09:48:39Z</begin><end>2020-02-25T09:49:00Z</end></TimeSpan><styleUrl>#point</styleUrl><Point><altitudeMode>clampToGround</altitudeMode><coordinates>19.034204995259643,-34.163169991225004,321.69999999999999</coordinates></Point></Placemark><Placemark><TimeSpan><begin>2020-02-25T09:49:00Z</begin><end>2020-02-25T09:49:07Z</end></TimeSpan><styleUrl>#point</styleUrl><Point><altitudeMode>clampToGround</altitudeMode><coordinates>19.032491985708475,-34.162616031244397,325.06</coordinates></Point></Placemark><Placemark><TimeSpan><begin>2020-02-25T09:49:07Z</begin><end>2020-02-25T09:49:14Z</end></TimeSpan><styleUrl>#point</styleUrl><Point><altitudeMode>clampToGround</altitudeMode><coordinates>19.030607985332608,-34.162560040131211,325.54000000000002</coordinates></Point></Placemark><Placemark><TimeSpan><begin>2020-02-25T09:49:14Z</begin><end>2020-02-25T09:49:21Z</end></TimeSpan><styleUrl>#point</styleUrl><Point><altitudeMode>clampToGround</altitudeMode><coordinates>19.028719961643219,-34.163019033148885,319.30000000000001</coordinates></Point></Placemark><Placemark><TimeSpan><begin>2020-02-25T09:49:21Z</begin><end>2020-02-25T09:49:28Z</end></TimeSpan><styleUrl>#point</styleUrl><Point><altitudeMode>clampToGround</altitudeMode><coordinates>19.026968982070684,-34.164043972268701,308.72000000000003</coordinates></Point></Placemark><Placemark><TimeSpan><begin>2020-02-25T09:49:28Z</begin><end>2020-02-25T09:49:35Z</end></TimeSpan><styleUrl>#point</styleUrl><Point><altitudeMode>clampToGround</altitudeMode><coordinates>19.025117000564933,-34.164869002997875,297.18000000000001</coordinates></Point></Placemark><Placemark><TimeSpan><begin>2020-02-25T09:49:35Z</begin><end>2020-02-25T09:49:41Z</end></TimeSpan><styleUrl>#point</styleUrl><Point><altitudeMode>clampToGround</altitudeMode><coordinates>19.023318998515606,-34.164990959689021,285.64999999999998</coordinates></Point></Placemark><Placemark><TimeSpan><begin>2020-02-25T09:49:41Z</begin><end>2020-02-25T09:49:47Z</end></TimeSpan><styleUrl>#point</styleUrl><Point><altitudeMode>clampToGround</altitudeMode><coordinates>19.021485960111022,-34.164500031620264,274.58999999999997</coordinates></Point></Placemark><Placemark><TimeSpan><begin>2020-02-25T09:49:47Z</begin><end>2020-02-25T09:49:55Z</end></TimeSpan><styleUrl>#point</styleUrl><Point><altitudeMode>clampToGround</altitudeMode><coordinates>19.018856976181269,-34.163436032831669,274.58999999999997</coordinates></Point></Placemark><Placemark><TimeSpan><begin>2020-02-25T09:49:55Z</begin><end>2020-02-25T09:50:04Z</end></TimeSpan><styleUrl>#point</styleUrl><Point><altitudeMode>clampToGround</altitudeMode><coordinates>19.01602397672832,-34.162627011537552,285.17000000000002</coordinates></Point></Placemark><Placemark><TimeSpan><begin>2020-02-25T09:50:04Z</begin><end>2020-02-25T09:50:13Z</end></TimeSpan><styleUrl>#point</styleUrl><Point><altitudeMode>clampToGround</altitudeMode><coordinates>19.013098021969199,-34.16236499324441,288.52999999999997</coordinates></Point></Placemark><Placemark><TimeSpan><begin>2020-02-25T09:50:13Z</begin><end>2020-02-25T09:50:19Z</end></TimeSpan><styleUrl>#point</styleUrl><Point><altitudeMode>clampToGround</altitudeMode><coordinates>19.011646024882793,-34.162446968257427,297.67000000000002</coordinates></Point></Placemark><Placemark><TimeSpan><begin>2020-02-25T09:50:19Z</begin><end>2020-02-25T09:50:31Z</end></TimeSpan><styleUrl>#point</styleUrl><Point><altitudeMode>clampToGround</altitudeMode><coordinates>19.008931964635849,-34.162952983751893,312.08999999999997</coordinates></Point></Placemark><Placemark><TimeSpan><begin>2020-02-25T09:50:31Z</begin><end>2020-02-25T09:50:39Z</end></TimeSpan><styleUrl>#point</styleUrl><Point><altitudeMode>clampToGround</altitudeMode><coordinates>19.006811007857323,-34.163685981184244,317.37</coordinates></Point></Placemark><Placemark><TimeSpan><begin>2020-02-25T09:50:39Z</begin><end>2020-02-25T09:50:48Z</end></TimeSpan><styleUrl>#point</styleUrl><Point><altitudeMode>clampToGround</altitudeMode><coordinates>19.004200967028737,-34.165018033236265,324.10000000000002</coordinates></Point></Placemark><Placemark><TimeSpan><begin>2020-02-25T09:50:48Z</begin><end>2020-02-25T09:51:00Z</end></TimeSpan><styleUrl>#point</styleUrl><Point><altitudeMode>clampToGround</altitudeMode><coordinates>19.000708982348442,-34.166762977838516,343.81</coordinates></Point></Placemark><Placemark><TimeSpan><begin>2020-02-25T09:51:00Z</begin><end>2020-02-25T09:51:02Z</end></TimeSpan><styleUrl>#point</styleUrl><Point><altitudeMode>clampToGround</altitudeMode><coordinates>19.000075981020927,-34.166891975328326,348.13</coordinates></Point></Placemark><Placemark><TimeSpan><begin>2020-02-25T09:51:02Z</begin><end>2020-02-25T09:51:03Z</end></TimeSpan><styleUrl>#point</styleUrl><Point><altitudeMode>clampToGround</altitudeMode><coordinates>18.999752020463347,-34.166923994198442,350.54000000000002</coordinates></Point></Placemark><Placemark><TimeSpan><begin>2020-02-25T09:51:03Z</begin><end>2020-02-25T09:51:04Z</end></TimeSpan><styleUrl>#point</styleUrl><Point><altitudeMode>clampToGround</altitudeMode><coordinates>18.999422024935484,-34.166932040825486,352.45999999999998</coordinates></Point></Placemark><Placemark><TimeSpan><begin>2020-02-25T09:51:04Z</begin><end>2020-02-25T09:51:05Z</end></TimeSpan><styleUrl>#point</styleUrl><Point><altitudeMode>clampToGround</altitudeMode><coordinates>18.999097980558872,-34.166913013905287,354.86000000000001</coordinates></Point></Placemark><Placemark><TimeSpan><begin>2020-02-25T09:51:05Z</begin><end>2020-02-25T09:51:06Z</end></TimeSpan><styleUrl>#point</styleUrl><Point><altitudeMode>clampToGround</altitudeMode><coordinates>18.99876999668777,-34.166871020570397,357.26999999999998</coordinates></Point></Placemark><Placemark><TimeSpan><begin>2020-02-25T09:51:06Z</begin><end>2020-02-25T09:51:07Z</end></TimeSpan><styleUrl>#point</styleUrl><Point><altitudeMode>clampToGround</altitudeMode><coordinates>18.998455004766583,-34.166808994486928,359.67000000000002</coordinates></Point></Placemark><Placemark><TimeSpan><begin>2020-02-25T09:51:07Z</begin><end>2020-02-25T09:51:08Z</end></TimeSpan><styleUrl>#point</styleUrl><Point><altitudeMode>clampToGround</altitudeMode><coordinates>18.998155016452074,-34.166730958968401,361.58999999999997</coordinates></Point></Placemark><Placemark><TimeSpan><begin>2020-02-25T09:51:08Z</begin><end>2020-02-25T09:51:09Z</end></TimeSpan><styleUrl>#point</styleUrl><Point><altitudeMode>clampToGround</altitudeMode><coordinates>18.997874977067113,-34.166645966470242,364</coordinates></Point></Placemark><Placemark><TimeSpan><begin>2020-02-25T09:51:09Z</begin><end>2020-02-25T09:51:16Z</end></TimeSpan><styleUrl>#point</styleUrl><Point><altitudeMode>clampToGround</altitudeMode><coordinates>18.996001034975052,-34.165984969586134,375.52999999999997</coordinates></Point></Placemark><Placemark><TimeSpan><begin>2020-02-25T09:51:16Z</begin><end>2020-02-25T09:51:24Z</end></TimeSpan><styleUrl>#point</styleUrl><Point><altitudeMode>clampToGround</altitudeMode><coordinates>18.993243975564837,-34.165111994370818,384.18000000000001</coordinates></Point></Placemark><Placemark><TimeSpan><begin>2020-02-25T09:51:24Z</begin><end>2020-02-25T09:51:37Z</end></TimeSpan><styleUrl>#point</styleUrl><Point><altitudeMode>clampToGround</altitudeMode><coordinates>18.988967025652528,-34.163697967305779,393.80000000000001</coordinates></Point></Placemark><Placemark><TimeSpan><begin>2020-02-25T09:51:37Z</begin><end>2020-02-25T09:51:49Z</end></TimeSpan><styleUrl>#point</styleUrl><Point><altitudeMode>clampToGround</altitudeMode><coordinates>18.985500019043684,-34.162556016817689,401.00999999999999</coordinates></Point></Placemark><Placemark><TimeSpan><begin>2020-02-25T09:51:49Z</begin><end>2020-02-25T09:52:06Z</end></TimeSpan><styleUrl>#point</styleUrl><Point><altitudeMode>clampToGround</altitudeMode><coordinates>18.980662990361452,-34.16094996035099,421.68000000000001</coordinates></Point></Placemark><Placemark><TimeSpan><begin>2020-02-25T09:52:06Z</begin><end>2020-02-25T09:52:19Z</end></TimeSpan><styleUrl>#point</styleUrl><Point><altitudeMode>clampToGround</altitudeMode><coordinates>18.976817959919572,-34.159655962139368,440.42000000000002</coordinates></Point></Placemark><Placemark><TimeSpan><begin>2020-02-25T09:52:19Z</begin><end>2020-02-25T09:52:26Z</end></TimeSpan><styleUrl>#point</styleUrl><Point><altitudeMode>clampToGround</altitudeMode><coordinates>18.974994979798794,-34.158558016642928,445.23000000000002</coordinates></Point></Placemark><Placemark><TimeSpan><begin>2020-02-25T09:52:26Z</begin><end>2020-02-25T09:52:47Z</end></TimeSpan><styleUrl>#point</styleUrl><Point><altitudeMode>clampToGround</altitudeMode><coordinates>18.969676997512579,-34.15508296340704,447.14999999999998</coordinates></Point></Placemark><Placemark><TimeSpan><begin>2020-02-25T09:52:47Z</begin><end>2020-02-25T09:53:01Z</end></TimeSpan><styleUrl>#point</styleUrl><Point><altitudeMode>clampToGround</altitudeMode><coordinates>18.966003963723779,-34.152922024950385,446.67000000000002</coordinates></Point></Placemark><Placemark><TimeSpan><begin>2020-02-25T09:53:01Z</begin><end>2020-02-25T09:53:08Z</end></TimeSpan><styleUrl>#point</styleUrl><Point><altitudeMode>clampToGround</altitudeMode><coordinates>18.963817041367292,-34.152454985305667,438.5</coordinates></Point></Placemark><Placemark><TimeSpan><begin>2020-02-25T09:53:08Z</begin><end>2020-02-25T09:53:16Z</end></TimeSpan><styleUrl>#point</styleUrl><Point><altitudeMode>clampToGround</altitudeMode><coordinates>18.961155032739043,-34.152134964242578,430.32999999999998</coordinates></Point></Placemark><Placemark><TimeSpan><begin>2020-02-25T09:53:16Z</begin><end>2020-02-25T09:53:25Z</end></TimeSpan><styleUrl>#point</styleUrl><Point><altitudeMode>clampToGround</altitudeMode><coordinates>18.958193035796285,-34.151801029220223,419.26999999999998</coordinates></Point></Placemark><Placemark><TimeSpan><begin>2020-02-25T09:53:25Z</begin><end>2020-02-25T09:53:36Z</end></TimeSpan><styleUrl>#point</styleUrl><Point><altitudeMode>clampToGround</altitudeMode><coordinates>18.954809010028839,-34.151476984843612,397.63999999999999</coordinates></Point></Placemark><Placemark><TimeSpan><begin>2020-02-25T09:53:36Z</begin><end>2020-02-25T09:53:44Z</end></TimeSpan><styleUrl>#point</styleUrl><Point><altitudeMode>clampToGround</altitudeMode><coordinates>18.95212696865201,-34.15164403617382,384.18000000000001</coordinates></Point></Placemark><Placemark><TimeSpan><begin>2020-02-25T09:53:44Z</begin><end>2020-02-25T09:53:54Z</end></TimeSpan><styleUrl>#point</styleUrl><Point><altitudeMode>clampToGround</altitudeMode><coordinates>18.949330011382699,-34.152024993672967,378.42000000000002</coordinates></Point></Placemark></Folder><Placemark><name>[119] Cole's Pass</name><Style><LineStyle><color>ffff4040</color><width>4</width></LineStyle></Style><MultiGeometry><LineString><coordinates>19.129537995904684,-34.197514001280069,316.88999999999999 19.128489000722766,-34.196284040808678,319.77999999999997 19.126829970628023,-34.194131987169385,320.25999999999999 19.12559699267149,-34.192756013944745,314.97000000000003 19.123796978965402,-34.191185999661684,306.31999999999999 19.122190000489354,-34.190477980300784,301.02999999999997 19.120452012866735,-34.190328028053045,296.22000000000003 19.118772028014064,-34.190650982782245,285.17000000000002 19.115519011393189,-34.191368976607919,268.35000000000002 19.112650975584984,-34.191872980445623,255.37 19.109872039407492,-34.192012958228588,249.12 19.107166025787592,-34.192688958719373,245.27000000000001 19.103889036923647,-34.193539973348379,242.87 19.102086005732417,-34.193840967491269,245.75 19.101347979158163,-34.193806014955044,247.19999999999999 19.099648967385292,-34.193322965875268,246.72 19.098414983600378,-34.192471029236913,246.22999999999999 19.097456010058522,-34.191138977184892,241.43000000000001 19.096015999093652,-34.188924981281161,240.94999999999999 19.094800036400557,-34.187832986935973,248.63999999999999 19.092913018539548,-34.186911983415484,262.10000000000002 19.089272003620863,-34.185746982693672,277.48000000000002 19.087394960224628,-34.184835031628609,289.49000000000001 19.084127023816109,-34.182822033762932,308.72000000000003 19.078861009329557,-34.179600030183792,330.82999999999998 19.077107012271881,-34.178873989731073,331.79000000000002 19.075213959440589,-34.178431006148458,328.91000000000003 19.072881024330854,-34.178241994231939,333.23000000000002 19.070856962352991,-34.178170999512076,338.04000000000002 19.066204000264406,-34.177976958453655,334.68000000000001 19.061983963474631,-34.177639000117779,336.60000000000002 19.059696961194277,-34.176893010735512,339.48000000000002 19.054576959460974,-34.174549011513591,339.95999999999998 19.04898296110332,-34.171675024554133,329.87 19.042631993070245,-34.168408010154963,321.69999999999999 19.040425037965178,-34.16726203635335,316.88999999999999 19.038331992924213,-34.165926966816187,311.60000000000002 19.034204995259643,-34.163169991225004,321.69999999999999 19.032491985708475,-34.162616031244397,325.06 19.030607985332608,-34.162560040131211,325.54000000000002 19.028719961643219,-34.163019033148885,319.30000000000001 19.026968982070684,-34.164043972268701,308.72000000000003 19.025117000564933,-34.164869002997875,297.18000000000001 19.023318998515606,-34.164990959689021,285.64999999999998 19.021485960111022,-34.164500031620264,274.58999999999997 19.018856976181269,-34.163436032831669,274.58999999999997 19.01602397672832,-34.162627011537552,285.17000000000002 19.013098021969199,-34.16236499324441,288.52999999999997 19.011646024882793,-34.162446968257427,297.67000000000002 19.008931964635849,-34.162952983751893,312.08999999999997 19.006811007857323,-34.163685981184244,317.37 19.004200967028737,-34.165018033236265,324.10000000000002 19.000708982348442,-34.166762977838516,343.81 19.000075981020927,-34.166891975328326,348.13 18.999752020463347,-34.166923994198442,350.54000000000002 18.999422024935484,-34.166932040825486,352.45999999999998 18.999097980558872,-34.166913013905287,354.86000000000001 18.99876999668777,-34.166871020570397,357.26999999999998 18.998455004766583,-34.166808994486928,359.67000000000002 18.998155016452074,-34.166730958968401,361.58999999999997 18.997874977067113,-34.166645966470242,364 18.996001034975052,-34.165984969586134,375.52999999999997 18.993243975564837,-34.165111994370818,384.18000000000001 18.988967025652528,-34.163697967305779,393.80000000000001 18.985500019043684,-34.162556016817689,401.00999999999999 18.980662990361452,-34.16094996035099,421.68000000000001 18.976817959919572,-34.159655962139368,440.42000000000002 18.974994979798794,-34.158558016642928,445.23000000000002 18.969676997512579,-34.15508296340704,447.14999999999998 18.966003963723779,-34.152922024950385,446.67000000000002 18.963817041367292,-34.152454985305667,438.5 18.961155032739043,-34.152134964242578,430.32999999999998 18.958193035796285,-34.151801029220223,419.26999999999998 18.954809010028839,-34.151476984843612,397.63999999999999 18.95212696865201,-34.15164403617382,384.18000000000001 18.949330011382699,-34.152024993672967,378.42000000000002 </coordinates></LineString></MultiGeometry></Placemark></Folder></Folder></Document></kml>