<?xml version="1.0" encoding="utf-8"?><kml xmlns="http://www.opengis.net/kml/2.2" xmlns:xsi="http://www.w3.org/2001/XMLSchema-instance" xmlns:kmlx="http://www.google.com/kml/ext/2.2" xmlns:atom="http://www.w3.org/2005/Atom" xmlns:gpxx="http://www.garmin.com/xmlschemas/GpxExtensions/v3"><Document><Style id="point"><IconStyle><scale>0.9</scale><Icon><href>http://maps.google.com/mapfiles/kml/shapes/placemark_circle.png</href></Icon></IconStyle></Style><Folder><name>Tracks</name><Folder><name>[120C] Slanghoek Valley Road</name><Folder><name>Points</name><Style><ListStyle><listItemType>checkHideChildren</listItemType></ListStyle></Style><Placemark><TimeSpan><begin>2020-03-03T09:51:52Z</begin><end>2020-03-03T09:51:52Z</end></TimeSpan><Style><IconStyle><scale>0.9</scale><Icon><href>http://connect.garmin.com/image/main/icons/kml/grn-play.png</href></Icon></IconStyle></Style><Point><altitudeMode>clampToGround</altitudeMode><coordinates>19.208252029493451,-33.542697010561824,223.63999999999999</coordinates></Point></Placemark><Placemark><TimeSpan><begin>2020-03-03T09:51:52Z</begin><end>2020-03-03T09:52:05Z</end></TimeSpan><styleUrl>#point</styleUrl><Point><altitudeMode>clampToGround</altitudeMode><coordinates>19.20737000182271,-33.543349960818887,223.63999999999999</coordinates></Point></Placemark><Placemark><TimeSpan><begin>2020-03-03T09:52:05Z</begin><end>2020-03-03T09:52:09Z</end></TimeSpan><styleUrl>#point</styleUrl><Point><altitudeMode>clampToGround</altitudeMode><coordinates>19.207077976316214,-33.54356998577714,225.09</coordinates></Point></Placemark><Placemark><TimeSpan><begin>2020-03-03T09:52:09Z</begin><end>2020-03-03T09:52:10Z</end></TimeSpan><styleUrl>#point</styleUrl><Point><altitudeMode>clampToGround</altitudeMode><coordinates>19.207016034051776,-33.543631006032228,225.56999999999999</coordinates></Point></Placemark><Placemark><TimeSpan><begin>2020-03-03T09:52:10Z</begin><end>2020-03-03T09:52:20Z</end></TimeSpan><styleUrl>#point</styleUrl><Point><altitudeMode>clampToGround</altitudeMode><coordinates>19.206272978335619,-33.54449300095439,227.49000000000001</coordinates></Point></Placemark><Placemark><TimeSpan><begin>2020-03-03T09:52:20Z</begin><end>2020-03-03T09:52:34Z</end></TimeSpan><styleUrl>#point</styleUrl><Point><altitudeMode>clampToGround</altitudeMode><coordinates>19.205030025914311,-33.546104002743959,227.49000000000001</coordinates></Point></Placemark><Placemark><TimeSpan><begin>2020-03-03T09:52:34Z</begin><end>2020-03-03T09:52:43Z</end></TimeSpan><styleUrl>#point</styleUrl><Point><altitudeMode>clampToGround</altitudeMode><coordinates>19.204574972391129,-33.547042021527886,231.33000000000001</coordinates></Point></Placemark><Placemark><TimeSpan><begin>2020-03-03T09:52:43Z</begin><end>2020-03-03T09:52:56Z</end></TimeSpan><styleUrl>#point</styleUrl><Point><altitudeMode>clampToGround</altitudeMode><coordinates>19.204069962725043,-33.548526959493756,241.43000000000001</coordinates></Point></Placemark><Placemark><TimeSpan><begin>2020-03-03T09:52:56Z</begin><end>2020-03-03T09:53:05Z</end></TimeSpan><styleUrl>#point</styleUrl><Point><altitudeMode>clampToGround</altitudeMode><coordinates>19.204056970775127,-33.549656001850963,249.12</coordinates></Point></Placemark><Placemark><TimeSpan><begin>2020-03-03T09:53:05Z</begin><end>2020-03-03T09:53:18Z</end></TimeSpan><styleUrl>#point</styleUrl><Point><altitudeMode>clampToGround</altitudeMode><coordinates>19.204289987683296,-33.55160596780479,260.64999999999998</coordinates></Point></Placemark><Placemark><TimeSpan><begin>2020-03-03T09:53:18Z</begin><end>2020-03-03T09:53:27Z</end></TimeSpan><styleUrl>#point</styleUrl><Point><altitudeMode>clampToGround</altitudeMode><coordinates>19.204476987943053,-33.552772980183363,270.75</coordinates></Point></Placemark><Placemark><TimeSpan><begin>2020-03-03T09:53:27Z</begin><end>2020-03-03T09:53:36Z</end></TimeSpan><styleUrl>#point</styleUrl><Point><altitudeMode>clampToGround</altitudeMode><coordinates>19.205020973458886,-33.553743017837405,277</coordinates></Point></Placemark><Placemark><TimeSpan><begin>2020-03-03T09:53:36Z</begin><end>2020-03-03T09:53:46Z</end></TimeSpan><styleUrl>#point</styleUrl><Point><altitudeMode>clampToGround</altitudeMode><coordinates>19.205932002514601,-33.55513097718358,284.69</coordinates></Point></Placemark><Placemark><TimeSpan><begin>2020-03-03T09:53:46Z</begin><end>2020-03-03T09:53:54Z</end></TimeSpan><styleUrl>#point</styleUrl><Point><altitudeMode>clampToGround</altitudeMode><coordinates>19.206068962812424,-33.556377030909061,289.49000000000001</coordinates></Point></Placemark><Placemark><TimeSpan><begin>2020-03-03T09:53:54Z</begin><end>2020-03-03T09:54:07Z</end></TimeSpan><styleUrl>#point</styleUrl><Point><altitudeMode>clampToGround</altitudeMode><coordinates>19.205935019999743,-33.55798501521349,298.14999999999998</coordinates></Point></Placemark><Placemark><TimeSpan><begin>2020-03-03T09:54:07Z</begin><end>2020-03-03T09:54:20Z</end></TimeSpan><styleUrl>#point</styleUrl><Point><altitudeMode>clampToGround</altitudeMode><coordinates>19.205791018903255,-33.559098970144987,301.50999999999999</coordinates></Point></Placemark><Placemark><TimeSpan><begin>2020-03-03T09:54:20Z</begin><end>2020-03-03T09:54:37Z</end></TimeSpan><styleUrl>#point</styleUrl><Point><altitudeMode>clampToGround</altitudeMode><coordinates>19.205506034195423,-33.560193981975317,301.99000000000001</coordinates></Point></Placemark><Placemark><TimeSpan><begin>2020-03-03T09:54:37Z</begin><end>2020-03-03T09:54:56Z</end></TimeSpan><styleUrl>#point</styleUrl><Point><altitudeMode>clampToGround</altitudeMode><coordinates>19.204844031482935,-33.56161898933351,302.47000000000003</coordinates></Point></Placemark><Placemark><TimeSpan><begin>2020-03-03T09:54:56Z</begin><end>2020-03-03T09:55:15Z</end></TimeSpan><styleUrl>#point</styleUrl><Point><altitudeMode>clampToGround</altitudeMode><coordinates>19.203939959406853,-33.563211970031261,301.50999999999999</coordinates></Point></Placemark><Placemark><TimeSpan><begin>2020-03-03T09:55:15Z</begin><end>2020-03-03T09:55:28Z</end></TimeSpan><styleUrl>#point</styleUrl><Point><altitudeMode>clampToGround</altitudeMode><coordinates>19.203699985519052,-33.564481995999813,299.11000000000001</coordinates></Point></Placemark><Placemark><TimeSpan><begin>2020-03-03T09:55:28Z</begin><end>2020-03-03T09:55:43Z</end></TimeSpan><styleUrl>#point</styleUrl><Point><altitudeMode>clampToGround</altitudeMode><coordinates>19.203960997983813,-33.566015968099236,291.89999999999998</coordinates></Point></Placemark><Placemark><TimeSpan><begin>2020-03-03T09:55:43Z</begin><end>2020-03-03T09:56:00Z</end></TimeSpan><styleUrl>#point</styleUrl><Point><altitudeMode>clampToGround</altitudeMode><coordinates>19.20429996214807,-33.567893011495471,281.31999999999999</coordinates></Point></Placemark><Placemark><TimeSpan><begin>2020-03-03T09:56:00Z</begin><end>2020-03-03T09:56:21Z</end></TimeSpan><styleUrl>#point</styleUrl><Point><altitudeMode>clampToGround</altitudeMode><coordinates>19.204728025943041,-33.570295013487339,275.06999999999999</coordinates></Point></Placemark><Placemark><TimeSpan><begin>2020-03-03T09:56:21Z</begin><end>2020-03-03T09:56:40Z</end></TimeSpan><styleUrl>#point</styleUrl><Point><altitudeMode>clampToGround</altitudeMode><coordinates>19.20509397983551,-33.572355033829808,270.75</coordinates></Point></Placemark><Placemark><TimeSpan><begin>2020-03-03T09:56:40Z</begin><end>2020-03-03T09:57:02Z</end></TimeSpan><styleUrl>#point</styleUrl><Point><altitudeMode>clampToGround</altitudeMode><coordinates>19.20554299838841,-33.5747039783746,264.5</coordinates></Point></Placemark><Placemark><TimeSpan><begin>2020-03-03T09:57:02Z</begin><end>2020-03-03T09:57:16Z</end></TimeSpan><styleUrl>#point</styleUrl><Point><altitudeMode>clampToGround</altitudeMode><coordinates>19.205970978364348,-33.57616201043129,259.69</coordinates></Point></Placemark><Placemark><TimeSpan><begin>2020-03-03T09:57:16Z</begin><end>2020-03-03T09:57:28Z</end></TimeSpan><styleUrl>#point</styleUrl><Point><altitudeMode>clampToGround</altitudeMode><coordinates>19.206782011315227,-33.577317958697677,257.29000000000002</coordinates></Point></Placemark><Placemark><TimeSpan><begin>2020-03-03T09:57:28Z</begin><end>2020-03-03T09:57:38Z</end></TimeSpan><styleUrl>#point</styleUrl><Point><altitudeMode>clampToGround</altitudeMode><coordinates>19.207242010161281,-33.578329989686608,254.88999999999999</coordinates></Point></Placemark><Placemark><TimeSpan><begin>2020-03-03T09:57:38Z</begin><end>2020-03-03T09:57:55Z</end></TimeSpan><styleUrl>#point</styleUrl><Point><altitudeMode>clampToGround</altitudeMode><coordinates>19.207589020952582,-33.579860022291541,252.96000000000001</coordinates></Point></Placemark><Placemark><TimeSpan><begin>2020-03-03T09:57:55Z</begin><end>2020-03-03T09:58:15Z</end></TimeSpan><styleUrl>#point</styleUrl><Point><altitudeMode>clampToGround</altitudeMode><coordinates>19.208012977614999,-33.581746034324169,251.03999999999999</coordinates></Point></Placemark><Placemark><TimeSpan><begin>2020-03-03T09:58:15Z</begin><end>2020-03-03T09:58:30Z</end></TimeSpan><styleUrl>#point</styleUrl><Point><altitudeMode>clampToGround</altitudeMode><coordinates>19.208397958427668,-33.583414033055305,250.08000000000001</coordinates></Point></Placemark><Placemark><TimeSpan><begin>2020-03-03T09:58:30Z</begin><end>2020-03-03T09:58:41Z</end></TimeSpan><styleUrl>#point</styleUrl><Point><altitudeMode>clampToGround</altitudeMode><coordinates>19.208979997783899,-33.585168030112982,249.12</coordinates></Point></Placemark><Placemark><TimeSpan><begin>2020-03-03T09:58:41Z</begin><end>2020-03-03T09:58:42Z</end></TimeSpan><styleUrl>#point</styleUrl><Point><altitudeMode>clampToGround</altitudeMode><coordinates>19.20908996835351,-33.585304990410805,249.12</coordinates></Point></Placemark><Placemark><TimeSpan><begin>2020-03-03T09:58:42Z</begin><end>2020-03-03T09:58:43Z</end></TimeSpan><styleUrl>#point</styleUrl><Point><altitudeMode>clampToGround</altitudeMode><coordinates>19.209211003035307,-33.585431976243854,248.63999999999999</coordinates></Point></Placemark><Placemark><TimeSpan><begin>2020-03-03T09:58:43Z</begin><end>2020-03-03T09:58:44Z</end></TimeSpan><styleUrl>#point</styleUrl><Point><altitudeMode>clampToGround</altitudeMode><coordinates>19.209343018010259,-33.585548987612128,248.16</coordinates></Point></Placemark><Placemark><TimeSpan><begin>2020-03-03T09:58:44Z</begin><end>2020-03-03T09:58:45Z</end></TimeSpan><styleUrl>#point</styleUrl><Point><altitudeMode>clampToGround</altitudeMode><coordinates>19.20947796665132,-33.585654012858868,248.16</coordinates></Point></Placemark><Placemark><TimeSpan><begin>2020-03-03T09:58:45Z</begin><end>2020-03-03T09:58:46Z</end></TimeSpan><styleUrl>#point</styleUrl><Point><altitudeMode>clampToGround</altitudeMode><coordinates>19.209618028253317,-33.58574403449893,248.16</coordinates></Point></Placemark><Placemark><TimeSpan><begin>2020-03-03T09:58:46Z</begin><end>2020-03-03T09:58:47Z</end></TimeSpan><styleUrl>#point</styleUrl><Point><altitudeMode>clampToGround</altitudeMode><coordinates>19.209762029349804,-33.585821986198425,248.16</coordinates></Point></Placemark><Placemark><TimeSpan><begin>2020-03-03T09:58:47Z</begin><end>2020-03-03T09:58:48Z</end></TimeSpan><styleUrl>#point</styleUrl><Point><altitudeMode>clampToGround</altitudeMode><coordinates>19.20990401878953,-33.585889041423798,248.16</coordinates></Point></Placemark><Placemark><TimeSpan><begin>2020-03-03T09:58:48Z</begin><end>2020-03-03T09:58:49Z</end></TimeSpan><styleUrl>#point</styleUrl><Point><altitudeMode>clampToGround</altitudeMode><coordinates>19.210048019886017,-33.585946960374713,248.16</coordinates></Point></Placemark><Placemark><TimeSpan><begin>2020-03-03T09:58:49Z</begin><end>2020-03-03T09:58:55Z</end></TimeSpan><styleUrl>#point</styleUrl><Point><altitudeMode>clampToGround</altitudeMode><coordinates>19.210666017606854,-33.586114011704922,248.16</coordinates></Point></Placemark><Placemark><TimeSpan><begin>2020-03-03T09:58:55Z</begin><end>2020-03-03T09:59:06Z</end></TimeSpan><styleUrl>#point</styleUrl><Point><altitudeMode>clampToGround</altitudeMode><coordinates>19.21104303561151,-33.586157010868192,249.59999999999999</coordinates></Point></Placemark><Placemark><TimeSpan><begin>2020-03-03T09:59:06Z</begin><end>2020-03-03T09:59:15Z</end></TimeSpan><styleUrl>#point</styleUrl><Point><altitudeMode>clampToGround</altitudeMode><coordinates>19.211811991408467,-33.586311992257833,247.68000000000001</coordinates></Point></Placemark><Placemark><TimeSpan><begin>2020-03-03T09:59:15Z</begin><end>2020-03-03T09:59:29Z</end></TimeSpan><styleUrl>#point</styleUrl><Point><altitudeMode>clampToGround</altitudeMode><coordinates>19.213836975395679,-33.586751036345959,242.38999999999999</coordinates></Point></Placemark><Placemark><TimeSpan><begin>2020-03-03T09:59:29Z</begin><end>2020-03-03T09:59:39Z</end></TimeSpan><styleUrl>#point</styleUrl><Point><altitudeMode>clampToGround</altitudeMode><coordinates>19.215209009125829,-33.587087988853455,237.09999999999999</coordinates></Point></Placemark><Placemark><TimeSpan><begin>2020-03-03T09:59:39Z</begin><end>2020-03-03T09:59:41Z</end></TimeSpan><styleUrl>#point</styleUrl><Point><altitudeMode>clampToGround</altitudeMode><coordinates>19.215352004393935,-33.587128976359963,236.13999999999999</coordinates></Point></Placemark><Placemark><TimeSpan><begin>2020-03-03T09:59:41Z</begin><end>2020-03-03T09:59:42Z</end></TimeSpan><styleUrl>#point</styleUrl><Point><altitudeMode>clampToGround</altitudeMode><coordinates>19.215395003557205,-33.587152026593685,235.66</coordinates></Point></Placemark><Placemark><TimeSpan><begin>2020-03-03T09:59:42Z</begin><end>2020-03-03T09:59:44Z</end></TimeSpan><styleUrl>#point</styleUrl><Point><altitudeMode>clampToGround</altitudeMode><coordinates>19.215429034084082,-33.58716300688684,235.66</coordinates></Point></Placemark><Placemark><TimeSpan><begin>2020-03-03T09:59:44Z</begin><end>2020-03-03T09:59:52Z</end></TimeSpan><styleUrl>#point</styleUrl><Point><altitudeMode>clampToGround</altitudeMode><coordinates>19.215488964691758,-33.58716401271522,237.58000000000001</coordinates></Point></Placemark><Placemark><TimeSpan><begin>2020-03-03T09:59:52Z</begin><end>2020-03-03T09:59:53Z</end></TimeSpan><styleUrl>#point</styleUrl><Point><altitudeMode>clampToGround</altitudeMode><coordinates>19.215550990775228,-33.587159989401698,237.58000000000001</coordinates></Point></Placemark><Placemark><TimeSpan><begin>2020-03-03T09:59:53Z</begin><end>2020-03-03T09:59:54Z</end></TimeSpan><styleUrl>#point</styleUrl><Point><altitudeMode>clampToGround</altitudeMode><coordinates>19.215637994930148,-33.587167030200362,237.58000000000001</coordinates></Point></Placemark><Placemark><TimeSpan><begin>2020-03-03T09:59:54Z</begin><end>2020-03-03T09:59:55Z</end></TimeSpan><styleUrl>#point</styleUrl><Point><altitudeMode>clampToGround</altitudeMode><coordinates>19.215742014348507,-33.587183961644769,237.09999999999999</coordinates></Point></Placemark><Placemark><TimeSpan><begin>2020-03-03T09:59:55Z</begin><end>2020-03-03T09:59:56Z</end></TimeSpan><styleUrl>#point</styleUrl><Point><altitudeMode>clampToGround</altitudeMode><coordinates>19.215860031545162,-33.587208017706871,237.09999999999999</coordinates></Point></Placemark><Placemark><TimeSpan><begin>2020-03-03T09:59:56Z</begin><end>2020-03-03T10:00:05Z</end></TimeSpan><styleUrl>#point</styleUrl><Point><altitudeMode>clampToGround</altitudeMode><coordinates>19.217237010598183,-33.587503982707858,236.62</coordinates></Point></Placemark><Placemark><TimeSpan><begin>2020-03-03T10:00:05Z</begin><end>2020-03-03T10:00:19Z</end></TimeSpan><styleUrl>#point</styleUrl><Point><altitudeMode>clampToGround</altitudeMode><coordinates>19.21931304037571,-33.58796096406877,234.69999999999999</coordinates></Point></Placemark><Placemark><TimeSpan><begin>2020-03-03T10:00:19Z</begin><end>2020-03-03T10:00:35Z</end></TimeSpan><styleUrl>#point</styleUrl><Point><altitudeMode>clampToGround</altitudeMode><coordinates>19.221327966079116,-33.588475026190281,232.78</coordinates></Point></Placemark><Placemark><TimeSpan><begin>2020-03-03T10:00:35Z</begin><end>2020-03-03T10:00:46Z</end></TimeSpan><styleUrl>#point</styleUrl><Point><altitudeMode>clampToGround</altitudeMode><coordinates>19.222519034519792,-33.589113978669047,233.74000000000001</coordinates></Point></Placemark><Placemark><TimeSpan><begin>2020-03-03T10:00:46Z</begin><end>2020-03-03T10:01:06Z</end></TimeSpan><styleUrl>#point</styleUrl><Point><altitudeMode>clampToGround</altitudeMode><coordinates>19.224344026297331,-33.590266993269324,235.18000000000001</coordinates></Point></Placemark><Placemark><TimeSpan><begin>2020-03-03T10:01:06Z</begin><end>2020-03-03T10:01:21Z</end></TimeSpan><styleUrl>#point</styleUrl><Point><altitudeMode>clampToGround</altitudeMode><coordinates>19.225479019805789,-33.591099986806512,236.13999999999999</coordinates></Point></Placemark><Placemark><TimeSpan><begin>2020-03-03T10:01:21Z</begin><end>2020-03-03T10:01:36Z</end></TimeSpan><styleUrl>#point</styleUrl><Point><altitudeMode>clampToGround</altitudeMode><coordinates>19.226208999752998,-33.592149987816811,236.62</coordinates></Point></Placemark><Placemark><TimeSpan><begin>2020-03-03T10:01:36Z</begin><end>2020-03-03T10:01:51Z</end></TimeSpan><styleUrl>#point</styleUrl><Point><altitudeMode>clampToGround</altitudeMode><coordinates>19.226517034694552,-33.593421019613743,238.53999999999999</coordinates></Point></Placemark><Placemark><TimeSpan><begin>2020-03-03T10:01:51Z</begin><end>2020-03-03T10:02:11Z</end></TimeSpan><styleUrl>#point</styleUrl><Point><altitudeMode>clampToGround</altitudeMode><coordinates>19.226696994155645,-33.594991033896804,240.94999999999999</coordinates></Point></Placemark><Placemark><TimeSpan><begin>2020-03-03T10:02:11Z</begin><end>2020-03-03T10:02:31Z</end></TimeSpan><styleUrl>#point</styleUrl><Point><altitudeMode>clampToGround</altitudeMode><coordinates>19.226876031607389,-33.596375975757837,243.34999999999999</coordinates></Point></Placemark><Placemark><TimeSpan><begin>2020-03-03T10:02:31Z</begin><end>2020-03-03T10:02:50Z</end></TimeSpan><styleUrl>#point</styleUrl><Point><altitudeMode>clampToGround</altitudeMode><coordinates>19.227060014382005,-33.597778016701341,246.72</coordinates></Point></Placemark><Placemark><TimeSpan><begin>2020-03-03T10:02:50Z</begin><end>2020-03-03T10:03:06Z</end></TimeSpan><styleUrl>#point</styleUrl><Point><altitudeMode>clampToGround</altitudeMode><coordinates>19.227296970784664,-33.598990039899945,251.52000000000001</coordinates></Point></Placemark><Placemark><TimeSpan><begin>2020-03-03T10:03:06Z</begin><end>2020-03-03T10:03:24Z</end></TimeSpan><styleUrl>#point</styleUrl><Point><altitudeMode>clampToGround</altitudeMode><coordinates>19.227821007370949,-33.600220000371337,254.41</coordinates></Point></Placemark><Placemark><TimeSpan><begin>2020-03-03T10:03:24Z</begin><end>2020-03-03T10:03:50Z</end></TimeSpan><styleUrl>#point</styleUrl><Point><altitudeMode>clampToGround</altitudeMode><coordinates>19.228629022836685,-33.601978020742536,255.84999999999999</coordinates></Point></Placemark><Placemark><TimeSpan><begin>2020-03-03T10:03:50Z</begin><end>2020-03-03T10:04:09Z</end></TimeSpan><styleUrl>#point</styleUrl><Point><altitudeMode>clampToGround</altitudeMode><coordinates>19.229237968102098,-33.60331904143095,256.32999999999998</coordinates></Point></Placemark><Placemark><TimeSpan><begin>2020-03-03T10:04:09Z</begin><end>2020-03-03T10:04:35Z</end></TimeSpan><styleUrl>#point</styleUrl><Point><altitudeMode>clampToGround</altitudeMode><coordinates>19.229965014383197,-33.605115031823516,259.20999999999998</coordinates></Point></Placemark><Placemark><TimeSpan><begin>2020-03-03T10:04:35Z</begin><end>2020-03-03T10:04:55Z</end></TimeSpan><styleUrl>#point</styleUrl><Point><altitudeMode>clampToGround</altitudeMode><coordinates>19.230047995224595,-33.606580020859838,258.73000000000002</coordinates></Point></Placemark><Placemark><TimeSpan><begin>2020-03-03T10:04:55Z</begin><end>2020-03-03T10:05:14Z</end></TimeSpan><styleUrl>#point</styleUrl><Point><altitudeMode>clampToGround</altitudeMode><coordinates>19.229727974161506,-33.608031012117863,258.73000000000002</coordinates></Point></Placemark><Placemark><TimeSpan><begin>2020-03-03T10:05:14Z</begin><end>2020-03-03T10:05:32Z</end></TimeSpan><styleUrl>#point</styleUrl><Point><altitudeMode>clampToGround</altitudeMode><coordinates>19.229417005553842,-33.609429029747844,260.17000000000002</coordinates></Point></Placemark><Placemark><TimeSpan><begin>2020-03-03T10:05:32Z</begin><end>2020-03-03T10:05:47Z</end></TimeSpan><styleUrl>#point</styleUrl><Point><altitudeMode>clampToGround</altitudeMode><coordinates>19.229213995859027,-33.6105399671942,260.17000000000002</coordinates></Point></Placemark><Placemark><TimeSpan><begin>2020-03-03T10:05:47Z</begin><end>2020-03-03T10:06:00Z</end></TimeSpan><styleUrl>#point</styleUrl><Point><altitudeMode>clampToGround</altitudeMode><coordinates>19.229030013084412,-33.611726006492972,260.64999999999998</coordinates></Point></Placemark><Placemark><TimeSpan><begin>2020-03-03T10:06:00Z</begin><end>2020-03-03T10:06:12Z</end></TimeSpan><styleUrl>#point</styleUrl><Point><altitudeMode>clampToGround</altitudeMode><coordinates>19.22896396368742,-33.612857982516289,262.57999999999998</coordinates></Point></Placemark><Placemark><TimeSpan><begin>2020-03-03T10:06:12Z</begin><end>2020-03-03T10:06:22Z</end></TimeSpan><styleUrl>#point</styleUrl><Point><altitudeMode>clampToGround</altitudeMode><coordinates>19.22904803417623,-33.613731041550636,264.5</coordinates></Point></Placemark><Placemark><TimeSpan><begin>2020-03-03T10:06:22Z</begin><end>2020-03-03T10:06:37Z</end></TimeSpan><styleUrl>#point</styleUrl><Point><altitudeMode>clampToGround</altitudeMode><coordinates>19.229111988097429,-33.614677023142576,266.89999999999998</coordinates></Point></Placemark><Placemark><TimeSpan><begin>2020-03-03T10:06:37Z</begin><end>2020-03-03T10:06:52Z</end></TimeSpan><styleUrl>#point</styleUrl><Point><altitudeMode>clampToGround</altitudeMode><coordinates>19.229146018624306,-33.615729035809636,268.82999999999998</coordinates></Point></Placemark><Placemark><TimeSpan><begin>2020-03-03T10:06:52Z</begin><end>2020-03-03T10:07:10Z</end></TimeSpan><styleUrl>#point</styleUrl><Point><altitudeMode>clampToGround</altitudeMode><coordinates>19.228849969804287,-33.617265019565821,269.31</coordinates></Point></Placemark><Placemark><TimeSpan><begin>2020-03-03T10:07:10Z</begin><end>2020-03-03T10:07:33Z</end></TimeSpan><styleUrl>#point</styleUrl><Point><altitudeMode>clampToGround</altitudeMode><coordinates>19.228391982614994,-33.619084982201457,269.31</coordinates></Point></Placemark><Placemark><TimeSpan><begin>2020-03-03T10:07:33Z</begin><end>2020-03-03T10:07:55Z</end></TimeSpan><styleUrl>#point</styleUrl><Point><altitudeMode>clampToGround</altitudeMode><coordinates>19.228039020672441,-33.620797991752625,271.23000000000002</coordinates></Point></Placemark><Placemark><TimeSpan><begin>2020-03-03T10:07:55Z</begin><end>2020-03-03T10:08:11Z</end></TimeSpan><styleUrl>#point</styleUrl><Point><altitudeMode>clampToGround</altitudeMode><coordinates>19.227881021797657,-33.622013032436371,272.19</coordinates></Point></Placemark><Placemark><TimeSpan><begin>2020-03-03T10:08:11Z</begin><end>2020-03-03T10:08:27Z</end></TimeSpan><styleUrl>#point</styleUrl><Point><altitudeMode>clampToGround</altitudeMode><coordinates>19.227740038186312,-33.6231719981879,272.19</coordinates></Point></Placemark><Placemark><TimeSpan><begin>2020-03-03T10:08:27Z</begin><end>2020-03-03T10:08:52Z</end></TimeSpan><styleUrl>#point</styleUrl><Point><altitudeMode>clampToGround</altitudeMode><coordinates>19.227468967437744,-33.624973017722368,275.06999999999999</coordinates></Point></Placemark><Placemark><TimeSpan><begin>2020-03-03T10:08:52Z</begin><end>2020-03-03T10:09:09Z</end></TimeSpan><styleUrl>#point</styleUrl><Point><altitudeMode>clampToGround</altitudeMode><coordinates>19.227346004918218,-33.626111028715968,278.92000000000002</coordinates></Point></Placemark><Placemark><TimeSpan><begin>2020-03-03T10:09:09Z</begin><end>2020-03-03T10:09:26Z</end></TimeSpan><styleUrl>#point</styleUrl><Point><altitudeMode>clampToGround</altitudeMode><coordinates>19.227255983278155,-33.627279968932271,284.69</coordinates></Point></Placemark><Placemark><TimeSpan><begin>2020-03-03T10:09:26Z</begin><end>2020-03-03T10:09:48Z</end></TimeSpan><styleUrl>#point</styleUrl><Point><altitudeMode>clampToGround</altitudeMode><coordinates>19.227237040176988,-33.628963977098465,285.17000000000002</coordinates></Point></Placemark><Placemark><TimeSpan><begin>2020-03-03T10:09:48Z</begin><end>2020-03-03T10:10:06Z</end></TimeSpan><styleUrl>#point</styleUrl><Point><altitudeMode>clampToGround</altitudeMode><coordinates>19.226973010227084,-33.630809001624584,281.31999999999999</coordinates></Point></Placemark><Placemark><TimeSpan><begin>2020-03-03T10:10:06Z</begin><end>2020-03-03T10:10:14Z</end></TimeSpan><styleUrl>#point</styleUrl><Point><altitudeMode>clampToGround</altitudeMode><coordinates>19.227317003533244,-33.631619028747082,281.31999999999999</coordinates></Point></Placemark><Placemark><TimeSpan><begin>2020-03-03T10:10:14Z</begin><end>2020-03-03T10:10:24Z</end></TimeSpan><styleUrl>#point</styleUrl><Point><altitudeMode>clampToGround</altitudeMode><coordinates>19.227768033742905,-33.632450010627508,281.80000000000001</coordinates></Point></Placemark><Placemark><TimeSpan><begin>2020-03-03T10:10:24Z</begin><end>2020-03-03T10:10:39Z</end></TimeSpan><styleUrl>#point</styleUrl><Point><altitudeMode>clampToGround</altitudeMode><coordinates>19.227706007659435,-33.633704027161002,280.83999999999997</coordinates></Point></Placemark><Placemark><TimeSpan><begin>2020-03-03T10:10:39Z</begin><end>2020-03-03T10:10:53Z</end></TimeSpan><styleUrl>#point</styleUrl><Point><altitudeMode>clampToGround</altitudeMode><coordinates>19.227327983826399,-33.634799961000681,275.56</coordinates></Point></Placemark><Placemark><TimeSpan><begin>2020-03-03T10:10:53Z</begin><end>2020-03-03T10:11:11Z</end></TimeSpan><styleUrl>#point</styleUrl><Point><altitudeMode>clampToGround</altitudeMode><coordinates>19.226930011063814,-33.636198984459043,275.56</coordinates></Point></Placemark><Placemark><TimeSpan><begin>2020-03-03T10:11:11Z</begin><end>2020-03-03T10:11:22Z</end></TimeSpan><styleUrl>#point</styleUrl><Point><altitudeMode>clampToGround</altitudeMode><coordinates>19.227070994675159,-33.636828968301415,281.31999999999999</coordinates></Point></Placemark><Placemark><TimeSpan><begin>2020-03-03T10:11:22Z</begin><end>2020-03-03T10:11:37Z</end></TimeSpan><styleUrl>#point</styleUrl><Point><altitudeMode>clampToGround</altitudeMode><coordinates>19.227475002408028,-33.637440009042621,291.89999999999998</coordinates></Point></Placemark><Placemark><TimeSpan><begin>2020-03-03T10:11:37Z</begin><end>2020-03-03T10:11:39Z</end></TimeSpan><styleUrl>#point</styleUrl><Point><altitudeMode>clampToGround</altitudeMode><coordinates>19.227563012391329,-33.637517038732767,293.33999999999997</coordinates></Point></Placemark><Placemark><TimeSpan><begin>2020-03-03T10:11:39Z</begin><end>2020-03-03T10:11:54Z</end></TimeSpan><styleUrl>#point</styleUrl><Point><altitudeMode>clampToGround</altitudeMode><coordinates>19.228321993723512,-33.638012995943427,299.11000000000001</coordinates></Point></Placemark><Placemark><TimeSpan><begin>2020-03-03T10:11:54Z</begin><end>2020-03-03T10:12:09Z</end></TimeSpan><styleUrl>#point</styleUrl><Point><altitudeMode>clampToGround</altitudeMode><coordinates>19.228864973410964,-33.638696959242225,306.31999999999999</coordinates></Point></Placemark><Placemark><TimeSpan><begin>2020-03-03T10:12:09Z</begin><end>2020-03-03T10:12:18Z</end></TimeSpan><styleUrl>#point</styleUrl><Point><altitudeMode>clampToGround</altitudeMode><coordinates>19.228979973122478,-33.639184031635523,304.88</coordinates></Point></Placemark><Placemark><TimeSpan><begin>2020-03-03T10:12:18Z</begin><end>2020-03-03T10:12:34Z</end></TimeSpan><styleUrl>#point</styleUrl><Point><altitudeMode>clampToGround</altitudeMode><coordinates>19.228738993406296,-33.640115009620786,306.80000000000001</coordinates></Point></Placemark><Placemark><TimeSpan><begin>2020-03-03T10:12:34Z</begin><end>2020-03-03T10:12:54Z</end></TimeSpan><styleUrl>#point</styleUrl><Point><altitudeMode>clampToGround</altitudeMode><coordinates>19.228319982066751,-33.641344970092177,309.19999999999999</coordinates></Point></Placemark><Placemark><TimeSpan><begin>2020-03-03T10:12:54Z</begin><end>2020-03-03T10:13:15Z</end></TimeSpan><styleUrl>#point</styleUrl><Point><altitudeMode>clampToGround</altitudeMode><coordinates>19.227935001254082,-33.642976004630327,309.19999999999999</coordinates></Point></Placemark><Placemark><TimeSpan><begin>2020-03-03T10:13:15Z</begin><end>2020-03-03T10:13:32Z</end></TimeSpan><styleUrl>#point</styleUrl><Point><altitudeMode>clampToGround</altitudeMode><coordinates>19.227809021249413,-33.644651966169477,307.27999999999997</coordinates></Point></Placemark><Placemark><TimeSpan><begin>2020-03-03T10:13:32Z</begin><end>2020-03-03T10:13:51Z</end></TimeSpan><styleUrl>#point</styleUrl><Point><altitudeMode>clampToGround</altitudeMode><coordinates>19.227969031780958,-33.646321976557374,304.88</coordinates></Point></Placemark><Placemark><TimeSpan><begin>2020-03-03T10:13:51Z</begin><end>2020-03-03T10:14:11Z</end></TimeSpan><styleUrl>#point</styleUrl><Point><altitudeMode>clampToGround</altitudeMode><coordinates>19.22835904173553,-33.647857960313559,306.31999999999999</coordinates></Point></Placemark><Placemark><TimeSpan><begin>2020-03-03T10:14:11Z</begin><end>2020-03-03T10:14:29Z</end></TimeSpan><styleUrl>#point</styleUrl><Point><altitudeMode>clampToGround</altitudeMode><coordinates>19.228908978402615,-33.649194035679102,308.24000000000001</coordinates></Point></Placemark><Placemark><TimeSpan><begin>2020-03-03T10:14:29Z</begin><end>2020-03-03T10:14:47Z</end></TimeSpan><styleUrl>#point</styleUrl><Point><altitudeMode>clampToGround</altitudeMode><coordinates>19.229678018018603,-33.650567997246981,311.12</coordinates></Point></Placemark><Placemark><TimeSpan><begin>2020-03-03T10:14:47Z</begin><end>2020-03-03T10:15:08Z</end></TimeSpan><styleUrl>#point</styleUrl><Point><altitudeMode>clampToGround</altitudeMode><coordinates>19.23061603680253,-33.652038015425205,313.05000000000001</coordinates></Point></Placemark><Placemark><TimeSpan><begin>2020-03-03T10:15:08Z</begin><end>2020-03-03T10:15:27Z</end></TimeSpan><styleUrl>#point</styleUrl><Point><altitudeMode>clampToGround</altitudeMode><coordinates>19.231397984549403,-33.653248026967049,314.00999999999999</coordinates></Point></Placemark><Placemark><TimeSpan><begin>2020-03-03T10:15:27Z</begin><end>2020-03-03T10:15:49Z</end></TimeSpan><styleUrl>#point</styleUrl><Point><altitudeMode>clampToGround</altitudeMode><coordinates>19.232371039688587,-33.65475601516664,312.56999999999999</coordinates></Point></Placemark><Placemark><TimeSpan><begin>2020-03-03T10:15:49Z</begin><end>2020-03-03T10:16:02Z</end></TimeSpan><styleUrl>#point</styleUrl><Point><altitudeMode>clampToGround</altitudeMode><coordinates>19.233078975230455,-33.655828982591629,315.93000000000001</coordinates></Point></Placemark><Placemark><TimeSpan><begin>2020-03-03T10:16:02Z</begin><end>2020-03-03T10:16:16Z</end></TimeSpan><styleUrl>#point</styleUrl><Point><altitudeMode>clampToGround</altitudeMode><coordinates>19.233748018741608,-33.656889963895082,316.41000000000003</coordinates></Point></Placemark><Placemark><TimeSpan><begin>2020-03-03T10:16:16Z</begin><end>2020-03-03T10:16:33Z</end></TimeSpan><styleUrl>#point</styleUrl><Point><altitudeMode>clampToGround</altitudeMode><coordinates>19.234469030052423,-33.657998973503709,313.52999999999997</coordinates></Point></Placemark><Placemark><TimeSpan><begin>2020-03-03T10:16:33Z</begin><end>2020-03-03T10:16:48Z</end></TimeSpan><styleUrl>#point</styleUrl><Point><altitudeMode>clampToGround</altitudeMode><coordinates>19.235227005556226,-33.659164980053902,310.63999999999999</coordinates></Point></Placemark><Placemark><TimeSpan><begin>2020-03-03T10:16:48Z</begin><end>2020-03-03T10:17:03Z</end></TimeSpan><styleUrl>#point</styleUrl><Point><altitudeMode>clampToGround</altitudeMode><coordinates>19.236107021570206,-33.660517986863852,313.52999999999997</coordinates></Point></Placemark><Placemark><TimeSpan><begin>2020-03-03T10:17:03Z</begin><end>2020-03-03T10:17:20Z</end></TimeSpan><styleUrl>#point</styleUrl><Point><altitudeMode>clampToGround</altitudeMode><coordinates>19.23725601285696,-33.661763034760952,311.12</coordinates></Point></Placemark><Placemark><TimeSpan><begin>2020-03-03T10:17:20Z</begin><end>2020-03-03T10:17:39Z</end></TimeSpan><styleUrl>#point</styleUrl><Point><altitudeMode>clampToGround</altitudeMode><coordinates>19.238785039633512,-33.662808006629348,311.12</coordinates></Point></Placemark><Placemark><TimeSpan><begin>2020-03-03T10:17:39Z</begin><end>2020-03-03T10:17:56Z</end></TimeSpan><styleUrl>#point</styleUrl><Point><altitudeMode>clampToGround</altitudeMode><coordinates>19.240367962047458,-33.663507979363203,310.16000000000003</coordinates></Point></Placemark><Placemark><TimeSpan><begin>2020-03-03T10:17:56Z</begin><end>2020-03-03T10:18:20Z</end></TimeSpan><styleUrl>#point</styleUrl><Point><altitudeMode>clampToGround</altitudeMode><coordinates>19.243026031181216,-33.664640039205551,304.88</coordinates></Point></Placemark><Placemark><TimeSpan><begin>2020-03-03T10:18:20Z</begin><end>2020-03-03T10:18:42Z</end></TimeSpan><styleUrl>#point</styleUrl><Point><altitudeMode>clampToGround</altitudeMode><coordinates>19.245554013177752,-33.665717029944062,289.49000000000001</coordinates></Point></Placemark><Placemark><TimeSpan><begin>2020-03-03T10:18:42Z</begin><end>2020-03-03T10:18:55Z</end></TimeSpan><styleUrl>#point</styleUrl><Point><altitudeMode>clampToGround</altitudeMode><coordinates>19.247192004695535,-33.666406022384763,282.27999999999997</coordinates></Point></Placemark><Placemark><TimeSpan><begin>2020-03-03T10:18:55Z</begin><end>2020-03-03T10:19:09Z</end></TimeSpan><styleUrl>#point</styleUrl><Point><altitudeMode>clampToGround</altitudeMode><coordinates>19.249338023364544,-33.667317973449826,276.51999999999998</coordinates></Point></Placemark><Placemark><TimeSpan><begin>2020-03-03T10:19:09Z</begin><end>2020-03-03T10:19:22Z</end></TimeSpan><styleUrl>#point</styleUrl><Point><altitudeMode>clampToGround</altitudeMode><coordinates>19.25139200873673,-33.668166976422071,267.38</coordinates></Point></Placemark><Placemark><TimeSpan><begin>2020-03-03T10:19:22Z</begin><end>2020-03-03T10:19:36Z</end></TimeSpan><styleUrl>#point</styleUrl><Point><altitudeMode>clampToGround</altitudeMode><coordinates>19.253465021029115,-33.6687439866364,262.57999999999998</coordinates></Point></Placemark><Placemark><TimeSpan><begin>2020-03-03T10:19:36Z</begin><end>2020-03-03T10:19:59Z</end></TimeSpan><styleUrl>#point</styleUrl><Point><altitudeMode>clampToGround</altitudeMode><coordinates>19.256522990763187,-33.669526018202305,255.84999999999999</coordinates></Point></Placemark><Placemark><TimeSpan><begin>2020-03-03T10:19:59Z</begin><end>2020-03-03T10:20:22Z</end></TimeSpan><styleUrl>#point</styleUrl><Point><altitudeMode>clampToGround</altitudeMode><coordinates>19.259560005739331,-33.670317018404603,247.68000000000001</coordinates></Point></Placemark><Placemark><TimeSpan><begin>2020-03-03T10:20:22Z</begin><end>2020-03-03T10:20:42Z</end></TimeSpan><styleUrl>#point</styleUrl><Point><altitudeMode>clampToGround</altitudeMode><coordinates>19.262123024091125,-33.670980026945472,240.47</coordinates></Point></Placemark><Placemark><TimeSpan><begin>2020-03-03T10:20:42Z</begin><end>2020-03-03T10:21:04Z</end></TimeSpan><styleUrl>#point</styleUrl><Point><altitudeMode>clampToGround</altitudeMode><coordinates>19.264832977205515,-33.671673964709044,237.58000000000001</coordinates></Point></Placemark></Folder><Placemark><name>[120C] Slanghoek Valley Road</name><Style><LineStyle><color>ffff4040</color><width>4</width></LineStyle></Style><MultiGeometry><LineString><coordinates>19.208252029493451,-33.542697010561824,223.63999999999999 19.20737000182271,-33.543349960818887,223.63999999999999 19.207077976316214,-33.54356998577714,225.09 19.207016034051776,-33.543631006032228,225.56999999999999 19.206272978335619,-33.54449300095439,227.49000000000001 19.205030025914311,-33.546104002743959,227.49000000000001 19.204574972391129,-33.547042021527886,231.33000000000001 19.204069962725043,-33.548526959493756,241.43000000000001 19.204056970775127,-33.549656001850963,249.12 19.204289987683296,-33.55160596780479,260.64999999999998 19.204476987943053,-33.552772980183363,270.75 19.205020973458886,-33.553743017837405,277 19.205932002514601,-33.55513097718358,284.69 19.206068962812424,-33.556377030909061,289.49000000000001 19.205935019999743,-33.55798501521349,298.14999999999998 19.205791018903255,-33.559098970144987,301.50999999999999 19.205506034195423,-33.560193981975317,301.99000000000001 19.204844031482935,-33.56161898933351,302.47000000000003 19.203939959406853,-33.563211970031261,301.50999999999999 19.203699985519052,-33.564481995999813,299.11000000000001 19.203960997983813,-33.566015968099236,291.89999999999998 19.20429996214807,-33.567893011495471,281.31999999999999 19.204728025943041,-33.570295013487339,275.06999999999999 19.20509397983551,-33.572355033829808,270.75 19.20554299838841,-33.5747039783746,264.5 19.205970978364348,-33.57616201043129,259.69 19.206782011315227,-33.577317958697677,257.29000000000002 19.207242010161281,-33.578329989686608,254.88999999999999 19.207589020952582,-33.579860022291541,252.96000000000001 19.208012977614999,-33.581746034324169,251.03999999999999 19.208397958427668,-33.583414033055305,250.08000000000001 19.208979997783899,-33.585168030112982,249.12 19.20908996835351,-33.585304990410805,249.12 19.209211003035307,-33.585431976243854,248.63999999999999 19.209343018010259,-33.585548987612128,248.16 19.20947796665132,-33.585654012858868,248.16 19.209618028253317,-33.58574403449893,248.16 19.209762029349804,-33.585821986198425,248.16 19.20990401878953,-33.585889041423798,248.16 19.210048019886017,-33.585946960374713,248.16 19.210666017606854,-33.586114011704922,248.16 19.21104303561151,-33.586157010868192,249.59999999999999 19.211811991408467,-33.586311992257833,247.68000000000001 19.213836975395679,-33.586751036345959,242.38999999999999 19.215209009125829,-33.587087988853455,237.09999999999999 19.215352004393935,-33.587128976359963,236.13999999999999 19.215395003557205,-33.587152026593685,235.66 19.215429034084082,-33.58716300688684,235.66 19.215488964691758,-33.58716401271522,237.58000000000001 19.215550990775228,-33.587159989401698,237.58000000000001 19.215637994930148,-33.587167030200362,237.58000000000001 19.215742014348507,-33.587183961644769,237.09999999999999 19.215860031545162,-33.587208017706871,237.09999999999999 19.217237010598183,-33.587503982707858,236.62 19.21931304037571,-33.58796096406877,234.69999999999999 19.221327966079116,-33.588475026190281,232.78 19.222519034519792,-33.589113978669047,233.74000000000001 19.224344026297331,-33.590266993269324,235.18000000000001 19.225479019805789,-33.591099986806512,236.13999999999999 19.226208999752998,-33.592149987816811,236.62 19.226517034694552,-33.593421019613743,238.53999999999999 19.226696994155645,-33.594991033896804,240.94999999999999 19.226876031607389,-33.596375975757837,243.34999999999999 19.227060014382005,-33.597778016701341,246.72 19.227296970784664,-33.598990039899945,251.52000000000001 19.227821007370949,-33.600220000371337,254.41 19.228629022836685,-33.601978020742536,255.84999999999999 19.229237968102098,-33.60331904143095,256.32999999999998 19.229965014383197,-33.605115031823516,259.20999999999998 19.230047995224595,-33.606580020859838,258.73000000000002 19.229727974161506,-33.608031012117863,258.73000000000002 19.229417005553842,-33.609429029747844,260.17000000000002 19.229213995859027,-33.6105399671942,260.17000000000002 19.229030013084412,-33.611726006492972,260.64999999999998 19.22896396368742,-33.612857982516289,262.57999999999998 19.22904803417623,-33.613731041550636,264.5 19.229111988097429,-33.614677023142576,266.89999999999998 19.229146018624306,-33.615729035809636,268.82999999999998 19.228849969804287,-33.617265019565821,269.31 19.228391982614994,-33.619084982201457,269.31 19.228039020672441,-33.620797991752625,271.23000000000002 19.227881021797657,-33.622013032436371,272.19 19.227740038186312,-33.6231719981879,272.19 19.227468967437744,-33.624973017722368,275.06999999999999 19.227346004918218,-33.626111028715968,278.92000000000002 19.227255983278155,-33.627279968932271,284.69 19.227237040176988,-33.628963977098465,285.17000000000002 19.226973010227084,-33.630809001624584,281.31999999999999 19.227317003533244,-33.631619028747082,281.31999999999999 19.227768033742905,-33.632450010627508,281.80000000000001 19.227706007659435,-33.633704027161002,280.83999999999997 19.227327983826399,-33.634799961000681,275.56 19.226930011063814,-33.636198984459043,275.56 19.227070994675159,-33.636828968301415,281.31999999999999 19.227475002408028,-33.637440009042621,291.89999999999998 19.227563012391329,-33.637517038732767,293.33999999999997 19.228321993723512,-33.638012995943427,299.11000000000001 19.228864973410964,-33.638696959242225,306.31999999999999 19.228979973122478,-33.639184031635523,304.88 19.228738993406296,-33.640115009620786,306.80000000000001 19.228319982066751,-33.641344970092177,309.19999999999999 19.227935001254082,-33.642976004630327,309.19999999999999 19.227809021249413,-33.644651966169477,307.27999999999997 19.227969031780958,-33.646321976557374,304.88 19.22835904173553,-33.647857960313559,306.31999999999999 19.228908978402615,-33.649194035679102,308.24000000000001 19.229678018018603,-33.650567997246981,311.12 19.23061603680253,-33.652038015425205,313.05000000000001 19.231397984549403,-33.653248026967049,314.00999999999999 19.232371039688587,-33.65475601516664,312.56999999999999 19.233078975230455,-33.655828982591629,315.93000000000001 19.233748018741608,-33.656889963895082,316.41000000000003 19.234469030052423,-33.657998973503709,313.52999999999997 19.235227005556226,-33.659164980053902,310.63999999999999 19.236107021570206,-33.660517986863852,313.52999999999997 19.23725601285696,-33.661763034760952,311.12 19.238785039633512,-33.662808006629348,311.12 19.240367962047458,-33.663507979363203,310.16000000000003 19.243026031181216,-33.664640039205551,304.88 19.245554013177752,-33.665717029944062,289.49000000000001 19.247192004695535,-33.666406022384763,282.27999999999997 19.249338023364544,-33.667317973449826,276.51999999999998 19.25139200873673,-33.668166976422071,267.38 19.253465021029115,-33.6687439866364,262.57999999999998 19.256522990763187,-33.669526018202305,255.84999999999999 19.259560005739331,-33.670317018404603,247.68000000000001 19.262123024091125,-33.670980026945472,240.47 19.264832977205515,-33.671673964709044,237.58000000000001 </coordinates></LineString></MultiGeometry></Placemark></Folder></Folder></Document></kml>