<?xml version="1.0" encoding="utf-8"?><kml xmlns="http://www.opengis.net/kml/2.2" xmlns:xsi="http://www.w3.org/2001/XMLSchema-instance" xmlns:kmlx="http://www.google.com/kml/ext/2.2" xmlns:atom="http://www.w3.org/2005/Atom" xmlns:gpxx="http://www.garmin.com/xmlschemas/GpxExtensions/v3"><Document><Style id="point"><IconStyle><scale>0.9</scale><Icon><href>http://maps.google.com/mapfiles/kml/shapes/placemark_circle.png</href></Icon></IconStyle></Style><Folder><name>Tracks</name><Folder><name>[134] Wildehondskloofhoogte Pass</name><Folder><name>Points</name><Style><ListStyle><listItemType>checkHideChildren</listItemType></ListStyle></Style><Placemark><TimeSpan><begin>2020-03-09T14:05:35Z</begin><end>2020-03-09T14:05:35Z</end></TimeSpan><Style><IconStyle><scale>0.9</scale><Icon><href>http://connect.garmin.com/image/main/icons/kml/grn-play.png</href></Icon></IconStyle></Style><Point><altitudeMode>clampToGround</altitudeMode><coordinates>20.497829960659146,-33.919335985556245,685.08000000000004</coordinates></Point></Placemark><Placemark><TimeSpan><begin>2020-03-09T14:05:35Z</begin><end>2020-03-09T14:05:48Z</end></TimeSpan><styleUrl>#point</styleUrl><Point><altitudeMode>clampToGround</altitudeMode><coordinates>20.492943981662393,-33.920749006792903,684.12</coordinates></Point></Placemark><Placemark><TimeSpan><begin>2020-03-09T14:05:48Z</begin><end>2020-03-09T14:05:55Z</end></TimeSpan><styleUrl>#point</styleUrl><Point><altitudeMode>clampToGround</altitudeMode><coordinates>20.490679023787379,-33.921822980046272,687</coordinates></Point></Placemark><Placemark><TimeSpan><begin>2020-03-09T14:05:55Z</begin><end>2020-03-09T14:06:15Z</end></TimeSpan><styleUrl>#point</styleUrl><Point><altitudeMode>clampToGround</altitudeMode><coordinates>20.48436401411891,-33.92517096363008,669.22000000000003</coordinates></Point></Placemark><Placemark><TimeSpan><begin>2020-03-09T14:06:15Z</begin><end>2020-03-09T14:06:27Z</end></TimeSpan><styleUrl>#point</styleUrl><Point><altitudeMode>clampToGround</altitudeMode><coordinates>20.480542033910751,-33.927001990377903,640.86000000000001</coordinates></Point></Placemark><Placemark><TimeSpan><begin>2020-03-09T14:06:27Z</begin><end>2020-03-09T14:06:33Z</end></TimeSpan><styleUrl>#point</styleUrl><Point><altitudeMode>clampToGround</altitudeMode><coordinates>20.478408001363277,-33.927296027541161,637.97000000000003</coordinates></Point></Placemark><Placemark><TimeSpan><begin>2020-03-09T14:06:33Z</begin><end>2020-03-09T14:06:39Z</end></TimeSpan><styleUrl>#point</styleUrl><Point><altitudeMode>clampToGround</altitudeMode><coordinates>20.476233987137675,-33.926982041448355,641.82000000000005</coordinates></Point></Placemark><Placemark><TimeSpan><begin>2020-03-09T14:06:39Z</begin><end>2020-03-09T14:06:43Z</end></TimeSpan><styleUrl>#point</styleUrl><Point><altitudeMode>clampToGround</altitudeMode><coordinates>20.474807973951101,-33.926627989858389,652.38999999999999</coordinates></Point></Placemark><Placemark><TimeSpan><begin>2020-03-09T14:06:43Z</begin><end>2020-03-09T14:06:44Z</end></TimeSpan><styleUrl>#point</styleUrl><Point><altitudeMode>clampToGround</altitudeMode><coordinates>20.47443799674511,-33.92660703510046,654.79999999999995</coordinates></Point></Placemark><Placemark><TimeSpan><begin>2020-03-09T14:06:44Z</begin><end>2020-03-09T14:06:45Z</end></TimeSpan><styleUrl>#point</styleUrl><Point><altitudeMode>clampToGround</altitudeMode><coordinates>20.474067013710737,-33.926617009565234,657.20000000000005</coordinates></Point></Placemark><Placemark><TimeSpan><begin>2020-03-09T14:06:45Z</begin><end>2020-03-09T14:06:46Z</end></TimeSpan><styleUrl>#point</styleUrl><Point><altitudeMode>clampToGround</altitudeMode><coordinates>20.473697958514094,-33.926649028435349,658.63999999999999</coordinates></Point></Placemark><Placemark><TimeSpan><begin>2020-03-09T14:06:46Z</begin><end>2020-03-09T14:06:47Z</end></TimeSpan><styleUrl>#point</styleUrl><Point><altitudeMode>clampToGround</altitudeMode><coordinates>20.473326975479722,-33.926693033427,659.60000000000002</coordinates></Point></Placemark><Placemark><TimeSpan><begin>2020-03-09T14:06:47Z</begin><end>2020-03-09T14:07:00Z</end></TimeSpan><styleUrl>#point</styleUrl><Point><altitudeMode>clampToGround</altitudeMode><coordinates>20.468389028683305,-33.927199970930815,660.08000000000004</coordinates></Point></Placemark><Placemark><TimeSpan><begin>2020-03-09T14:07:00Z</begin><end>2020-03-09T14:07:01Z</end></TimeSpan><styleUrl>#point</styleUrl><Point><altitudeMode>clampToGround</altitudeMode><coordinates>20.468032965436578,-33.927170969545841,658.63999999999999</coordinates></Point></Placemark><Placemark><TimeSpan><begin>2020-03-09T14:07:01Z</begin><end>2020-03-09T14:07:02Z</end></TimeSpan><styleUrl>#point</styleUrl><Point><altitudeMode>clampToGround</altitudeMode><coordinates>20.467684026807547,-33.927110033109784,656.72000000000003</coordinates></Point></Placemark><Placemark><TimeSpan><begin>2020-03-09T14:07:02Z</begin><end>2020-03-09T14:07:03Z</end></TimeSpan><styleUrl>#point</styleUrl><Point><altitudeMode>clampToGround</altitudeMode><coordinates>20.467341961339116,-33.927026968449354,655.27999999999997</coordinates></Point></Placemark><Placemark><TimeSpan><begin>2020-03-09T14:07:03Z</begin><end>2020-03-09T14:07:04Z</end></TimeSpan><styleUrl>#point</styleUrl><Point><altitudeMode>clampToGround</altitudeMode><coordinates>20.466996040195227,-33.926924038678408,653.83000000000004</coordinates></Point></Placemark><Placemark><TimeSpan><begin>2020-03-09T14:07:04Z</begin><end>2020-03-09T14:07:13Z</end></TimeSpan><styleUrl>#point</styleUrl><Point><altitudeMode>clampToGround</altitudeMode><coordinates>20.463746963068843,-33.925952995195985,637.00999999999999</coordinates></Point></Placemark><Placemark><TimeSpan><begin>2020-03-09T14:07:13Z</begin><end>2020-03-09T14:07:18Z</end></TimeSpan><styleUrl>#point</styleUrl><Point><altitudeMode>clampToGround</altitudeMode><coordinates>20.461845025420189,-33.92592198215425,626.44000000000005</coordinates></Point></Placemark><Placemark><TimeSpan><begin>2020-03-09T14:07:18Z</begin><end>2020-03-09T14:07:28Z</end></TimeSpan><styleUrl>#point</styleUrl><Point><altitudeMode>clampToGround</altitudeMode><coordinates>20.457820035517216,-33.92654400318861,604.33000000000004</coordinates></Point></Placemark><Placemark><TimeSpan><begin>2020-03-09T14:07:28Z</begin><end>2020-03-09T14:07:40Z</end></TimeSpan><styleUrl>#point</styleUrl><Point><altitudeMode>clampToGround</altitudeMode><coordinates>20.452937996014953,-33.927130987867713,586.53999999999996</coordinates></Point></Placemark><Placemark><TimeSpan><begin>2020-03-09T14:07:40Z</begin><end>2020-03-09T14:07:53Z</end></TimeSpan><styleUrl>#point</styleUrl><Point><altitudeMode>clampToGround</altitudeMode><coordinates>20.447754040360451,-33.926794035360217,576.45000000000005</coordinates></Point></Placemark><Placemark><TimeSpan><begin>2020-03-09T14:07:53Z</begin><end>2020-03-09T14:08:07Z</end></TimeSpan><styleUrl>#point</styleUrl><Point><altitudeMode>clampToGround</altitudeMode><coordinates>20.442315023392439,-33.926369994878769,538.48000000000002</coordinates></Point></Placemark><Placemark><TimeSpan><begin>2020-03-09T14:08:07Z</begin><end>2020-03-09T14:08:12Z</end></TimeSpan><styleUrl>#point</styleUrl><Point><altitudeMode>clampToGround</altitudeMode><coordinates>20.44062196277082,-33.925773035734892,525.5</coordinates></Point></Placemark><Placemark><TimeSpan><begin>2020-03-09T14:08:12Z</begin><end>2020-03-09T14:08:14Z</end></TimeSpan><styleUrl>#point</styleUrl><Point><altitudeMode>clampToGround</altitudeMode><coordinates>20.440042018890381,-33.925390988588333,523.09000000000003</coordinates></Point></Placemark><Placemark><TimeSpan><begin>2020-03-09T14:08:14Z</begin><end>2020-03-09T14:08:15Z</end></TimeSpan><styleUrl>#point</styleUrl><Point><altitudeMode>clampToGround</altitudeMode><coordinates>20.439787963405252,-33.925166018307209,521.64999999999998</coordinates></Point></Placemark><Placemark><TimeSpan><begin>2020-03-09T14:08:15Z</begin><end>2020-03-09T14:08:16Z</end></TimeSpan><styleUrl>#point</styleUrl><Point><altitudeMode>clampToGround</altitudeMode><coordinates>20.439562993124127,-33.924921015277505,519.73000000000002</coordinates></Point></Placemark><Placemark><TimeSpan><begin>2020-03-09T14:08:16Z</begin><end>2020-03-09T14:08:17Z</end></TimeSpan><styleUrl>#point</styleUrl><Point><altitudeMode>clampToGround</altitudeMode><coordinates>20.439363000914454,-33.92465204000473,514.91999999999996</coordinates></Point></Placemark><Placemark><TimeSpan><begin>2020-03-09T14:08:17Z</begin><end>2020-03-09T14:08:18Z</end></TimeSpan><styleUrl>#point</styleUrl><Point><altitudeMode>clampToGround</altitudeMode><coordinates>20.439171977341175,-33.924375018104911,512.03999999999996</coordinates></Point></Placemark><Placemark><TimeSpan><begin>2020-03-09T14:08:18Z</begin><end>2020-03-09T14:08:25Z</end></TimeSpan><styleUrl>#point</styleUrl><Point><altitudeMode>clampToGround</altitudeMode><coordinates>20.437702964991331,-33.922314997762442,491.37</coordinates></Point></Placemark><Placemark><TimeSpan><begin>2020-03-09T14:08:25Z</begin><end>2020-03-09T14:08:26Z</end></TimeSpan><styleUrl>#point</styleUrl><Point><altitudeMode>clampToGround</altitudeMode><coordinates>20.43741999194026,-33.922068988904357,490.88999999999999</coordinates></Point></Placemark><Placemark><TimeSpan><begin>2020-03-09T14:08:26Z</begin><end>2020-03-09T14:08:27Z</end></TimeSpan><styleUrl>#point</styleUrl><Point><altitudeMode>clampToGround</altitudeMode><coordinates>20.437115980312228,-33.92183898948133,489.44999999999999</coordinates></Point></Placemark><Placemark><TimeSpan><begin>2020-03-09T14:08:27Z</begin><end>2020-03-09T14:08:28Z</end></TimeSpan><styleUrl>#point</styleUrl><Point><altitudeMode>clampToGround</altitudeMode><coordinates>20.436792019754648,-33.92162399366498,488.49000000000001</coordinates></Point></Placemark><Placemark><TimeSpan><begin>2020-03-09T14:08:28Z</begin><end>2020-03-09T14:08:29Z</end></TimeSpan><styleUrl>#point</styleUrl><Point><altitudeMode>clampToGround</altitudeMode><coordinates>20.436456995084882,-33.921420983970165,487.52999999999997</coordinates></Point></Placemark><Placemark><TimeSpan><begin>2020-03-09T14:08:29Z</begin><end>2020-03-09T14:08:43Z</end></TimeSpan><styleUrl>#point</styleUrl><Point><altitudeMode>clampToGround</altitudeMode><coordinates>20.431937975808978,-33.918617991730571,460.61000000000001</coordinates></Point></Placemark><Placemark><TimeSpan><begin>2020-03-09T14:08:43Z</begin><end>2020-03-09T14:08:54Z</end></TimeSpan><styleUrl>#point</styleUrl><Point><altitudeMode>clampToGround</altitudeMode><coordinates>20.42813996784389,-33.916549002751708,437.54000000000002</coordinates></Point></Placemark><Placemark><TimeSpan><begin>2020-03-09T14:08:54Z</begin><end>2020-03-09T14:09:02Z</end></TimeSpan><styleUrl>#point</styleUrl><Point><altitudeMode>clampToGround</altitudeMode><coordinates>20.425106976181269,-33.915631016716361,445.23000000000002</coordinates></Point></Placemark><Placemark><TimeSpan><begin>2020-03-09T14:09:02Z</begin><end>2020-03-09T14:09:14Z</end></TimeSpan><styleUrl>#point</styleUrl><Point><altitudeMode>clampToGround</altitudeMode><coordinates>20.420573959127069,-33.914379011839628,448.58999999999997</coordinates></Point></Placemark><Placemark><TimeSpan><begin>2020-03-09T14:09:14Z</begin><end>2020-03-09T14:09:19Z</end></TimeSpan><styleUrl>#point</styleUrl><Point><altitudeMode>clampToGround</altitudeMode><coordinates>20.418982990086079,-33.913390031084418,444.75</coordinates></Point></Placemark><Placemark><TimeSpan><begin>2020-03-09T14:09:19Z</begin><end>2020-03-09T14:09:28Z</end></TimeSpan><styleUrl>#point</styleUrl><Point><altitudeMode>clampToGround</altitudeMode><coordinates>20.416205981746316,-33.911522962152958,451</coordinates></Point></Placemark><Placemark><TimeSpan><begin>2020-03-09T14:09:28Z</begin><end>2020-03-09T14:09:35Z</end></TimeSpan><styleUrl>#point</styleUrl><Point><altitudeMode>clampToGround</altitudeMode><coordinates>20.413745976984501,-33.91073296777904,455.31999999999999</coordinates></Point></Placemark><Placemark><TimeSpan><begin>2020-03-09T14:09:35Z</begin><end>2020-03-09T14:09:52Z</end></TimeSpan><styleUrl>#point</styleUrl><Point><altitudeMode>clampToGround</altitudeMode><coordinates>20.407314961776137,-33.908853996545076,429.37</coordinates></Point></Placemark><Placemark><TimeSpan><begin>2020-03-09T14:09:52Z</begin><end>2020-03-09T14:10:03Z</end></TimeSpan><styleUrl>#point</styleUrl><Point><altitudeMode>clampToGround</altitudeMode><coordinates>20.403078999370337,-33.907135035842657,411.10000000000002</coordinates></Point></Placemark></Folder><Placemark><name>[134] Wildehondskloofhoogte Pass</name><Style><LineStyle><color>ffff4040</color><width>4</width></LineStyle></Style><MultiGeometry><LineString><coordinates>20.497829960659146,-33.919335985556245,685.08000000000004 20.492943981662393,-33.920749006792903,684.12 20.490679023787379,-33.921822980046272,687 20.48436401411891,-33.92517096363008,669.22000000000003 20.480542033910751,-33.927001990377903,640.86000000000001 20.478408001363277,-33.927296027541161,637.97000000000003 20.476233987137675,-33.926982041448355,641.82000000000005 20.474807973951101,-33.926627989858389,652.38999999999999 20.47443799674511,-33.92660703510046,654.79999999999995 20.474067013710737,-33.926617009565234,657.20000000000005 20.473697958514094,-33.926649028435349,658.63999999999999 20.473326975479722,-33.926693033427,659.60000000000002 20.468389028683305,-33.927199970930815,660.08000000000004 20.468032965436578,-33.927170969545841,658.63999999999999 20.467684026807547,-33.927110033109784,656.72000000000003 20.467341961339116,-33.927026968449354,655.27999999999997 20.466996040195227,-33.926924038678408,653.83000000000004 20.463746963068843,-33.925952995195985,637.00999999999999 20.461845025420189,-33.92592198215425,626.44000000000005 20.457820035517216,-33.92654400318861,604.33000000000004 20.452937996014953,-33.927130987867713,586.53999999999996 20.447754040360451,-33.926794035360217,576.45000000000005 20.442315023392439,-33.926369994878769,538.48000000000002 20.44062196277082,-33.925773035734892,525.5 20.440042018890381,-33.925390988588333,523.09000000000003 20.439787963405252,-33.925166018307209,521.64999999999998 20.439562993124127,-33.924921015277505,519.73000000000002 20.439363000914454,-33.92465204000473,514.91999999999996 20.439171977341175,-33.924375018104911,512.03999999999996 20.437702964991331,-33.922314997762442,491.37 20.43741999194026,-33.922068988904357,490.88999999999999 20.437115980312228,-33.92183898948133,489.44999999999999 20.436792019754648,-33.92162399366498,488.49000000000001 20.436456995084882,-33.921420983970165,487.52999999999997 20.431937975808978,-33.918617991730571,460.61000000000001 20.42813996784389,-33.916549002751708,437.54000000000002 20.425106976181269,-33.915631016716361,445.23000000000002 20.420573959127069,-33.914379011839628,448.58999999999997 20.418982990086079,-33.913390031084418,444.75 20.416205981746316,-33.911522962152958,451 20.413745976984501,-33.91073296777904,455.31999999999999 20.407314961776137,-33.908853996545076,429.37 20.403078999370337,-33.907135035842657,411.10000000000002 </coordinates></LineString></MultiGeometry></Placemark></Folder></Folder></Document></kml>