<?xml version="1.0" encoding="utf-8"?><kml xmlns="http://www.opengis.net/kml/2.2" xmlns:xsi="http://www.w3.org/2001/XMLSchema-instance" xmlns:kmlx="http://www.google.com/kml/ext/2.2" xmlns:atom="http://www.w3.org/2005/Atom" xmlns:gpxx="http://www.garmin.com/xmlschemas/GpxExtensions/v3"><Document><Style id="point"><IconStyle><scale>0.9</scale><Icon><href>http://maps.google.com/mapfiles/kml/shapes/placemark_circle.png</href></Icon></IconStyle></Style><Folder><name>Tracks</name><Folder><name>[145] Tyger Valley Road</name><Folder><name>Points</name><Style><ListStyle><listItemType>checkHideChildren</listItemType></ListStyle></Style><Placemark><TimeSpan><begin>2020-03-12T05:19:46Z</begin><end>2020-03-12T05:19:46Z</end></TimeSpan><Style><IconStyle><scale>0.9</scale><Icon><href>http://connect.garmin.com/image/main/icons/kml/grn-play.png</href></Icon></IconStyle></Style><Point><altitudeMode>clampToGround</altitudeMode><coordinates>18.605164960026741,-33.839426022022963,178.94</coordinates></Point></Placemark><Placemark><TimeSpan><begin>2020-03-12T05:19:46Z</begin><end>2020-03-12T05:19:56Z</end></TimeSpan><styleUrl>#point</styleUrl><Point><altitudeMode>clampToGround</altitudeMode><coordinates>18.603324964642525,-33.839018996804953,175.09999999999999</coordinates></Point></Placemark><Placemark><TimeSpan><begin>2020-03-12T05:19:56Z</begin><end>2020-03-12T05:20:10Z</end></TimeSpan><styleUrl>#point</styleUrl><Point><altitudeMode>clampToGround</altitudeMode><coordinates>18.600659016519785,-33.838722025975585,177.97999999999999</coordinates></Point></Placemark><Placemark><TimeSpan><begin>2020-03-12T05:20:10Z</begin><end>2020-03-12T05:20:22Z</end></TimeSpan><styleUrl>#point</styleUrl><Point><altitudeMode>clampToGround</altitudeMode><coordinates>18.598367990925908,-33.838629992678761,183.27000000000001</coordinates></Point></Placemark><Placemark><TimeSpan><begin>2020-03-12T05:20:22Z</begin><end>2020-03-12T05:20:37Z</end></TimeSpan><styleUrl>#point</styleUrl><Point><altitudeMode>clampToGround</altitudeMode><coordinates>18.595322007313371,-33.838739963248372,191.44</coordinates></Point></Placemark><Placemark><TimeSpan><begin>2020-03-12T05:20:37Z</begin><end>2020-03-12T05:20:44Z</end></TimeSpan><styleUrl>#point</styleUrl><Point><altitudeMode>clampToGround</altitudeMode><coordinates>18.593847965821624,-33.838532008230686,196.25</coordinates></Point></Placemark><Placemark><TimeSpan><begin>2020-03-12T05:20:44Z</begin><end>2020-03-12T05:20:51Z</end></TimeSpan><styleUrl>#point</styleUrl><Point><altitudeMode>clampToGround</altitudeMode><coordinates>18.592649018391967,-33.837835974991322,205.86000000000001</coordinates></Point></Placemark><Placemark><TimeSpan><begin>2020-03-12T05:20:51Z</begin><end>2020-03-12T05:20:57Z</end></TimeSpan><styleUrl>#point</styleUrl><Point><altitudeMode>clampToGround</altitudeMode><coordinates>18.592006964609027,-33.837013961747289,214.99000000000001</coordinates></Point></Placemark><Placemark><TimeSpan><begin>2020-03-12T05:20:57Z</begin><end>2020-03-12T05:21:04Z</end></TimeSpan><styleUrl>#point</styleUrl><Point><altitudeMode>clampToGround</altitudeMode><coordinates>18.591627012938261,-33.836264032870531,222.68000000000001</coordinates></Point></Placemark><Placemark><TimeSpan><begin>2020-03-12T05:21:04Z</begin><end>2020-03-12T05:21:14Z</end></TimeSpan><styleUrl>#point</styleUrl><Point><altitudeMode>clampToGround</altitudeMode><coordinates>18.591122003272176,-33.835191987454891,228.44999999999999</coordinates></Point></Placemark><Placemark><TimeSpan><begin>2020-03-12T05:21:14Z</begin><end>2020-03-12T05:21:25Z</end></TimeSpan><styleUrl>#point</styleUrl><Point><altitudeMode>clampToGround</altitudeMode><coordinates>18.590409960597754,-33.833796987310052,227.49000000000001</coordinates></Point></Placemark><Placemark><TimeSpan><begin>2020-03-12T05:21:25Z</begin><end>2020-03-12T05:21:36Z</end></TimeSpan><styleUrl>#point</styleUrl><Point><altitudeMode>clampToGround</altitudeMode><coordinates>18.589696995913982,-33.83215899579227,223.63999999999999</coordinates></Point></Placemark><Placemark><TimeSpan><begin>2020-03-12T05:21:36Z</begin><end>2020-03-12T05:21:49Z</end></TimeSpan><styleUrl>#point</styleUrl><Point><altitudeMode>clampToGround</altitudeMode><coordinates>18.58913398347795,-33.829912981018424,212.11000000000001</coordinates></Point></Placemark><Placemark><TimeSpan><begin>2020-03-12T05:21:49Z</begin><end>2020-03-12T05:21:59Z</end></TimeSpan><styleUrl>#point</styleUrl><Point><altitudeMode>clampToGround</altitudeMode><coordinates>18.588783033192158,-33.828177005052567,200.56999999999999</coordinates></Point></Placemark><Placemark><TimeSpan><begin>2020-03-12T05:21:59Z</begin><end>2020-03-12T05:22:00Z</end></TimeSpan><styleUrl>#point</styleUrl><Point><altitudeMode>clampToGround</altitudeMode><coordinates>18.58878898434341,-33.828011965379119,199.61000000000001</coordinates></Point></Placemark><Placemark><TimeSpan><begin>2020-03-12T05:22:00Z</begin><end>2020-03-12T05:22:01Z</end></TimeSpan><styleUrl>#point</styleUrl><Point><altitudeMode>clampToGround</altitudeMode><coordinates>18.588823014870286,-33.827850027009845,198.16999999999999</coordinates></Point></Placemark><Placemark><TimeSpan><begin>2020-03-12T05:22:01Z</begin><end>2020-03-12T05:22:02Z</end></TimeSpan><styleUrl>#point</styleUrl><Point><altitudeMode>clampToGround</altitudeMode><coordinates>18.588879005983472,-33.827694039791822,197.21000000000001</coordinates></Point></Placemark><Placemark><TimeSpan><begin>2020-03-12T05:22:02Z</begin><end>2020-03-12T05:22:03Z</end></TimeSpan><styleUrl>#point</styleUrl><Point><altitudeMode>clampToGround</altitudeMode><coordinates>18.588951006531715,-33.827552972361445,196.25</coordinates></Point></Placemark><Placemark><TimeSpan><begin>2020-03-12T05:22:03Z</begin><end>2020-03-12T05:22:04Z</end></TimeSpan><styleUrl>#point</styleUrl><Point><altitudeMode>clampToGround</altitudeMode><coordinates>18.589045973494649,-33.827419029548764,195.28</coordinates></Point></Placemark><Placemark><TimeSpan><begin>2020-03-12T05:22:04Z</begin><end>2020-03-12T05:22:05Z</end></TimeSpan><styleUrl>#point</styleUrl><Point><altitudeMode>clampToGround</altitudeMode><coordinates>18.589159967377782,-33.827296989038587,194.31999999999999</coordinates></Point></Placemark><Placemark><TimeSpan><begin>2020-03-12T05:22:05Z</begin><end>2020-03-12T05:22:06Z</end></TimeSpan><styleUrl>#point</styleUrl><Point><altitudeMode>clampToGround</altitudeMode><coordinates>18.589289970695972,-33.827179977670312,193.84</coordinates></Point></Placemark><Placemark><TimeSpan><begin>2020-03-12T05:22:06Z</begin><end>2020-03-12T05:22:10Z</end></TimeSpan><styleUrl>#point</styleUrl><Point><altitudeMode>clampToGround</altitudeMode><coordinates>18.589720968157053,-33.826655019074678,189.52000000000001</coordinates></Point></Placemark><Placemark><TimeSpan><begin>2020-03-12T05:22:10Z</begin><end>2020-03-12T05:22:11Z</end></TimeSpan><styleUrl>#point</styleUrl><Point><altitudeMode>clampToGround</altitudeMode><coordinates>18.589762961491942,-33.826513029634953,188.08000000000001</coordinates></Point></Placemark><Placemark><TimeSpan><begin>2020-03-12T05:22:11Z</begin><end>2020-03-12T05:22:12Z</end></TimeSpan><styleUrl>#point</styleUrl><Point><altitudeMode>clampToGround</altitudeMode><coordinates>18.589775031432509,-33.826366011053324,186.63</coordinates></Point></Placemark><Placemark><TimeSpan><begin>2020-03-12T05:22:12Z</begin><end>2020-03-12T05:22:13Z</end></TimeSpan><styleUrl>#point</styleUrl><Point><altitudeMode>clampToGround</altitudeMode><coordinates>18.589754998683929,-33.826218992471695,185.66999999999999</coordinates></Point></Placemark><Placemark><TimeSpan><begin>2020-03-12T05:22:13Z</begin><end>2020-03-12T05:22:14Z</end></TimeSpan><styleUrl>#point</styleUrl><Point><altitudeMode>clampToGround</altitudeMode><coordinates>18.589703030884266,-33.826081026345491,184.71000000000001</coordinates></Point></Placemark><Placemark><TimeSpan><begin>2020-03-12T05:22:14Z</begin><end>2020-03-12T05:22:15Z</end></TimeSpan><styleUrl>#point</styleUrl><Point><altitudeMode>clampToGround</altitudeMode><coordinates>18.589615020900965,-33.82595001719892,183.75</coordinates></Point></Placemark><Placemark><TimeSpan><begin>2020-03-12T05:22:15Z</begin><end>2020-03-12T05:22:16Z</end></TimeSpan><styleUrl>#point</styleUrl><Point><altitudeMode>clampToGround</altitudeMode><coordinates>18.589487029239535,-33.825834011659026,182.78999999999999</coordinates></Point></Placemark><Placemark><TimeSpan><begin>2020-03-12T05:22:16Z</begin><end>2020-03-12T05:22:17Z</end></TimeSpan><styleUrl>#point</styleUrl><Point><altitudeMode>clampToGround</altitudeMode><coordinates>18.589336993172765,-33.825740972533822,181.83000000000001</coordinates></Point></Placemark><Placemark><TimeSpan><begin>2020-03-12T05:22:17Z</begin><end>2020-03-12T05:22:18Z</end></TimeSpan><styleUrl>#point</styleUrl><Point><altitudeMode>clampToGround</altitudeMode><coordinates>18.589169019833207,-33.825669977813959,180.87</coordinates></Point></Placemark><Placemark><TimeSpan><begin>2020-03-12T05:22:18Z</begin><end>2020-03-12T05:22:19Z</end></TimeSpan><styleUrl>#point</styleUrl><Point><altitudeMode>clampToGround</altitudeMode><coordinates>18.588975984603167,-33.82562899030745,178.94</coordinates></Point></Placemark><Placemark><TimeSpan><begin>2020-03-12T05:22:19Z</begin><end>2020-03-12T05:22:20Z</end></TimeSpan><styleUrl>#point</styleUrl><Point><altitudeMode>clampToGround</altitudeMode><coordinates>18.588780015707016,-33.825614992529154,177.5</coordinates></Point></Placemark><Placemark><TimeSpan><begin>2020-03-12T05:22:20Z</begin><end>2020-03-12T05:22:21Z</end></TimeSpan><styleUrl>#point</styleUrl><Point><altitudeMode>clampToGround</altitudeMode><coordinates>18.588579017668962,-33.825618010014296,176.06</coordinates></Point></Placemark><Placemark><TimeSpan><begin>2020-03-12T05:22:21Z</begin><end>2020-03-12T05:22:22Z</end></TimeSpan><styleUrl>#point</styleUrl><Point><altitudeMode>clampToGround</altitudeMode><coordinates>18.5883819591254,-33.825622033327818,175.09999999999999</coordinates></Point></Placemark><Placemark><TimeSpan><begin>2020-03-12T05:22:22Z</begin><end>2020-03-12T05:22:31Z</end></TimeSpan><styleUrl>#point</styleUrl><Point><altitudeMode>clampToGround</altitudeMode><coordinates>18.586647994816303,-33.825445007532835,163.56</coordinates></Point></Placemark><Placemark><TimeSpan><begin>2020-03-12T05:22:31Z</begin><end>2020-03-12T05:22:38Z</end></TimeSpan><styleUrl>#point</styleUrl><Point><altitudeMode>clampToGround</altitudeMode><coordinates>18.585392972454429,-33.825138984248042,156.34999999999999</coordinates></Point></Placemark><Placemark><TimeSpan><begin>2020-03-12T05:22:38Z</begin><end>2020-03-12T05:22:39Z</end></TimeSpan><styleUrl>#point</styleUrl><Point><altitudeMode>clampToGround</altitudeMode><coordinates>18.585205972194672,-33.825139990076423,155.87</coordinates></Point></Placemark><Placemark><TimeSpan><begin>2020-03-12T05:22:39Z</begin><end>2020-03-12T05:22:40Z</end></TimeSpan><styleUrl>#point</styleUrl><Point><altitudeMode>clampToGround</altitudeMode><coordinates>18.585016960278153,-33.825149964541197,155.87</coordinates></Point></Placemark><Placemark><TimeSpan><begin>2020-03-12T05:22:40Z</begin><end>2020-03-12T05:22:47Z</end></TimeSpan><styleUrl>#point</styleUrl><Point><altitudeMode>clampToGround</altitudeMode><coordinates>18.583861012011766,-33.8252620305866,149.62</coordinates></Point></Placemark><Placemark><TimeSpan><begin>2020-03-12T05:22:47Z</begin><end>2020-03-12T05:22:57Z</end></TimeSpan><styleUrl>#point</styleUrl><Point><altitudeMode>clampToGround</altitudeMode><coordinates>18.582259984686971,-33.825096990913153,135.68000000000001</coordinates></Point></Placemark><Placemark><TimeSpan><begin>2020-03-12T05:22:57Z</begin><end>2020-03-12T05:23:06Z</end></TimeSpan><styleUrl>#point</styleUrl><Point><altitudeMode>clampToGround</altitudeMode><coordinates>18.580831959843636,-33.824484022334218,127.03</coordinates></Point></Placemark><Placemark><TimeSpan><begin>2020-03-12T05:23:06Z</begin><end>2020-03-12T05:23:17Z</end></TimeSpan><styleUrl>#point</styleUrl><Point><altitudeMode>clampToGround</altitudeMode><coordinates>18.579101013019681,-33.823411976918578,113.56999999999999</coordinates></Point></Placemark><Placemark><TimeSpan><begin>2020-03-12T05:23:17Z</begin><end>2020-03-12T05:23:30Z</end></TimeSpan><styleUrl>#point</styleUrl><Point><altitudeMode>clampToGround</altitudeMode><coordinates>18.576954994350672,-33.822075985372066,98.670000000000002</coordinates></Point></Placemark><Placemark><TimeSpan><begin>2020-03-12T05:23:30Z</begin><end>2020-03-12T05:23:41Z</end></TimeSpan><styleUrl>#point</styleUrl><Point><altitudeMode>clampToGround</altitudeMode><coordinates>18.574772011488676,-33.820848958566785,87.620000000000005</coordinates></Point></Placemark></Folder><Placemark><name>[145] Tyger Valley Road</name><Style><LineStyle><color>ffff4040</color><width>4</width></LineStyle></Style><MultiGeometry><LineString><coordinates>18.605164960026741,-33.839426022022963,178.94 18.603324964642525,-33.839018996804953,175.09999999999999 18.600659016519785,-33.838722025975585,177.97999999999999 18.598367990925908,-33.838629992678761,183.27000000000001 18.595322007313371,-33.838739963248372,191.44 18.593847965821624,-33.838532008230686,196.25 18.592649018391967,-33.837835974991322,205.86000000000001 18.592006964609027,-33.837013961747289,214.99000000000001 18.591627012938261,-33.836264032870531,222.68000000000001 18.591122003272176,-33.835191987454891,228.44999999999999 18.590409960597754,-33.833796987310052,227.49000000000001 18.589696995913982,-33.83215899579227,223.63999999999999 18.58913398347795,-33.829912981018424,212.11000000000001 18.588783033192158,-33.828177005052567,200.56999999999999 18.58878898434341,-33.828011965379119,199.61000000000001 18.588823014870286,-33.827850027009845,198.16999999999999 18.588879005983472,-33.827694039791822,197.21000000000001 18.588951006531715,-33.827552972361445,196.25 18.589045973494649,-33.827419029548764,195.28 18.589159967377782,-33.827296989038587,194.31999999999999 18.589289970695972,-33.827179977670312,193.84 18.589720968157053,-33.826655019074678,189.52000000000001 18.589762961491942,-33.826513029634953,188.08000000000001 18.589775031432509,-33.826366011053324,186.63 18.589754998683929,-33.826218992471695,185.66999999999999 18.589703030884266,-33.826081026345491,184.71000000000001 18.589615020900965,-33.82595001719892,183.75 18.589487029239535,-33.825834011659026,182.78999999999999 18.589336993172765,-33.825740972533822,181.83000000000001 18.589169019833207,-33.825669977813959,180.87 18.588975984603167,-33.82562899030745,178.94 18.588780015707016,-33.825614992529154,177.5 18.588579017668962,-33.825618010014296,176.06 18.5883819591254,-33.825622033327818,175.09999999999999 18.586647994816303,-33.825445007532835,163.56 18.585392972454429,-33.825138984248042,156.34999999999999 18.585205972194672,-33.825139990076423,155.87 18.585016960278153,-33.825149964541197,155.87 18.583861012011766,-33.8252620305866,149.62 18.582259984686971,-33.825096990913153,135.68000000000001 18.580831959843636,-33.824484022334218,127.03 18.579101013019681,-33.823411976918578,113.56999999999999 18.576954994350672,-33.822075985372066,98.670000000000002 18.574772011488676,-33.820848958566785,87.620000000000005 </coordinates></LineString></MultiGeometry></Placemark></Folder></Folder></Document></kml>