<?xml version="1.0" encoding="utf-8"?><kml xmlns="http://www.opengis.net/kml/2.2" xmlns:xsi="http://www.w3.org/2001/XMLSchema-instance" xmlns:kmlx="http://www.google.com/kml/ext/2.2" xmlns:atom="http://www.w3.org/2005/Atom" xmlns:gpxx="http://www.garmin.com/xmlschemas/GpxExtensions/v3"><Document><Style id="point"><IconStyle><scale>0.9</scale><Icon><href>http://maps.google.com/mapfiles/kml/shapes/placemark_circle.png</href></Icon></IconStyle></Style><Folder><name>Tracks</name><Folder><name>[156] Smitswinkel Pass</name><Folder><name>Points</name><Style><ListStyle><listItemType>checkHideChildren</listItemType></ListStyle></Style><Placemark><TimeSpan><begin>2020-03-13T12:51:05Z</begin><end>2020-03-13T12:51:05Z</end></TimeSpan><Style><IconStyle><scale>0.9</scale><Icon><href>http://connect.garmin.com/image/main/icons/kml/grn-play.png</href></Icon></IconStyle></Style><Point><altitudeMode>clampToGround</altitudeMode><coordinates>18.456328008323908,-34.257519040256739,138.56999999999999</coordinates></Point></Placemark><Placemark><TimeSpan><begin>2020-03-13T12:51:05Z</begin><end>2020-03-13T12:51:12Z</end></TimeSpan><styleUrl>#point</styleUrl><Point><altitudeMode>clampToGround</altitudeMode><coordinates>18.457119008526206,-34.257728001102805,141.93000000000001</coordinates></Point></Placemark><Placemark><TimeSpan><begin>2020-03-13T12:51:12Z</begin><end>2020-03-13T12:51:21Z</end></TimeSpan><styleUrl>#point</styleUrl><Point><altitudeMode>clampToGround</altitudeMode><coordinates>18.458657003939152,-34.25812304019928,142.88999999999999</coordinates></Point></Placemark><Placemark><TimeSpan><begin>2020-03-13T12:51:21Z</begin><end>2020-03-13T12:51:28Z</end></TimeSpan><styleUrl>#point</styleUrl><Point><altitudeMode>clampToGround</altitudeMode><coordinates>18.459802977740765,-34.258746989071369,139.05000000000001</coordinates></Point></Placemark><Placemark><TimeSpan><begin>2020-03-13T12:51:28Z</begin><end>2020-03-13T12:51:41Z</end></TimeSpan><styleUrl>#point</styleUrl><Point><altitudeMode>clampToGround</altitudeMode><coordinates>18.462016973644495,-34.260039981454611,122.70999999999999</coordinates></Point></Placemark><Placemark><TimeSpan><begin>2020-03-13T12:51:41Z</begin><end>2020-03-13T12:51:51Z</end></TimeSpan><styleUrl>#point</styleUrl><Point><altitudeMode>clampToGround</altitudeMode><coordinates>18.463720008730888,-34.260953022167087,111.17</coordinates></Point></Placemark><Placemark><TimeSpan><begin>2020-03-13T12:51:51Z</begin><end>2020-03-13T12:51:56Z</end></TimeSpan><styleUrl>#point</styleUrl><Point><altitudeMode>clampToGround</altitudeMode><coordinates>18.464471027255058,-34.261363986879587,109.25</coordinates></Point></Placemark><Placemark><TimeSpan><begin>2020-03-13T12:51:56Z</begin><end>2020-03-13T12:52:05Z</end></TimeSpan><styleUrl>#point</styleUrl><Point><altitudeMode>clampToGround</altitudeMode><coordinates>18.465526979416609,-34.26201400347054,102.52</coordinates></Point></Placemark><Placemark><TimeSpan><begin>2020-03-13T12:52:05Z</begin><end>2020-03-13T12:52:12Z</end></TimeSpan><styleUrl>#point</styleUrl><Point><altitudeMode>clampToGround</altitudeMode><coordinates>18.466352010145783,-34.262152975425124,97.709999999999994</coordinates></Point></Placemark><Placemark><TimeSpan><begin>2020-03-13T12:52:12Z</begin><end>2020-03-13T12:52:13Z</end></TimeSpan><styleUrl>#point</styleUrl><Point><altitudeMode>clampToGround</altitudeMode><coordinates>18.466453012079,-34.262136965990067,96.269999999999996</coordinates></Point></Placemark><Placemark><TimeSpan><begin>2020-03-13T12:52:13Z</begin><end>2020-03-13T12:52:14Z</end></TimeSpan><styleUrl>#point</styleUrl><Point><altitudeMode>clampToGround</altitudeMode><coordinates>18.466547979041934,-34.262092960998416,96.269999999999996</coordinates></Point></Placemark><Placemark><TimeSpan><begin>2020-03-13T12:52:14Z</begin><end>2020-03-13T12:52:15Z</end></TimeSpan><styleUrl>#point</styleUrl><Point><altitudeMode>clampToGround</altitudeMode><coordinates>18.466634983196855,-34.262033030390739,95.790000000000006</coordinates></Point></Placemark><Placemark><TimeSpan><begin>2020-03-13T12:52:15Z</begin><end>2020-03-13T12:52:16Z</end></TimeSpan><styleUrl>#point</styleUrl><Point><altitudeMode>clampToGround</altitudeMode><coordinates>18.466717964038253,-34.261963963508606,94.829999999999998</coordinates></Point></Placemark><Placemark><TimeSpan><begin>2020-03-13T12:52:16Z</begin><end>2020-03-13T12:52:17Z</end></TimeSpan><styleUrl>#point</styleUrl><Point><altitudeMode>clampToGround</altitudeMode><coordinates>18.466802034527063,-34.261889029294252,93.870000000000005</coordinates></Point></Placemark><Placemark><TimeSpan><begin>2020-03-13T12:52:17Z</begin><end>2020-03-13T12:52:24Z</end></TimeSpan><styleUrl>#point</styleUrl><Point><altitudeMode>clampToGround</altitudeMode><coordinates>18.467557998374104,-34.261345965787768,88.099999999999994</coordinates></Point></Placemark><Placemark><TimeSpan><begin>2020-03-13T12:52:24Z</begin><end>2020-03-13T12:52:25Z</end></TimeSpan><styleUrl>#point</styleUrl><Point><altitudeMode>clampToGround</altitudeMode><coordinates>18.467661011964083,-34.261247981339693,87.620000000000005</coordinates></Point></Placemark><Placemark><TimeSpan><begin>2020-03-13T12:52:25Z</begin><end>2020-03-13T12:52:34Z</end></TimeSpan><styleUrl>#point</styleUrl><Point><altitudeMode>clampToGround</altitudeMode><coordinates>18.46847103908658,-34.260234022513032,79.930000000000007</coordinates></Point></Placemark><Placemark><TimeSpan><begin>2020-03-13T12:52:34Z</begin><end>2020-03-13T12:52:35Z</end></TimeSpan><styleUrl>#point</styleUrl><Point><altitudeMode>clampToGround</altitudeMode><coordinates>18.468576986342669,-34.26014400087297,79.450000000000003</coordinates></Point></Placemark><Placemark><TimeSpan><begin>2020-03-13T12:52:35Z</begin><end>2020-03-13T12:52:36Z</end></TimeSpan><styleUrl>#point</styleUrl><Point><altitudeMode>clampToGround</altitudeMode><coordinates>18.468695003539324,-34.260070994496346,78.480000000000004</coordinates></Point></Placemark><Placemark><TimeSpan><begin>2020-03-13T12:52:36Z</begin><end>2020-03-13T12:52:48Z</end></TimeSpan><styleUrl>#point</styleUrl><Point><altitudeMode>clampToGround</altitudeMode><coordinates>18.47029896453023,-34.259189972653985,70.790000000000006</coordinates></Point></Placemark><Placemark><TimeSpan><begin>2020-03-13T12:52:48Z</begin><end>2020-03-13T12:52:53Z</end></TimeSpan><styleUrl>#point</styleUrl><Point><altitudeMode>clampToGround</altitudeMode><coordinates>18.470926014706492,-34.258937006816268,68.870000000000005</coordinates></Point></Placemark><Placemark><TimeSpan><begin>2020-03-13T12:52:53Z</begin><end>2020-03-13T12:52:54Z</end></TimeSpan><styleUrl>#point</styleUrl><Point><altitudeMode>clampToGround</altitudeMode><coordinates>18.471036991104484,-34.258873974904418,69.349999999999994</coordinates></Point></Placemark><Placemark><TimeSpan><begin>2020-03-13T12:52:54Z</begin><end>2020-03-13T12:52:55Z</end></TimeSpan><styleUrl>#point</styleUrl><Point><altitudeMode>clampToGround</altitudeMode><coordinates>18.471138998866081,-34.258798034861684,68.870000000000005</coordinates></Point></Placemark><Placemark><TimeSpan><begin>2020-03-13T12:52:55Z</begin><end>2020-03-13T12:53:05Z</end></TimeSpan><styleUrl>#point</styleUrl><Point><altitudeMode>clampToGround</altitudeMode><coordinates>18.472253037616611,-34.258033018559217,68.390000000000001</coordinates></Point></Placemark><Placemark><TimeSpan><begin>2020-03-13T12:53:05Z</begin><end>2020-03-13T12:53:06Z</end></TimeSpan><styleUrl>#point</styleUrl><Point><altitudeMode>clampToGround</altitudeMode><coordinates>18.472354039549828,-34.257965963333845,67.909999999999997</coordinates></Point></Placemark><Placemark><TimeSpan><begin>2020-03-13T12:53:06Z</begin><end>2020-03-13T12:53:07Z</end></TimeSpan><styleUrl>#point</styleUrl><Point><altitudeMode>clampToGround</altitudeMode><coordinates>18.472441965714097,-34.257887005805969,66.950000000000003</coordinates></Point></Placemark><Placemark><TimeSpan><begin>2020-03-13T12:53:07Z</begin><end>2020-03-13T12:53:08Z</end></TimeSpan><styleUrl>#point</styleUrl><Point><altitudeMode>clampToGround</altitudeMode><coordinates>18.472521007061005,-34.257793966680765,66.469999999999999</coordinates></Point></Placemark><Placemark><TimeSpan><begin>2020-03-13T12:53:08Z</begin><end>2020-03-13T12:53:09Z</end></TimeSpan><styleUrl>#point</styleUrl><Point><altitudeMode>clampToGround</altitudeMode><coordinates>18.472594013437629,-34.257692964747548,65.989999999999995</coordinates></Point></Placemark><Placemark><TimeSpan><begin>2020-03-13T12:53:09Z</begin><end>2020-03-13T12:53:10Z</end></TimeSpan><styleUrl>#point</styleUrl><Point><altitudeMode>clampToGround</altitudeMode><coordinates>18.472662996500731,-34.257585005834699,65.510000000000005</coordinates></Point></Placemark><Placemark><TimeSpan><begin>2020-03-13T12:53:10Z</begin><end>2020-03-13T12:53:18Z</end></TimeSpan><styleUrl>#point</styleUrl><Point><altitudeMode>clampToGround</altitudeMode><coordinates>18.473246963694692,-34.256644975394011,62.140000000000001</coordinates></Point></Placemark><Placemark><TimeSpan><begin>2020-03-13T12:53:18Z</begin><end>2020-03-13T12:53:19Z</end></TimeSpan><styleUrl>#point</styleUrl><Point><altitudeMode>clampToGround</altitudeMode><coordinates>18.473346959799528,-34.256546990945935,62.140000000000001</coordinates></Point></Placemark><Placemark><TimeSpan><begin>2020-03-13T12:53:19Z</begin><end>2020-03-13T12:53:20Z</end></TimeSpan><styleUrl>#point</styleUrl><Point><altitudeMode>clampToGround</altitudeMode><coordinates>18.473461037501693,-34.256459986791015,61.659999999999997</coordinates></Point></Placemark><Placemark><TimeSpan><begin>2020-03-13T12:53:20Z</begin><end>2020-03-13T12:53:21Z</end></TimeSpan><styleUrl>#point</styleUrl><Point><altitudeMode>clampToGround</altitudeMode><coordinates>18.473582994192839,-34.256386980414391,60.700000000000003</coordinates></Point></Placemark><Placemark><TimeSpan><begin>2020-03-13T12:53:21Z</begin><end>2020-03-13T12:53:22Z</end></TimeSpan><styleUrl>#point</styleUrl><Point><altitudeMode>clampToGround</altitudeMode><coordinates>18.473720960319042,-34.256327971816063,60.219999999999999</coordinates></Point></Placemark><Placemark><TimeSpan><begin>2020-03-13T12:53:22Z</begin><end>2020-03-13T12:53:23Z</end></TimeSpan><styleUrl>#point</styleUrl><Point><altitudeMode>clampToGround</altitudeMode><coordinates>18.473867978900671,-34.256281033158302,60.219999999999999</coordinates></Point></Placemark><Placemark><TimeSpan><begin>2020-03-13T12:53:23Z</begin><end>2020-03-13T12:53:24Z</end></TimeSpan><styleUrl>#point</styleUrl><Point><altitudeMode>clampToGround</altitudeMode><coordinates>18.47401600331068,-34.256238033995032,59.740000000000002</coordinates></Point></Placemark><Placemark><TimeSpan><begin>2020-03-13T12:53:24Z</begin><end>2020-03-13T12:53:25Z</end></TimeSpan><styleUrl>#point</styleUrl><Point><altitudeMode>clampToGround</altitudeMode><coordinates>18.474157992750406,-34.256190005689859,59.259999999999998</coordinates></Point></Placemark><Placemark><TimeSpan><begin>2020-03-13T12:53:25Z</begin><end>2020-03-13T12:53:26Z</end></TimeSpan><styleUrl>#point</styleUrl><Point><altitudeMode>clampToGround</altitudeMode><coordinates>18.47429403103888,-34.256136026233435,58.780000000000001</coordinates></Point></Placemark><Placemark><TimeSpan><begin>2020-03-13T12:53:26Z</begin><end>2020-03-13T12:53:27Z</end></TimeSpan><styleUrl>#point</styleUrl><Point><altitudeMode>clampToGround</altitudeMode><coordinates>18.4744259621948,-34.256060002371669,58.299999999999997</coordinates></Point></Placemark><Placemark><TimeSpan><begin>2020-03-13T12:53:27Z</begin><end>2020-03-13T12:53:28Z</end></TimeSpan><styleUrl>#point</styleUrl><Point><altitudeMode>clampToGround</altitudeMode><coordinates>18.474540039896965,-34.255977021530271,57.82</coordinates></Point></Placemark><Placemark><TimeSpan><begin>2020-03-13T12:53:28Z</begin><end>2020-03-13T12:53:29Z</end></TimeSpan><styleUrl>#point</styleUrl><Point><altitudeMode>clampToGround</altitudeMode><coordinates>18.474641041830182,-34.255882976576686,57.340000000000003</coordinates></Point></Placemark><Placemark><TimeSpan><begin>2020-03-13T12:53:29Z</begin><end>2020-03-13T12:53:30Z</end></TimeSpan><styleUrl>#point</styleUrl><Point><altitudeMode>clampToGround</altitudeMode><coordinates>18.474731985479593,-34.255775017663836,56.859999999999999</coordinates></Point></Placemark><Placemark><TimeSpan><begin>2020-03-13T12:53:30Z</begin><end>2020-03-13T12:53:31Z</end></TimeSpan><styleUrl>#point</styleUrl><Point><altitudeMode>clampToGround</altitudeMode><coordinates>18.474813960492611,-34.255663035437465,56.369999999999997</coordinates></Point></Placemark><Placemark><TimeSpan><begin>2020-03-13T12:53:31Z</begin><end>2020-03-13T12:53:32Z</end></TimeSpan><styleUrl>#point</styleUrl><Point><altitudeMode>clampToGround</altitudeMode><coordinates>18.474885039031506,-34.255547029897571,55.890000000000001</coordinates></Point></Placemark><Placemark><TimeSpan><begin>2020-03-13T12:53:32Z</begin><end>2020-03-13T12:53:33Z</end></TimeSpan><styleUrl>#point</styleUrl><Point><altitudeMode>clampToGround</altitudeMode><coordinates>18.474954022094607,-34.255422977730632,55.409999999999997</coordinates></Point></Placemark><Placemark><TimeSpan><begin>2020-03-13T12:53:33Z</begin><end>2020-03-13T12:53:42Z</end></TimeSpan><styleUrl>#point</styleUrl><Point><altitudeMode>clampToGround</altitudeMode><coordinates>18.475213022902608,-34.254223024472594,53.490000000000002</coordinates></Point></Placemark><Placemark><TimeSpan><begin>2020-03-13T12:53:42Z</begin><end>2020-03-13T12:53:49Z</end></TimeSpan><styleUrl>#point</styleUrl><Point><altitudeMode>clampToGround</altitudeMode><coordinates>18.475032979622483,-34.253286011517048,54.450000000000003</coordinates></Point></Placemark><Placemark><TimeSpan><begin>2020-03-13T12:53:49Z</begin><end>2020-03-13T12:53:50Z</end></TimeSpan><styleUrl>#point</styleUrl><Point><altitudeMode>clampToGround</altitudeMode><coordinates>18.475045971572399,-34.253146033734083,54.450000000000003</coordinates></Point></Placemark><Placemark><TimeSpan><begin>2020-03-13T12:53:50Z</begin><end>2020-03-13T12:53:51Z</end></TimeSpan><styleUrl>#point</styleUrl><Point><altitudeMode>clampToGround</altitudeMode><coordinates>18.475073967128992,-34.253007983788848,54.93</coordinates></Point></Placemark><Placemark><TimeSpan><begin>2020-03-13T12:53:51Z</begin><end>2020-03-13T12:53:52Z</end></TimeSpan><styleUrl>#point</styleUrl><Point><altitudeMode>clampToGround</altitudeMode><coordinates>18.475113026797771,-34.252874040976167,54.450000000000003</coordinates></Point></Placemark><Placemark><TimeSpan><begin>2020-03-13T12:53:52Z</begin><end>2020-03-13T12:53:53Z</end></TimeSpan><styleUrl>#point</styleUrl><Point><altitudeMode>clampToGround</altitudeMode><coordinates>18.475173963233829,-34.252739008516073,54.93</coordinates></Point></Placemark><Placemark><TimeSpan><begin>2020-03-13T12:53:53Z</begin><end>2020-03-13T12:53:54Z</end></TimeSpan><styleUrl>#point</styleUrl><Point><altitudeMode>clampToGround</altitudeMode><coordinates>18.475244035944343,-34.252609005197883,54.93</coordinates></Point></Placemark><Placemark><TimeSpan><begin>2020-03-13T12:53:54Z</begin><end>2020-03-13T12:53:56Z</end></TimeSpan><styleUrl>#point</styleUrl><Point><altitudeMode>clampToGround</altitudeMode><coordinates>18.475360963493586,-34.252356961369514,55.890000000000001</coordinates></Point></Placemark><Placemark><TimeSpan><begin>2020-03-13T12:53:56Z</begin><end>2020-03-13T12:53:57Z</end></TimeSpan><styleUrl>#point</styleUrl><Point><altitudeMode>clampToGround</altitudeMode><coordinates>18.475402034819126,-34.252229975536466,56.369999999999997</coordinates></Point></Placemark><Placemark><TimeSpan><begin>2020-03-13T12:53:57Z</begin><end>2020-03-13T12:53:58Z</end></TimeSpan><styleUrl>#point</styleUrl><Point><altitudeMode>clampToGround</altitudeMode><coordinates>18.475417960435152,-34.252098966389894,56.369999999999997</coordinates></Point></Placemark><Placemark><TimeSpan><begin>2020-03-13T12:53:58Z</begin><end>2020-03-13T12:53:59Z</end></TimeSpan><styleUrl>#point</styleUrl><Point><altitudeMode>clampToGround</altitudeMode><coordinates>18.475403962656856,-34.251972986385226,56.369999999999997</coordinates></Point></Placemark><Placemark><TimeSpan><begin>2020-03-13T12:53:59Z</begin><end>2020-03-13T12:54:00Z</end></TimeSpan><styleUrl>#point</styleUrl><Point><altitudeMode>clampToGround</altitudeMode><coordinates>18.475373033434153,-34.251844994723797,56.369999999999997</coordinates></Point></Placemark><Placemark><TimeSpan><begin>2020-03-13T12:54:00Z</begin><end>2020-03-13T12:54:01Z</end></TimeSpan><styleUrl>#point</styleUrl><Point><altitudeMode>clampToGround</altitudeMode><coordinates>18.475322993472219,-34.251719014719129,56.859999999999999</coordinates></Point></Placemark><Placemark><TimeSpan><begin>2020-03-13T12:54:01Z</begin><end>2020-03-13T12:54:02Z</end></TimeSpan><styleUrl>#point</styleUrl><Point><altitudeMode>clampToGround</altitudeMode><coordinates>18.475273959338665,-34.25159202888608,56.859999999999999</coordinates></Point></Placemark><Placemark><TimeSpan><begin>2020-03-13T12:54:02Z</begin><end>2020-03-13T12:54:10Z</end></TimeSpan><styleUrl>#point</styleUrl><Point><altitudeMode>clampToGround</altitudeMode><coordinates>18.475115960463881,-34.250415964052081,57.340000000000003</coordinates></Point></Placemark><Placemark><TimeSpan><begin>2020-03-13T12:54:10Z</begin><end>2020-03-13T12:54:19Z</end></TimeSpan><styleUrl>#point</styleUrl><Point><altitudeMode>clampToGround</altitudeMode><coordinates>18.475081007927656,-34.249134035781026,55.890000000000001</coordinates></Point></Placemark><Placemark><TimeSpan><begin>2020-03-13T12:54:19Z</begin><end>2020-03-13T12:54:20Z</end></TimeSpan><styleUrl>#point</styleUrl><Point><altitudeMode>clampToGround</altitudeMode><coordinates>18.475106991827488,-34.249002020806074,56.369999999999997</coordinates></Point></Placemark><Placemark><TimeSpan><begin>2020-03-13T12:54:20Z</begin><end>2020-03-13T12:54:21Z</end></TimeSpan><styleUrl>#point</styleUrl><Point><altitudeMode>clampToGround</altitudeMode><coordinates>18.47515401430428,-34.248872017487884,56.859999999999999</coordinates></Point></Placemark><Placemark><TimeSpan><begin>2020-03-13T12:54:21Z</begin><end>2020-03-13T12:54:23Z</end></TimeSpan><styleUrl>#point</styleUrl><Point><altitudeMode>clampToGround</altitudeMode><coordinates>18.475238000974059,-34.248619973659515,57.340000000000003</coordinates></Point></Placemark><Placemark><TimeSpan><begin>2020-03-13T12:54:23Z</begin><end>2020-03-13T12:54:24Z</end></TimeSpan><styleUrl>#point</styleUrl><Point><altitudeMode>clampToGround</altitudeMode><coordinates>18.475269014015794,-34.248488964512944,58.299999999999997</coordinates></Point></Placemark><Placemark><TimeSpan><begin>2020-03-13T12:54:24Z</begin><end>2020-03-13T12:54:25Z</end></TimeSpan><styleUrl>#point</styleUrl><Point><altitudeMode>clampToGround</altitudeMode><coordinates>18.475267002359033,-34.248360972851515,57.340000000000003</coordinates></Point></Placemark><Placemark><TimeSpan><begin>2020-03-13T12:54:25Z</begin><end>2020-03-13T12:54:26Z</end></TimeSpan><styleUrl>#point</styleUrl><Point><altitudeMode>clampToGround</altitudeMode><coordinates>18.475243030115962,-34.24824002198875,56.369999999999997</coordinates></Point></Placemark><Placemark><TimeSpan><begin>2020-03-13T12:54:26Z</begin><end>2020-03-13T12:54:27Z</end></TimeSpan><styleUrl>#point</styleUrl><Point><altitudeMode>clampToGround</altitudeMode><coordinates>18.475220985710621,-34.248109012842178,56.859999999999999</coordinates></Point></Placemark><Placemark><TimeSpan><begin>2020-03-13T12:54:27Z</begin><end>2020-03-13T12:54:28Z</end></TimeSpan><styleUrl>#point</styleUrl><Point><altitudeMode>clampToGround</altitudeMode><coordinates>18.47517304122448,-34.24798596650362,56.859999999999999</coordinates></Point></Placemark><Placemark><TimeSpan><begin>2020-03-13T12:54:28Z</begin><end>2020-03-13T12:54:29Z</end></TimeSpan><styleUrl>#point</styleUrl><Point><altitudeMode>clampToGround</altitudeMode><coordinates>18.475112020969391,-34.247867027297616,56.859999999999999</coordinates></Point></Placemark><Placemark><TimeSpan><begin>2020-03-13T12:54:29Z</begin><end>2020-03-13T12:54:30Z</end></TimeSpan><styleUrl>#point</styleUrl><Point><altitudeMode>clampToGround</altitudeMode><coordinates>18.475043959915638,-34.247745992615819,56.859999999999999</coordinates></Point></Placemark><Placemark><TimeSpan><begin>2020-03-13T12:54:30Z</begin><end>2020-03-13T12:54:33Z</end></TimeSpan><styleUrl>#point</styleUrl><Point><altitudeMode>clampToGround</altitudeMode><coordinates>18.474829969927669,-34.247391019016504,56.859999999999999</coordinates></Point></Placemark><Placemark><TimeSpan><begin>2020-03-13T12:54:33Z</begin><end>2020-03-13T12:54:34Z</end></TimeSpan><styleUrl>#point</styleUrl><Point><altitudeMode>clampToGround</altitudeMode><coordinates>18.474779007956386,-34.247263027355075,56.859999999999999</coordinates></Point></Placemark><Placemark><TimeSpan><begin>2020-03-13T12:54:34Z</begin><end>2020-03-13T12:54:35Z</end></TimeSpan><styleUrl>#point</styleUrl><Point><altitudeMode>clampToGround</altitudeMode><coordinates>18.474751012399793,-34.24712497740984,57.340000000000003</coordinates></Point></Placemark><Placemark><TimeSpan><begin>2020-03-13T12:54:35Z</begin><end>2020-03-13T12:54:36Z</end></TimeSpan><styleUrl>#point</styleUrl><Point><altitudeMode>clampToGround</altitudeMode><coordinates>18.474731985479593,-34.246988017112017,56.859999999999999</coordinates></Point></Placemark><Placemark><TimeSpan><begin>2020-03-13T12:54:36Z</begin><end>2020-03-13T12:54:37Z</end></TimeSpan><styleUrl>#point</styleUrl><Point><altitudeMode>clampToGround</altitudeMode><coordinates>18.474716981872916,-34.246851978823543,55.409999999999997</coordinates></Point></Placemark><Placemark><TimeSpan><begin>2020-03-13T12:54:37Z</begin><end>2020-03-13T12:54:43Z</end></TimeSpan><styleUrl>#point</styleUrl><Point><altitudeMode>clampToGround</altitudeMode><coordinates>18.474554037675261,-34.246014039963484,48.68</coordinates></Point></Placemark><Placemark><TimeSpan><begin>2020-03-13T12:54:43Z</begin><end>2020-03-13T12:54:44Z</end></TimeSpan><styleUrl>#point</styleUrl><Point><altitudeMode>clampToGround</altitudeMode><coordinates>18.474478013813496,-34.245870038866997,47.719999999999999</coordinates></Point></Placemark><Placemark><TimeSpan><begin>2020-03-13T12:54:44Z</begin><end>2020-03-13T12:54:52Z</end></TimeSpan><styleUrl>#point</styleUrl><Point><altitudeMode>clampToGround</altitudeMode><coordinates>18.4738630335778,-34.244661033153534,42.439999999999998</coordinates></Point></Placemark><Placemark><TimeSpan><begin>2020-03-13T12:54:52Z</begin><end>2020-03-13T12:54:53Z</end></TimeSpan><styleUrl>#point</styleUrl><Point><altitudeMode>clampToGround</altitudeMode><coordinates>18.473830008879304,-34.24450303427875,41.950000000000003</coordinates></Point></Placemark><Placemark><TimeSpan><begin>2020-03-13T12:54:53Z</begin><end>2020-03-13T12:54:54Z</end></TimeSpan><styleUrl>#point</styleUrl><Point><altitudeMode>clampToGround</altitudeMode><coordinates>18.47382003441453,-34.244337994605303,41.950000000000003</coordinates></Point></Placemark><Placemark><TimeSpan><begin>2020-03-13T12:54:54Z</begin><end>2020-03-13T12:54:55Z</end></TimeSpan><styleUrl>#point</styleUrl><Point><altitudeMode>clampToGround</altitudeMode><coordinates>18.47382397390902,-34.244172032922506,42.439999999999998</coordinates></Point></Placemark><Placemark><TimeSpan><begin>2020-03-13T12:54:55Z</begin><end>2020-03-13T12:54:56Z</end></TimeSpan><styleUrl>#point</styleUrl><Point><altitudeMode>clampToGround</altitudeMode><coordinates>18.473834032192826,-34.244004981592298,42.439999999999998</coordinates></Point></Placemark><Placemark><TimeSpan><begin>2020-03-13T12:54:56Z</begin><end>2020-03-13T12:55:04Z</end></TimeSpan><styleUrl>#point</styleUrl><Point><altitudeMode>clampToGround</altitudeMode><coordinates>18.473784998059273,-34.242744008079171,42.439999999999998</coordinates></Point></Placemark><Placemark><TimeSpan><begin>2020-03-13T12:55:04Z</begin><end>2020-03-13T12:55:05Z</end></TimeSpan><styleUrl>#point</styleUrl><Point><altitudeMode>clampToGround</altitudeMode><coordinates>18.473805030807853,-34.242604030296206,42.439999999999998</coordinates></Point></Placemark><Placemark><TimeSpan><begin>2020-03-13T12:55:05Z</begin><end>2020-03-13T12:55:06Z</end></TimeSpan><styleUrl>#point</styleUrl><Point><altitudeMode>clampToGround</altitudeMode><coordinates>18.473834032192826,-34.242470003664494,41.469999999999999</coordinates></Point></Placemark><Placemark><TimeSpan><begin>2020-03-13T12:55:06Z</begin><end>2020-03-13T12:55:14Z</end></TimeSpan><styleUrl>#point</styleUrl><Point><altitudeMode>clampToGround</altitudeMode><coordinates>18.474339041858912,-34.241412961855531,35.229999999999997</coordinates></Point></Placemark><Placemark><TimeSpan><begin>2020-03-13T12:55:14Z</begin><end>2020-03-13T12:55:25Z</end></TimeSpan><styleUrl>#point</styleUrl><Point><altitudeMode>clampToGround</altitudeMode><coordinates>18.475257027894258,-34.240091973915696,25.609999999999999</coordinates></Point></Placemark><Placemark><TimeSpan><begin>2020-03-13T12:55:25Z</begin><end>2020-03-13T12:55:26Z</end></TimeSpan><styleUrl>#point</styleUrl><Point><altitudeMode>clampToGround</altitudeMode><coordinates>18.475356018170714,-34.239994995296001,25.129999999999999</coordinates></Point></Placemark><Placemark><TimeSpan><begin>2020-03-13T12:55:26Z</begin><end>2020-03-13T12:55:31Z</end></TimeSpan><styleUrl>#point</styleUrl><Point><altitudeMode>clampToGround</altitudeMode><coordinates>18.475809982046485,-34.239536002278328,22.73</coordinates></Point></Placemark><Placemark><TimeSpan><begin>2020-03-13T12:55:31Z</begin><end>2020-03-13T12:55:32Z</end></TimeSpan><styleUrl>#point</styleUrl><Point><altitudeMode>clampToGround</altitudeMode><coordinates>18.475863039493561,-34.239436006173491,21.289999999999999</coordinates></Point></Placemark><Placemark><TimeSpan><begin>2020-03-13T12:55:32Z</begin><end>2020-03-13T12:55:33Z</end></TimeSpan><styleUrl>#point</styleUrl><Point><altitudeMode>clampToGround</altitudeMode><coordinates>18.475892962887883,-34.239330980926752,20.809999999999999</coordinates></Point></Placemark><Placemark><TimeSpan><begin>2020-03-13T12:55:33Z</begin><end>2020-03-13T12:55:34Z</end></TimeSpan><styleUrl>#point</styleUrl><Point><altitudeMode>clampToGround</altitudeMode><coordinates>18.475894974544644,-34.239226961508393,19.84</coordinates></Point></Placemark><Placemark><TimeSpan><begin>2020-03-13T12:55:34Z</begin><end>2020-03-13T12:55:35Z</end></TimeSpan><styleUrl>#point</styleUrl><Point><altitudeMode>clampToGround</altitudeMode><coordinates>18.475871002301574,-34.239123025909066,18.879999999999999</coordinates></Point></Placemark><Placemark><TimeSpan><begin>2020-03-13T12:55:35Z</begin><end>2020-03-13T12:55:36Z</end></TimeSpan><styleUrl>#point</styleUrl><Point><altitudeMode>clampToGround</altitudeMode><coordinates>18.475836971774697,-34.239015989005566,18.399999999999999</coordinates></Point></Placemark><Placemark><TimeSpan><begin>2020-03-13T12:55:36Z</begin><end>2020-03-13T12:55:37Z</end></TimeSpan><styleUrl>#point</styleUrl><Point><altitudeMode>clampToGround</altitudeMode><coordinates>18.475793972611427,-34.238909035921097,17.440000000000001</coordinates></Point></Placemark><Placemark><TimeSpan><begin>2020-03-13T12:55:37Z</begin><end>2020-03-13T12:55:38Z</end></TimeSpan><styleUrl>#point</styleUrl><Point><altitudeMode>clampToGround</altitudeMode><coordinates>18.475738987326622,-34.238801999017596,16.960000000000001</coordinates></Point></Placemark><Placemark><TimeSpan><begin>2020-03-13T12:55:38Z</begin><end>2020-03-13T12:55:39Z</end></TimeSpan><styleUrl>#point</styleUrl><Point><altitudeMode>clampToGround</altitudeMode><coordinates>18.475675033405423,-34.238691022619605,16.48</coordinates></Point></Placemark><Placemark><TimeSpan><begin>2020-03-13T12:55:39Z</begin><end>2020-03-13T12:55:40Z</end></TimeSpan><styleUrl>#point</styleUrl><Point><altitudeMode>clampToGround</altitudeMode><coordinates>18.475607978180051,-34.238579040393233,16.48</coordinates></Point></Placemark><Placemark><TimeSpan><begin>2020-03-13T12:55:40Z</begin><end>2020-03-13T12:55:49Z</end></TimeSpan><styleUrl>#point</styleUrl><Point><altitudeMode>clampToGround</altitudeMode><coordinates>18.475127024576068,-34.237537002190948,13.6</coordinates></Point></Placemark><Placemark><TimeSpan><begin>2020-03-13T12:55:49Z</begin><end>2020-03-13T12:55:50Z</end></TimeSpan><styleUrl>#point</styleUrl><Point><altitudeMode>clampToGround</altitudeMode><coordinates>18.47511000931263,-34.237417979165912,12.630000000000001</coordinates></Point></Placemark><Placemark><TimeSpan><begin>2020-03-13T12:55:50Z</begin><end>2020-03-13T12:55:54Z</end></TimeSpan><styleUrl>#point</styleUrl><Point><altitudeMode>clampToGround</altitudeMode><coordinates>18.475063992664218,-34.236911041662097,10.710000000000001</coordinates></Point></Placemark><Placemark><TimeSpan><begin>2020-03-13T12:55:54Z</begin><end>2020-03-13T12:55:55Z</end></TimeSpan><styleUrl>#point</styleUrl><Point><altitudeMode>clampToGround</altitudeMode><coordinates>18.475026022642851,-34.236781038343906,10.710000000000001</coordinates></Point></Placemark><Placemark><TimeSpan><begin>2020-03-13T12:55:55Z</begin><end>2020-03-13T12:56:02Z</end></TimeSpan><styleUrl>#point</styleUrl><Point><altitudeMode>clampToGround</altitudeMode><coordinates>18.474686974659562,-34.235849976539612,9.27</coordinates></Point></Placemark><Placemark><TimeSpan><begin>2020-03-13T12:56:02Z</begin><end>2020-03-13T12:56:03Z</end></TimeSpan><styleUrl>#point</styleUrl><Point><altitudeMode>clampToGround</altitudeMode><coordinates>18.474679011851549,-34.235707987099886,9.27</coordinates></Point></Placemark><Placemark><TimeSpan><begin>2020-03-13T12:56:03Z</begin><end>2020-03-13T12:56:06Z</end></TimeSpan><styleUrl>#point</styleUrl><Point><altitudeMode>clampToGround</altitudeMode><coordinates>18.474642969667912,-34.235277995467186,9.75</coordinates></Point></Placemark><Placemark><TimeSpan><begin>2020-03-13T12:56:06Z</begin><end>2020-03-13T12:56:07Z</end></TimeSpan><styleUrl>#point</styleUrl><Point><altitudeMode>clampToGround</altitudeMode><coordinates>18.474602987989783,-34.235141035169363,9.75</coordinates></Point></Placemark><Placemark><TimeSpan><begin>2020-03-13T12:56:07Z</begin><end>2020-03-13T12:56:08Z</end></TimeSpan><styleUrl>#point</styleUrl><Point><altitudeMode>clampToGround</altitudeMode><coordinates>18.474550014361739,-34.235003991052508,10.23</coordinates></Point></Placemark><Placemark><TimeSpan><begin>2020-03-13T12:56:08Z</begin><end>2020-03-13T12:56:09Z</end></TimeSpan><styleUrl>#point</styleUrl><Point><altitudeMode>clampToGround</altitudeMode><coordinates>18.474484970793128,-34.234870970249176,10.710000000000001</coordinates></Point></Placemark><Placemark><TimeSpan><begin>2020-03-13T12:56:09Z</begin><end>2020-03-13T12:56:10Z</end></TimeSpan><styleUrl>#point</styleUrl><Point><altitudeMode>clampToGround</altitudeMode><coordinates>18.474408024922013,-34.234739961102605,11.19</coordinates></Point></Placemark><Placemark><TimeSpan><begin>2020-03-13T12:56:10Z</begin><end>2020-03-13T12:56:21Z</end></TimeSpan><styleUrl>#point</styleUrl><Point><altitudeMode>clampToGround</altitudeMode><coordinates>18.473745184019208,-34.233773108571768,20.32</coordinates></Point></Placemark></Folder><Placemark><name>[156] Smitswinkel Pass</name><Style><LineStyle><color>ffff4040</color><width>4</width></LineStyle></Style><MultiGeometry><LineString><coordinates>18.456328008323908,-34.257519040256739,138.56999999999999 18.457119008526206,-34.257728001102805,141.93000000000001 18.458657003939152,-34.25812304019928,142.88999999999999 18.459802977740765,-34.258746989071369,139.05000000000001 18.462016973644495,-34.260039981454611,122.70999999999999 18.463720008730888,-34.260953022167087,111.17 18.464471027255058,-34.261363986879587,109.25 18.465526979416609,-34.26201400347054,102.52 18.466352010145783,-34.262152975425124,97.709999999999994 18.466453012079,-34.262136965990067,96.269999999999996 18.466547979041934,-34.262092960998416,96.269999999999996 18.466634983196855,-34.262033030390739,95.790000000000006 18.466717964038253,-34.261963963508606,94.829999999999998 18.466802034527063,-34.261889029294252,93.870000000000005 18.467557998374104,-34.261345965787768,88.099999999999994 18.467661011964083,-34.261247981339693,87.620000000000005 18.46847103908658,-34.260234022513032,79.930000000000007 18.468576986342669,-34.26014400087297,79.450000000000003 18.468695003539324,-34.260070994496346,78.480000000000004 18.47029896453023,-34.259189972653985,70.790000000000006 18.470926014706492,-34.258937006816268,68.870000000000005 18.471036991104484,-34.258873974904418,69.349999999999994 18.471138998866081,-34.258798034861684,68.870000000000005 18.472253037616611,-34.258033018559217,68.390000000000001 18.472354039549828,-34.257965963333845,67.909999999999997 18.472441965714097,-34.257887005805969,66.950000000000003 18.472521007061005,-34.257793966680765,66.469999999999999 18.472594013437629,-34.257692964747548,65.989999999999995 18.472662996500731,-34.257585005834699,65.510000000000005 18.473246963694692,-34.256644975394011,62.140000000000001 18.473346959799528,-34.256546990945935,62.140000000000001 18.473461037501693,-34.256459986791015,61.659999999999997 18.473582994192839,-34.256386980414391,60.700000000000003 18.473720960319042,-34.256327971816063,60.219999999999999 18.473867978900671,-34.256281033158302,60.219999999999999 18.47401600331068,-34.256238033995032,59.740000000000002 18.474157992750406,-34.256190005689859,59.259999999999998 18.47429403103888,-34.256136026233435,58.780000000000001 18.4744259621948,-34.256060002371669,58.299999999999997 18.474540039896965,-34.255977021530271,57.82 18.474641041830182,-34.255882976576686,57.340000000000003 18.474731985479593,-34.255775017663836,56.859999999999999 18.474813960492611,-34.255663035437465,56.369999999999997 18.474885039031506,-34.255547029897571,55.890000000000001 18.474954022094607,-34.255422977730632,55.409999999999997 18.475213022902608,-34.254223024472594,53.490000000000002 18.475032979622483,-34.253286011517048,54.450000000000003 18.475045971572399,-34.253146033734083,54.450000000000003 18.475073967128992,-34.253007983788848,54.93 18.475113026797771,-34.252874040976167,54.450000000000003 18.475173963233829,-34.252739008516073,54.93 18.475244035944343,-34.252609005197883,54.93 18.475360963493586,-34.252356961369514,55.890000000000001 18.475402034819126,-34.252229975536466,56.369999999999997 18.475417960435152,-34.252098966389894,56.369999999999997 18.475403962656856,-34.251972986385226,56.369999999999997 18.475373033434153,-34.251844994723797,56.369999999999997 18.475322993472219,-34.251719014719129,56.859999999999999 18.475273959338665,-34.25159202888608,56.859999999999999 18.475115960463881,-34.250415964052081,57.340000000000003 18.475081007927656,-34.249134035781026,55.890000000000001 18.475106991827488,-34.249002020806074,56.369999999999997 18.47515401430428,-34.248872017487884,56.859999999999999 18.475238000974059,-34.248619973659515,57.340000000000003 18.475269014015794,-34.248488964512944,58.299999999999997 18.475267002359033,-34.248360972851515,57.340000000000003 18.475243030115962,-34.24824002198875,56.369999999999997 18.475220985710621,-34.248109012842178,56.859999999999999 18.47517304122448,-34.24798596650362,56.859999999999999 18.475112020969391,-34.247867027297616,56.859999999999999 18.475043959915638,-34.247745992615819,56.859999999999999 18.474829969927669,-34.247391019016504,56.859999999999999 18.474779007956386,-34.247263027355075,56.859999999999999 18.474751012399793,-34.24712497740984,57.340000000000003 18.474731985479593,-34.246988017112017,56.859999999999999 18.474716981872916,-34.246851978823543,55.409999999999997 18.474554037675261,-34.246014039963484,48.68 18.474478013813496,-34.245870038866997,47.719999999999999 18.4738630335778,-34.244661033153534,42.439999999999998 18.473830008879304,-34.24450303427875,41.950000000000003 18.47382003441453,-34.244337994605303,41.950000000000003 18.47382397390902,-34.244172032922506,42.439999999999998 18.473834032192826,-34.244004981592298,42.439999999999998 18.473784998059273,-34.242744008079171,42.439999999999998 18.473805030807853,-34.242604030296206,42.439999999999998 18.473834032192826,-34.242470003664494,41.469999999999999 18.474339041858912,-34.241412961855531,35.229999999999997 18.475257027894258,-34.240091973915696,25.609999999999999 18.475356018170714,-34.239994995296001,25.129999999999999 18.475809982046485,-34.239536002278328,22.73 18.475863039493561,-34.239436006173491,21.289999999999999 18.475892962887883,-34.239330980926752,20.809999999999999 18.475894974544644,-34.239226961508393,19.84 18.475871002301574,-34.239123025909066,18.879999999999999 18.475836971774697,-34.239015989005566,18.399999999999999 18.475793972611427,-34.238909035921097,17.440000000000001 18.475738987326622,-34.238801999017596,16.960000000000001 18.475675033405423,-34.238691022619605,16.48 18.475607978180051,-34.238579040393233,16.48 18.475127024576068,-34.237537002190948,13.6 18.47511000931263,-34.237417979165912,12.630000000000001 18.475063992664218,-34.236911041662097,10.710000000000001 18.475026022642851,-34.236781038343906,10.710000000000001 18.474686974659562,-34.235849976539612,9.27 18.474679011851549,-34.235707987099886,9.27 18.474642969667912,-34.235277995467186,9.75 18.474602987989783,-34.235141035169363,9.75 18.474550014361739,-34.235003991052508,10.23 18.474484970793128,-34.234870970249176,10.710000000000001 18.474408024922013,-34.234739961102605,11.19 18.473745184019208,-34.233773108571768,20.32 </coordinates></LineString></MultiGeometry></Placemark></Folder></Folder></Document></kml>