<?xml version="1.0" encoding="utf-8"?><kml xmlns="http://www.opengis.net/kml/2.2" xmlns:xsi="http://www.w3.org/2001/XMLSchema-instance" xmlns:kmlx="http://www.google.com/kml/ext/2.2" xmlns:atom="http://www.w3.org/2005/Atom" xmlns:gpxx="http://www.garmin.com/xmlschemas/GpxExtensions/v3"><Document><Style id="point"><IconStyle><scale>0.9</scale><Icon><href>http://maps.google.com/mapfiles/kml/shapes/placemark_circle.png</href></Icon></IconStyle></Style><Folder><name>Tracks</name><Folder><name>[171] Viljoen's Pass</name><Folder><name>Points</name><Style><ListStyle><listItemType>checkHideChildren</listItemType></ListStyle></Style><Placemark><TimeSpan><begin>2020-03-17T12:03:22Z</begin><end>2020-03-17T12:03:22Z</end></TimeSpan><Style><IconStyle><scale>0.9</scale><Icon><href>http://connect.garmin.com/image/main/icons/kml/grn-play.png</href></Icon></IconStyle></Style><Point><altitudeMode>clampToGround</altitudeMode><coordinates>19.091603010892868,-34.073797026649117,328.91000000000003</coordinates></Point></Placemark><Placemark><TimeSpan><begin>2020-03-17T12:03:22Z</begin><end>2020-03-17T12:03:23Z</end></TimeSpan><styleUrl>#point</styleUrl><Point><altitudeMode>clampToGround</altitudeMode><coordinates>19.09132900647819,-34.073756039142609,328.91000000000003</coordinates></Point></Placemark><Placemark><TimeSpan><begin>2020-03-17T12:03:23Z</begin><end>2020-03-17T12:03:24Z</end></TimeSpan><styleUrl>#point</styleUrl><Point><altitudeMode>clampToGround</altitudeMode><coordinates>19.091044021770358,-34.073701975867152,329.38999999999999</coordinates></Point></Placemark><Placemark><TimeSpan><begin>2020-03-17T12:03:24Z</begin><end>2020-03-17T12:03:30Z</end></TimeSpan><styleUrl>#point</styleUrl><Point><altitudeMode>clampToGround</altitudeMode><coordinates>19.089109981432557,-34.07360902056098,337.07999999999998</coordinates></Point></Placemark><Placemark><TimeSpan><begin>2020-03-17T12:03:30Z</begin><end>2020-03-17T12:03:44Z</end></TimeSpan><styleUrl>#point</styleUrl><Point><altitudeMode>clampToGround</altitudeMode><coordinates>19.084414020180702,-34.07410598360002,350.54000000000002</coordinates></Point></Placemark><Placemark><TimeSpan><begin>2020-03-17T12:03:44Z</begin><end>2020-03-17T12:03:56Z</end></TimeSpan><styleUrl>#point</styleUrl><Point><altitudeMode>clampToGround</altitudeMode><coordinates>19.080473016947508,-34.074673019349575,364</coordinates></Point></Placemark><Placemark><TimeSpan><begin>2020-03-17T12:03:56Z</begin><end>2020-03-17T12:04:06Z</end></TimeSpan><styleUrl>#point</styleUrl><Point><altitudeMode>clampToGround</altitudeMode><coordinates>19.077401971444488,-34.075333010405302,373.61000000000001</coordinates></Point></Placemark><Placemark><TimeSpan><begin>2020-03-17T12:04:06Z</begin><end>2020-03-17T12:04:17Z</end></TimeSpan><styleUrl>#point</styleUrl><Point><altitudeMode>clampToGround</altitudeMode><coordinates>19.074560003355145,-34.075955031439662,381.77999999999997</coordinates></Point></Placemark><Placemark><TimeSpan><begin>2020-03-17T12:04:17Z</begin><end>2020-03-17T12:04:26Z</end></TimeSpan><styleUrl>#point</styleUrl><Point><altitudeMode>clampToGround</altitudeMode><coordinates>19.072298984974623,-34.076406983658671,390.43000000000001</coordinates></Point></Placemark><Placemark><TimeSpan><begin>2020-03-17T12:04:26Z</begin><end>2020-03-17T12:04:27Z</end></TimeSpan><styleUrl>#point</styleUrl><Point><altitudeMode>clampToGround</altitudeMode><coordinates>19.072045013308525,-34.076416036114097,390.43000000000001</coordinates></Point></Placemark><Placemark><TimeSpan><begin>2020-03-17T12:04:27Z</begin><end>2020-03-17T12:04:28Z</end></TimeSpan><styleUrl>#point</styleUrl><Point><altitudeMode>clampToGround</altitudeMode><coordinates>19.071785006672144,-34.076396003365517,388.99000000000001</coordinates></Point></Placemark><Placemark><TimeSpan><begin>2020-03-17T12:04:28Z</begin><end>2020-03-17T12:04:29Z</end></TimeSpan><styleUrl>#point</styleUrl><Point><altitudeMode>clampToGround</altitudeMode><coordinates>19.071522988379002,-34.076359961181879,388.50999999999999</coordinates></Point></Placemark><Placemark><TimeSpan><begin>2020-03-17T12:04:29Z</begin><end>2020-03-17T12:04:30Z</end></TimeSpan><styleUrl>#point</styleUrl><Point><altitudeMode>clampToGround</altitudeMode><coordinates>19.071258958429098,-34.076306987553835,388.02999999999997</coordinates></Point></Placemark><Placemark><TimeSpan><begin>2020-03-17T12:04:30Z</begin><end>2020-03-17T12:04:31Z</end></TimeSpan><styleUrl>#point</styleUrl><Point><altitudeMode>clampToGround</altitudeMode><coordinates>19.070999035611749,-34.076238004490733,388.50999999999999</coordinates></Point></Placemark><Placemark><TimeSpan><begin>2020-03-17T12:04:31Z</begin><end>2020-03-17T12:04:32Z</end></TimeSpan><styleUrl>#point</styleUrl><Point><altitudeMode>clampToGround</altitudeMode><coordinates>19.070745985955,-34.076147982850671,388.50999999999999</coordinates></Point></Placemark><Placemark><TimeSpan><begin>2020-03-17T12:04:32Z</begin><end>2020-03-17T12:04:33Z</end></TimeSpan><styleUrl>#point</styleUrl><Point><altitudeMode>clampToGround</altitudeMode><coordinates>19.070501988753676,-34.076043041422963,388.50999999999999</coordinates></Point></Placemark><Placemark><TimeSpan><begin>2020-03-17T12:04:33Z</begin><end>2020-03-17T12:04:34Z</end></TimeSpan><styleUrl>#point</styleUrl><Point><altitudeMode>clampToGround</altitudeMode><coordinates>19.07027299515903,-34.075924018397927,388.99000000000001</coordinates></Point></Placemark><Placemark><TimeSpan><begin>2020-03-17T12:04:34Z</begin><end>2020-03-17T12:04:35Z</end></TimeSpan><styleUrl>#point</styleUrl><Point><altitudeMode>clampToGround</altitudeMode><coordinates>19.070065962150693,-34.075788985937834,389.94999999999999</coordinates></Point></Placemark><Placemark><TimeSpan><begin>2020-03-17T12:04:35Z</begin><end>2020-03-17T12:04:36Z</end></TimeSpan><styleUrl>#point</styleUrl><Point><altitudeMode>clampToGround</altitudeMode><coordinates>19.069887008517981,-34.075623024255037,392.36000000000001</coordinates></Point></Placemark><Placemark><TimeSpan><begin>2020-03-17T12:04:36Z</begin><end>2020-03-17T12:04:37Z</end></TimeSpan><styleUrl>#point</styleUrl><Point><altitudeMode>clampToGround</altitudeMode><coordinates>19.069713000208139,-34.07545798458159,393.80000000000001</coordinates></Point></Placemark><Placemark><TimeSpan><begin>2020-03-17T12:04:37Z</begin><end>2020-03-17T12:04:38Z</end></TimeSpan><styleUrl>#point</styleUrl><Point><altitudeMode>clampToGround</altitudeMode><coordinates>19.069557012990117,-34.075279030948877,396.68000000000001</coordinates></Point></Placemark><Placemark><TimeSpan><begin>2020-03-17T12:04:38Z</begin><end>2020-03-17T12:04:39Z</end></TimeSpan><styleUrl>#point</styleUrl><Point><altitudeMode>clampToGround</altitudeMode><coordinates>19.069412006065249,-34.07509496435523,399.07999999999998</coordinates></Point></Placemark><Placemark><TimeSpan><begin>2020-03-17T12:04:39Z</begin><end>2020-03-17T12:04:40Z</end></TimeSpan><styleUrl>#point</styleUrl><Point><altitudeMode>clampToGround</altitudeMode><coordinates>19.069287031888962,-34.074908969923854,402.93000000000001</coordinates></Point></Placemark><Placemark><TimeSpan><begin>2020-03-17T12:04:40Z</begin><end>2020-03-17T12:04:41Z</end></TimeSpan><styleUrl>#point</styleUrl><Point><altitudeMode>clampToGround</altitudeMode><coordinates>19.069167003035545,-34.074701014906168,404.37</coordinates></Point></Placemark><Placemark><TimeSpan><begin>2020-03-17T12:04:41Z</begin><end>2020-03-17T12:04:51Z</end></TimeSpan><styleUrl>#point</styleUrl><Point><altitudeMode>clampToGround</altitudeMode><coordinates>19.068292016163468,-34.072552984580398,426.95999999999998</coordinates></Point></Placemark><Placemark><TimeSpan><begin>2020-03-17T12:04:51Z</begin><end>2020-03-17T12:04:53Z</end></TimeSpan><styleUrl>#point</styleUrl><Point><altitudeMode>clampToGround</altitudeMode><coordinates>19.068267960101366,-34.07214998267591,430.81</coordinates></Point></Placemark><Placemark><TimeSpan><begin>2020-03-17T12:04:53Z</begin><end>2020-03-17T12:04:54Z</end></TimeSpan><styleUrl>#point</styleUrl><Point><altitudeMode>clampToGround</altitudeMode><coordinates>19.068298973143101,-34.071954013779759,432.25</coordinates></Point></Placemark><Placemark><TimeSpan><begin>2020-03-17T12:04:54Z</begin><end>2020-03-17T12:04:55Z</end></TimeSpan><styleUrl>#point</styleUrl><Point><altitudeMode>clampToGround</altitudeMode><coordinates>19.068357981741428,-34.071755027398467,433.69</coordinates></Point></Placemark><Placemark><TimeSpan><begin>2020-03-17T12:04:55Z</begin><end>2020-03-17T12:05:03Z</end></TimeSpan><styleUrl>#point</styleUrl><Point><altitudeMode>clampToGround</altitudeMode><coordinates>19.069274961948395,-34.070216026157141,447.14999999999998</coordinates></Point></Placemark><Placemark><TimeSpan><begin>2020-03-17T12:05:03Z</begin><end>2020-03-17T12:05:09Z</end></TimeSpan><styleUrl>#point</styleUrl><Point><altitudeMode>clampToGround</altitudeMode><coordinates>19.070096975192428,-34.069383032619953,454.36000000000001</coordinates></Point></Placemark><Placemark><TimeSpan><begin>2020-03-17T12:05:09Z</begin><end>2020-03-17T12:05:11Z</end></TimeSpan><styleUrl>#point</styleUrl><Point><altitudeMode>clampToGround</altitudeMode><coordinates>19.070280035957694,-34.069230984896421,456.27999999999997</coordinates></Point></Placemark><Placemark><TimeSpan><begin>2020-03-17T12:05:11Z</begin><end>2020-03-17T12:05:12Z</end></TimeSpan><styleUrl>#point</styleUrl><Point><altitudeMode>clampToGround</altitudeMode><coordinates>19.070325968787074,-34.069160996004939,457.24000000000001</coordinates></Point></Placemark><Placemark><TimeSpan><begin>2020-03-17T12:05:12Z</begin><end>2020-03-17T12:05:13Z</end></TimeSpan><styleUrl>#point</styleUrl><Point><altitudeMode>clampToGround</altitudeMode><coordinates>19.070324040949345,-34.069097964093089,456.75999999999999</coordinates></Point></Placemark><Placemark><TimeSpan><begin>2020-03-17T12:05:13Z</begin><end>2020-03-17T12:05:14Z</end></TimeSpan><styleUrl>#point</styleUrl><Point><altitudeMode>clampToGround</altitudeMode><coordinates>19.070297973230481,-34.069043984636664,457.72000000000003</coordinates></Point></Placemark><Placemark><TimeSpan><begin>2020-03-17T12:05:14Z</begin><end>2020-03-17T12:05:15Z</end></TimeSpan><styleUrl>#point</styleUrl><Point><altitudeMode>clampToGround</altitudeMode><coordinates>19.070244999602437,-34.069016994908452,458.20999999999998</coordinates></Point></Placemark><Placemark><TimeSpan><begin>2020-03-17T12:05:15Z</begin><end>2020-03-17T12:05:16Z</end></TimeSpan><styleUrl>#point</styleUrl><Point><altitudeMode>clampToGround</altitudeMode><coordinates>19.070171993225813,-34.069025963544846,458.69</coordinates></Point></Placemark><Placemark><TimeSpan><begin>2020-03-17T12:05:16Z</begin><end>2020-03-17T12:05:17Z</end></TimeSpan><styleUrl>#point</styleUrl><Point><altitudeMode>clampToGround</altitudeMode><coordinates>19.070112984627485,-34.069059994071722,459.17000000000002</coordinates></Point></Placemark><Placemark><TimeSpan><begin>2020-03-17T12:05:17Z</begin><end>2020-03-17T12:05:18Z</end></TimeSpan><styleUrl>#point</styleUrl><Point><altitudeMode>clampToGround</altitudeMode><coordinates>19.070053976029158,-34.06911900267005,458.69</coordinates></Point></Placemark><Placemark><TimeSpan><begin>2020-03-17T12:05:18Z</begin><end>2020-03-17T12:05:19Z</end></TimeSpan><styleUrl>#point</styleUrl><Point><altitudeMode>clampToGround</altitudeMode><coordinates>19.069998990744352,-34.069195026531816,458.20999999999998</coordinates></Point></Placemark><Placemark><TimeSpan><begin>2020-03-17T12:05:19Z</begin><end>2020-03-17T12:05:20Z</end></TimeSpan><styleUrl>#point</styleUrl><Point><altitudeMode>clampToGround</altitudeMode><coordinates>19.069940987974405,-34.069285970181227,458.69</coordinates></Point></Placemark><Placemark><TimeSpan><begin>2020-03-17T12:05:20Z</begin><end>2020-03-17T12:05:27Z</end></TimeSpan><styleUrl>#point</styleUrl><Point><altitudeMode>clampToGround</altitudeMode><coordinates>19.069254007190466,-34.070019973441958,458.69</coordinates></Point></Placemark><Placemark><TimeSpan><begin>2020-03-17T12:05:27Z</begin><end>2020-03-17T12:05:36Z</end></TimeSpan><styleUrl>#point</styleUrl><Point><altitudeMode>clampToGround</altitudeMode><coordinates>19.067741995677352,-34.070969978347421,464.44999999999999</coordinates></Point></Placemark><Placemark><TimeSpan><begin>2020-03-17T12:05:36Z</begin><end>2020-03-17T12:05:39Z</end></TimeSpan><styleUrl>#point</styleUrl><Point><altitudeMode>clampToGround</altitudeMode><coordinates>19.067130032926798,-34.071311037987471,470.69999999999999</coordinates></Point></Placemark><Placemark><TimeSpan><begin>2020-03-17T12:05:39Z</begin><end>2020-03-17T12:05:46Z</end></TimeSpan><styleUrl>#point</styleUrl><Point><altitudeMode>clampToGround</altitudeMode><coordinates>19.065698990598321,-34.072372019290924,479.83999999999997</coordinates></Point></Placemark><Placemark><TimeSpan><begin>2020-03-17T12:05:46Z</begin><end>2020-03-17T12:05:47Z</end></TimeSpan><styleUrl>#point</styleUrl><Point><altitudeMode>clampToGround</altitudeMode><coordinates>19.065488018095493,-34.072489030659199,481.27999999999997</coordinates></Point></Placemark><Placemark><TimeSpan><begin>2020-03-17T12:05:47Z</begin><end>2020-03-17T12:05:48Z</end></TimeSpan><styleUrl>#point</styleUrl><Point><altitudeMode>clampToGround</altitudeMode><coordinates>19.065260030329227,-34.072591038420796,482.24000000000001</coordinates></Point></Placemark><Placemark><TimeSpan><begin>2020-03-17T12:05:48Z</begin><end>2020-03-17T12:05:49Z</end></TimeSpan><styleUrl>#point</styleUrl><Point><altitudeMode>clampToGround</altitudeMode><coordinates>19.06500899232924,-34.072682987898588,484.16000000000003</coordinates></Point></Placemark><Placemark><TimeSpan><begin>2020-03-17T12:05:49Z</begin><end>2020-03-17T12:05:56Z</end></TimeSpan><styleUrl>#point</styleUrl><Point><altitudeMode>clampToGround</altitudeMode><coordinates>19.063172014430165,-34.073446998372674,501.94999999999999</coordinates></Point></Placemark><Placemark><TimeSpan><begin>2020-03-17T12:05:56Z</begin><end>2020-03-17T12:05:57Z</end></TimeSpan><styleUrl>#point</styleUrl><Point><altitudeMode>clampToGround</altitudeMode><coordinates>19.062969004735351,-34.073601979762316,503.38999999999999</coordinates></Point></Placemark><Placemark><TimeSpan><begin>2020-03-17T12:05:57Z</begin><end>2020-03-17T12:06:06Z</end></TimeSpan><styleUrl>#point</styleUrl><Point><altitudeMode>clampToGround</altitudeMode><coordinates>19.061352973803878,-34.075082978233695,517.33000000000004</coordinates></Point></Placemark><Placemark><TimeSpan><begin>2020-03-17T12:06:06Z</begin><end>2020-03-17T12:06:15Z</end></TimeSpan><styleUrl>#point</styleUrl><Point><altitudeMode>clampToGround</altitudeMode><coordinates>19.05959595926106,-34.076860025525093,522.13</coordinates></Point></Placemark><Placemark><TimeSpan><begin>2020-03-17T12:06:15Z</begin><end>2020-03-17T12:06:23Z</end></TimeSpan><styleUrl>#point</styleUrl><Point><altitudeMode>clampToGround</altitudeMode><coordinates>19.058570014312863,-34.078545039519668,516.37</coordinates></Point></Placemark><Placemark><TimeSpan><begin>2020-03-17T12:06:23Z</begin><end>2020-03-17T12:06:39Z</end></TimeSpan><styleUrl>#point</styleUrl><Point><altitudeMode>clampToGround</altitudeMode><coordinates>19.057075018063188,-34.081954965367913,512.03999999999996</coordinates></Point></Placemark><Placemark><TimeSpan><begin>2020-03-17T12:06:39Z</begin><end>2020-03-17T12:06:48Z</end></TimeSpan><styleUrl>#point</styleUrl><Point><altitudeMode>clampToGround</altitudeMode><coordinates>19.056405974552035,-34.08418295904994,503.87</coordinates></Point></Placemark><Placemark><TimeSpan><begin>2020-03-17T12:06:48Z</begin><end>2020-03-17T12:07:01Z</end></TimeSpan><styleUrl>#point</styleUrl><Point><altitudeMode>clampToGround</altitudeMode><coordinates>19.055694015696645,-34.087809976190329,501.94999999999999</coordinates></Point></Placemark><Placemark><TimeSpan><begin>2020-03-17T12:07:01Z</begin><end>2020-03-17T12:07:07Z</end></TimeSpan><styleUrl>#point</styleUrl><Point><altitudeMode>clampToGround</altitudeMode><coordinates>19.054937968030572,-34.089319976046681,500.5</coordinates></Point></Placemark><Placemark><TimeSpan><begin>2020-03-17T12:07:07Z</begin><end>2020-03-17T12:07:13Z</end></TimeSpan><styleUrl>#point</styleUrl><Point><altitudeMode>clampToGround</altitudeMode><coordinates>19.05364497564733,-34.090538034215569,495.22000000000003</coordinates></Point></Placemark><Placemark><TimeSpan><begin>2020-03-17T12:07:13Z</begin><end>2020-03-17T12:07:19Z</end></TimeSpan><styleUrl>#point</styleUrl><Point><altitudeMode>clampToGround</altitudeMode><coordinates>19.052155008539557,-34.091757014393806,483.19999999999999</coordinates></Point></Placemark><Placemark><TimeSpan><begin>2020-03-17T12:07:19Z</begin><end>2020-03-17T12:07:25Z</end></TimeSpan><styleUrl>#point</styleUrl><Point><altitudeMode>clampToGround</altitudeMode><coordinates>19.051153035834432,-34.093282017856836,479.83999999999997</coordinates></Point></Placemark><Placemark><TimeSpan><begin>2020-03-17T12:07:25Z</begin><end>2020-03-17T12:07:34Z</end></TimeSpan><styleUrl>#point</styleUrl><Point><altitudeMode>clampToGround</altitudeMode><coordinates>19.049999015405774,-34.095325022935867,485.12</coordinates></Point></Placemark><Placemark><TimeSpan><begin>2020-03-17T12:07:34Z</begin><end>2020-03-17T12:07:44Z</end></TimeSpan><styleUrl>#point</styleUrl><Point><altitudeMode>clampToGround</altitudeMode><coordinates>19.049067031592131,-34.097371967509389,475.99000000000001</coordinates></Point></Placemark><Placemark><TimeSpan><begin>2020-03-17T12:07:44Z</begin><end>2020-03-17T12:07:53Z</end></TimeSpan><styleUrl>#point</styleUrl><Point><altitudeMode>clampToGround</altitudeMode><coordinates>19.048718009144068,-34.099561991170049,463.00999999999999</coordinates></Point></Placemark><Placemark><TimeSpan><begin>2020-03-17T12:07:53Z</begin><end>2020-03-17T12:07:59Z</end></TimeSpan><styleUrl>#point</styleUrl><Point><altitudeMode>clampToGround</altitudeMode><coordinates>19.049129979684949,-34.101000996306539,461.08999999999997</coordinates></Point></Placemark><Placemark><TimeSpan><begin>2020-03-17T12:07:59Z</begin><end>2020-03-17T12:08:05Z</end></TimeSpan><styleUrl>#point</styleUrl><Point><altitudeMode>clampToGround</altitudeMode><coordinates>19.05009800568223,-34.102191980928183,455.31999999999999</coordinates></Point></Placemark><Placemark><TimeSpan><begin>2020-03-17T12:08:05Z</begin><end>2020-03-17T12:08:12Z</end></TimeSpan><styleUrl>#point</styleUrl><Point><altitudeMode>clampToGround</altitudeMode><coordinates>19.051551008597016,-34.103177022188902,444.75</coordinates></Point></Placemark><Placemark><TimeSpan><begin>2020-03-17T12:08:12Z</begin><end>2020-03-17T12:08:13Z</end></TimeSpan><styleUrl>#point</styleUrl><Point><altitudeMode>clampToGround</altitudeMode><coordinates>19.051727028563619,-34.103340972214937,443.79000000000002</coordinates></Point></Placemark><Placemark><TimeSpan><begin>2020-03-17T12:08:13Z</begin><end>2020-03-17T12:08:20Z</end></TimeSpan><styleUrl>#point</styleUrl><Point><altitudeMode>clampToGround</altitudeMode><coordinates>19.052931005135179,-34.104658020660281,433.20999999999998</coordinates></Point></Placemark><Placemark><TimeSpan><begin>2020-03-17T12:08:20Z</begin><end>2020-03-17T12:08:23Z</end></TimeSpan><styleUrl>#point</styleUrl><Point><altitudeMode>clampToGround</altitudeMode><coordinates>19.053338030353189,-34.105195971205831,430.81</coordinates></Point></Placemark><Placemark><TimeSpan><begin>2020-03-17T12:08:23Z</begin><end>2020-03-17T12:08:24Z</end></TimeSpan><styleUrl>#point</styleUrl><Point><altitudeMode>clampToGround</altitudeMode><coordinates>19.053427968174219,-34.105395963415504,429.85000000000002</coordinates></Point></Placemark><Placemark><TimeSpan><begin>2020-03-17T12:08:24Z</begin><end>2020-03-17T12:08:25Z</end></TimeSpan><styleUrl>#point</styleUrl><Point><altitudeMode>clampToGround</altitudeMode><coordinates>19.053497035056353,-34.105610037222505,428.88999999999999</coordinates></Point></Placemark><Placemark><TimeSpan><begin>2020-03-17T12:08:25Z</begin><end>2020-03-17T12:08:26Z</end></TimeSpan><styleUrl>#point</styleUrl><Point><altitudeMode>clampToGround</altitudeMode><coordinates>19.053540034219623,-34.105834001675248,427.44</coordinates></Point></Placemark><Placemark><TimeSpan><begin>2020-03-17T12:08:26Z</begin><end>2020-03-17T12:08:27Z</end></TimeSpan><styleUrl>#point</styleUrl><Point><altitudeMode>clampToGround</altitudeMode><coordinates>19.053560988977551,-34.106066012755036,426.48000000000002</coordinates></Point></Placemark><Placemark><TimeSpan><begin>2020-03-17T12:08:27Z</begin><end>2020-03-17T12:08:28Z</end></TimeSpan><styleUrl>#point</styleUrl><Point><altitudeMode>clampToGround</altitudeMode><coordinates>19.053573980927467,-34.106303974986076,425.04000000000002</coordinates></Point></Placemark><Placemark><TimeSpan><begin>2020-03-17T12:08:28Z</begin><end>2020-03-17T12:08:39Z</end></TimeSpan><styleUrl>#point</styleUrl><Point><altitudeMode>clampToGround</altitudeMode><coordinates>19.053981006145477,-34.108926001936197,406.29000000000002</coordinates></Point></Placemark><Placemark><TimeSpan><begin>2020-03-17T12:08:39Z</begin><end>2020-03-17T12:08:46Z</end></TimeSpan><styleUrl>#point</styleUrl><Point><altitudeMode>clampToGround</altitudeMode><coordinates>19.054879965260625,-34.110193010419607,395.72000000000003</coordinates></Point></Placemark><Placemark><TimeSpan><begin>2020-03-17T12:08:46Z</begin><end>2020-03-17T12:08:53Z</end></TimeSpan><styleUrl>#point</styleUrl><Point><altitudeMode>clampToGround</altitudeMode><coordinates>19.05555697157979,-34.110938999801874,388.02999999999997</coordinates></Point></Placemark><Placemark><TimeSpan><begin>2020-03-17T12:08:53Z</begin><end>2020-03-17T12:08:55Z</end></TimeSpan><styleUrl>#point</styleUrl><Point><altitudeMode>clampToGround</altitudeMode><coordinates>19.055722011253238,-34.111091969534755,387.06999999999999</coordinates></Point></Placemark><Placemark><TimeSpan><begin>2020-03-17T12:08:55Z</begin><end>2020-03-17T12:08:56Z</end></TimeSpan><styleUrl>#point</styleUrl><Point><altitudeMode>clampToGround</altitudeMode><coordinates>19.05581496655941,-34.111153995618224,386.58999999999997</coordinates></Point></Placemark><Placemark><TimeSpan><begin>2020-03-17T12:08:56Z</begin><end>2020-03-17T12:08:57Z</end></TimeSpan><styleUrl>#point</styleUrl><Point><altitudeMode>clampToGround</altitudeMode><coordinates>19.055915968492627,-34.111205963417888,385.63</coordinates></Point></Placemark><Placemark><TimeSpan><begin>2020-03-17T12:08:57Z</begin><end>2020-03-17T12:08:58Z</end></TimeSpan><styleUrl>#point</styleUrl><Point><altitudeMode>clampToGround</altitudeMode><coordinates>19.056024011224508,-34.111253991723061,385.14999999999998</coordinates></Point></Placemark><Placemark><TimeSpan><begin>2020-03-17T12:08:58Z</begin><end>2020-03-17T12:08:59Z</end></TimeSpan><styleUrl>#point</styleUrl><Point><altitudeMode>clampToGround</altitudeMode><coordinates>19.056126018986106,-34.111293973401189,384.66000000000003</coordinates></Point></Placemark><Placemark><TimeSpan><begin>2020-03-17T12:08:59Z</begin><end>2020-03-17T12:09:01Z</end></TimeSpan><styleUrl>#point</styleUrl><Point><altitudeMode>clampToGround</altitudeMode><coordinates>19.056321987882257,-34.111395981162786,383.69999999999999</coordinates></Point></Placemark><Placemark><TimeSpan><begin>2020-03-17T12:09:01Z</begin><end>2020-03-17T12:09:02Z</end></TimeSpan><styleUrl>#point</styleUrl><Point><altitudeMode>clampToGround</altitudeMode><coordinates>19.056400023400784,-34.111462030559778,383.69999999999999</coordinates></Point></Placemark><Placemark><TimeSpan><begin>2020-03-17T12:09:02Z</begin><end>2020-03-17T12:09:03Z</end></TimeSpan><styleUrl>#point</styleUrl><Point><altitudeMode>clampToGround</altitudeMode><coordinates>19.056465988978744,-34.111535958945751,383.22000000000003</coordinates></Point></Placemark><Placemark><TimeSpan><begin>2020-03-17T12:09:03Z</begin><end>2020-03-17T12:09:04Z</end></TimeSpan><styleUrl>#point</styleUrl><Point><altitudeMode>clampToGround</altitudeMode><coordinates>19.056513011455536,-34.111623968929052,382.74000000000001</coordinates></Point></Placemark><Placemark><TimeSpan><begin>2020-03-17T12:09:04Z</begin><end>2020-03-17T12:09:05Z</end></TimeSpan><styleUrl>#point</styleUrl><Point><altitudeMode>clampToGround</altitudeMode><coordinates>19.056533966213465,-34.111722037196159,382.25999999999999</coordinates></Point></Placemark><Placemark><TimeSpan><begin>2020-03-17T12:09:05Z</begin><end>2020-03-17T12:09:06Z</end></TimeSpan><styleUrl>#point</styleUrl><Point><altitudeMode>clampToGround</altitudeMode><coordinates>19.056527009233832,-34.111827984452248,381.30000000000001</coordinates></Point></Placemark><Placemark><TimeSpan><begin>2020-03-17T12:09:06Z</begin><end>2020-03-17T12:09:07Z</end></TimeSpan><styleUrl>#point</styleUrl><Point><altitudeMode>clampToGround</altitudeMode><coordinates>19.056491972878575,-34.111936027184129,381.30000000000001</coordinates></Point></Placemark><Placemark><TimeSpan><begin>2020-03-17T12:09:07Z</begin><end>2020-03-17T12:09:08Z</end></TimeSpan><styleUrl>#point</styleUrl><Point><altitudeMode>clampToGround</altitudeMode><coordinates>19.056432964280248,-34.112039040774107,380.81999999999999</coordinates></Point></Placemark><Placemark><TimeSpan><begin>2020-03-17T12:09:08Z</begin><end>2020-03-17T12:09:09Z</end></TimeSpan><styleUrl>#point</styleUrl><Point><altitudeMode>clampToGround</altitudeMode><coordinates>19.056357024237514,-34.112129984423518,379.86000000000001</coordinates></Point></Placemark><Placemark><TimeSpan><begin>2020-03-17T12:09:09Z</begin><end>2020-03-17T12:09:10Z</end></TimeSpan><styleUrl>#point</styleUrl><Point><altitudeMode>clampToGround</altitudeMode><coordinates>19.056263985112309,-34.112206008285284,379.86000000000001</coordinates></Point></Placemark><Placemark><TimeSpan><begin>2020-03-17T12:09:10Z</begin><end>2020-03-17T12:09:11Z</end></TimeSpan><styleUrl>#point</styleUrl><Point><altitudeMode>clampToGround</altitudeMode><coordinates>19.056150997057557,-34.112274991348386,379.38</coordinates></Point></Placemark><Placemark><TimeSpan><begin>2020-03-17T12:09:11Z</begin><end>2020-03-17T12:09:12Z</end></TimeSpan><styleUrl>#point</styleUrl><Point><altitudeMode>clampToGround</altitudeMode><coordinates>19.056032979860902,-34.11232796497643,377.94</coordinates></Point></Placemark><Placemark><TimeSpan><begin>2020-03-17T12:09:12Z</begin><end>2020-03-17T12:09:13Z</end></TimeSpan><styleUrl>#point</styleUrl><Point><altitudeMode>clampToGround</altitudeMode><coordinates>19.055913034826517,-34.112384039908648,376.49000000000001</coordinates></Point></Placemark><Placemark><TimeSpan><begin>2020-03-17T12:09:13Z</begin><end>2020-03-17T12:09:20Z</end></TimeSpan><styleUrl>#point</styleUrl><Point><altitudeMode>clampToGround</altitudeMode><coordinates>19.054991025477648,-34.112554024904966,369.27999999999997</coordinates></Point></Placemark><Placemark><TimeSpan><begin>2020-03-17T12:09:20Z</begin><end>2020-03-17T12:09:21Z</end></TimeSpan><styleUrl>#point</styleUrl><Point><altitudeMode>clampToGround</altitudeMode><coordinates>19.054850963875651,-34.112539021298289,367.83999999999997</coordinates></Point></Placemark><Placemark><TimeSpan><begin>2020-03-17T12:09:21Z</begin><end>2020-03-17T12:09:33Z</end></TimeSpan><styleUrl>#point</styleUrl><Point><altitudeMode>clampToGround</altitudeMode><coordinates>19.053244991227984,-34.112475989386439,354.38</coordinates></Point></Placemark><Placemark><TimeSpan><begin>2020-03-17T12:09:33Z</begin><end>2020-03-17T12:09:43Z</end></TimeSpan><styleUrl>#point</styleUrl><Point><altitudeMode>clampToGround</altitudeMode><coordinates>19.05209599994123,-34.1129270195961,345.73000000000002</coordinates></Point></Placemark><Placemark><TimeSpan><begin>2020-03-17T12:09:43Z</begin><end>2020-03-17T12:09:51Z</end></TimeSpan><styleUrl>#point</styleUrl><Point><altitudeMode>clampToGround</altitudeMode><coordinates>19.051384041085839,-34.113703016191721,337.07999999999998</coordinates></Point></Placemark><Placemark><TimeSpan><begin>2020-03-17T12:09:51Z</begin><end>2020-03-17T12:09:59Z</end></TimeSpan><styleUrl>#point</styleUrl><Point><altitudeMode>clampToGround</altitudeMode><coordinates>19.05110701918602,-34.114728961139917,329.38999999999999</coordinates></Point></Placemark><Placemark><TimeSpan><begin>2020-03-17T12:09:59Z</begin><end>2020-03-17T12:10:05Z</end></TimeSpan><styleUrl>#point</styleUrl><Point><altitudeMode>clampToGround</altitudeMode><coordinates>19.05108405277133,-34.115405716001987,329.87</coordinates></Point></Placemark></Folder><Placemark><name>[171] Viljoen's Pass</name><Style><LineStyle><color>ffff4040</color><width>4</width></LineStyle></Style><MultiGeometry><LineString><coordinates>19.091603010892868,-34.073797026649117,328.91000000000003 19.09132900647819,-34.073756039142609,328.91000000000003 19.091044021770358,-34.073701975867152,329.38999999999999 19.089109981432557,-34.07360902056098,337.07999999999998 19.084414020180702,-34.07410598360002,350.54000000000002 19.080473016947508,-34.074673019349575,364 19.077401971444488,-34.075333010405302,373.61000000000001 19.074560003355145,-34.075955031439662,381.77999999999997 19.072298984974623,-34.076406983658671,390.43000000000001 19.072045013308525,-34.076416036114097,390.43000000000001 19.071785006672144,-34.076396003365517,388.99000000000001 19.071522988379002,-34.076359961181879,388.50999999999999 19.071258958429098,-34.076306987553835,388.02999999999997 19.070999035611749,-34.076238004490733,388.50999999999999 19.070745985955,-34.076147982850671,388.50999999999999 19.070501988753676,-34.076043041422963,388.50999999999999 19.07027299515903,-34.075924018397927,388.99000000000001 19.070065962150693,-34.075788985937834,389.94999999999999 19.069887008517981,-34.075623024255037,392.36000000000001 19.069713000208139,-34.07545798458159,393.80000000000001 19.069557012990117,-34.075279030948877,396.68000000000001 19.069412006065249,-34.07509496435523,399.07999999999998 19.069287031888962,-34.074908969923854,402.93000000000001 19.069167003035545,-34.074701014906168,404.37 19.068292016163468,-34.072552984580398,426.95999999999998 19.068267960101366,-34.07214998267591,430.81 19.068298973143101,-34.071954013779759,432.25 19.068357981741428,-34.071755027398467,433.69 19.069274961948395,-34.070216026157141,447.14999999999998 19.070096975192428,-34.069383032619953,454.36000000000001 19.070280035957694,-34.069230984896421,456.27999999999997 19.070325968787074,-34.069160996004939,457.24000000000001 19.070324040949345,-34.069097964093089,456.75999999999999 19.070297973230481,-34.069043984636664,457.72000000000003 19.070244999602437,-34.069016994908452,458.20999999999998 19.070171993225813,-34.069025963544846,458.69 19.070112984627485,-34.069059994071722,459.17000000000002 19.070053976029158,-34.06911900267005,458.69 19.069998990744352,-34.069195026531816,458.20999999999998 19.069940987974405,-34.069285970181227,458.69 19.069254007190466,-34.070019973441958,458.69 19.067741995677352,-34.070969978347421,464.44999999999999 19.067130032926798,-34.071311037987471,470.69999999999999 19.065698990598321,-34.072372019290924,479.83999999999997 19.065488018095493,-34.072489030659199,481.27999999999997 19.065260030329227,-34.072591038420796,482.24000000000001 19.06500899232924,-34.072682987898588,484.16000000000003 19.063172014430165,-34.073446998372674,501.94999999999999 19.062969004735351,-34.073601979762316,503.38999999999999 19.061352973803878,-34.075082978233695,517.33000000000004 19.05959595926106,-34.076860025525093,522.13 19.058570014312863,-34.078545039519668,516.37 19.057075018063188,-34.081954965367913,512.03999999999996 19.056405974552035,-34.08418295904994,503.87 19.055694015696645,-34.087809976190329,501.94999999999999 19.054937968030572,-34.089319976046681,500.5 19.05364497564733,-34.090538034215569,495.22000000000003 19.052155008539557,-34.091757014393806,483.19999999999999 19.051153035834432,-34.093282017856836,479.83999999999997 19.049999015405774,-34.095325022935867,485.12 19.049067031592131,-34.097371967509389,475.99000000000001 19.048718009144068,-34.099561991170049,463.00999999999999 19.049129979684949,-34.101000996306539,461.08999999999997 19.05009800568223,-34.102191980928183,455.31999999999999 19.051551008597016,-34.103177022188902,444.75 19.051727028563619,-34.103340972214937,443.79000000000002 19.052931005135179,-34.104658020660281,433.20999999999998 19.053338030353189,-34.105195971205831,430.81 19.053427968174219,-34.105395963415504,429.85000000000002 19.053497035056353,-34.105610037222505,428.88999999999999 19.053540034219623,-34.105834001675248,427.44 19.053560988977551,-34.106066012755036,426.48000000000002 19.053573980927467,-34.106303974986076,425.04000000000002 19.053981006145477,-34.108926001936197,406.29000000000002 19.054879965260625,-34.110193010419607,395.72000000000003 19.05555697157979,-34.110938999801874,388.02999999999997 19.055722011253238,-34.111091969534755,387.06999999999999 19.05581496655941,-34.111153995618224,386.58999999999997 19.055915968492627,-34.111205963417888,385.63 19.056024011224508,-34.111253991723061,385.14999999999998 19.056126018986106,-34.111293973401189,384.66000000000003 19.056321987882257,-34.111395981162786,383.69999999999999 19.056400023400784,-34.111462030559778,383.69999999999999 19.056465988978744,-34.111535958945751,383.22000000000003 19.056513011455536,-34.111623968929052,382.74000000000001 19.056533966213465,-34.111722037196159,382.25999999999999 19.056527009233832,-34.111827984452248,381.30000000000001 19.056491972878575,-34.111936027184129,381.30000000000001 19.056432964280248,-34.112039040774107,380.81999999999999 19.056357024237514,-34.112129984423518,379.86000000000001 19.056263985112309,-34.112206008285284,379.86000000000001 19.056150997057557,-34.112274991348386,379.38 19.056032979860902,-34.11232796497643,377.94 19.055913034826517,-34.112384039908648,376.49000000000001 19.054991025477648,-34.112554024904966,369.27999999999997 19.054850963875651,-34.112539021298289,367.83999999999997 19.053244991227984,-34.112475989386439,354.38 19.05209599994123,-34.1129270195961,345.73000000000002 19.051384041085839,-34.113703016191721,337.07999999999998 19.05110701918602,-34.114728961139917,329.38999999999999 19.05108405277133,-34.115405716001987,329.87 </coordinates></LineString></MultiGeometry></Placemark></Folder></Folder></Document></kml>