<?xml version="1.0" encoding="utf-8"?><kml xmlns="http://www.opengis.net/kml/2.2" xmlns:xsi="http://www.w3.org/2001/XMLSchema-instance" xmlns:kmlx="http://www.google.com/kml/ext/2.2" xmlns:atom="http://www.w3.org/2005/Atom" xmlns:gpxx="http://www.garmin.com/xmlschemas/GpxExtensions/v3"><Document><Style id="point"><IconStyle><scale>0.9</scale><Icon><href>http://maps.google.com/mapfiles/kml/shapes/placemark_circle.png</href></Icon></IconStyle></Style><Folder><name>Tracks</name><Folder><name>[173] Tafelberg Road (In)</name><Folder><name>Points</name><Style><ListStyle><listItemType>checkHideChildren</listItemType></ListStyle></Style><Placemark><TimeSpan><begin>2020-03-18T08:26:07Z</begin><end>2020-03-18T08:26:07Z</end></TimeSpan><Style><IconStyle><scale>0.9</scale><Icon><href>http://connect.garmin.com/image/main/icons/kml/grn-play.png</href></Icon></IconStyle></Style><Point><altitudeMode>clampToGround</altitudeMode><coordinates>18.394817998632789,-33.942245990037918,239.50999999999999</coordinates></Point></Placemark><Placemark><TimeSpan><begin>2020-03-18T08:26:07Z</begin><end>2020-03-18T08:26:08Z</end></TimeSpan><styleUrl>#point</styleUrl><Point><altitudeMode>clampToGround</altitudeMode><coordinates>18.394796038046479,-33.942316984757781,240.94999999999999</coordinates></Point></Placemark><Placemark><TimeSpan><begin>2020-03-18T08:26:08Z</begin><end>2020-03-18T08:26:09Z</end></TimeSpan><styleUrl>#point</styleUrl><Point><altitudeMode>clampToGround</altitudeMode><coordinates>18.394810035824776,-33.942387979477644,241.43000000000001</coordinates></Point></Placemark><Placemark><TimeSpan><begin>2020-03-18T08:26:09Z</begin><end>2020-03-18T08:26:10Z</end></TimeSpan><styleUrl>#point</styleUrl><Point><altitudeMode>clampToGround</altitudeMode><coordinates>18.394831996411085,-33.942457968369126,242.38999999999999</coordinates></Point></Placemark><Placemark><TimeSpan><begin>2020-03-18T08:26:10Z</begin><end>2020-03-18T08:26:11Z</end></TimeSpan><styleUrl>#point</styleUrl><Point><altitudeMode>clampToGround</altitudeMode><coordinates>18.394859991967678,-33.942524017766118,242.87</coordinates></Point></Placemark><Placemark><TimeSpan><begin>2020-03-18T08:26:11Z</begin><end>2020-03-18T08:26:14Z</end></TimeSpan><styleUrl>#point</styleUrl><Point><altitudeMode>clampToGround</altitudeMode><coordinates>18.394944984465837,-33.942718980833888,245.27000000000001</coordinates></Point></Placemark><Placemark><TimeSpan><begin>2020-03-18T08:26:14Z</begin><end>2020-03-18T08:26:15Z</end></TimeSpan><styleUrl>#point</styleUrl><Point><altitudeMode>clampToGround</altitudeMode><coordinates>18.394986977800727,-33.942783018574119,246.22999999999999</coordinates></Point></Placemark><Placemark><TimeSpan><begin>2020-03-18T08:26:15Z</begin><end>2020-03-18T08:26:16Z</end></TimeSpan><styleUrl>#point</styleUrl><Point><altitudeMode>clampToGround</altitudeMode><coordinates>18.395049003884196,-33.942844038829207,247.19999999999999</coordinates></Point></Placemark><Placemark><TimeSpan><begin>2020-03-18T08:26:16Z</begin><end>2020-03-18T08:26:17Z</end></TimeSpan><styleUrl>#point</styleUrl><Point><altitudeMode>clampToGround</altitudeMode><coordinates>18.39512100443244,-33.942901035770774,247.68000000000001</coordinates></Point></Placemark><Placemark><TimeSpan><begin>2020-03-18T08:26:17Z</begin><end>2020-03-18T08:26:18Z</end></TimeSpan><styleUrl>#point</styleUrl><Point><altitudeMode>clampToGround</altitudeMode><coordinates>18.395197028294206,-33.942947974428535,248.16</coordinates></Point></Placemark><Placemark><TimeSpan><begin>2020-03-18T08:26:18Z</begin><end>2020-03-18T08:26:19Z</end></TimeSpan><styleUrl>#point</styleUrl><Point><altitudeMode>clampToGround</altitudeMode><coordinates>18.395269028842449,-33.942999020218849,249.12</coordinates></Point></Placemark><Placemark><TimeSpan><begin>2020-03-18T08:26:19Z</begin><end>2020-03-18T08:26:28Z</end></TimeSpan><styleUrl>#point</styleUrl><Point><altitudeMode>clampToGround</altitudeMode><coordinates>18.396015018224716,-33.943491959944367,256.32999999999998</coordinates></Point></Placemark><Placemark><TimeSpan><begin>2020-03-18T08:26:28Z</begin><end>2020-03-18T08:26:29Z</end></TimeSpan><styleUrl>#point</styleUrl><Point><altitudeMode>clampToGround</altitudeMode><coordinates>18.396134041249752,-33.943520039319992,257.29000000000002</coordinates></Point></Placemark><Placemark><TimeSpan><begin>2020-03-18T08:26:29Z</begin><end>2020-03-18T08:26:30Z</end></TimeSpan><styleUrl>#point</styleUrl><Point><altitudeMode>clampToGround</altitudeMode><coordinates>18.39626002125442,-33.94353898242116,257.76999999999998</coordinates></Point></Placemark><Placemark><TimeSpan><begin>2020-03-18T08:26:30Z</begin><end>2020-03-18T08:26:31Z</end></TimeSpan><styleUrl>#point</styleUrl><Point><altitudeMode>clampToGround</altitudeMode><coordinates>18.396387007087469,-33.943548034876585,258.73000000000002</coordinates></Point></Placemark><Placemark><TimeSpan><begin>2020-03-18T08:26:31Z</begin><end>2020-03-18T08:26:32Z</end></TimeSpan><styleUrl>#point</styleUrl><Point><altitudeMode>clampToGround</altitudeMode><coordinates>18.396512987092137,-33.943558009341359,259.69</coordinates></Point></Placemark><Placemark><TimeSpan><begin>2020-03-18T08:26:32Z</begin><end>2020-03-18T08:26:34Z</end></TimeSpan><styleUrl>#point</styleUrl><Point><altitudeMode>clampToGround</altitudeMode><coordinates>18.39675597846508,-33.943615006282926,261.13999999999999</coordinates></Point></Placemark><Placemark><TimeSpan><begin>2020-03-18T08:26:34Z</begin><end>2020-03-18T08:26:35Z</end></TimeSpan><styleUrl>#point</styleUrl><Point><altitudeMode>clampToGround</altitudeMode><coordinates>18.396867038682103,-33.943664962425828,262.10000000000002</coordinates></Point></Placemark><Placemark><TimeSpan><begin>2020-03-18T08:26:35Z</begin><end>2020-03-18T08:26:36Z</end></TimeSpan><styleUrl>#point</styleUrl><Point><altitudeMode>clampToGround</altitudeMode><coordinates>18.396964017301798,-33.943735035136342,263.06</coordinates></Point></Placemark><Placemark><TimeSpan><begin>2020-03-18T08:26:36Z</begin><end>2020-03-18T08:26:37Z</end></TimeSpan><styleUrl>#point</styleUrl><Point><altitudeMode>clampToGround</altitudeMode><coordinates>18.397049009799957,-33.943810975179076,264.01999999999998</coordinates></Point></Placemark><Placemark><TimeSpan><begin>2020-03-18T08:26:37Z</begin><end>2020-03-18T08:26:38Z</end></TimeSpan><styleUrl>#point</styleUrl><Point><altitudeMode>clampToGround</altitudeMode><coordinates>18.397132996469736,-33.943894961848855,264.98000000000002</coordinates></Point></Placemark><Placemark><TimeSpan><begin>2020-03-18T08:26:38Z</begin><end>2020-03-18T08:26:40Z</end></TimeSpan><styleUrl>#point</styleUrl><Point><altitudeMode>clampToGround</altitudeMode><coordinates>18.397315973415971,-33.944034017622471,266.89999999999998</coordinates></Point></Placemark><Placemark><TimeSpan><begin>2020-03-18T08:26:40Z</begin><end>2020-03-18T08:26:41Z</end></TimeSpan><styleUrl>#point</styleUrl><Point><altitudeMode>clampToGround</altitudeMode><coordinates>18.397429967299104,-33.944083973765373,267.86000000000001</coordinates></Point></Placemark><Placemark><TimeSpan><begin>2020-03-18T08:26:41Z</begin><end>2020-03-18T08:26:42Z</end></TimeSpan><styleUrl>#point</styleUrl><Point><altitudeMode>clampToGround</altitudeMode><coordinates>18.39754899032414,-33.944126972928643,268.35000000000002</coordinates></Point></Placemark><Placemark><TimeSpan><begin>2020-03-18T08:26:42Z</begin><end>2020-03-18T08:26:43Z</end></TimeSpan><styleUrl>#point</styleUrl><Point><altitudeMode>clampToGround</altitudeMode><coordinates>18.397676981985569,-33.944144994020462,268.82999999999998</coordinates></Point></Placemark><Placemark><TimeSpan><begin>2020-03-18T08:26:43Z</begin><end>2020-03-18T08:26:44Z</end></TimeSpan><styleUrl>#point</styleUrl><Point><altitudeMode>clampToGround</altitudeMode><coordinates>18.397796005010605,-33.944199979305267,269.79000000000002</coordinates></Point></Placemark><Placemark><TimeSpan><begin>2020-03-18T08:26:44Z</begin><end>2020-03-18T08:26:45Z</end></TimeSpan><styleUrl>#point</styleUrl><Point><altitudeMode>clampToGround</altitudeMode><coordinates>18.397916033864021,-33.944244990125299,270.26999999999998</coordinates></Point></Placemark><Placemark><TimeSpan><begin>2020-03-18T08:26:45Z</begin><end>2020-03-18T08:26:54Z</end></TimeSpan><styleUrl>#point</styleUrl><Point><altitudeMode>clampToGround</altitudeMode><coordinates>18.398900991305709,-33.94469995982945,278.92000000000002</coordinates></Point></Placemark><Placemark><TimeSpan><begin>2020-03-18T08:26:54Z</begin><end>2020-03-18T08:26:55Z</end></TimeSpan><styleUrl>#point</styleUrl><Point><altitudeMode>clampToGround</altitudeMode><coordinates>18.39900903403759,-33.944714041426778,279.88</coordinates></Point></Placemark><Placemark><TimeSpan><begin>2020-03-18T08:26:55Z</begin><end>2020-03-18T08:26:56Z</end></TimeSpan><styleUrl>#point</styleUrl><Point><altitudeMode>clampToGround</altitudeMode><coordinates>18.399125961586833,-33.944710018113256,281.31999999999999</coordinates></Point></Placemark><Placemark><TimeSpan><begin>2020-03-18T08:26:56Z</begin><end>2020-03-18T08:26:57Z</end></TimeSpan><styleUrl>#point</styleUrl><Point><altitudeMode>clampToGround</altitudeMode><coordinates>18.399242972955108,-33.944685040041804,282.27999999999997</coordinates></Point></Placemark><Placemark><TimeSpan><begin>2020-03-18T08:26:57Z</begin><end>2020-03-18T08:26:58Z</end></TimeSpan><styleUrl>#point</styleUrl><Point><altitudeMode>clampToGround</altitudeMode><coordinates>18.39935302734375,-33.944648997858167,283.25</coordinates></Point></Placemark><Placemark><TimeSpan><begin>2020-03-18T08:26:58Z</begin><end>2020-03-18T08:26:59Z</end></TimeSpan><styleUrl>#point</styleUrl><Point><altitudeMode>clampToGround</altitudeMode><coordinates>18.399445982649922,-33.944594012573361,283.73000000000002</coordinates></Point></Placemark><Placemark><TimeSpan><begin>2020-03-18T08:26:59Z</begin><end>2020-03-18T08:27:00Z</end></TimeSpan><styleUrl>#point</styleUrl><Point><altitudeMode>clampToGround</altitudeMode><coordinates>18.399532986804843,-33.944532992318273,284.20999999999998</coordinates></Point></Placemark><Placemark><TimeSpan><begin>2020-03-18T08:27:00Z</begin><end>2020-03-18T08:27:02Z</end></TimeSpan><styleUrl>#point</styleUrl><Point><altitudeMode>clampToGround</altitudeMode><coordinates>18.399700038135052,-33.944454034790397,285.64999999999998</coordinates></Point></Placemark><Placemark><TimeSpan><begin>2020-03-18T08:27:02Z</begin><end>2020-03-18T08:27:03Z</end></TimeSpan><styleUrl>#point</styleUrl><Point><altitudeMode>clampToGround</altitudeMode><coordinates>18.399782013148069,-33.944455040618777,286.13</coordinates></Point></Placemark><Placemark><TimeSpan><begin>2020-03-18T08:27:03Z</begin><end>2020-03-18T08:27:04Z</end></TimeSpan><styleUrl>#point</styleUrl><Point><altitudeMode>clampToGround</altitudeMode><coordinates>18.399846972897649,-33.94448303617537,287.08999999999997</coordinates></Point></Placemark><Placemark><TimeSpan><begin>2020-03-18T08:27:04Z</begin><end>2020-03-18T08:27:05Z</end></TimeSpan><styleUrl>#point</styleUrl><Point><altitudeMode>clampToGround</altitudeMode><coordinates>18.39989198371768,-33.944530980661511,287.56999999999999</coordinates></Point></Placemark><Placemark><TimeSpan><begin>2020-03-18T08:27:05Z</begin><end>2020-03-18T08:27:06Z</end></TimeSpan><styleUrl>#point</styleUrl><Point><altitudeMode>clampToGround</altitudeMode><coordinates>18.399921990931034,-33.9445920009166,289.00999999999999</coordinates></Point></Placemark><Placemark><TimeSpan><begin>2020-03-18T08:27:06Z</begin><end>2020-03-18T08:27:07Z</end></TimeSpan><styleUrl>#point</styleUrl><Point><altitudeMode>clampToGround</altitudeMode><coordinates>18.399919979274273,-33.944665007293224,289.49000000000001</coordinates></Point></Placemark><Placemark><TimeSpan><begin>2020-03-18T08:27:07Z</begin><end>2020-03-18T08:27:08Z</end></TimeSpan><styleUrl>#point</styleUrl><Point><altitudeMode>clampToGround</altitudeMode><coordinates>18.399884020909667,-33.944726027548313,290.45999999999998</coordinates></Point></Placemark><Placemark><TimeSpan><begin>2020-03-18T08:27:08Z</begin><end>2020-03-18T08:27:09Z</end></TimeSpan><styleUrl>#point</styleUrl><Point><altitudeMode>clampToGround</altitudeMode><coordinates>18.39982601813972,-33.944798028096557,290.94</coordinates></Point></Placemark><Placemark><TimeSpan><begin>2020-03-18T08:27:09Z</begin><end>2020-03-18T08:27:10Z</end></TimeSpan><styleUrl>#point</styleUrl><Point><altitudeMode>clampToGround</altitudeMode><coordinates>18.399749994277954,-33.944853013381362,291.89999999999998</coordinates></Point></Placemark><Placemark><TimeSpan><begin>2020-03-18T08:27:10Z</begin><end>2020-03-18T08:27:11Z</end></TimeSpan><styleUrl>#point</styleUrl><Point><altitudeMode>clampToGround</altitudeMode><coordinates>18.399665001779795,-33.944909004494548,293.33999999999997</coordinates></Point></Placemark><Placemark><TimeSpan><begin>2020-03-18T08:27:11Z</begin><end>2020-03-18T08:27:15Z</end></TimeSpan><styleUrl>#point</styleUrl><Point><altitudeMode>clampToGround</altitudeMode><coordinates>18.399279015138745,-33.945136992260814,297.18000000000001</coordinates></Point></Placemark><Placemark><TimeSpan><begin>2020-03-18T08:27:15Z</begin><end>2020-03-18T08:27:16Z</end></TimeSpan><styleUrl>#point</styleUrl><Point><altitudeMode>clampToGround</altitudeMode><coordinates>18.399162003770471,-33.945182003080845,297.18000000000001</coordinates></Point></Placemark><Placemark><TimeSpan><begin>2020-03-18T08:27:16Z</begin><end>2020-03-18T08:27:17Z</end></TimeSpan><styleUrl>#point</styleUrl><Point><altitudeMode>clampToGround</altitudeMode><coordinates>18.399039041250944,-33.94521402195096,298.63</coordinates></Point></Placemark><Placemark><TimeSpan><begin>2020-03-18T08:27:17Z</begin><end>2020-03-18T08:27:18Z</end></TimeSpan><styleUrl>#point</styleUrl><Point><altitudeMode>clampToGround</altitudeMode><coordinates>18.398910965770483,-33.945237994194031,299.58999999999997</coordinates></Point></Placemark><Placemark><TimeSpan><begin>2020-03-18T08:27:18Z</begin><end>2020-03-18T08:27:19Z</end></TimeSpan><styleUrl>#point</styleUrl><Point><altitudeMode>clampToGround</altitudeMode><coordinates>18.398777022957802,-33.945246962830424,300.55000000000001</coordinates></Point></Placemark><Placemark><TimeSpan><begin>2020-03-18T08:27:19Z</begin><end>2020-03-18T08:27:20Z</end></TimeSpan><styleUrl>#point</styleUrl><Point><altitudeMode>clampToGround</altitudeMode><coordinates>18.398637967184186,-33.945233970880508,301.50999999999999</coordinates></Point></Placemark><Placemark><TimeSpan><begin>2020-03-18T08:27:20Z</begin><end>2020-03-18T08:27:21Z</end></TimeSpan><styleUrl>#point</styleUrl><Point><altitudeMode>clampToGround</altitudeMode><coordinates>18.398497989401221,-33.945209998637438,302.47000000000003</coordinates></Point></Placemark><Placemark><TimeSpan><begin>2020-03-18T08:27:21Z</begin><end>2020-03-18T08:27:22Z</end></TimeSpan><styleUrl>#point</styleUrl><Point><altitudeMode>clampToGround</altitudeMode><coordinates>18.398351976647973,-33.945169011130929,303.91000000000003</coordinates></Point></Placemark><Placemark><TimeSpan><begin>2020-03-18T08:27:22Z</begin><end>2020-03-18T08:27:23Z</end></TimeSpan><styleUrl>#point</styleUrl><Point><altitudeMode>clampToGround</altitudeMode><coordinates>18.398206969723105,-33.945121988654137,305.83999999999997</coordinates></Point></Placemark><Placemark><TimeSpan><begin>2020-03-18T08:27:23Z</begin><end>2020-03-18T08:27:28Z</end></TimeSpan><styleUrl>#point</styleUrl><Point><altitudeMode>clampToGround</altitudeMode><coordinates>18.39765502139926,-33.944960972294211,311.12</coordinates></Point></Placemark><Placemark><TimeSpan><begin>2020-03-18T08:27:28Z</begin><end>2020-03-18T08:27:29Z</end></TimeSpan><styleUrl>#point</styleUrl><Point><altitudeMode>clampToGround</altitudeMode><coordinates>18.397584026679397,-33.944966001436114,312.08999999999997</coordinates></Point></Placemark><Placemark><TimeSpan><begin>2020-03-18T08:27:29Z</begin><end>2020-03-18T08:27:30Z</end></TimeSpan><styleUrl>#point</styleUrl><Point><altitudeMode>clampToGround</altitudeMode><coordinates>18.397518983110785,-33.94500195980072,312.56999999999999</coordinates></Point></Placemark><Placemark><TimeSpan><begin>2020-03-18T08:27:30Z</begin><end>2020-03-18T08:27:31Z</end></TimeSpan><styleUrl>#point</styleUrl><Point><altitudeMode>clampToGround</altitudeMode><coordinates>18.397479001432657,-33.945054011419415,313.05000000000001</coordinates></Point></Placemark><Placemark><TimeSpan><begin>2020-03-18T08:27:31Z</begin><end>2020-03-18T08:27:32Z</end></TimeSpan><styleUrl>#point</styleUrl><Point><altitudeMode>clampToGround</altitudeMode><coordinates>18.397471960633993,-33.945112014189363,314.49000000000001</coordinates></Point></Placemark><Placemark><TimeSpan><begin>2020-03-18T08:27:32Z</begin><end>2020-03-18T08:27:33Z</end></TimeSpan><styleUrl>#point</styleUrl><Point><altitudeMode>clampToGround</altitudeMode><coordinates>18.397489981725812,-33.945165993645787,316.41000000000003</coordinates></Point></Placemark><Placemark><TimeSpan><begin>2020-03-18T08:27:33Z</begin><end>2020-03-18T08:27:34Z</end></TimeSpan><styleUrl>#point</styleUrl><Point><altitudeMode>clampToGround</altitudeMode><coordinates>18.39752996340394,-33.945208992809057,317.85000000000002</coordinates></Point></Placemark><Placemark><TimeSpan><begin>2020-03-18T08:27:34Z</begin><end>2020-03-18T08:27:35Z</end></TimeSpan><styleUrl>#point</styleUrl><Point><altitudeMode>clampToGround</altitudeMode><coordinates>18.397609004750848,-33.945242017507553,317.85000000000002</coordinates></Point></Placemark><Placemark><TimeSpan><begin>2020-03-18T08:27:35Z</begin><end>2020-03-18T08:27:36Z</end></TimeSpan><styleUrl>#point</styleUrl><Point><altitudeMode>clampToGround</altitudeMode><coordinates>18.397697014734149,-33.945264983922243,319.30000000000001</coordinates></Point></Placemark><Placemark><TimeSpan><begin>2020-03-18T08:27:36Z</begin><end>2020-03-18T08:27:37Z</end></TimeSpan><styleUrl>#point</styleUrl><Point><altitudeMode>clampToGround</altitudeMode><coordinates>18.397791981697083,-33.945280993357301,320.25999999999999</coordinates></Point></Placemark><Placemark><TimeSpan><begin>2020-03-18T08:27:37Z</begin><end>2020-03-18T08:27:39Z</end></TimeSpan><styleUrl>#point</styleUrl><Point><altitudeMode>clampToGround</altitudeMode><coordinates>18.397985016927123,-33.945324998348951,322.66000000000003</coordinates></Point></Placemark><Placemark><TimeSpan><begin>2020-03-18T08:27:39Z</begin><end>2020-03-18T08:27:40Z</end></TimeSpan><styleUrl>#point</styleUrl><Point><altitudeMode>clampToGround</altitudeMode><coordinates>18.398077972233295,-33.945361962541938,323.62</coordinates></Point></Placemark><Placemark><TimeSpan><begin>2020-03-18T08:27:40Z</begin><end>2020-03-18T08:27:41Z</end></TimeSpan><styleUrl>#point</styleUrl><Point><altitudeMode>clampToGround</altitudeMode><coordinates>18.398168999701738,-33.94540797919035,325.06</coordinates></Point></Placemark><Placemark><TimeSpan><begin>2020-03-18T08:27:41Z</begin><end>2020-03-18T08:27:42Z</end></TimeSpan><styleUrl>#point</styleUrl><Point><altitudeMode>clampToGround</altitudeMode><coordinates>18.398259021341801,-33.945461036637425,325.54000000000002</coordinates></Point></Placemark><Placemark><TimeSpan><begin>2020-03-18T08:27:42Z</begin><end>2020-03-18T08:27:43Z</end></TimeSpan><styleUrl>#point</styleUrl><Point><altitudeMode>clampToGround</altitudeMode><coordinates>18.398348037153482,-33.945519039407372,326.5</coordinates></Point></Placemark><Placemark><TimeSpan><begin>2020-03-18T08:27:43Z</begin><end>2020-03-18T08:27:45Z</end></TimeSpan><styleUrl>#point</styleUrl><Point><altitudeMode>clampToGround</altitudeMode><coordinates>18.398544006049633,-33.94560000859201,328.91000000000003</coordinates></Point></Placemark><Placemark><TimeSpan><begin>2020-03-18T08:27:45Z</begin><end>2020-03-18T08:27:46Z</end></TimeSpan><styleUrl>#point</styleUrl><Point><altitudeMode>clampToGround</altitudeMode><coordinates>18.398657999932766,-33.945645019412041,329.38999999999999</coordinates></Point></Placemark><Placemark><TimeSpan><begin>2020-03-18T08:27:46Z</begin><end>2020-03-18T08:27:47Z</end></TimeSpan><styleUrl>#point</styleUrl><Point><altitudeMode>clampToGround</altitudeMode><coordinates>18.398780962452292,-33.945677038282156,330.35000000000002</coordinates></Point></Placemark><Placemark><TimeSpan><begin>2020-03-18T08:27:47Z</begin><end>2020-03-18T08:27:48Z</end></TimeSpan><styleUrl>#point</styleUrl><Point><altitudeMode>clampToGround</altitudeMode><coordinates>18.398912977427244,-33.945700004696846,331.31</coordinates></Point></Placemark><Placemark><TimeSpan><begin>2020-03-18T08:27:48Z</begin><end>2020-03-18T08:27:49Z</end></TimeSpan><styleUrl>#point</styleUrl><Point><altitudeMode>clampToGround</altitudeMode><coordinates>18.399042980745435,-33.945720037445426,332.26999999999998</coordinates></Point></Placemark><Placemark><TimeSpan><begin>2020-03-18T08:27:49Z</begin><end>2020-03-18T08:28:03Z</end></TimeSpan><styleUrl>#point</styleUrl><Point><altitudeMode>clampToGround</altitudeMode><coordinates>18.400777028873563,-33.946108035743237,340.44</coordinates></Point></Placemark><Placemark><TimeSpan><begin>2020-03-18T08:28:03Z</begin><end>2020-03-18T08:28:14Z</end></TimeSpan><styleUrl>#point</styleUrl><Point><altitudeMode>clampToGround</altitudeMode><coordinates>18.401638017967343,-33.946733996272087,344.29000000000002</coordinates></Point></Placemark><Placemark><TimeSpan><begin>2020-03-18T08:28:14Z</begin><end>2020-03-18T08:28:15Z</end></TimeSpan><styleUrl>#point</styleUrl><Point><altitudeMode>clampToGround</altitudeMode><coordinates>18.401680011302233,-33.946798034012318,344.76999999999998</coordinates></Point></Placemark><Placemark><TimeSpan><begin>2020-03-18T08:28:15Z</begin><end>2020-03-18T08:28:22Z</end></TimeSpan><styleUrl>#point</styleUrl><Point><altitudeMode>clampToGround</altitudeMode><coordinates>18.401859970763326,-33.947222996503115,344.29000000000002</coordinates></Point></Placemark><Placemark><TimeSpan><begin>2020-03-18T08:28:22Z</begin><end>2020-03-18T08:28:23Z</end></TimeSpan><styleUrl>#point</styleUrl><Point><altitudeMode>clampToGround</altitudeMode><coordinates>18.401896012946963,-33.947262978181243,344.76999999999998</coordinates></Point></Placemark><Placemark><TimeSpan><begin>2020-03-18T08:28:23Z</begin><end>2020-03-18T08:28:30Z</end></TimeSpan><styleUrl>#point</styleUrl><Point><altitudeMode>clampToGround</altitudeMode><coordinates>18.40205904096365,-33.947501024231315,349.57999999999998</coordinates></Point></Placemark><Placemark><TimeSpan><begin>2020-03-18T08:28:30Z</begin><end>2020-03-18T08:28:31Z</end></TimeSpan><styleUrl>#point</styleUrl><Point><altitudeMode>clampToGround</altitudeMode><coordinates>18.40210204012692,-33.947529019787908,350.54000000000002</coordinates></Point></Placemark><Placemark><TimeSpan><begin>2020-03-18T08:28:31Z</begin><end>2020-03-18T08:28:32Z</end></TimeSpan><styleUrl>#point</styleUrl><Point><altitudeMode>clampToGround</altitudeMode><coordinates>18.402144033461809,-33.947561038658023,351.01999999999998</coordinates></Point></Placemark><Placemark><TimeSpan><begin>2020-03-18T08:28:32Z</begin><end>2020-03-18T08:28:39Z</end></TimeSpan><styleUrl>#point</styleUrl><Point><altitudeMode>clampToGround</altitudeMode><coordinates>18.402475034818053,-33.94774803891778,353.89999999999998</coordinates></Point></Placemark><Placemark><TimeSpan><begin>2020-03-18T08:28:39Z</begin><end>2020-03-18T08:28:40Z</end></TimeSpan><styleUrl>#point</styleUrl><Point><altitudeMode>clampToGround</altitudeMode><coordinates>18.402524990960956,-33.947785003110766,354.86000000000001</coordinates></Point></Placemark><Placemark><TimeSpan><begin>2020-03-18T08:28:40Z</begin><end>2020-03-18T08:28:51Z</end></TimeSpan><styleUrl>#point</styleUrl><Point><altitudeMode>clampToGround</altitudeMode><coordinates>18.402852974832058,-33.948024976998568,354.86000000000001</coordinates></Point></Placemark><Placemark><TimeSpan><begin>2020-03-18T08:28:51Z</begin><end>2020-03-18T08:29:03Z</end></TimeSpan><styleUrl>#point</styleUrl><Point><altitudeMode>clampToGround</altitudeMode><coordinates>18.403246002271771,-33.948131008073688,356.79000000000002</coordinates></Point></Placemark><Placemark><TimeSpan><begin>2020-03-18T08:29:03Z</begin><end>2020-03-18T08:29:11Z</end></TimeSpan><styleUrl>#point</styleUrl><Point><altitudeMode>clampToGround</altitudeMode><coordinates>18.403571974486113,-33.948300993070006,357.75</coordinates></Point></Placemark><Placemark><TimeSpan><begin>2020-03-18T08:29:11Z</begin><end>2020-03-18T08:29:12Z</end></TimeSpan><styleUrl>#point</styleUrl><Point><altitudeMode>clampToGround</altitudeMode><coordinates>18.403611034154892,-33.948333011940122,357.26999999999998</coordinates></Point></Placemark><Placemark><TimeSpan><begin>2020-03-18T08:29:12Z</begin><end>2020-03-18T08:29:23Z</end></TimeSpan><styleUrl>#point</styleUrl><Point><altitudeMode>clampToGround</altitudeMode><coordinates>18.404115037992597,-33.948639035224915,357.26999999999998</coordinates></Point></Placemark><Placemark><TimeSpan><begin>2020-03-18T08:29:23Z</begin><end>2020-03-18T08:29:27Z</end></TimeSpan><styleUrl>#point</styleUrl><Point><altitudeMode>clampToGround</altitudeMode><coordinates>18.404290974140167,-33.948739031329751,356.79000000000002</coordinates></Point></Placemark><Placemark><TimeSpan><begin>2020-03-18T08:29:27Z</begin><end>2020-03-18T08:29:34Z</end></TimeSpan><styleUrl>#point</styleUrl><Point><altitudeMode>clampToGround</altitudeMode><coordinates>18.404996981844306,-33.949072966352105,360.63</coordinates></Point></Placemark><Placemark><TimeSpan><begin>2020-03-18T08:29:34Z</begin><end>2020-03-18T08:29:45Z</end></TimeSpan><styleUrl>#point</styleUrl><Point><altitudeMode>clampToGround</altitudeMode><coordinates>18.406146978959441,-33.949728012084961,361.58999999999997</coordinates></Point></Placemark><Placemark><TimeSpan><begin>2020-03-18T08:29:45Z</begin><end>2020-03-18T08:29:54Z</end></TimeSpan><styleUrl>#point</styleUrl><Point><altitudeMode>clampToGround</altitudeMode><coordinates>18.407363025471568,-33.950001010671258,360.14999999999998</coordinates></Point></Placemark><Placemark><TimeSpan><begin>2020-03-18T08:29:54Z</begin><end>2020-03-18T08:29:56Z</end></TimeSpan><styleUrl>#point</styleUrl><Point><altitudeMode>clampToGround</altitudeMode><coordinates>18.407611967995763,-33.950062030926347,359.67000000000002</coordinates></Point></Placemark><Placemark><TimeSpan><begin>2020-03-18T08:29:56Z</begin><end>2020-03-18T08:29:57Z</end></TimeSpan><styleUrl>#point</styleUrl><Point><altitudeMode>clampToGround</altitudeMode><coordinates>18.407735014334321,-33.950118022039533,359.67000000000002</coordinates></Point></Placemark><Placemark><TimeSpan><begin>2020-03-18T08:29:57Z</begin><end>2020-03-18T08:29:58Z</end></TimeSpan><styleUrl>#point</styleUrl><Point><altitudeMode>clampToGround</altitudeMode><coordinates>18.40783903375268,-33.950192034244537,359.67000000000002</coordinates></Point></Placemark><Placemark><TimeSpan><begin>2020-03-18T08:29:58Z</begin><end>2020-03-18T08:29:59Z</end></TimeSpan><styleUrl>#point</styleUrl><Point><altitudeMode>clampToGround</altitudeMode><coordinates>18.40792796574533,-33.950270991772413,359.67000000000002</coordinates></Point></Placemark><Placemark><TimeSpan><begin>2020-03-18T08:29:59Z</begin><end>2020-03-18T08:30:00Z</end></TimeSpan><styleUrl>#point</styleUrl><Point><altitudeMode>clampToGround</altitudeMode><coordinates>18.408009018748999,-33.95035196095705,359.67000000000002</coordinates></Point></Placemark><Placemark><TimeSpan><begin>2020-03-18T08:30:00Z</begin><end>2020-03-18T08:30:02Z</end></TimeSpan><styleUrl>#point</styleUrl><Point><altitudeMode>clampToGround</altitudeMode><coordinates>18.408185038715601,-33.95048095844686,359.67000000000002</coordinates></Point></Placemark><Placemark><TimeSpan><begin>2020-03-18T08:30:02Z</begin><end>2020-03-18T08:30:03Z</end></TimeSpan><styleUrl>#point</styleUrl><Point><altitudeMode>clampToGround</altitudeMode><coordinates>18.408298026770353,-33.950519012287259,359.67000000000002</coordinates></Point></Placemark><Placemark><TimeSpan><begin>2020-03-18T08:30:03Z</begin><end>2020-03-18T08:30:04Z</end></TimeSpan><styleUrl>#point</styleUrl><Point><altitudeMode>clampToGround</altitudeMode><coordinates>18.408423000946641,-33.950529992580414,359.67000000000002</coordinates></Point></Placemark><Placemark><TimeSpan><begin>2020-03-18T08:30:04Z</begin><end>2020-03-18T08:30:05Z</end></TimeSpan><styleUrl>#point</styleUrl><Point><altitudeMode>clampToGround</altitudeMode><coordinates>18.408553004264832,-33.950519012287259,359.67000000000002</coordinates></Point></Placemark><Placemark><TimeSpan><begin>2020-03-18T08:30:05Z</begin><end>2020-03-18T08:30:06Z</end></TimeSpan><styleUrl>#point</styleUrl><Point><altitudeMode>clampToGround</altitudeMode><coordinates>18.408688036724925,-33.950494034215808,359.67000000000002</coordinates></Point></Placemark><Placemark><TimeSpan><begin>2020-03-18T08:30:06Z</begin><end>2020-03-18T08:30:07Z</end></TimeSpan><styleUrl>#point</styleUrl><Point><altitudeMode>clampToGround</altitudeMode><coordinates>18.408826002851129,-33.950463021174073,360.14999999999998</coordinates></Point></Placemark><Placemark><TimeSpan><begin>2020-03-18T08:30:07Z</begin><end>2020-03-18T08:30:10Z</end></TimeSpan><styleUrl>#point</styleUrl><Point><altitudeMode>clampToGround</altitudeMode><coordinates>18.4092160128057,-33.950400995090604,360.63</coordinates></Point></Placemark><Placemark><TimeSpan><begin>2020-03-18T08:30:10Z</begin><end>2020-03-18T08:30:11Z</end></TimeSpan><styleUrl>#point</styleUrl><Point><altitudeMode>clampToGround</altitudeMode><coordinates>18.40934501029551,-33.950409963726997,360.63</coordinates></Point></Placemark><Placemark><TimeSpan><begin>2020-03-18T08:30:11Z</begin><end>2020-03-18T08:30:12Z</end></TimeSpan><styleUrl>#point</styleUrl><Point><altitudeMode>clampToGround</altitudeMode><coordinates>18.409479036927223,-33.95043795928359,360.14999999999998</coordinates></Point></Placemark><Placemark><TimeSpan><begin>2020-03-18T08:30:12Z</begin><end>2020-03-18T08:30:13Z</end></TimeSpan><styleUrl>#point</styleUrl><Point><altitudeMode>clampToGround</altitudeMode><coordinates>18.409617003053427,-33.95047802478075,360.14999999999998</coordinates></Point></Placemark><Placemark><TimeSpan><begin>2020-03-18T08:30:13Z</begin><end>2020-03-18T08:30:14Z</end></TimeSpan><styleUrl>#point</styleUrl><Point><altitudeMode>clampToGround</altitudeMode><coordinates>18.409758992493153,-33.95052001811564,360.14999999999998</coordinates></Point></Placemark><Placemark><TimeSpan><begin>2020-03-18T08:30:14Z</begin><end>2020-03-18T08:30:18Z</end></TimeSpan><styleUrl>#point</styleUrl><Point><altitudeMode>clampToGround</altitudeMode><coordinates>18.410254027694464,-33.950681034475565,359.67000000000002</coordinates></Point></Placemark><Placemark><TimeSpan><begin>2020-03-18T08:30:18Z</begin><end>2020-03-18T08:30:19Z</end></TimeSpan><styleUrl>#point</styleUrl><Point><altitudeMode>clampToGround</altitudeMode><coordinates>18.410342037677765,-33.950733002275229,359.67000000000002</coordinates></Point></Placemark><Placemark><TimeSpan><begin>2020-03-18T08:30:19Z</begin><end>2020-03-18T08:30:20Z</end></TimeSpan><styleUrl>#point</styleUrl><Point><altitudeMode>clampToGround</altitudeMode><coordinates>18.410412026569247,-33.950805002823472,359.67000000000002</coordinates></Point></Placemark><Placemark><TimeSpan><begin>2020-03-18T08:30:20Z</begin><end>2020-03-18T08:30:21Z</end></TimeSpan><styleUrl>#point</styleUrl><Point><altitudeMode>clampToGround</altitudeMode><coordinates>18.410468017682433,-33.950897036120296,360.14999999999998</coordinates></Point></Placemark><Placemark><TimeSpan><begin>2020-03-18T08:30:21Z</begin><end>2020-03-18T08:30:22Z</end></TimeSpan><styleUrl>#point</styleUrl><Point><altitudeMode>clampToGround</altitudeMode><coordinates>18.410512022674084,-33.951006000861526,360.14999999999998</coordinates></Point></Placemark><Placemark><TimeSpan><begin>2020-03-18T08:30:22Z</begin><end>2020-03-18T08:30:23Z</end></TimeSpan><styleUrl>#point</styleUrl><Point><altitudeMode>clampToGround</altitudeMode><coordinates>18.410555021837354,-33.951118988916278,360.63</coordinates></Point></Placemark><Placemark><TimeSpan><begin>2020-03-18T08:30:23Z</begin><end>2020-03-18T08:30:26Z</end></TimeSpan><styleUrl>#point</styleUrl><Point><altitudeMode>clampToGround</altitudeMode><coordinates>18.410728024318814,-33.951473040506244,361.11000000000001</coordinates></Point></Placemark><Placemark><TimeSpan><begin>2020-03-18T08:30:26Z</begin><end>2020-03-18T08:30:27Z</end></TimeSpan><styleUrl>#point</styleUrl><Point><altitudeMode>clampToGround</altitudeMode><coordinates>18.410815028473735,-33.951583011075854,361.11000000000001</coordinates></Point></Placemark><Placemark><TimeSpan><begin>2020-03-18T08:30:27Z</begin><end>2020-03-18T08:30:28Z</end></TimeSpan><styleUrl>#point</styleUrl><Point><altitudeMode>clampToGround</altitudeMode><coordinates>18.410918964073062,-33.951688958331943,361.11000000000001</coordinates></Point></Placemark><Placemark><TimeSpan><begin>2020-03-18T08:30:28Z</begin><end>2020-03-18T08:30:29Z</end></TimeSpan><styleUrl>#point</styleUrl><Point><altitudeMode>clampToGround</altitudeMode><coordinates>18.411032035946846,-33.951780991628766,361.58999999999997</coordinates></Point></Placemark><Placemark><TimeSpan><begin>2020-03-18T08:30:29Z</begin><end>2020-03-18T08:30:30Z</end></TimeSpan><styleUrl>#point</styleUrl><Point><altitudeMode>clampToGround</altitudeMode><coordinates>18.411157010123134,-33.951865984126925,362.06999999999999</coordinates></Point></Placemark><Placemark><TimeSpan><begin>2020-03-18T08:30:30Z</begin><end>2020-03-18T08:30:31Z</end></TimeSpan><styleUrl>#point</styleUrl><Point><altitudeMode>clampToGround</altitudeMode><coordinates>18.411286007612944,-33.951942007988691,362.55000000000001</coordinates></Point></Placemark><Placemark><TimeSpan><begin>2020-03-18T08:30:31Z</begin><end>2020-03-18T08:30:32Z</end></TimeSpan><styleUrl>#point</styleUrl><Point><altitudeMode>clampToGround</altitudeMode><coordinates>18.411418022587895,-33.952006967738271,363.04000000000002</coordinates></Point></Placemark><Placemark><TimeSpan><begin>2020-03-18T08:30:32Z</begin><end>2020-03-18T08:30:33Z</end></TimeSpan><styleUrl>#point</styleUrl><Point><altitudeMode>clampToGround</altitudeMode><coordinates>18.411561017856002,-33.952059019356966,362.55000000000001</coordinates></Point></Placemark><Placemark><TimeSpan><begin>2020-03-18T08:30:33Z</begin><end>2020-03-18T08:30:34Z</end></TimeSpan><styleUrl>#point</styleUrl><Point><altitudeMode>clampToGround</altitudeMode><coordinates>18.411697978153825,-33.952097995206714,363.04000000000002</coordinates></Point></Placemark><Placemark><TimeSpan><begin>2020-03-18T08:30:34Z</begin><end>2020-03-18T08:30:35Z</end></TimeSpan><styleUrl>#point</styleUrl><Point><altitudeMode>clampToGround</altitudeMode><coordinates>18.411835022270679,-33.952117022126913,363.51999999999998</coordinates></Point></Placemark><Placemark><TimeSpan><begin>2020-03-18T08:30:35Z</begin><end>2020-03-18T08:30:36Z</end></TimeSpan><styleUrl>#point</styleUrl><Point><altitudeMode>clampToGround</altitudeMode><coordinates>18.411973994225264,-33.952125990763307,364</coordinates></Point></Placemark><Placemark><TimeSpan><begin>2020-03-18T08:30:36Z</begin><end>2020-03-18T08:30:37Z</end></TimeSpan><styleUrl>#point</styleUrl><Point><altitudeMode>clampToGround</altitudeMode><coordinates>18.412109026685357,-33.952133031561971,364.48000000000002</coordinates></Point></Placemark><Placemark><TimeSpan><begin>2020-03-18T08:30:37Z</begin><end>2020-03-18T08:30:38Z</end></TimeSpan><styleUrl>#point</styleUrl><Point><altitudeMode>clampToGround</altitudeMode><coordinates>18.412236012518406,-33.952151974663138,364.95999999999998</coordinates></Point></Placemark><Placemark><TimeSpan><begin>2020-03-18T08:30:38Z</begin><end>2020-03-18T08:30:39Z</end></TimeSpan><styleUrl>#point</styleUrl><Point><altitudeMode>clampToGround</altitudeMode><coordinates>18.412349000573158,-33.952184999361634,365.44</coordinates></Point></Placemark><Placemark><TimeSpan><begin>2020-03-18T08:30:39Z</begin><end>2020-03-18T08:30:40Z</end></TimeSpan><styleUrl>#point</styleUrl><Point><altitudeMode>clampToGround</altitudeMode><coordinates>18.412444973364472,-33.952238978818059,366.39999999999998</coordinates></Point></Placemark><Placemark><TimeSpan><begin>2020-03-18T08:30:40Z</begin><end>2020-03-18T08:30:41Z</end></TimeSpan><styleUrl>#point</styleUrl><Point><altitudeMode>clampToGround</altitudeMode><coordinates>18.412531977519393,-33.952305028215051,366.88</coordinates></Point></Placemark><Placemark><TimeSpan><begin>2020-03-18T08:30:41Z</begin><end>2020-03-18T08:30:42Z</end></TimeSpan><styleUrl>#point</styleUrl><Point><altitudeMode>clampToGround</altitudeMode><coordinates>18.412597021088004,-33.952388009056449,367.36000000000001</coordinates></Point></Placemark><Placemark><TimeSpan><begin>2020-03-18T08:30:42Z</begin><end>2020-03-18T08:30:43Z</end></TimeSpan><styleUrl>#point</styleUrl><Point><altitudeMode>clampToGround</altitudeMode><coordinates>18.412658041343093,-33.952474007382989,367.36000000000001</coordinates></Point></Placemark><Placemark><TimeSpan><begin>2020-03-18T08:30:43Z</begin><end>2020-03-18T08:30:45Z</end></TimeSpan><styleUrl>#point</styleUrl><Point><altitudeMode>clampToGround</altitudeMode><coordinates>18.412816962227225,-33.952593030408025,367.36000000000001</coordinates></Point></Placemark><Placemark><TimeSpan><begin>2020-03-18T08:30:45Z</begin><end>2020-03-18T08:30:46Z</end></TimeSpan><styleUrl>#point</styleUrl><Point><altitudeMode>clampToGround</altitudeMode><coordinates>18.412920981645584,-33.95262798294425,367.36000000000001</coordinates></Point></Placemark><Placemark><TimeSpan><begin>2020-03-18T08:30:46Z</begin><end>2020-03-18T08:30:49Z</end></TimeSpan><styleUrl>#point</styleUrl><Point><altitudeMode>clampToGround</altitudeMode><coordinates>18.413244020193815,-33.952781958505511,367.83999999999997</coordinates></Point></Placemark><Placemark><TimeSpan><begin>2020-03-18T08:30:49Z</begin><end>2020-03-18T08:31:00Z</end></TimeSpan><styleUrl>#point</styleUrl><Point><altitudeMode>clampToGround</altitudeMode><coordinates>18.414401980116963,-33.953632973134518,374.08999999999997</coordinates></Point></Placemark><Placemark><TimeSpan><begin>2020-03-18T08:31:00Z</begin><end>2020-03-18T08:31:07Z</end></TimeSpan><styleUrl>#point</styleUrl><Point><altitudeMode>clampToGround</altitudeMode><coordinates>18.41501503251493,-33.954080985859036,377.94</coordinates></Point></Placemark><Placemark><TimeSpan><begin>2020-03-18T08:31:07Z</begin><end>2020-03-18T08:31:08Z</end></TimeSpan><styleUrl>#point</styleUrl><Point><altitudeMode>clampToGround</altitudeMode><coordinates>18.415055014193058,-33.954158015549183,378.42000000000002</coordinates></Point></Placemark><Placemark><TimeSpan><begin>2020-03-18T08:31:08Z</begin><end>2020-03-18T08:31:09Z</end></TimeSpan><styleUrl>#point</styleUrl><Point><altitudeMode>clampToGround</altitudeMode><coordinates>18.415067000314593,-33.954260023310781,378.89999999999998</coordinates></Point></Placemark><Placemark><TimeSpan><begin>2020-03-18T08:31:09Z</begin><end>2020-03-18T08:31:10Z</end></TimeSpan><styleUrl>#point</styleUrl><Point><altitudeMode>clampToGround</altitudeMode><coordinates>18.41505903750658,-33.95436798222363,379.38</coordinates></Point></Placemark><Placemark><TimeSpan><begin>2020-03-18T08:31:10Z</begin><end>2020-03-18T08:31:11Z</end></TimeSpan><styleUrl>#point</styleUrl><Point><altitudeMode>clampToGround</altitudeMode><coordinates>18.415031963959336,-33.954470995813608,378.89999999999998</coordinates></Point></Placemark><Placemark><TimeSpan><begin>2020-03-18T08:31:11Z</begin><end>2020-03-18T08:31:12Z</end></TimeSpan><styleUrl>#point</styleUrl><Point><altitudeMode>clampToGround</altitudeMode><coordinates>18.415013020858169,-33.954552970826626,379.38</coordinates></Point></Placemark><Placemark><TimeSpan><begin>2020-03-18T08:31:12Z</begin><end>2020-03-18T08:31:14Z</end></TimeSpan><styleUrl>#point</styleUrl><Point><altitudeMode>clampToGround</altitudeMode><coordinates>18.415007991716266,-33.954626983031631,379.86000000000001</coordinates></Point></Placemark><Placemark><TimeSpan><begin>2020-03-18T08:31:14Z</begin><end>2020-03-18T08:31:15Z</end></TimeSpan><styleUrl>#point</styleUrl><Point><altitudeMode>clampToGround</altitudeMode><coordinates>18.415013020858169,-33.954651961103082,380.33999999999997</coordinates></Point></Placemark><Placemark><TimeSpan><begin>2020-03-18T08:31:15Z</begin><end>2020-03-18T08:31:18Z</end></TimeSpan><styleUrl>#point</styleUrl><Point><altitudeMode>clampToGround</altitudeMode><coordinates>18.415048979222775,-33.954739971086383,382.25999999999999</coordinates></Point></Placemark><Placemark><TimeSpan><begin>2020-03-18T08:31:18Z</begin><end>2020-03-18T08:31:19Z</end></TimeSpan><styleUrl>#point</styleUrl><Point><altitudeMode>clampToGround</altitudeMode><coordinates>18.41508099809289,-33.954782970249653,383.22000000000003</coordinates></Point></Placemark><Placemark><TimeSpan><begin>2020-03-18T08:31:19Z</begin><end>2020-03-18T08:31:20Z</end></TimeSpan><styleUrl>#point</styleUrl><Point><altitudeMode>clampToGround</altitudeMode><coordinates>18.415132965892553,-33.954828986898065,384.18000000000001</coordinates></Point></Placemark><Placemark><TimeSpan><begin>2020-03-18T08:31:20Z</begin><end>2020-03-18T08:31:26Z</end></TimeSpan><styleUrl>#point</styleUrl><Point><altitudeMode>clampToGround</altitudeMode><coordinates>18.415564969182014,-33.955203993245959,388.02999999999997</coordinates></Point></Placemark><Placemark><TimeSpan><begin>2020-03-18T08:31:26Z</begin><end>2020-03-18T08:31:27Z</end></TimeSpan><styleUrl>#point</styleUrl><Point><altitudeMode>clampToGround</altitudeMode><coordinates>18.415629006922245,-33.955263001844287,387.06999999999999</coordinates></Point></Placemark><Placemark><TimeSpan><begin>2020-03-18T08:31:27Z</begin><end>2020-03-18T08:31:28Z</end></TimeSpan><styleUrl>#point</styleUrl><Point><altitudeMode>clampToGround</altitudeMode><coordinates>18.41570695862174,-33.955267025157809,388.50999999999999</coordinates></Point></Placemark><Placemark><TimeSpan><begin>2020-03-18T08:31:28Z</begin><end>2020-03-18T08:31:29Z</end></TimeSpan><styleUrl>#point</styleUrl><Point><altitudeMode>clampToGround</altitudeMode><coordinates>18.415791029110551,-33.95527197048068,388.50999999999999</coordinates></Point></Placemark><Placemark><TimeSpan><begin>2020-03-18T08:31:29Z</begin><end>2020-03-18T08:31:30Z</end></TimeSpan><styleUrl>#point</styleUrl><Point><altitudeMode>clampToGround</altitudeMode><coordinates>18.415888007730246,-33.955244980752468,389.47000000000003</coordinates></Point></Placemark><Placemark><TimeSpan><begin>2020-03-18T08:31:30Z</begin><end>2020-03-18T08:31:31Z</end></TimeSpan><styleUrl>#point</styleUrl><Point><altitudeMode>clampToGround</altitudeMode><coordinates>18.415985992178321,-33.955199969932437,389.47000000000003</coordinates></Point></Placemark><Placemark><TimeSpan><begin>2020-03-18T08:31:31Z</begin><end>2020-03-18T08:31:32Z</end></TimeSpan><styleUrl>#point</styleUrl><Point><altitudeMode>clampToGround</altitudeMode><coordinates>18.416075007990003,-33.955128975212574,389.47000000000003</coordinates></Point></Placemark><Placemark><TimeSpan><begin>2020-03-18T08:31:32Z</begin><end>2020-03-18T08:31:33Z</end></TimeSpan><styleUrl>#point</styleUrl><Point><altitudeMode>clampToGround</altitudeMode><coordinates>18.416154971346259,-33.955051023513079,389.47000000000003</coordinates></Point></Placemark><Placemark><TimeSpan><begin>2020-03-18T08:31:33Z</begin><end>2020-03-18T08:31:34Z</end></TimeSpan><styleUrl>#point</styleUrl><Point><altitudeMode>clampToGround</altitudeMode><coordinates>18.416225966066122,-33.954966031014919,389.94999999999999</coordinates></Point></Placemark><Placemark><TimeSpan><begin>2020-03-18T08:31:34Z</begin><end>2020-03-18T08:31:36Z</end></TimeSpan><styleUrl>#point</styleUrl><Point><altitudeMode>clampToGround</altitudeMode><coordinates>18.416363010182977,-33.954823035746813,390.91000000000003</coordinates></Point></Placemark><Placemark><TimeSpan><begin>2020-03-18T08:31:36Z</begin><end>2020-03-18T08:31:37Z</end></TimeSpan><styleUrl>#point</styleUrl><Point><altitudeMode>clampToGround</altitudeMode><coordinates>18.416438028216362,-33.954777019098401,388.99000000000001</coordinates></Point></Placemark><Placemark><TimeSpan><begin>2020-03-18T08:31:37Z</begin><end>2020-03-18T08:31:38Z</end></TimeSpan><styleUrl>#point</styleUrl><Point><altitudeMode>clampToGround</altitudeMode><coordinates>18.416532995179296,-33.954743994399905,388.50999999999999</coordinates></Point></Placemark><Placemark><TimeSpan><begin>2020-03-18T08:31:38Z</begin><end>2020-03-18T08:31:39Z</end></TimeSpan><styleUrl>#point</styleUrl><Point><altitudeMode>clampToGround</altitudeMode><coordinates>18.416636008769274,-33.954736031591892,388.02999999999997</coordinates></Point></Placemark><Placemark><TimeSpan><begin>2020-03-18T08:31:39Z</begin><end>2020-03-18T08:31:40Z</end></TimeSpan><styleUrl>#point</styleUrl><Point><altitudeMode>clampToGround</altitudeMode><coordinates>18.416744973510504,-33.954746006056666,388.02999999999997</coordinates></Point></Placemark><Placemark><TimeSpan><begin>2020-03-18T08:31:40Z</begin><end>2020-03-18T08:31:41Z</end></TimeSpan><styleUrl>#point</styleUrl><Point><altitudeMode>clampToGround</altitudeMode><coordinates>18.416856033727527,-33.954770984128118,388.02999999999997</coordinates></Point></Placemark><Placemark><TimeSpan><begin>2020-03-18T08:31:41Z</begin><end>2020-03-18T08:31:42Z</end></TimeSpan><styleUrl>#point</styleUrl><Point><altitudeMode>clampToGround</altitudeMode><coordinates>18.416969021782279,-33.954814989119768,387.55000000000001</coordinates></Point></Placemark><Placemark><TimeSpan><begin>2020-03-18T08:31:42Z</begin><end>2020-03-18T08:31:43Z</end></TimeSpan><styleUrl>#point</styleUrl><Point><altitudeMode>clampToGround</altitudeMode><coordinates>18.417075974866748,-33.954872991889715,388.50999999999999</coordinates></Point></Placemark><Placemark><TimeSpan><begin>2020-03-18T08:31:43Z</begin><end>2020-03-18T08:31:44Z</end></TimeSpan><styleUrl>#point</styleUrl><Point><altitudeMode>clampToGround</altitudeMode><coordinates>18.417173959314823,-33.954941974952817,388.99000000000001</coordinates></Point></Placemark><Placemark><TimeSpan><begin>2020-03-18T08:31:44Z</begin><end>2020-03-18T08:31:45Z</end></TimeSpan><styleUrl>#point</styleUrl><Point><altitudeMode>clampToGround</altitudeMode><coordinates>18.417269010096788,-33.955023027956486,389.47000000000003</coordinates></Point></Placemark><Placemark><TimeSpan><begin>2020-03-18T08:31:45Z</begin><end>2020-03-18T08:31:46Z</end></TimeSpan><styleUrl>#point</styleUrl><Point><altitudeMode>clampToGround</altitudeMode><coordinates>18.41735802590847,-33.955113971605897,390.43000000000001</coordinates></Point></Placemark><Placemark><TimeSpan><begin>2020-03-18T08:31:46Z</begin><end>2020-03-18T08:31:55Z</end></TimeSpan><styleUrl>#point</styleUrl><Point><altitudeMode>clampToGround</altitudeMode><coordinates>18.418252039700747,-33.955786032602191,392.83999999999997</coordinates></Point></Placemark><Placemark><TimeSpan><begin>2020-03-18T08:31:55Z</begin><end>2020-03-18T08:31:56Z</end></TimeSpan><styleUrl>#point</styleUrl><Point><altitudeMode>clampToGround</altitudeMode><coordinates>18.418354969471693,-33.955791983753443,393.31999999999999</coordinates></Point></Placemark><Placemark><TimeSpan><begin>2020-03-18T08:31:56Z</begin><end>2020-03-18T08:31:57Z</end></TimeSpan><styleUrl>#point</styleUrl><Point><altitudeMode>clampToGround</altitudeMode><coordinates>18.418467035517097,-33.95578502677381,392.83999999999997</coordinates></Point></Placemark><Placemark><TimeSpan><begin>2020-03-18T08:31:57Z</begin><end>2020-03-18T08:31:58Z</end></TimeSpan><styleUrl>#point</styleUrl><Point><altitudeMode>clampToGround</altitudeMode><coordinates>18.418579017743468,-33.955749990418553,392.83999999999997</coordinates></Point></Placemark><Placemark><TimeSpan><begin>2020-03-18T08:31:58Z</begin><end>2020-03-18T08:31:59Z</end></TimeSpan><styleUrl>#point</styleUrl><Point><altitudeMode>clampToGround</altitudeMode><coordinates>18.418698040768504,-33.955706991255283,392.36000000000001</coordinates></Point></Placemark><Placemark><TimeSpan><begin>2020-03-18T08:31:59Z</begin><end>2020-03-18T08:32:00Z</end></TimeSpan><styleUrl>#point</styleUrl><Point><altitudeMode>clampToGround</altitudeMode><coordinates>18.418831983581185,-33.955675978213549,392.36000000000001</coordinates></Point></Placemark><Placemark><TimeSpan><begin>2020-03-18T08:32:00Z</begin><end>2020-03-18T08:32:01Z</end></TimeSpan><styleUrl>#point</styleUrl><Point><altitudeMode>clampToGround</altitudeMode><coordinates>18.418972967192531,-33.955674972385168,392.36000000000001</coordinates></Point></Placemark><Placemark><TimeSpan><begin>2020-03-18T08:32:01Z</begin><end>2020-03-18T08:32:02Z</end></TimeSpan><styleUrl>#point</styleUrl><Point><altitudeMode>clampToGround</altitudeMode><coordinates>18.41912099160254,-33.955680001527071,391.87</coordinates></Point></Placemark><Placemark><TimeSpan><begin>2020-03-18T08:32:02Z</begin><end>2020-03-18T08:32:03Z</end></TimeSpan><styleUrl>#point</styleUrl><Point><altitudeMode>clampToGround</altitudeMode><coordinates>18.419272033497691,-33.955666003748775,391.87</coordinates></Point></Placemark><Placemark><TimeSpan><begin>2020-03-18T08:32:03Z</begin><end>2020-03-18T08:32:04Z</end></TimeSpan><styleUrl>#point</styleUrl><Point><altitudeMode>clampToGround</altitudeMode><coordinates>18.419422991573811,-33.955630967393517,391.38999999999999</coordinates></Point></Placemark><Placemark><TimeSpan><begin>2020-03-18T08:32:04Z</begin><end>2020-03-18T08:32:05Z</end></TimeSpan><styleUrl>#point</styleUrl><Point><altitudeMode>clampToGround</altitudeMode><coordinates>18.419577972963452,-33.955590985715389,390.43000000000001</coordinates></Point></Placemark><Placemark><TimeSpan><begin>2020-03-18T08:32:05Z</begin><end>2020-03-18T08:32:06Z</end></TimeSpan><styleUrl>#point</styleUrl><Point><altitudeMode>clampToGround</altitudeMode><coordinates>18.419741000980139,-33.955559972673655,390.91000000000003</coordinates></Point></Placemark><Placemark><TimeSpan><begin>2020-03-18T08:32:06Z</begin><end>2020-03-18T08:32:15Z</end></TimeSpan><styleUrl>#point</styleUrl><Point><altitudeMode>clampToGround</altitudeMode><coordinates>18.42137798666954,-33.955258978530765,389.47000000000003</coordinates></Point></Placemark><Placemark><TimeSpan><begin>2020-03-18T08:32:15Z</begin><end>2020-03-18T08:32:18Z</end></TimeSpan><styleUrl>#point</styleUrl><Point><altitudeMode>clampToGround</altitudeMode><coordinates>18.421835973858833,-33.955122018232942,388.99000000000001</coordinates></Point></Placemark><Placemark><TimeSpan><begin>2020-03-18T08:32:18Z</begin><end>2020-03-18T08:32:19Z</end></TimeSpan><styleUrl>#point</styleUrl><Point><altitudeMode>clampToGround</altitudeMode><coordinates>18.421986009925604,-33.95509603433311,388.99000000000001</coordinates></Point></Placemark><Placemark><TimeSpan><begin>2020-03-18T08:32:19Z</begin><end>2020-03-18T08:32:20Z</end></TimeSpan><styleUrl>#point</styleUrl><Point><altitudeMode>clampToGround</altitudeMode><coordinates>18.422134034335613,-33.955094022676349,388.99000000000001</coordinates></Point></Placemark><Placemark><TimeSpan><begin>2020-03-18T08:32:20Z</begin><end>2020-03-18T08:32:21Z</end></TimeSpan><styleUrl>#point</styleUrl><Point><altitudeMode>clampToGround</altitudeMode><coordinates>18.422276023775339,-33.955117994919419,389.47000000000003</coordinates></Point></Placemark><Placemark><TimeSpan><begin>2020-03-18T08:32:21Z</begin><end>2020-03-18T08:32:22Z</end></TimeSpan><styleUrl>#point</styleUrl><Point><altitudeMode>clampToGround</altitudeMode><coordinates>18.42240896075964,-33.955166023224592,389.94999999999999</coordinates></Point></Placemark><Placemark><TimeSpan><begin>2020-03-18T08:32:22Z</begin><end>2020-03-18T08:32:23Z</end></TimeSpan><styleUrl>#point</styleUrl><Point><altitudeMode>clampToGround</altitudeMode><coordinates>18.422531001269817,-33.955235006287694,390.43000000000001</coordinates></Point></Placemark><Placemark><TimeSpan><begin>2020-03-18T08:32:23Z</begin><end>2020-03-18T08:32:24Z</end></TimeSpan><styleUrl>#point</styleUrl><Point><altitudeMode>clampToGround</altitudeMode><coordinates>18.422646000981331,-33.955315975472331,391.38999999999999</coordinates></Point></Placemark><Placemark><TimeSpan><begin>2020-03-18T08:32:24Z</begin><end>2020-03-18T08:32:25Z</end></TimeSpan><styleUrl>#point</styleUrl><Point><altitudeMode>clampToGround</altitudeMode><coordinates>18.422757983207703,-33.955399040132761,392.36000000000001</coordinates></Point></Placemark><Placemark><TimeSpan><begin>2020-03-18T08:32:25Z</begin><end>2020-03-18T08:32:26Z</end></TimeSpan><styleUrl>#point</styleUrl><Point><altitudeMode>clampToGround</altitudeMode><coordinates>18.422873988747597,-33.95546399988234,392.83999999999997</coordinates></Point></Placemark><Placemark><TimeSpan><begin>2020-03-18T08:32:26Z</begin><end>2020-03-18T08:32:27Z</end></TimeSpan><styleUrl>#point</styleUrl><Point><altitudeMode>clampToGround</altitudeMode><coordinates>18.422998040914536,-33.955500964075327,394.27999999999997</coordinates></Point></Placemark><Placemark><TimeSpan><begin>2020-03-18T08:32:27Z</begin><end>2020-03-18T08:32:28Z</end></TimeSpan><styleUrl>#point</styleUrl><Point><altitudeMode>clampToGround</altitudeMode><coordinates>18.423124020919204,-33.955515967682004,395.24000000000001</coordinates></Point></Placemark><Placemark><TimeSpan><begin>2020-03-18T08:32:28Z</begin><end>2020-03-18T08:32:29Z</end></TimeSpan><styleUrl>#point</styleUrl><Point><altitudeMode>clampToGround</altitudeMode><coordinates>18.423250000923872,-33.955511022359133,395.24000000000001</coordinates></Point></Placemark><Placemark><TimeSpan><begin>2020-03-18T08:32:29Z</begin><end>2020-03-18T08:32:30Z</end></TimeSpan><styleUrl>#point</styleUrl><Point><altitudeMode>clampToGround</altitudeMode><coordinates>18.423369023948908,-33.955471962690353,395.72000000000003</coordinates></Point></Placemark><Placemark><TimeSpan><begin>2020-03-18T08:32:30Z</begin><end>2020-03-18T08:32:31Z</end></TimeSpan><styleUrl>#point</styleUrl><Point><altitudeMode>clampToGround</altitudeMode><coordinates>18.423477988690138,-33.955396022647619,397.16000000000003</coordinates></Point></Placemark><Placemark><TimeSpan><begin>2020-03-18T08:32:31Z</begin><end>2020-03-18T08:32:32Z</end></TimeSpan><styleUrl>#point</styleUrl><Point><altitudeMode>clampToGround</altitudeMode><coordinates>18.423573961481452,-33.95531496964395,397.16000000000003</coordinates></Point></Placemark><Placemark><TimeSpan><begin>2020-03-18T08:32:32Z</begin><end>2020-03-18T08:32:33Z</end></TimeSpan><styleUrl>#point</styleUrl><Point><altitudeMode>clampToGround</altitudeMode><coordinates>18.423679992556572,-33.955237017944455,396.68000000000001</coordinates></Point></Placemark><Placemark><TimeSpan><begin>2020-03-18T08:32:33Z</begin><end>2020-03-18T08:32:34Z</end></TimeSpan><styleUrl>#point</styleUrl><Point><altitudeMode>clampToGround</altitudeMode><coordinates>18.423806978389621,-33.955181026831269,396.19999999999999</coordinates></Point></Placemark><Placemark><TimeSpan><begin>2020-03-18T08:32:34Z</begin><end>2020-03-18T08:32:35Z</end></TimeSpan><styleUrl>#point</styleUrl><Point><altitudeMode>clampToGround</altitudeMode><coordinates>18.423946034163237,-33.955148002132773,396.68000000000001</coordinates></Point></Placemark><Placemark><TimeSpan><begin>2020-03-18T08:32:35Z</begin><end>2020-03-18T08:32:36Z</end></TimeSpan><styleUrl>#point</styleUrl><Point><altitudeMode>clampToGround</altitudeMode><coordinates>18.424090035259724,-33.955131992697716,395.72000000000003</coordinates></Point></Placemark><Placemark><TimeSpan><begin>2020-03-18T08:32:36Z</begin><end>2020-03-18T08:32:37Z</end></TimeSpan><styleUrl>#point</styleUrl><Point><altitudeMode>clampToGround</altitudeMode><coordinates>18.424245016649365,-33.955115983262658,396.19999999999999</coordinates></Point></Placemark><Placemark><TimeSpan><begin>2020-03-18T08:32:37Z</begin><end>2020-03-18T08:32:39Z</end></TimeSpan><styleUrl>#point</styleUrl><Point><altitudeMode>clampToGround</altitudeMode><coordinates>18.424532013013959,-33.955084970220923,395.72000000000003</coordinates></Point></Placemark><Placemark><TimeSpan><begin>2020-03-18T08:32:39Z</begin><end>2020-03-18T08:32:40Z</end></TimeSpan><styleUrl>#point</styleUrl><Point><altitudeMode>clampToGround</altitudeMode><coordinates>18.424666039645672,-33.955043982714415,396.19999999999999</coordinates></Point></Placemark><Placemark><TimeSpan><begin>2020-03-18T08:32:40Z</begin><end>2020-03-18T08:32:41Z</end></TimeSpan><styleUrl>#point</styleUrl><Point><altitudeMode>clampToGround</altitudeMode><coordinates>18.424781039357185,-33.95499100908637,396.19999999999999</coordinates></Point></Placemark><Placemark><TimeSpan><begin>2020-03-18T08:32:41Z</begin><end>2020-03-18T08:32:42Z</end></TimeSpan><styleUrl>#point</styleUrl><Point><altitudeMode>clampToGround</altitudeMode><coordinates>18.424883969128132,-33.954930994659662,396.68000000000001</coordinates></Point></Placemark><Placemark><TimeSpan><begin>2020-03-18T08:32:42Z</begin><end>2020-03-18T08:32:43Z</end></TimeSpan><styleUrl>#point</styleUrl><Point><altitudeMode>clampToGround</altitudeMode><coordinates>18.424973990768194,-33.954863017424941,396.68000000000001</coordinates></Point></Placemark><Placemark><TimeSpan><begin>2020-03-18T08:32:43Z</begin><end>2020-03-18T08:32:44Z</end></TimeSpan><styleUrl>#point</styleUrl><Point><altitudeMode>clampToGround</altitudeMode><coordinates>18.425066024065018,-33.954814989119768,396.68000000000001</coordinates></Point></Placemark><Placemark><TimeSpan><begin>2020-03-18T08:32:44Z</begin><end>2020-03-18T08:32:45Z</end></TimeSpan><styleUrl>#point</styleUrl><Point><altitudeMode>clampToGround</altitudeMode><coordinates>18.425164008513093,-33.954787999391556,397.16000000000003</coordinates></Point></Placemark><Placemark><TimeSpan><begin>2020-03-18T08:32:45Z</begin><end>2020-03-18T08:32:46Z</end></TimeSpan><styleUrl>#point</styleUrl><Point><altitudeMode>clampToGround</altitudeMode><coordinates>18.425266016274691,-33.954785987734795,397.16000000000003</coordinates></Point></Placemark><Placemark><TimeSpan><begin>2020-03-18T08:32:46Z</begin><end>2020-03-18T08:32:47Z</end></TimeSpan><styleUrl>#point</styleUrl><Point><altitudeMode>clampToGround</altitudeMode><coordinates>18.425348997116089,-33.954809959977865,397.63999999999999</coordinates></Point></Placemark><Placemark><TimeSpan><begin>2020-03-18T08:32:47Z</begin><end>2020-03-18T08:32:48Z</end></TimeSpan><styleUrl>#point</styleUrl><Point><altitudeMode>clampToGround</altitudeMode><coordinates>18.425428038462996,-33.954842984676361,398.12</coordinates></Point></Placemark><Placemark><TimeSpan><begin>2020-03-18T08:32:48Z</begin><end>2020-03-18T08:32:49Z</end></TimeSpan><styleUrl>#point</styleUrl><Point><altitudeMode>clampToGround</altitudeMode><coordinates>18.425486041232944,-33.954875003546476,398.60000000000002</coordinates></Point></Placemark><Placemark><TimeSpan><begin>2020-03-18T08:32:49Z</begin><end>2020-03-18T08:32:56Z</end></TimeSpan><styleUrl>#point</styleUrl><Point><altitudeMode>clampToGround</altitudeMode><coordinates>18.425571033731103,-33.954965025186539,401.00999999999999</coordinates></Point></Placemark></Folder><Placemark><name>[173] Tafelberg Road (In)</name><Style><LineStyle><color>ffff4040</color><width>4</width></LineStyle></Style><MultiGeometry><LineString><coordinates>18.394817998632789,-33.942245990037918,239.50999999999999 18.394796038046479,-33.942316984757781,240.94999999999999 18.394810035824776,-33.942387979477644,241.43000000000001 18.394831996411085,-33.942457968369126,242.38999999999999 18.394859991967678,-33.942524017766118,242.87 18.394944984465837,-33.942718980833888,245.27000000000001 18.394986977800727,-33.942783018574119,246.22999999999999 18.395049003884196,-33.942844038829207,247.19999999999999 18.39512100443244,-33.942901035770774,247.68000000000001 18.395197028294206,-33.942947974428535,248.16 18.395269028842449,-33.942999020218849,249.12 18.396015018224716,-33.943491959944367,256.32999999999998 18.396134041249752,-33.943520039319992,257.29000000000002 18.39626002125442,-33.94353898242116,257.76999999999998 18.396387007087469,-33.943548034876585,258.73000000000002 18.396512987092137,-33.943558009341359,259.69 18.39675597846508,-33.943615006282926,261.13999999999999 18.396867038682103,-33.943664962425828,262.10000000000002 18.396964017301798,-33.943735035136342,263.06 18.397049009799957,-33.943810975179076,264.01999999999998 18.397132996469736,-33.943894961848855,264.98000000000002 18.397315973415971,-33.944034017622471,266.89999999999998 18.397429967299104,-33.944083973765373,267.86000000000001 18.39754899032414,-33.944126972928643,268.35000000000002 18.397676981985569,-33.944144994020462,268.82999999999998 18.397796005010605,-33.944199979305267,269.79000000000002 18.397916033864021,-33.944244990125299,270.26999999999998 18.398900991305709,-33.94469995982945,278.92000000000002 18.39900903403759,-33.944714041426778,279.88 18.399125961586833,-33.944710018113256,281.31999999999999 18.399242972955108,-33.944685040041804,282.27999999999997 18.39935302734375,-33.944648997858167,283.25 18.399445982649922,-33.944594012573361,283.73000000000002 18.399532986804843,-33.944532992318273,284.20999999999998 18.399700038135052,-33.944454034790397,285.64999999999998 18.399782013148069,-33.944455040618777,286.13 18.399846972897649,-33.94448303617537,287.08999999999997 18.39989198371768,-33.944530980661511,287.56999999999999 18.399921990931034,-33.9445920009166,289.00999999999999 18.399919979274273,-33.944665007293224,289.49000000000001 18.399884020909667,-33.944726027548313,290.45999999999998 18.39982601813972,-33.944798028096557,290.94 18.399749994277954,-33.944853013381362,291.89999999999998 18.399665001779795,-33.944909004494548,293.33999999999997 18.399279015138745,-33.945136992260814,297.18000000000001 18.399162003770471,-33.945182003080845,297.18000000000001 18.399039041250944,-33.94521402195096,298.63 18.398910965770483,-33.945237994194031,299.58999999999997 18.398777022957802,-33.945246962830424,300.55000000000001 18.398637967184186,-33.945233970880508,301.50999999999999 18.398497989401221,-33.945209998637438,302.47000000000003 18.398351976647973,-33.945169011130929,303.91000000000003 18.398206969723105,-33.945121988654137,305.83999999999997 18.39765502139926,-33.944960972294211,311.12 18.397584026679397,-33.944966001436114,312.08999999999997 18.397518983110785,-33.94500195980072,312.56999999999999 18.397479001432657,-33.945054011419415,313.05000000000001 18.397471960633993,-33.945112014189363,314.49000000000001 18.397489981725812,-33.945165993645787,316.41000000000003 18.39752996340394,-33.945208992809057,317.85000000000002 18.397609004750848,-33.945242017507553,317.85000000000002 18.397697014734149,-33.945264983922243,319.30000000000001 18.397791981697083,-33.945280993357301,320.25999999999999 18.397985016927123,-33.945324998348951,322.66000000000003 18.398077972233295,-33.945361962541938,323.62 18.398168999701738,-33.94540797919035,325.06 18.398259021341801,-33.945461036637425,325.54000000000002 18.398348037153482,-33.945519039407372,326.5 18.398544006049633,-33.94560000859201,328.91000000000003 18.398657999932766,-33.945645019412041,329.38999999999999 18.398780962452292,-33.945677038282156,330.35000000000002 18.398912977427244,-33.945700004696846,331.31 18.399042980745435,-33.945720037445426,332.26999999999998 18.400777028873563,-33.946108035743237,340.44 18.401638017967343,-33.946733996272087,344.29000000000002 18.401680011302233,-33.946798034012318,344.76999999999998 18.401859970763326,-33.947222996503115,344.29000000000002 18.401896012946963,-33.947262978181243,344.76999999999998 18.40205904096365,-33.947501024231315,349.57999999999998 18.40210204012692,-33.947529019787908,350.54000000000002 18.402144033461809,-33.947561038658023,351.01999999999998 18.402475034818053,-33.94774803891778,353.89999999999998 18.402524990960956,-33.947785003110766,354.86000000000001 18.402852974832058,-33.948024976998568,354.86000000000001 18.403246002271771,-33.948131008073688,356.79000000000002 18.403571974486113,-33.948300993070006,357.75 18.403611034154892,-33.948333011940122,357.26999999999998 18.404115037992597,-33.948639035224915,357.26999999999998 18.404290974140167,-33.948739031329751,356.79000000000002 18.404996981844306,-33.949072966352105,360.63 18.406146978959441,-33.949728012084961,361.58999999999997 18.407363025471568,-33.950001010671258,360.14999999999998 18.407611967995763,-33.950062030926347,359.67000000000002 18.407735014334321,-33.950118022039533,359.67000000000002 18.40783903375268,-33.950192034244537,359.67000000000002 18.40792796574533,-33.950270991772413,359.67000000000002 18.408009018748999,-33.95035196095705,359.67000000000002 18.408185038715601,-33.95048095844686,359.67000000000002 18.408298026770353,-33.950519012287259,359.67000000000002 18.408423000946641,-33.950529992580414,359.67000000000002 18.408553004264832,-33.950519012287259,359.67000000000002 18.408688036724925,-33.950494034215808,359.67000000000002 18.408826002851129,-33.950463021174073,360.14999999999998 18.4092160128057,-33.950400995090604,360.63 18.40934501029551,-33.950409963726997,360.63 18.409479036927223,-33.95043795928359,360.14999999999998 18.409617003053427,-33.95047802478075,360.14999999999998 18.409758992493153,-33.95052001811564,360.14999999999998 18.410254027694464,-33.950681034475565,359.67000000000002 18.410342037677765,-33.950733002275229,359.67000000000002 18.410412026569247,-33.950805002823472,359.67000000000002 18.410468017682433,-33.950897036120296,360.14999999999998 18.410512022674084,-33.951006000861526,360.14999999999998 18.410555021837354,-33.951118988916278,360.63 18.410728024318814,-33.951473040506244,361.11000000000001 18.410815028473735,-33.951583011075854,361.11000000000001 18.410918964073062,-33.951688958331943,361.11000000000001 18.411032035946846,-33.951780991628766,361.58999999999997 18.411157010123134,-33.951865984126925,362.06999999999999 18.411286007612944,-33.951942007988691,362.55000000000001 18.411418022587895,-33.952006967738271,363.04000000000002 18.411561017856002,-33.952059019356966,362.55000000000001 18.411697978153825,-33.952097995206714,363.04000000000002 18.411835022270679,-33.952117022126913,363.51999999999998 18.411973994225264,-33.952125990763307,364 18.412109026685357,-33.952133031561971,364.48000000000002 18.412236012518406,-33.952151974663138,364.95999999999998 18.412349000573158,-33.952184999361634,365.44 18.412444973364472,-33.952238978818059,366.39999999999998 18.412531977519393,-33.952305028215051,366.88 18.412597021088004,-33.952388009056449,367.36000000000001 18.412658041343093,-33.952474007382989,367.36000000000001 18.412816962227225,-33.952593030408025,367.36000000000001 18.412920981645584,-33.95262798294425,367.36000000000001 18.413244020193815,-33.952781958505511,367.83999999999997 18.414401980116963,-33.953632973134518,374.08999999999997 18.41501503251493,-33.954080985859036,377.94 18.415055014193058,-33.954158015549183,378.42000000000002 18.415067000314593,-33.954260023310781,378.89999999999998 18.41505903750658,-33.95436798222363,379.38 18.415031963959336,-33.954470995813608,378.89999999999998 18.415013020858169,-33.954552970826626,379.38 18.415007991716266,-33.954626983031631,379.86000000000001 18.415013020858169,-33.954651961103082,380.33999999999997 18.415048979222775,-33.954739971086383,382.25999999999999 18.41508099809289,-33.954782970249653,383.22000000000003 18.415132965892553,-33.954828986898065,384.18000000000001 18.415564969182014,-33.955203993245959,388.02999999999997 18.415629006922245,-33.955263001844287,387.06999999999999 18.41570695862174,-33.955267025157809,388.50999999999999 18.415791029110551,-33.95527197048068,388.50999999999999 18.415888007730246,-33.955244980752468,389.47000000000003 18.415985992178321,-33.955199969932437,389.47000000000003 18.416075007990003,-33.955128975212574,389.47000000000003 18.416154971346259,-33.955051023513079,389.47000000000003 18.416225966066122,-33.954966031014919,389.94999999999999 18.416363010182977,-33.954823035746813,390.91000000000003 18.416438028216362,-33.954777019098401,388.99000000000001 18.416532995179296,-33.954743994399905,388.50999999999999 18.416636008769274,-33.954736031591892,388.02999999999997 18.416744973510504,-33.954746006056666,388.02999999999997 18.416856033727527,-33.954770984128118,388.02999999999997 18.416969021782279,-33.954814989119768,387.55000000000001 18.417075974866748,-33.954872991889715,388.50999999999999 18.417173959314823,-33.954941974952817,388.99000000000001 18.417269010096788,-33.955023027956486,389.47000000000003 18.41735802590847,-33.955113971605897,390.43000000000001 18.418252039700747,-33.955786032602191,392.83999999999997 18.418354969471693,-33.955791983753443,393.31999999999999 18.418467035517097,-33.95578502677381,392.83999999999997 18.418579017743468,-33.955749990418553,392.83999999999997 18.418698040768504,-33.955706991255283,392.36000000000001 18.418831983581185,-33.955675978213549,392.36000000000001 18.418972967192531,-33.955674972385168,392.36000000000001 18.41912099160254,-33.955680001527071,391.87 18.419272033497691,-33.955666003748775,391.87 18.419422991573811,-33.955630967393517,391.38999999999999 18.419577972963452,-33.955590985715389,390.43000000000001 18.419741000980139,-33.955559972673655,390.91000000000003 18.42137798666954,-33.955258978530765,389.47000000000003 18.421835973858833,-33.955122018232942,388.99000000000001 18.421986009925604,-33.95509603433311,388.99000000000001 18.422134034335613,-33.955094022676349,388.99000000000001 18.422276023775339,-33.955117994919419,389.47000000000003 18.42240896075964,-33.955166023224592,389.94999999999999 18.422531001269817,-33.955235006287694,390.43000000000001 18.422646000981331,-33.955315975472331,391.38999999999999 18.422757983207703,-33.955399040132761,392.36000000000001 18.422873988747597,-33.95546399988234,392.83999999999997 18.422998040914536,-33.955500964075327,394.27999999999997 18.423124020919204,-33.955515967682004,395.24000000000001 18.423250000923872,-33.955511022359133,395.24000000000001 18.423369023948908,-33.955471962690353,395.72000000000003 18.423477988690138,-33.955396022647619,397.16000000000003 18.423573961481452,-33.95531496964395,397.16000000000003 18.423679992556572,-33.955237017944455,396.68000000000001 18.423806978389621,-33.955181026831269,396.19999999999999 18.423946034163237,-33.955148002132773,396.68000000000001 18.424090035259724,-33.955131992697716,395.72000000000003 18.424245016649365,-33.955115983262658,396.19999999999999 18.424532013013959,-33.955084970220923,395.72000000000003 18.424666039645672,-33.955043982714415,396.19999999999999 18.424781039357185,-33.95499100908637,396.19999999999999 18.424883969128132,-33.954930994659662,396.68000000000001 18.424973990768194,-33.954863017424941,396.68000000000001 18.425066024065018,-33.954814989119768,396.68000000000001 18.425164008513093,-33.954787999391556,397.16000000000003 18.425266016274691,-33.954785987734795,397.16000000000003 18.425348997116089,-33.954809959977865,397.63999999999999 18.425428038462996,-33.954842984676361,398.12 18.425486041232944,-33.954875003546476,398.60000000000002 18.425571033731103,-33.954965025186539,401.00999999999999 </coordinates></LineString></MultiGeometry></Placemark></Folder></Folder></Document></kml>