<?xml version="1.0" encoding="utf-8"?><kml xmlns="http://www.opengis.net/kml/2.2" xmlns:xsi="http://www.w3.org/2001/XMLSchema-instance" xmlns:kmlx="http://www.google.com/kml/ext/2.2" xmlns:atom="http://www.w3.org/2005/Atom" xmlns:gpxx="http://www.garmin.com/xmlschemas/GpxExtensions/v3"><Document><Style id="point"><IconStyle><scale>0.9</scale><Icon><href>http://maps.google.com/mapfiles/kml/shapes/placemark_circle.png</href></Icon></IconStyle></Style><Folder><name>Tracks</name><Folder><name>[177] Du Toits Kloof Pass (New)</name><Folder><name>Points</name><Style><ListStyle><listItemType>checkHideChildren</listItemType></ListStyle></Style><Placemark><TimeSpan><begin>2020-03-21T07:28:09Z</begin><end>2020-03-21T07:28:09Z</end></TimeSpan><Style><IconStyle><scale>0.9</scale><Icon><href>http://connect.garmin.com/image/main/icons/kml/grn-play.png</href></Icon></IconStyle></Style><Point><altitudeMode>clampToGround</altitudeMode><coordinates>19.016207037493587,-33.741763019934297,178.46000000000001</coordinates></Point></Placemark><Placemark><TimeSpan><begin>2020-03-21T07:28:09Z</begin><end>2020-03-21T07:28:18Z</end></TimeSpan><styleUrl>#point</styleUrl><Point><altitudeMode>clampToGround</altitudeMode><coordinates>19.018533015623689,-33.742270963266492,180.87</coordinates></Point></Placemark><Placemark><TimeSpan><begin>2020-03-21T07:28:18Z</begin><end>2020-03-21T07:28:24Z</end></TimeSpan><styleUrl>#point</styleUrl><Point><altitudeMode>clampToGround</altitudeMode><coordinates>19.019371960312128,-33.742436002939939,181.83000000000001</coordinates></Point></Placemark><Placemark><TimeSpan><begin>2020-03-21T07:28:24Z</begin><end>2020-03-21T07:28:30Z</end></TimeSpan><styleUrl>#point</styleUrl><Point><altitudeMode>clampToGround</altitudeMode><coordinates>19.019617969170213,-33.742470033466816,181.83000000000001</coordinates></Point></Placemark><Placemark><TimeSpan><begin>2020-03-21T07:28:30Z</begin><end>2020-03-21T07:29:11Z</end></TimeSpan><styleUrl>#point</styleUrl><Point><altitudeMode>clampToGround</altitudeMode><coordinates>19.019644036889076,-33.74250004068017,182.31</coordinates></Point></Placemark><Placemark><TimeSpan><begin>2020-03-21T07:29:11Z</begin><end>2020-03-21T07:29:29Z</end></TimeSpan><styleUrl>#point</styleUrl><Point><altitudeMode>clampToGround</altitudeMode><coordinates>19.019760964438319,-33.742531975731254,182.78999999999999</coordinates></Point></Placemark><Placemark><TimeSpan><begin>2020-03-21T07:29:29Z</begin><end>2020-03-21T07:29:45Z</end></TimeSpan><styleUrl>#point</styleUrl><Point><altitudeMode>clampToGround</altitudeMode><coordinates>19.019773034378886,-33.742529964074492,182.31</coordinates></Point></Placemark><Placemark><TimeSpan><begin>2020-03-21T07:29:45Z</begin><end>2020-03-21T07:30:01Z</end></TimeSpan><styleUrl>#point</styleUrl><Point><altitudeMode>clampToGround</altitudeMode><coordinates>19.019799018278718,-33.742538010701537,182.31</coordinates></Point></Placemark><Placemark><TimeSpan><begin>2020-03-21T07:30:01Z</begin><end>2020-03-21T07:30:15Z</end></TimeSpan><styleUrl>#point</styleUrl><Point><altitudeMode>clampToGround</altitudeMode><coordinates>19.019859032705426,-33.742560977116227,182.31</coordinates></Point></Placemark><Placemark><TimeSpan><begin>2020-03-21T07:30:15Z</begin><end>2020-03-21T07:30:41Z</end></TimeSpan><styleUrl>#point</styleUrl><Point><altitudeMode>clampToGround</altitudeMode><coordinates>19.020139994099736,-33.742595007643104,183.75</coordinates></Point></Placemark><Placemark><TimeSpan><begin>2020-03-21T07:30:41Z</begin><end>2020-03-21T07:30:44Z</end></TimeSpan><styleUrl>#point</styleUrl><Point><altitudeMode>clampToGround</altitudeMode><coordinates>19.020507037639618,-33.742705984041095,185.19</coordinates></Point></Placemark><Placemark><TimeSpan><begin>2020-03-21T07:30:44Z</begin><end>2020-03-21T07:30:51Z</end></TimeSpan><styleUrl>#point</styleUrl><Point><altitudeMode>clampToGround</altitudeMode><coordinates>19.021784020587802,-33.74310496263206,187.59</coordinates></Point></Placemark><Placemark><TimeSpan><begin>2020-03-21T07:30:51Z</begin><end>2020-03-21T07:31:01Z</end></TimeSpan><styleUrl>#point</styleUrl><Point><altitudeMode>clampToGround</altitudeMode><coordinates>19.024219969287515,-33.743727989494801,195.77000000000001</coordinates></Point></Placemark><Placemark><TimeSpan><begin>2020-03-21T07:31:01Z</begin><end>2020-03-21T07:31:10Z</end></TimeSpan><styleUrl>#point</styleUrl><Point><altitudeMode>clampToGround</altitudeMode><coordinates>19.026792040094733,-33.744148006662726,203.94</coordinates></Point></Placemark><Placemark><TimeSpan><begin>2020-03-21T07:31:10Z</begin><end>2020-03-21T07:31:18Z</end></TimeSpan><styleUrl>#point</styleUrl><Point><altitudeMode>clampToGround</altitudeMode><coordinates>19.029322033748031,-33.744068965315819,216.43000000000001</coordinates></Point></Placemark><Placemark><TimeSpan><begin>2020-03-21T07:31:18Z</begin><end>2020-03-21T07:31:26Z</end></TimeSpan><styleUrl>#point</styleUrl><Point><altitudeMode>clampToGround</altitudeMode><coordinates>19.032001979649067,-33.743576025590301,227.49000000000001</coordinates></Point></Placemark><Placemark><TimeSpan><begin>2020-03-21T07:31:26Z</begin><end>2020-03-21T07:31:40Z</end></TimeSpan><styleUrl>#point</styleUrl><Point><altitudeMode>clampToGround</altitudeMode><coordinates>19.036733983084559,-33.742848979309201,247.19999999999999</coordinates></Point></Placemark><Placemark><TimeSpan><begin>2020-03-21T07:31:40Z</begin><end>2020-03-21T07:31:51Z</end></TimeSpan><styleUrl>#point</styleUrl><Point><altitudeMode>clampToGround</altitudeMode><coordinates>19.040249017998576,-33.742786031216383,262.10000000000002</coordinates></Point></Placemark><Placemark><TimeSpan><begin>2020-03-21T07:31:51Z</begin><end>2020-03-21T07:32:02Z</end></TimeSpan><styleUrl>#point</styleUrl><Point><altitudeMode>clampToGround</altitudeMode><coordinates>19.043578980490565,-33.743142010644078,276.51999999999998</coordinates></Point></Placemark><Placemark><TimeSpan><begin>2020-03-21T07:32:02Z</begin><end>2020-03-21T07:32:13Z</end></TimeSpan><styleUrl>#point</styleUrl><Point><altitudeMode>clampToGround</altitudeMode><coordinates>19.046992007642984,-33.743641991168261,290.94</coordinates></Point></Placemark><Placemark><TimeSpan><begin>2020-03-21T07:32:13Z</begin><end>2020-03-21T07:32:28Z</end></TimeSpan><styleUrl>#point</styleUrl><Point><altitudeMode>clampToGround</altitudeMode><coordinates>19.051585961133242,-33.744325032457709,311.60000000000002</coordinates></Point></Placemark><Placemark><TimeSpan><begin>2020-03-21T07:32:28Z</begin><end>2020-03-21T07:32:45Z</end></TimeSpan><styleUrl>#point</styleUrl><Point><altitudeMode>clampToGround</altitudeMode><coordinates>19.056832026690245,-33.745135981589556,336.12</coordinates></Point></Placemark><Placemark><TimeSpan><begin>2020-03-21T07:32:45Z</begin><end>2020-03-21T07:32:57Z</end></TimeSpan><styleUrl>#point</styleUrl><Point><altitudeMode>clampToGround</altitudeMode><coordinates>19.060572031885386,-33.745521968230605,353.89999999999998</coordinates></Point></Placemark><Placemark><TimeSpan><begin>2020-03-21T07:32:57Z</begin><end>2020-03-21T07:33:01Z</end></TimeSpan><styleUrl>#point</styleUrl><Point><altitudeMode>clampToGround</altitudeMode><coordinates>19.061816995963454,-33.745344020426273,360.14999999999998</coordinates></Point></Placemark><Placemark><TimeSpan><begin>2020-03-21T07:33:01Z</begin><end>2020-03-21T07:33:08Z</end></TimeSpan><styleUrl>#point</styleUrl><Point><altitudeMode>clampToGround</altitudeMode><coordinates>19.063803004100919,-33.744558971375227,371.69</coordinates></Point></Placemark><Placemark><TimeSpan><begin>2020-03-21T07:33:08Z</begin><end>2020-03-21T07:33:14Z</end></TimeSpan><styleUrl>#point</styleUrl><Point><altitudeMode>clampToGround</altitudeMode><coordinates>19.065183000639081,-33.743494972586632,379.86000000000001</coordinates></Point></Placemark><Placemark><TimeSpan><begin>2020-03-21T07:33:14Z</begin><end>2020-03-21T07:33:20Z</end></TimeSpan><styleUrl>#point</styleUrl><Point><altitudeMode>clampToGround</altitudeMode><coordinates>19.066058993339539,-33.742170967161655,392.36000000000001</coordinates></Point></Placemark><Placemark><TimeSpan><begin>2020-03-21T07:33:20Z</begin><end>2020-03-21T07:33:33Z</end></TimeSpan><styleUrl>#point</styleUrl><Point><altitudeMode>clampToGround</altitudeMode><coordinates>19.067526999861002,-33.7394730001688,409.18000000000001</coordinates></Point></Placemark><Placemark><TimeSpan><begin>2020-03-21T07:33:33Z</begin><end>2020-03-21T07:33:45Z</end></TimeSpan><styleUrl>#point</styleUrl><Point><altitudeMode>clampToGround</altitudeMode><coordinates>19.068931974470615,-33.73704400844872,416.87</coordinates></Point></Placemark><Placemark><TimeSpan><begin>2020-03-21T07:33:45Z</begin><end>2020-03-21T07:33:55Z</end></TimeSpan><styleUrl>#point</styleUrl><Point><altitudeMode>clampToGround</altitudeMode><coordinates>19.070439962670207,-33.735357988625765,415.43000000000001</coordinates></Point></Placemark><Placemark><TimeSpan><begin>2020-03-21T07:33:55Z</begin><end>2020-03-21T07:34:05Z</end></TimeSpan><styleUrl>#point</styleUrl><Point><altitudeMode>clampToGround</altitudeMode><coordinates>19.07203696668148,-33.734255013987422,414.94999999999999</coordinates></Point></Placemark><Placemark><TimeSpan><begin>2020-03-21T07:34:05Z</begin><end>2020-03-21T07:38:05Z</end></TimeSpan><styleUrl>#point</styleUrl><Point><altitudeMode>clampToGround</altitudeMode><coordinates>19.114684006199241,-33.732894966378808,439.94</coordinates></Point></Placemark><Placemark><TimeSpan><begin>2020-03-21T07:38:05Z</begin><end>2020-03-21T07:38:07Z</end></TimeSpan><styleUrl>#point</styleUrl><Point><altitudeMode>clampToGround</altitudeMode><coordinates>19.115061024203897,-33.732721041887999,447.63</coordinates></Point></Placemark><Placemark><TimeSpan><begin>2020-03-21T07:38:07Z</begin><end>2020-03-21T07:38:16Z</end></TimeSpan><styleUrl>#point</styleUrl><Point><altitudeMode>clampToGround</altitudeMode><coordinates>19.116773027926683,-33.731476999819279,451.95999999999998</coordinates></Point></Placemark><Placemark><TimeSpan><begin>2020-03-21T07:38:16Z</begin><end>2020-03-21T07:38:24Z</end></TimeSpan><styleUrl>#point</styleUrl><Point><altitudeMode>clampToGround</altitudeMode><coordinates>19.1181830316782,-33.729977980256081,452.44</coordinates></Point></Placemark><Placemark><TimeSpan><begin>2020-03-21T07:38:24Z</begin><end>2020-03-21T07:38:35Z</end></TimeSpan><styleUrl>#point</styleUrl><Point><altitudeMode>clampToGround</altitudeMode><coordinates>19.120323015376925,-33.727788962423801,450.02999999999997</coordinates></Point></Placemark><Placemark><TimeSpan><begin>2020-03-21T07:38:35Z</begin><end>2020-03-21T07:38:41Z</end></TimeSpan><styleUrl>#point</styleUrl><Point><altitudeMode>clampToGround</altitudeMode><coordinates>19.121935022994876,-33.727003997191787,447.14999999999998</coordinates></Point></Placemark><Placemark><TimeSpan><begin>2020-03-21T07:38:41Z</begin><end>2020-03-21T07:38:48Z</end></TimeSpan><styleUrl>#point</styleUrl><Point><altitudeMode>clampToGround</altitudeMode><coordinates>19.124081963673234,-33.726618010550737,440.89999999999998</coordinates></Point></Placemark><Placemark><TimeSpan><begin>2020-03-21T07:38:48Z</begin><end>2020-03-21T07:38:57Z</end></TimeSpan><styleUrl>#point</styleUrl><Point><altitudeMode>clampToGround</altitudeMode><coordinates>19.127270020544529,-33.726353980600834,442.33999999999997</coordinates></Point></Placemark><Placemark><TimeSpan><begin>2020-03-21T07:38:57Z</begin><end>2020-03-21T07:39:09Z</end></TimeSpan><styleUrl>#point</styleUrl><Point><altitudeMode>clampToGround</altitudeMode><coordinates>19.132163040339947,-33.725905967876315,438.98000000000002</coordinates></Point></Placemark><Placemark><TimeSpan><begin>2020-03-21T07:39:09Z</begin><end>2020-03-21T07:39:15Z</end></TimeSpan><styleUrl>#point</styleUrl><Point><altitudeMode>clampToGround</altitudeMode><coordinates>19.134484995156527,-33.726132027804852,430.81</coordinates></Point></Placemark><Placemark><TimeSpan><begin>2020-03-21T07:39:15Z</begin><end>2020-03-21T07:39:22Z</end></TimeSpan><styleUrl>#point</styleUrl><Point><altitudeMode>clampToGround</altitudeMode><coordinates>19.137100987136364,-33.726736027747393,424.07999999999998</coordinates></Point></Placemark><Placemark><TimeSpan><begin>2020-03-21T07:39:22Z</begin><end>2020-03-21T07:39:23Z</end></TimeSpan><styleUrl>#point</styleUrl><Point><altitudeMode>clampToGround</altitudeMode><coordinates>19.137494014576077,-33.726747008040547,423.12</coordinates></Point></Placemark><Placemark><TimeSpan><begin>2020-03-21T07:39:23Z</begin><end>2020-03-21T07:39:24Z</end></TimeSpan><styleUrl>#point</styleUrl><Point><altitudeMode>clampToGround</altitudeMode><coordinates>19.137883018702269,-33.726724963635206,422.63999999999999</coordinates></Point></Placemark><Placemark><TimeSpan><begin>2020-03-21T07:39:24Z</begin><end>2020-03-21T07:39:25Z</end></TimeSpan><styleUrl>#point</styleUrl><Point><altitudeMode>clampToGround</altitudeMode><coordinates>19.138260036706924,-33.726676013320684,422.16000000000003</coordinates></Point></Placemark><Placemark><TimeSpan><begin>2020-03-21T07:39:25Z</begin><end>2020-03-21T07:39:26Z</end></TimeSpan><styleUrl>#point</styleUrl><Point><altitudeMode>clampToGround</altitudeMode><coordinates>19.138622973114252,-33.726598983630538,422.16000000000003</coordinates></Point></Placemark><Placemark><TimeSpan><begin>2020-03-21T07:39:26Z</begin><end>2020-03-21T07:39:27Z</end></TimeSpan><styleUrl>#point</styleUrl><Point><altitudeMode>clampToGround</altitudeMode><coordinates>19.138970989733934,-33.726508039981127,422.16000000000003</coordinates></Point></Placemark><Placemark><TimeSpan><begin>2020-03-21T07:39:27Z</begin><end>2020-03-21T07:39:35Z</end></TimeSpan><styleUrl>#point</styleUrl><Point><altitudeMode>clampToGround</altitudeMode><coordinates>19.141359999775887,-33.725797003135085,421.68000000000001</coordinates></Point></Placemark><Placemark><TimeSpan><begin>2020-03-21T07:39:35Z</begin><end>2020-03-21T07:39:47Z</end></TimeSpan><styleUrl>#point</styleUrl><Point><altitudeMode>clampToGround</altitudeMode><coordinates>19.144617961719632,-33.724910030141473,426</coordinates></Point></Placemark><Placemark><TimeSpan><begin>2020-03-21T07:39:47Z</begin><end>2020-03-21T07:39:55Z</end></TimeSpan><styleUrl>#point</styleUrl><Point><altitudeMode>clampToGround</altitudeMode><coordinates>19.147258009761572,-33.724565031006932,430.81</coordinates></Point></Placemark><Placemark><TimeSpan><begin>2020-03-21T07:39:55Z</begin><end>2020-03-21T07:40:02Z</end></TimeSpan><styleUrl>#point</styleUrl><Point><altitudeMode>clampToGround</altitudeMode><coordinates>19.150001993402839,-33.724549021571875,426.95999999999998</coordinates></Point></Placemark><Placemark><TimeSpan><begin>2020-03-21T07:40:02Z</begin><end>2020-03-21T07:40:12Z</end></TimeSpan><styleUrl>#point</styleUrl><Point><altitudeMode>clampToGround</altitudeMode><coordinates>19.153717020526528,-33.724507028236985,418.79000000000002</coordinates></Point></Placemark><Placemark><TimeSpan><begin>2020-03-21T07:40:12Z</begin><end>2020-03-21T07:40:25Z</end></TimeSpan><styleUrl>#point</styleUrl><Point><altitudeMode>clampToGround</altitudeMode><coordinates>19.158183988183737,-33.724308041855693,422.63999999999999</coordinates></Point></Placemark><Placemark><TimeSpan><begin>2020-03-21T07:40:25Z</begin><end>2020-03-21T07:40:36Z</end></TimeSpan><styleUrl>#point</styleUrl><Point><altitudeMode>clampToGround</altitudeMode><coordinates>19.161827014759183,-33.724115006625652,417.82999999999998</coordinates></Point></Placemark><Placemark><TimeSpan><begin>2020-03-21T07:40:36Z</begin><end>2020-03-21T07:40:43Z</end></TimeSpan><styleUrl>#point</styleUrl><Point><altitudeMode>clampToGround</altitudeMode><coordinates>19.164284002035856,-33.724562013521791,408.22000000000003</coordinates></Point></Placemark><Placemark><TimeSpan><begin>2020-03-21T07:40:43Z</begin><end>2020-03-21T07:40:51Z</end></TimeSpan><styleUrl>#point</styleUrl><Point><altitudeMode>clampToGround</altitudeMode><coordinates>19.167054975405335,-33.724988987669349,393.80000000000001</coordinates></Point></Placemark><Placemark><TimeSpan><begin>2020-03-21T07:40:51Z</begin><end>2020-03-21T07:40:56Z</end></TimeSpan><styleUrl>#point</styleUrl><Point><altitudeMode>clampToGround</altitudeMode><coordinates>19.168707970529795,-33.724612975493073,388.50999999999999</coordinates></Point></Placemark><Placemark><TimeSpan><begin>2020-03-21T07:40:56Z</begin><end>2020-03-21T07:41:06Z</end></TimeSpan><styleUrl>#point</styleUrl><Point><altitudeMode>clampToGround</altitudeMode><coordinates>19.171803994104266,-33.723687026649714,381.30000000000001</coordinates></Point></Placemark><Placemark><TimeSpan><begin>2020-03-21T07:41:06Z</begin><end>2020-03-21T07:41:14Z</end></TimeSpan><styleUrl>#point</styleUrl><Point><altitudeMode>clampToGround</altitudeMode><coordinates>19.174219993874431,-33.723536990582943,375.52999999999997</coordinates></Point></Placemark><Placemark><TimeSpan><begin>2020-03-21T07:41:14Z</begin><end>2020-03-21T07:41:28Z</end></TimeSpan><styleUrl>#point</styleUrl><Point><altitudeMode>clampToGround</altitudeMode><coordinates>19.178670030087233,-33.723561968654394,368.80000000000001</coordinates></Point></Placemark><Placemark><TimeSpan><begin>2020-03-21T07:41:28Z</begin><end>2020-03-21T07:41:34Z</end></TimeSpan><styleUrl>#point</styleUrl><Point><altitudeMode>clampToGround</altitudeMode><coordinates>19.180479012429714,-33.72325100004673,368.31999999999999</coordinates></Point></Placemark><Placemark><TimeSpan><begin>2020-03-21T07:41:34Z</begin><end>2020-03-21T07:41:39Z</end></TimeSpan><styleUrl>#point</styleUrl><Point><altitudeMode>clampToGround</altitudeMode><coordinates>19.181852973997593,-33.722479026764631,368.80000000000001</coordinates></Point></Placemark><Placemark><TimeSpan><begin>2020-03-21T07:41:39Z</begin><end>2020-03-21T07:41:46Z</end></TimeSpan><styleUrl>#point</styleUrl><Point><altitudeMode>clampToGround</altitudeMode><coordinates>19.18347998522222,-33.72108100913465,364.48000000000002</coordinates></Point></Placemark><Placemark><TimeSpan><begin>2020-03-21T07:41:46Z</begin><end>2020-03-21T07:41:50Z</end></TimeSpan><styleUrl>#point</styleUrl><Point><altitudeMode>clampToGround</altitudeMode><coordinates>19.184581032022834,-33.720534006133676,361.11000000000001</coordinates></Point></Placemark><Placemark><TimeSpan><begin>2020-03-21T07:41:50Z</begin><end>2020-03-21T07:41:51Z</end></TimeSpan><styleUrl>#point</styleUrl><Point><altitudeMode>clampToGround</altitudeMode><coordinates>19.184887977316976,-33.72045898810029,360.14999999999998</coordinates></Point></Placemark><Placemark><TimeSpan><begin>2020-03-21T07:41:51Z</begin><end>2020-03-21T07:41:52Z</end></TimeSpan><styleUrl>#point</styleUrl><Point><altitudeMode>clampToGround</altitudeMode><coordinates>19.185198023915291,-33.720400985330343,359.19</coordinates></Point></Placemark><Placemark><TimeSpan><begin>2020-03-21T07:41:52Z</begin><end>2020-03-21T07:41:53Z</end></TimeSpan><styleUrl>#point</styleUrl><Point><altitudeMode>clampToGround</altitudeMode><coordinates>19.185507986694574,-33.720361003652215,358.23000000000002</coordinates></Point></Placemark><Placemark><TimeSpan><begin>2020-03-21T07:41:53Z</begin><end>2020-03-21T07:41:54Z</end></TimeSpan><styleUrl>#point</styleUrl><Point><altitudeMode>clampToGround</altitudeMode><coordinates>19.185828007757664,-33.720344994217157,357.26999999999998</coordinates></Point></Placemark><Placemark><TimeSpan><begin>2020-03-21T07:41:54Z</begin><end>2020-03-21T07:41:55Z</end></TimeSpan><styleUrl>#point</styleUrl><Point><altitudeMode>clampToGround</altitudeMode><coordinates>19.186137970536947,-33.720344994217157,356.79000000000002</coordinates></Point></Placemark><Placemark><TimeSpan><begin>2020-03-21T07:41:55Z</begin><end>2020-03-21T07:41:56Z</end></TimeSpan><styleUrl>#point</styleUrl><Point><altitudeMode>clampToGround</altitudeMode><coordinates>19.186454974114895,-33.720368966460228,356.31</coordinates></Point></Placemark><Placemark><TimeSpan><begin>2020-03-21T07:41:56Z</begin><end>2020-03-21T07:42:04Z</end></TimeSpan><styleUrl>#point</styleUrl><Point><altitudeMode>clampToGround</altitudeMode><coordinates>19.189031990244985,-33.720443984493613,353.89999999999998</coordinates></Point></Placemark><Placemark><TimeSpan><begin>2020-03-21T07:42:04Z</begin><end>2020-03-21T07:42:09Z</end></TimeSpan><styleUrl>#point</styleUrl><Point><altitudeMode>clampToGround</altitudeMode><coordinates>19.190533021464944,-33.719979962334037,354.38</coordinates></Point></Placemark><Placemark><TimeSpan><begin>2020-03-21T07:42:09Z</begin><end>2020-03-21T07:42:13Z</end></TimeSpan><styleUrl>#point</styleUrl><Point><altitudeMode>clampToGround</altitudeMode><coordinates>19.191547986119986,-33.719266997650266,351.98000000000002</coordinates></Point></Placemark><Placemark><TimeSpan><begin>2020-03-21T07:42:13Z</begin><end>2020-03-21T07:42:14Z</end></TimeSpan><styleUrl>#point</styleUrl><Point><altitudeMode>clampToGround</altitudeMode><coordinates>19.191754013299942,-33.719044039025903,351.01999999999998</coordinates></Point></Placemark><Placemark><TimeSpan><begin>2020-03-21T07:42:14Z</begin><end>2020-03-21T07:42:15Z</end></TimeSpan><styleUrl>#point</styleUrl><Point><altitudeMode>clampToGround</altitudeMode><coordinates>19.191935984417796,-33.71880398131907,350.54000000000002</coordinates></Point></Placemark><Placemark><TimeSpan><begin>2020-03-21T07:42:15Z</begin><end>2020-03-21T07:42:16Z</end></TimeSpan><styleUrl>#point</styleUrl><Point><altitudeMode>clampToGround</altitudeMode><coordinates>19.192103035748005,-33.718557972460985,350.06</coordinates></Point></Placemark><Placemark><TimeSpan><begin>2020-03-21T07:42:16Z</begin><end>2020-03-21T07:42:17Z</end></TimeSpan><styleUrl>#point</styleUrl><Point><altitudeMode>clampToGround</altitudeMode><coordinates>19.192248964682221,-33.718302994966507,349.57999999999998</coordinates></Point></Placemark><Placemark><TimeSpan><begin>2020-03-21T07:42:17Z</begin><end>2020-03-21T07:42:18Z</end></TimeSpan><styleUrl>#point</styleUrl><Point><altitudeMode>clampToGround</altitudeMode><coordinates>19.192381985485554,-33.718047011643648,349.10000000000002</coordinates></Point></Placemark><Placemark><TimeSpan><begin>2020-03-21T07:42:18Z</begin><end>2020-03-21T07:42:27Z</end></TimeSpan><styleUrl>#point</styleUrl><Point><altitudeMode>clampToGround</altitudeMode><coordinates>19.193509016185999,-33.715810971334577,349.57999999999998</coordinates></Point></Placemark><Placemark><TimeSpan><begin>2020-03-21T07:42:27Z</begin><end>2020-03-21T07:42:33Z</end></TimeSpan><styleUrl>#point</styleUrl><Point><altitudeMode>clampToGround</altitudeMode><coordinates>19.194809971377254,-33.714640019461513,351.5</coordinates></Point></Placemark><Placemark><TimeSpan><begin>2020-03-21T07:42:33Z</begin><end>2020-03-21T07:42:42Z</end></TimeSpan><styleUrl>#point</styleUrl><Point><altitudeMode>clampToGround</altitudeMode><coordinates>19.197155982255936,-33.713279971852899,352.94</coordinates></Point></Placemark><Placemark><TimeSpan><begin>2020-03-21T07:42:42Z</begin><end>2020-03-21T07:42:45Z</end></TimeSpan><styleUrl>#point</styleUrl><Point><altitudeMode>clampToGround</altitudeMode><coordinates>19.197785966098309,-33.71267999522388,353.42000000000002</coordinates></Point></Placemark><Placemark><TimeSpan><begin>2020-03-21T07:42:45Z</begin><end>2020-03-21T07:42:46Z</end></TimeSpan><styleUrl>#point</styleUrl><Point><altitudeMode>clampToGround</altitudeMode><coordinates>19.197961986064911,-33.712449995800853,353.89999999999998</coordinates></Point></Placemark><Placemark><TimeSpan><begin>2020-03-21T07:42:46Z</begin><end>2020-03-21T07:42:47Z</end></TimeSpan><styleUrl>#point</styleUrl><Point><altitudeMode>clampToGround</altitudeMode><coordinates>19.198121996596456,-33.712209016084671,354.86000000000001</coordinates></Point></Placemark><Placemark><TimeSpan><begin>2020-03-21T07:42:47Z</begin><end>2020-03-21T07:42:59Z</end></TimeSpan><styleUrl>#point</styleUrl><Point><altitudeMode>clampToGround</altitudeMode><coordinates>19.199832994490862,-33.709287000820041,358.70999999999998</coordinates></Point></Placemark><Placemark><TimeSpan><begin>2020-03-21T07:42:59Z</begin><end>2020-03-21T07:43:15Z</end></TimeSpan><styleUrl>#point</styleUrl><Point><altitudeMode>clampToGround</altitudeMode><coordinates>19.202131982892752,-33.70524600148201,373.61000000000001</coordinates></Point></Placemark><Placemark><TimeSpan><begin>2020-03-21T07:43:15Z</begin><end>2020-03-21T07:43:28Z</end></TimeSpan><styleUrl>#point</styleUrl><Point><altitudeMode>clampToGround</altitudeMode><coordinates>19.204151015728712,-33.702002037316561,377.94</coordinates></Point></Placemark><Placemark><TimeSpan><begin>2020-03-21T07:43:28Z</begin><end>2020-03-21T07:43:37Z</end></TimeSpan><styleUrl>#point</styleUrl><Point><altitudeMode>clampToGround</altitudeMode><coordinates>19.206197960302234,-33.699964983388782,377.94</coordinates></Point></Placemark><Placemark><TimeSpan><begin>2020-03-21T07:43:37Z</begin><end>2020-03-21T07:43:42Z</end></TimeSpan><styleUrl>#point</styleUrl><Point><altitudeMode>clampToGround</altitudeMode><coordinates>19.207651969045401,-33.699255036190152,376.00999999999999</coordinates></Point></Placemark><Placemark><TimeSpan><begin>2020-03-21T07:43:42Z</begin><end>2020-03-21T07:43:46Z</end></TimeSpan><styleUrl>#point</styleUrl><Point><altitudeMode>clampToGround</altitudeMode><coordinates>19.208990978077054,-33.699032999575138,368.31999999999999</coordinates></Point></Placemark><Placemark><TimeSpan><begin>2020-03-21T07:43:46Z</begin><end>2020-03-21T07:43:47Z</end></TimeSpan><styleUrl>#point</styleUrl><Point><altitudeMode>clampToGround</altitudeMode><coordinates>19.20934896916151,-33.699051020666957,364.95999999999998</coordinates></Point></Placemark><Placemark><TimeSpan><begin>2020-03-21T07:43:47Z</begin><end>2020-03-21T07:43:48Z</end></TimeSpan><styleUrl>#point</styleUrl><Point><altitudeMode>clampToGround</altitudeMode><coordinates>19.209696985781193,-33.699069963768125,361.58999999999997</coordinates></Point></Placemark><Placemark><TimeSpan><begin>2020-03-21T07:43:48Z</begin><end>2020-03-21T07:43:57Z</end></TimeSpan><styleUrl>#point</styleUrl><Point><altitudeMode>clampToGround</altitudeMode><coordinates>19.212971040979028,-33.699443964287639,336.12</coordinates></Point></Placemark><Placemark><TimeSpan><begin>2020-03-21T07:43:57Z</begin><end>2020-03-21T07:44:03Z</end></TimeSpan><styleUrl>#point</styleUrl><Point><altitudeMode>clampToGround</altitudeMode><coordinates>19.215085040777922,-33.699198961257935,324.10000000000002</coordinates></Point></Placemark><Placemark><TimeSpan><begin>2020-03-21T07:44:03Z</begin><end>2020-03-21T07:44:10Z</end></TimeSpan><styleUrl>#point</styleUrl><Point><altitudeMode>clampToGround</altitudeMode><coordinates>19.217536998912692,-33.69907901622355,313.05000000000001</coordinates></Point></Placemark><Placemark><TimeSpan><begin>2020-03-21T07:44:10Z</begin><end>2020-03-21T07:44:17Z</end></TimeSpan><styleUrl>#point</styleUrl><Point><altitudeMode>clampToGround</altitudeMode><coordinates>19.219957021996379,-33.699549995362759,301.99000000000001</coordinates></Point></Placemark><Placemark><TimeSpan><begin>2020-03-21T07:44:17Z</begin><end>2020-03-21T07:44:28Z</end></TimeSpan><styleUrl>#point</styleUrl><Point><altitudeMode>clampToGround</altitudeMode><coordinates>19.22389199025929,-33.700484996661544,301.99000000000001</coordinates></Point></Placemark><Placemark><TimeSpan><begin>2020-03-21T07:44:28Z</begin><end>2020-03-21T07:44:41Z</end></TimeSpan><styleUrl>#point</styleUrl><Point><altitudeMode>clampToGround</altitudeMode><coordinates>19.228397011756897,-33.701720992103219,294.77999999999997</coordinates></Point></Placemark><Placemark><TimeSpan><begin>2020-03-21T07:44:41Z</begin><end>2020-03-21T07:44:52Z</end></TimeSpan><styleUrl>#point</styleUrl><Point><altitudeMode>clampToGround</altitudeMode><coordinates>19.232089994475245,-33.702636966481805,291.89999999999998</coordinates></Point></Placemark><Placemark><TimeSpan><begin>2020-03-21T07:44:52Z</begin><end>2020-03-21T07:45:08Z</end></TimeSpan><styleUrl>#point</styleUrl><Point><altitudeMode>clampToGround</altitudeMode><coordinates>19.23725500702858,-33.703789981082082,285.64999999999998</coordinates></Point></Placemark><Placemark><TimeSpan><begin>2020-03-21T07:45:08Z</begin><end>2020-03-21T07:45:17Z</end></TimeSpan><styleUrl>#point</styleUrl><Point><altitudeMode>clampToGround</altitudeMode><coordinates>19.240196971222758,-33.704081000760198,280.83999999999997</coordinates></Point></Placemark><Placemark><TimeSpan><begin>2020-03-21T07:45:17Z</begin><end>2020-03-21T07:45:31Z</end></TimeSpan><styleUrl>#point</styleUrl><Point><altitudeMode>clampToGround</altitudeMode><coordinates>19.244522368535399,-33.704356597736478,277</coordinates></Point></Placemark></Folder><Placemark><name>[177] Du Toits Kloof Pass (New)</name><Style><LineStyle><color>ffff4040</color><width>4</width></LineStyle></Style><MultiGeometry><LineString><coordinates>19.016207037493587,-33.741763019934297,178.46000000000001 19.018533015623689,-33.742270963266492,180.87 19.019371960312128,-33.742436002939939,181.83000000000001 19.019617969170213,-33.742470033466816,181.83000000000001 19.019644036889076,-33.74250004068017,182.31 19.019760964438319,-33.742531975731254,182.78999999999999 19.019773034378886,-33.742529964074492,182.31 19.019799018278718,-33.742538010701537,182.31 19.019859032705426,-33.742560977116227,182.31 19.020139994099736,-33.742595007643104,183.75 19.020507037639618,-33.742705984041095,185.19 19.021784020587802,-33.74310496263206,187.59 19.024219969287515,-33.743727989494801,195.77000000000001 19.026792040094733,-33.744148006662726,203.94 19.029322033748031,-33.744068965315819,216.43000000000001 19.032001979649067,-33.743576025590301,227.49000000000001 19.036733983084559,-33.742848979309201,247.19999999999999 19.040249017998576,-33.742786031216383,262.10000000000002 19.043578980490565,-33.743142010644078,276.51999999999998 19.046992007642984,-33.743641991168261,290.94 19.051585961133242,-33.744325032457709,311.60000000000002 19.056832026690245,-33.745135981589556,336.12 19.060572031885386,-33.745521968230605,353.89999999999998 19.061816995963454,-33.745344020426273,360.14999999999998 19.063803004100919,-33.744558971375227,371.69 19.065183000639081,-33.743494972586632,379.86000000000001 19.066058993339539,-33.742170967161655,392.36000000000001 19.067526999861002,-33.7394730001688,409.18000000000001 19.068931974470615,-33.73704400844872,416.87 19.070439962670207,-33.735357988625765,415.43000000000001 19.07203696668148,-33.734255013987422,414.94999999999999 19.114684006199241,-33.732894966378808,439.94 19.115061024203897,-33.732721041887999,447.63 19.116773027926683,-33.731476999819279,451.95999999999998 19.1181830316782,-33.729977980256081,452.44 19.120323015376925,-33.727788962423801,450.02999999999997 19.121935022994876,-33.727003997191787,447.14999999999998 19.124081963673234,-33.726618010550737,440.89999999999998 19.127270020544529,-33.726353980600834,442.33999999999997 19.132163040339947,-33.725905967876315,438.98000000000002 19.134484995156527,-33.726132027804852,430.81 19.137100987136364,-33.726736027747393,424.07999999999998 19.137494014576077,-33.726747008040547,423.12 19.137883018702269,-33.726724963635206,422.63999999999999 19.138260036706924,-33.726676013320684,422.16000000000003 19.138622973114252,-33.726598983630538,422.16000000000003 19.138970989733934,-33.726508039981127,422.16000000000003 19.141359999775887,-33.725797003135085,421.68000000000001 19.144617961719632,-33.724910030141473,426 19.147258009761572,-33.724565031006932,430.81 19.150001993402839,-33.724549021571875,426.95999999999998 19.153717020526528,-33.724507028236985,418.79000000000002 19.158183988183737,-33.724308041855693,422.63999999999999 19.161827014759183,-33.724115006625652,417.82999999999998 19.164284002035856,-33.724562013521791,408.22000000000003 19.167054975405335,-33.724988987669349,393.80000000000001 19.168707970529795,-33.724612975493073,388.50999999999999 19.171803994104266,-33.723687026649714,381.30000000000001 19.174219993874431,-33.723536990582943,375.52999999999997 19.178670030087233,-33.723561968654394,368.80000000000001 19.180479012429714,-33.72325100004673,368.31999999999999 19.181852973997593,-33.722479026764631,368.80000000000001 19.18347998522222,-33.72108100913465,364.48000000000002 19.184581032022834,-33.720534006133676,361.11000000000001 19.184887977316976,-33.72045898810029,360.14999999999998 19.185198023915291,-33.720400985330343,359.19 19.185507986694574,-33.720361003652215,358.23000000000002 19.185828007757664,-33.720344994217157,357.26999999999998 19.186137970536947,-33.720344994217157,356.79000000000002 19.186454974114895,-33.720368966460228,356.31 19.189031990244985,-33.720443984493613,353.89999999999998 19.190533021464944,-33.719979962334037,354.38 19.191547986119986,-33.719266997650266,351.98000000000002 19.191754013299942,-33.719044039025903,351.01999999999998 19.191935984417796,-33.71880398131907,350.54000000000002 19.192103035748005,-33.718557972460985,350.06 19.192248964682221,-33.718302994966507,349.57999999999998 19.192381985485554,-33.718047011643648,349.10000000000002 19.193509016185999,-33.715810971334577,349.57999999999998 19.194809971377254,-33.714640019461513,351.5 19.197155982255936,-33.713279971852899,352.94 19.197785966098309,-33.71267999522388,353.42000000000002 19.197961986064911,-33.712449995800853,353.89999999999998 19.198121996596456,-33.712209016084671,354.86000000000001 19.199832994490862,-33.709287000820041,358.70999999999998 19.202131982892752,-33.70524600148201,373.61000000000001 19.204151015728712,-33.702002037316561,377.94 19.206197960302234,-33.699964983388782,377.94 19.207651969045401,-33.699255036190152,376.00999999999999 19.208990978077054,-33.699032999575138,368.31999999999999 19.20934896916151,-33.699051020666957,364.95999999999998 19.209696985781193,-33.699069963768125,361.58999999999997 19.212971040979028,-33.699443964287639,336.12 19.215085040777922,-33.699198961257935,324.10000000000002 19.217536998912692,-33.69907901622355,313.05000000000001 19.219957021996379,-33.699549995362759,301.99000000000001 19.22389199025929,-33.700484996661544,301.99000000000001 19.228397011756897,-33.701720992103219,294.77999999999997 19.232089994475245,-33.702636966481805,291.89999999999998 19.23725500702858,-33.703789981082082,285.64999999999998 19.240196971222758,-33.704081000760198,280.83999999999997 19.244522368535399,-33.704356597736478,277 </coordinates></LineString></MultiGeometry></Placemark></Folder></Folder></Document></kml>