<?xml version="1.0" encoding="utf-8"?><kml xmlns="http://www.opengis.net/kml/2.2" xmlns:xsi="http://www.w3.org/2001/XMLSchema-instance" xmlns:kmlx="http://www.google.com/kml/ext/2.2" xmlns:atom="http://www.w3.org/2005/Atom" xmlns:gpxx="http://www.garmin.com/xmlschemas/GpxExtensions/v3"><Document><Style id="point"><IconStyle><scale>0.9</scale><Icon><href>http://maps.google.com/mapfiles/kml/shapes/placemark_circle.png</href></Icon></IconStyle></Style><Folder><name>Tracks</name><Folder><name>[268] Fort Klapperkop pass</name><Folder><name>Points</name><Style><ListStyle><listItemType>checkHideChildren</listItemType></ListStyle></Style><Placemark><TimeSpan><begin>2022-07-24T09:29:27Z</begin><end>2022-07-24T09:29:27Z</end></TimeSpan><Style><IconStyle><scale>0.9</scale><Icon><href>http://connect.garmin.com/image/main/icons/kml/grn-play.png</href></Icon></IconStyle></Style><Point><altitudeMode>clampToGround</altitudeMode><coordinates>28.210522988811135,-25.781514421105385,1533.4400000000001</coordinates></Point></Placemark><Placemark><TimeSpan><begin>2022-07-24T09:29:27Z</begin><end>2022-07-24T09:29:34Z</end></TimeSpan><styleUrl>#point</styleUrl><Point><altitudeMode>clampToGround</altitudeMode><coordinates>28.210540004074574,-25.781516768038273,1532.96</coordinates></Point></Placemark><Placemark><TimeSpan><begin>2022-07-24T09:29:34Z</begin><end>2022-07-24T09:29:35Z</end></TimeSpan><styleUrl>#point</styleUrl><Point><altitudeMode>clampToGround</altitudeMode><coordinates>28.210566490888596,-25.781516097486019,1532.96</coordinates></Point></Placemark><Placemark><TimeSpan><begin>2022-07-24T09:29:35Z</begin><end>2022-07-24T09:29:36Z</end></TimeSpan><styleUrl>#point</styleUrl><Point><altitudeMode>clampToGround</altitudeMode><coordinates>28.210590714588761,-25.781523892655969,1532.96</coordinates></Point></Placemark><Placemark><TimeSpan><begin>2022-07-24T09:29:36Z</begin><end>2022-07-24T09:29:44Z</end></TimeSpan><styleUrl>#point</styleUrl><Point><altitudeMode>clampToGround</altitudeMode><coordinates>28.211096646264195,-25.781689770519733,1530.5599999999999</coordinates></Point></Placemark><Placemark><TimeSpan><begin>2022-07-24T09:29:44Z</begin><end>2022-07-24T09:29:54Z</end></TimeSpan><styleUrl>#point</styleUrl><Point><altitudeMode>clampToGround</altitudeMode><coordinates>28.211940452456474,-25.78158650547266,1526.23</coordinates></Point></Placemark><Placemark><TimeSpan><begin>2022-07-24T09:29:54Z</begin><end>2022-07-24T09:29:56Z</end></TimeSpan><styleUrl>#point</styleUrl><Point><altitudeMode>clampToGround</altitudeMode><coordinates>28.212097864598036,-25.781496316194534,1525.27</coordinates></Point></Placemark><Placemark><TimeSpan><begin>2022-07-24T09:29:56Z</begin><end>2022-07-24T09:29:57Z</end></TimeSpan><styleUrl>#point</styleUrl><Point><altitudeMode>clampToGround</altitudeMode><coordinates>28.212164836004376,-25.781441498547792,1524.79</coordinates></Point></Placemark><Placemark><TimeSpan><begin>2022-07-24T09:29:57Z</begin><end>2022-07-24T09:29:58Z</end></TimeSpan><styleUrl>#point</styleUrl><Point><altitudeMode>clampToGround</altitudeMode><coordinates>28.212224179878831,-25.78137787990272,1524.3099999999999</coordinates></Point></Placemark><Placemark><TimeSpan><begin>2022-07-24T09:29:58Z</begin><end>2022-07-24T09:29:59Z</end></TimeSpan><styleUrl>#point</styleUrl><Point><altitudeMode>clampToGround</altitudeMode><coordinates>28.21227497421205,-25.781304622069001,1523.8299999999999</coordinates></Point></Placemark><Placemark><TimeSpan><begin>2022-07-24T09:29:59Z</begin><end>2022-07-24T09:30:00Z</end></TimeSpan><styleUrl>#point</styleUrl><Point><altitudeMode>clampToGround</altitudeMode><coordinates>28.212315542623401,-25.781222060322762,1523.3499999999999</coordinates></Point></Placemark><Placemark><TimeSpan><begin>2022-07-24T09:30:00Z</begin><end>2022-07-24T09:30:01Z</end></TimeSpan><styleUrl>#point</styleUrl><Point><altitudeMode>clampToGround</altitudeMode><coordinates>28.212341945618391,-25.781135391443968,1522.8699999999999</coordinates></Point></Placemark><Placemark><TimeSpan><begin>2022-07-24T09:30:01Z</begin><end>2022-07-24T09:30:02Z</end></TimeSpan><styleUrl>#point</styleUrl><Point><altitudeMode>clampToGround</altitudeMode><coordinates>28.212355691939592,-25.781046627089381,1522.3900000000001</coordinates></Point></Placemark><Placemark><TimeSpan><begin>2022-07-24T09:30:02Z</begin><end>2022-07-24T09:30:03Z</end></TimeSpan><styleUrl>#point</styleUrl><Point><altitudeMode>clampToGround</altitudeMode><coordinates>28.212359547615051,-25.780958533287048,1521.4200000000001</coordinates></Point></Placemark><Placemark><TimeSpan><begin>2022-07-24T09:30:03Z</begin><end>2022-07-24T09:30:04Z</end></TimeSpan><styleUrl>#point</styleUrl><Point><altitudeMode>clampToGround</altitudeMode><coordinates>28.212352087721229,-25.780872954055667,1520.9400000000001</coordinates></Point></Placemark><Placemark><TimeSpan><begin>2022-07-24T09:30:04Z</begin><end>2022-07-24T09:30:05Z</end></TimeSpan><styleUrl>#point</styleUrl><Point><altitudeMode>clampToGround</altitudeMode><coordinates>28.212335826829076,-25.780790811404586,1520.46</coordinates></Point></Placemark><Placemark><TimeSpan><begin>2022-07-24T09:30:05Z</begin><end>2022-07-24T09:30:06Z</end></TimeSpan><styleUrl>#point</styleUrl><Point><altitudeMode>clampToGround</altitudeMode><coordinates>28.212315374985337,-25.780711518600583,1519.5</coordinates></Point></Placemark><Placemark><TimeSpan><begin>2022-07-24T09:30:06Z</begin><end>2022-07-24T09:30:16Z</end></TimeSpan><styleUrl>#point</styleUrl><Point><altitudeMode>clampToGround</altitudeMode><coordinates>28.212178247049451,-25.780161498114467,1515.6600000000001</coordinates></Point></Placemark><Placemark><TimeSpan><begin>2022-07-24T09:30:16Z</begin><end>2022-07-24T09:30:28Z</end></TimeSpan><styleUrl>#point</styleUrl><Point><altitudeMode>clampToGround</altitudeMode><coordinates>28.212023014202714,-25.77955037355423,1512.29</coordinates></Point></Placemark><Placemark><TimeSpan><begin>2022-07-24T09:30:28Z</begin><end>2022-07-24T09:30:41Z</end></TimeSpan><styleUrl>#point</styleUrl><Point><altitudeMode>clampToGround</altitudeMode><coordinates>28.211494870483875,-25.778740094974637,1507.97</coordinates></Point></Placemark><Placemark><TimeSpan><begin>2022-07-24T09:30:41Z</begin><end>2022-07-24T09:30:48Z</end></TimeSpan><styleUrl>#point</styleUrl><Point><altitudeMode>clampToGround</altitudeMode><coordinates>28.210769584402442,-25.777989998459816,1504.1199999999999</coordinates></Point></Placemark><Placemark><TimeSpan><begin>2022-07-24T09:30:48Z</begin><end>2022-07-24T09:31:00Z</end></TimeSpan><styleUrl>#point</styleUrl><Point><altitudeMode>clampToGround</altitudeMode><coordinates>28.209611959755421,-25.776794906705618,1495.95</coordinates></Point></Placemark><Placemark><TimeSpan><begin>2022-07-24T09:31:00Z</begin><end>2022-07-24T09:31:12Z</end></TimeSpan><styleUrl>#point</styleUrl><Point><altitudeMode>clampToGround</altitudeMode><coordinates>28.208598839119077,-25.775887398049235,1489.22</coordinates></Point></Placemark><Placemark><TimeSpan><begin>2022-07-24T09:31:12Z</begin><end>2022-07-24T09:31:13Z</end></TimeSpan><styleUrl>#point</styleUrl><Point><altitudeMode>clampToGround</altitudeMode><coordinates>28.208519211038947,-25.775833586230874,1489.22</coordinates></Point></Placemark><Placemark><TimeSpan><begin>2022-07-24T09:31:13Z</begin><end>2022-07-24T09:31:14Z</end></TimeSpan><styleUrl>#point</styleUrl><Point><altitudeMode>clampToGround</altitudeMode><coordinates>28.208427177742124,-25.775782708078623,1488.74</coordinates></Point></Placemark><Placemark><TimeSpan><begin>2022-07-24T09:31:14Z</begin><end>2022-07-24T09:31:15Z</end></TimeSpan><styleUrl>#point</styleUrl><Point><altitudeMode>clampToGround</altitudeMode><coordinates>28.20832684636116,-25.775738786906004,1488.26</coordinates></Point></Placemark><Placemark><TimeSpan><begin>2022-07-24T09:31:15Z</begin><end>2022-07-24T09:31:16Z</end></TimeSpan><styleUrl>#point</styleUrl><Point><altitudeMode>clampToGround</altitudeMode><coordinates>28.208228442817926,-25.775706181302667,1487.78</coordinates></Point></Placemark><Placemark><TimeSpan><begin>2022-07-24T09:31:16Z</begin><end>2022-07-24T09:31:17Z</end></TimeSpan><styleUrl>#point</styleUrl><Point><altitudeMode>clampToGround</altitudeMode><coordinates>28.208123417571187,-25.775679191574454,1487.3</coordinates></Point></Placemark><Placemark><TimeSpan><begin>2022-07-24T09:31:17Z</begin><end>2022-07-24T09:31:18Z</end></TimeSpan><styleUrl>#point</styleUrl><Point><altitudeMode>clampToGround</altitudeMode><coordinates>28.208016213029623,-25.775655722245574,1487.3</coordinates></Point></Placemark><Placemark><TimeSpan><begin>2022-07-24T09:31:18Z</begin><end>2022-07-24T09:31:25Z</end></TimeSpan><styleUrl>#point</styleUrl><Point><altitudeMode>clampToGround</altitudeMode><coordinates>28.207250023260713,-25.775523204356432,1484.4100000000001</coordinates></Point></Placemark><Placemark><TimeSpan><begin>2022-07-24T09:31:25Z</begin><end>2022-07-24T09:31:26Z</end></TimeSpan><styleUrl>#point</styleUrl><Point><altitudeMode>clampToGround</altitudeMode><coordinates>28.207145584747195,-25.775524629279971,1483.9300000000001</coordinates></Point></Placemark><Placemark><TimeSpan><begin>2022-07-24T09:31:26Z</begin><end>2022-07-24T09:31:27Z</end></TimeSpan><styleUrl>#point</styleUrl><Point><altitudeMode>clampToGround</altitudeMode><coordinates>28.207049947232008,-25.775535022839904,1483.45</coordinates></Point></Placemark><Placemark><TimeSpan><begin>2022-07-24T09:31:27Z</begin><end>2022-07-24T09:31:28Z</end></TimeSpan><styleUrl>#point</styleUrl><Point><altitudeMode>clampToGround</altitudeMode><coordinates>28.206953471526504,-25.775553798303008,1482.97</coordinates></Point></Placemark><Placemark><TimeSpan><begin>2022-07-24T09:31:28Z</begin><end>2022-07-24T09:31:29Z</end></TimeSpan><styleUrl>#point</styleUrl><Point><altitudeMode>clampToGround</altitudeMode><coordinates>28.206857331097126,-25.775582632049918,1482.49</coordinates></Point></Placemark><Placemark><TimeSpan><begin>2022-07-24T09:31:29Z</begin><end>2022-07-24T09:31:30Z</end></TimeSpan><styleUrl>#point</styleUrl><Point><altitudeMode>clampToGround</altitudeMode><coordinates>28.206764040514827,-25.77562035061419,1482.01</coordinates></Point></Placemark><Placemark><TimeSpan><begin>2022-07-24T09:31:30Z</begin><end>2022-07-24T09:31:31Z</end></TimeSpan><styleUrl>#point</styleUrl><Point><altitudeMode>clampToGround</altitudeMode><coordinates>28.206669744104147,-25.775668881833553,1481.53</coordinates></Point></Placemark><Placemark><TimeSpan><begin>2022-07-24T09:31:31Z</begin><end>2022-07-24T09:31:32Z</end></TimeSpan><styleUrl>#point</styleUrl><Point><altitudeMode>clampToGround</altitudeMode><coordinates>28.206589696928859,-25.775720179080963,1481.05</coordinates></Point></Placemark><Placemark><TimeSpan><begin>2022-07-24T09:31:32Z</begin><end>2022-07-24T09:31:33Z</end></TimeSpan><styleUrl>#point</styleUrl><Point><altitudeMode>clampToGround</altitudeMode><coordinates>28.206508811563253,-25.775784803554416,1480.5699999999999</coordinates></Point></Placemark><Placemark><TimeSpan><begin>2022-07-24T09:31:33Z</begin><end>2022-07-24T09:31:34Z</end></TimeSpan><styleUrl>#point</styleUrl><Point><altitudeMode>clampToGround</altitudeMode><coordinates>28.206434212625027,-25.775857642292976,1480.5699999999999</coordinates></Point></Placemark><Placemark><TimeSpan><begin>2022-07-24T09:31:34Z</begin><end>2022-07-24T09:31:35Z</end></TimeSpan><styleUrl>#point</styleUrl><Point><altitudeMode>clampToGround</altitudeMode><coordinates>28.206365816295147,-25.775937270373106,1480.0899999999999</coordinates></Point></Placemark><Placemark><TimeSpan><begin>2022-07-24T09:31:35Z</begin><end>2022-07-24T09:31:36Z</end></TimeSpan><styleUrl>#point</styleUrl><Point><altitudeMode>clampToGround</altitudeMode><coordinates>28.206302197650075,-25.776024023070931,1479.6099999999999</coordinates></Point></Placemark><Placemark><TimeSpan><begin>2022-07-24T09:31:36Z</begin><end>2022-07-24T09:31:37Z</end></TimeSpan><styleUrl>#point</styleUrl><Point><altitudeMode>clampToGround</altitudeMode><coordinates>28.206247380003333,-25.776115888729692,1479.1300000000001</coordinates></Point></Placemark><Placemark><TimeSpan><begin>2022-07-24T09:31:37Z</begin><end>2022-07-24T09:31:38Z</end></TimeSpan><styleUrl>#point</styleUrl><Point><altitudeMode>clampToGround</altitudeMode><coordinates>28.20619834586978,-25.776214627549052,1479.1300000000001</coordinates></Point></Placemark><Placemark><TimeSpan><begin>2022-07-24T09:31:38Z</begin><end>2022-07-24T09:31:39Z</end></TimeSpan><styleUrl>#point</styleUrl><Point><altitudeMode>clampToGround</altitudeMode><coordinates>28.206153083592653,-25.776318395510316,1478.6500000000001</coordinates></Point></Placemark><Placemark><TimeSpan><begin>2022-07-24T09:31:39Z</begin><end>2022-07-24T09:31:47Z</end></TimeSpan><styleUrl>#point</styleUrl><Point><altitudeMode>clampToGround</altitudeMode><coordinates>28.206006987020373,-25.777252307161689,1474.8</coordinates></Point></Placemark><Placemark><TimeSpan><begin>2022-07-24T09:31:47Z</begin><end>2022-07-24T09:31:55Z</end></TimeSpan><styleUrl>#point</styleUrl><Point><altitudeMode>clampToGround</altitudeMode><coordinates>28.206331031396985,-25.778177082538605,1469.99</coordinates></Point></Placemark><Placemark><TimeSpan><begin>2022-07-24T09:31:55Z</begin><end>2022-07-24T09:31:58Z</end></TimeSpan><styleUrl>#point</styleUrl><Point><altitudeMode>clampToGround</altitudeMode><coordinates>28.206435972824693,-25.778497355058789,1468.0699999999999</coordinates></Point></Placemark><Placemark><TimeSpan><begin>2022-07-24T09:31:58Z</begin><end>2022-07-24T09:31:59Z</end></TimeSpan><styleUrl>#point</styleUrl><Point><altitudeMode>clampToGround</altitudeMode><coordinates>28.206449132412672,-25.778609504923224,1467.5899999999999</coordinates></Point></Placemark><Placemark><TimeSpan><begin>2022-07-24T09:31:59Z</begin><end>2022-07-24T09:32:00Z</end></TimeSpan><styleUrl>#point</styleUrl><Point><altitudeMode>clampToGround</altitudeMode><coordinates>28.206452820450068,-25.77872458845377,1467.1099999999999</coordinates></Point></Placemark><Placemark><TimeSpan><begin>2022-07-24T09:32:00Z</begin><end>2022-07-24T09:32:09Z</end></TimeSpan><styleUrl>#point</styleUrl><Point><altitudeMode>clampToGround</altitudeMode><coordinates>28.206575782969594,-25.779873160645366,1462.3</coordinates></Point></Placemark><Placemark><TimeSpan><begin>2022-07-24T09:32:09Z</begin><end>2022-07-24T09:32:12Z</end></TimeSpan><styleUrl>#point</styleUrl><Point><altitudeMode>clampToGround</altitudeMode><coordinates>28.20662984624505,-25.78023886308074,1460.3800000000001</coordinates></Point></Placemark><Placemark><TimeSpan><begin>2022-07-24T09:32:12Z</begin><end>2022-07-24T09:32:13Z</end></TimeSpan><styleUrl>#point</styleUrl><Point><altitudeMode>clampToGround</altitudeMode><coordinates>28.206625152379274,-25.780351432040334,1459.9000000000001</coordinates></Point></Placemark><Placemark><TimeSpan><begin>2022-07-24T09:32:13Z</begin><end>2022-07-24T09:32:14Z</end></TimeSpan><styleUrl>#point</styleUrl><Point><altitudeMode>clampToGround</altitudeMode><coordinates>28.206604029983282,-25.780462576076388,1459.4200000000001</coordinates></Point></Placemark><Placemark><TimeSpan><begin>2022-07-24T09:32:14Z</begin><end>2022-07-24T09:32:15Z</end></TimeSpan><styleUrl>#point</styleUrl><Point><altitudeMode>clampToGround</altitudeMode><coordinates>28.20656924508512,-25.780569864436984,1458.9400000000001</coordinates></Point></Placemark><Placemark><TimeSpan><begin>2022-07-24T09:32:15Z</begin><end>2022-07-24T09:32:16Z</end></TimeSpan><styleUrl>#point</styleUrl><Point><altitudeMode>clampToGround</altitudeMode><coordinates>28.206522054970264,-25.780673129484057,1458.46</coordinates></Point></Placemark><Placemark><TimeSpan><begin>2022-07-24T09:32:16Z</begin><end>2022-07-24T09:32:17Z</end></TimeSpan><styleUrl>#point</styleUrl><Point><altitudeMode>clampToGround</altitudeMode><coordinates>28.206463800743222,-25.780772119760513,1457.98</coordinates></Point></Placemark><Placemark><TimeSpan><begin>2022-07-24T09:32:17Z</begin><end>2022-07-24T09:32:18Z</end></TimeSpan><styleUrl>#point</styleUrl><Point><altitudeMode>clampToGround</altitudeMode><coordinates>28.20639674551785,-25.780866835266352,1457.5</coordinates></Point></Placemark><Placemark><TimeSpan><begin>2022-07-24T09:32:18Z</begin><end>2022-07-24T09:32:19Z</end></TimeSpan><styleUrl>#point</styleUrl><Point><altitudeMode>clampToGround</altitudeMode><coordinates>28.20632298476994,-25.780961215496063,1457.02</coordinates></Point></Placemark><Placemark><TimeSpan><begin>2022-07-24T09:32:19Z</begin><end>2022-07-24T09:32:28Z</end></TimeSpan><styleUrl>#point</styleUrl><Point><altitudeMode>clampToGround</altitudeMode><coordinates>28.205863405019045,-25.781877608969808,1452.6900000000001</coordinates></Point></Placemark><Placemark><TimeSpan><begin>2022-07-24T09:32:28Z</begin><end>2022-07-24T09:32:38Z</end></TimeSpan><styleUrl>#point</styleUrl><Point><altitudeMode>clampToGround</altitudeMode><coordinates>28.205461576581001,-25.782700879499316,1447.4000000000001</coordinates></Point></Placemark><Placemark><TimeSpan><begin>2022-07-24T09:32:38Z</begin><end>2022-07-24T09:32:50Z</end></TimeSpan><styleUrl>#point</styleUrl><Point><altitudeMode>clampToGround</altitudeMode><coordinates>28.205090928822756,-25.783176468685269,1443.0799999999999</coordinates></Point></Placemark><Placemark><TimeSpan><begin>2022-07-24T09:32:50Z</begin><end>2022-07-24T09:32:51Z</end></TimeSpan><styleUrl>#point</styleUrl><Point><altitudeMode>clampToGround</altitudeMode><coordinates>28.205079361796379,-25.783187616616488,1442.5999999999999</coordinates></Point></Placemark><Placemark><TimeSpan><begin>2022-07-24T09:32:51Z</begin><end>2022-07-24T09:32:52Z</end></TimeSpan><styleUrl>#point</styleUrl><Point><altitudeMode>clampToGround</altitudeMode><coordinates>28.205066286027431,-25.783189041540027,1442.5999999999999</coordinates></Point></Placemark><Placemark><TimeSpan><begin>2022-07-24T09:32:52Z</begin><end>2022-07-24T09:33:01Z</end></TimeSpan><styleUrl>#point</styleUrl><Point><altitudeMode>clampToGround</altitudeMode><coordinates>28.205058490857482,-25.783150736242533,1442.1099999999999</coordinates></Point></Placemark><Placemark><TimeSpan><begin>2022-07-24T09:33:01Z</begin><end>2022-07-24T09:33:20Z</end></TimeSpan><styleUrl>#point</styleUrl><Point><altitudeMode>clampToGround</altitudeMode><coordinates>28.205057820305228,-25.783142270520329,1440.6700000000001</coordinates></Point></Placemark><Placemark><TimeSpan><begin>2022-07-24T09:33:20Z</begin><end>2022-07-24T09:33:42Z</end></TimeSpan><styleUrl>#point</styleUrl><Point><altitudeMode>clampToGround</altitudeMode><coordinates>28.20506427437067,-25.78314964659512,1441.1500000000001</coordinates></Point></Placemark><Placemark><TimeSpan><begin>2022-07-24T09:33:42Z</begin><end>2022-07-24T09:34:02Z</end></TimeSpan><styleUrl>#point</styleUrl><Point><altitudeMode>clampToGround</altitudeMode><coordinates>28.20506083779037,-25.783154759556055,1444.04</coordinates></Point></Placemark><Placemark><TimeSpan><begin>2022-07-24T09:34:02Z</begin><end>2022-07-24T09:34:35Z</end></TimeSpan><styleUrl>#point</styleUrl><Point><altitudeMode>clampToGround</altitudeMode><coordinates>28.205063603818417,-25.783157693222165,1444.04</coordinates></Point></Placemark><Placemark><TimeSpan><begin>2022-07-24T09:34:35Z</begin><end>2022-07-24T09:35:05Z</end></TimeSpan><styleUrl>#point</styleUrl><Point><altitudeMode>clampToGround</altitudeMode><coordinates>28.205034686252475,-25.783216618001461,1443.5599999999999</coordinates></Point></Placemark><Placemark><TimeSpan><begin>2022-07-24T09:35:05Z</begin><end>2022-07-24T09:35:33Z</end></TimeSpan><styleUrl>#point</styleUrl><Point><altitudeMode>clampToGround</altitudeMode><coordinates>28.205030160024762,-25.783209577202797,1445.48</coordinates></Point></Placemark><Placemark><TimeSpan><begin>2022-07-24T09:35:33Z</begin><end>2022-07-24T09:35:35Z</end></TimeSpan><styleUrl>#point</styleUrl><Point><altitudeMode>clampToGround</altitudeMode><coordinates>28.205061508342624,-25.783180240541697,1445.48</coordinates></Point></Placemark><Placemark><TimeSpan><begin>2022-07-24T09:35:35Z</begin><end>2022-07-24T09:35:43Z</end></TimeSpan><styleUrl>#point</styleUrl><Point><altitudeMode>clampToGround</altitudeMode><coordinates>28.205404579639435,-25.782759804278612,1447.8800000000001</coordinates></Point></Placemark><Placemark><TimeSpan><begin>2022-07-24T09:35:43Z</begin><end>2022-07-24T09:35:54Z</end></TimeSpan><styleUrl>#point</styleUrl><Point><altitudeMode>clampToGround</altitudeMode><coordinates>28.205839935690165,-25.781902251765132,1452.6900000000001</coordinates></Point></Placemark><Placemark><TimeSpan><begin>2022-07-24T09:35:54Z</begin><end>2022-07-24T09:36:07Z</end></TimeSpan><styleUrl>#point</styleUrl><Point><altitudeMode>clampToGround</altitudeMode><coordinates>28.206403534859419,-25.780814699828625,1458.9400000000001</coordinates></Point></Placemark><Placemark><TimeSpan><begin>2022-07-24T09:36:07Z</begin><end>2022-07-24T09:36:10Z</end></TimeSpan><styleUrl>#point</styleUrl><Point><altitudeMode>clampToGround</altitudeMode><coordinates>28.2065374776721,-25.78057061880827,1459.9000000000001</coordinates></Point></Placemark><Placemark><TimeSpan><begin>2022-07-24T09:36:10Z</begin><end>2022-07-24T09:36:11Z</end></TimeSpan><styleUrl>#point</styleUrl><Point><altitudeMode>clampToGround</altitudeMode><coordinates>28.20656530559063,-25.780484704300761,1460.3800000000001</coordinates></Point></Placemark><Placemark><TimeSpan><begin>2022-07-24T09:36:11Z</begin><end>2022-07-24T09:36:12Z</end></TimeSpan><styleUrl>#point</styleUrl><Point><altitudeMode>clampToGround</altitudeMode><coordinates>28.206584751605988,-25.780397783964872,1460.8599999999999</coordinates></Point></Placemark><Placemark><TimeSpan><begin>2022-07-24T09:36:12Z</begin><end>2022-07-24T09:36:16Z</end></TimeSpan><styleUrl>#point</styleUrl><Point><altitudeMode>clampToGround</altitudeMode><coordinates>28.206596570089459,-25.780054209753871,1462.3</coordinates></Point></Placemark><Placemark><TimeSpan><begin>2022-07-24T09:36:16Z</begin><end>2022-07-24T09:36:17Z</end></TimeSpan><styleUrl>#point</styleUrl><Point><altitudeMode>clampToGround</altitudeMode><coordinates>28.20658097974956,-25.77997206710279,1462.78</coordinates></Point></Placemark><Placemark><TimeSpan><begin>2022-07-24T09:36:17Z</begin><end>2022-07-24T09:36:31Z</end></TimeSpan><styleUrl>#point</styleUrl><Point><altitudeMode>clampToGround</altitudeMode><coordinates>28.206427926197648,-25.778705812990665,1467.5899999999999</coordinates></Point></Placemark><Placemark><TimeSpan><begin>2022-07-24T09:36:31Z</begin><end>2022-07-24T09:36:35Z</end></TimeSpan><styleUrl>#point</styleUrl><Point><altitudeMode>clampToGround</altitudeMode><coordinates>28.206363301724195,-25.778315467759967,1468.55</coordinates></Point></Placemark><Placemark><TimeSpan><begin>2022-07-24T09:36:35Z</begin><end>2022-07-24T09:36:36Z</end></TimeSpan><styleUrl>#point</styleUrl><Point><altitudeMode>clampToGround</altitudeMode><coordinates>28.206326337531209,-25.77822083607316,1469.03</coordinates></Point></Placemark><Placemark><TimeSpan><begin>2022-07-24T09:36:36Z</begin><end>2022-07-24T09:36:48Z</end></TimeSpan><styleUrl>#point</styleUrl><Point><altitudeMode>clampToGround</altitudeMode><coordinates>28.205982847139239,-25.777116855606437,1474.3199999999999</coordinates></Point></Placemark><Placemark><TimeSpan><begin>2022-07-24T09:36:48Z</begin><end>2022-07-24T09:36:58Z</end></TimeSpan><styleUrl>#point</styleUrl><Point><altitudeMode>clampToGround</altitudeMode><coordinates>28.206198681145906,-25.776178333908319,1477.6800000000001</coordinates></Point></Placemark><Placemark><TimeSpan><begin>2022-07-24T09:36:58Z</begin><end>2022-07-24T09:37:04Z</end></TimeSpan><styleUrl>#point</styleUrl><Point><altitudeMode>clampToGround</altitudeMode><coordinates>28.206571927294135,-25.775715820491314,1480.0899999999999</coordinates></Point></Placemark><Placemark><TimeSpan><begin>2022-07-24T09:37:04Z</begin><end>2022-07-24T09:37:05Z</end></TimeSpan><styleUrl>#point</styleUrl><Point><altitudeMode>clampToGround</altitudeMode><coordinates>28.20665281265974,-25.775661924853921,1480.5699999999999</coordinates></Point></Placemark><Placemark><TimeSpan><begin>2022-07-24T09:37:05Z</begin><end>2022-07-24T09:37:06Z</end></TimeSpan><styleUrl>#point</styleUrl><Point><altitudeMode>clampToGround</altitudeMode><coordinates>28.206740403547883,-25.775616494938731,1480.5699999999999</coordinates></Point></Placemark><Placemark><TimeSpan><begin>2022-07-24T09:37:06Z</begin><end>2022-07-24T09:37:07Z</end></TimeSpan><styleUrl>#point</styleUrl><Point><altitudeMode>clampToGround</altitudeMode><coordinates>28.206833945587277,-25.77557978220284,1481.05</coordinates></Point></Placemark><Placemark><TimeSpan><begin>2022-07-24T09:37:07Z</begin><end>2022-07-24T09:37:08Z</end></TimeSpan><styleUrl>#point</styleUrl><Point><altitudeMode>clampToGround</altitudeMode><coordinates>28.206934696063399,-25.775548852980137,1481.05</coordinates></Point></Placemark><Placemark><TimeSpan><begin>2022-07-24T09:37:08Z</begin><end>2022-07-24T09:37:09Z</end></TimeSpan><styleUrl>#point</styleUrl><Point><altitudeMode>clampToGround</altitudeMode><coordinates>28.207035111263394,-25.775526892393827,1481.53</coordinates></Point></Placemark><Placemark><TimeSpan><begin>2022-07-24T09:37:09Z</begin><end>2022-07-24T09:37:10Z</end></TimeSpan><styleUrl>#point</styleUrl><Point><altitudeMode>clampToGround</altitudeMode><coordinates>28.207139382138848,-25.775514990091324,1482.01</coordinates></Point></Placemark><Placemark><TimeSpan><begin>2022-07-24T09:37:10Z</begin><end>2022-07-24T09:37:11Z</end></TimeSpan><styleUrl>#point</styleUrl><Point><altitudeMode>clampToGround</altitudeMode><coordinates>28.207252202555537,-25.775512643158436,1482.01</coordinates></Point></Placemark><Placemark><TimeSpan><begin>2022-07-24T09:37:11Z</begin><end>2022-07-24T09:37:12Z</end></TimeSpan><styleUrl>#point</styleUrl><Point><altitudeMode>clampToGround</altitudeMode><coordinates>28.207359490916133,-25.775523958727717,1482.49</coordinates></Point></Placemark><Placemark><TimeSpan><begin>2022-07-24T09:37:12Z</begin><end>2022-07-24T09:37:13Z</end></TimeSpan><styleUrl>#point</styleUrl><Point><altitudeMode>clampToGround</altitudeMode><coordinates>28.207466444000602,-25.775544913485646,1482.97</coordinates></Point></Placemark><Placemark><TimeSpan><begin>2022-07-24T09:37:13Z</begin><end>2022-07-24T09:37:14Z</end></TimeSpan><styleUrl>#point</styleUrl><Point><altitudeMode>clampToGround</altitudeMode><coordinates>28.207575911656022,-25.775568298995495,1482.97</coordinates></Point></Placemark><Placemark><TimeSpan><begin>2022-07-24T09:37:14Z</begin><end>2022-07-24T09:37:21Z</end></TimeSpan><styleUrl>#point</styleUrl><Point><altitudeMode>clampToGround</altitudeMode><coordinates>28.20837814360857,-25.775754796341062,1486.3399999999999</coordinates></Point></Placemark><Placemark><TimeSpan><begin>2022-07-24T09:37:21Z</begin><end>2022-07-24T09:37:22Z</end></TimeSpan><styleUrl>#point</styleUrl><Point><altitudeMode>clampToGround</altitudeMode><coordinates>28.208482582122087,-25.775805842131376,1486.8199999999999</coordinates></Point></Placemark><Placemark><TimeSpan><begin>2022-07-24T09:37:22Z</begin><end>2022-07-24T09:37:23Z</end></TimeSpan><styleUrl>#point</styleUrl><Point><altitudeMode>clampToGround</altitudeMode><coordinates>28.208579728379846,-25.775866275653243,1487.3</coordinates></Point></Placemark><Placemark><TimeSpan><begin>2022-07-24T09:37:23Z</begin><end>2022-07-24T09:37:24Z</end></TimeSpan><styleUrl>#point</styleUrl><Point><altitudeMode>clampToGround</altitudeMode><coordinates>28.208674862980843,-25.775937857106328,1487.78</coordinates></Point></Placemark><Placemark><TimeSpan><begin>2022-07-24T09:37:24Z</begin><end>2022-07-24T09:37:25Z</end></TimeSpan><styleUrl>#point</styleUrl><Point><altitudeMode>clampToGround</altitudeMode><coordinates>28.208758933469653,-25.776009103283286,1488.26</coordinates></Point></Placemark><Placemark><TimeSpan><begin>2022-07-24T09:37:25Z</begin><end>2022-07-24T09:37:40Z</end></TimeSpan><styleUrl>#point</styleUrl><Point><altitudeMode>clampToGround</altitudeMode><coordinates>28.209868697449565,-25.777027755975723,1494.99</coordinates></Point></Placemark><Placemark><TimeSpan><begin>2022-07-24T09:37:40Z</begin><end>2022-07-24T09:37:59Z</end></TimeSpan><styleUrl>#point</styleUrl><Point><altitudeMode>clampToGround</altitudeMode><coordinates>28.211353300139308,-25.778577066957951,1504.1199999999999</coordinates></Point></Placemark><Placemark><TimeSpan><begin>2022-07-24T09:37:59Z</begin><end>2022-07-24T09:38:11Z</end></TimeSpan><styleUrl>#point</styleUrl><Point><altitudeMode>clampToGround</altitudeMode><coordinates>28.212049249559641,-25.779578117653728,1510.3699999999999</coordinates></Point></Placemark><Placemark><TimeSpan><begin>2022-07-24T09:38:11Z</begin><end>2022-07-24T09:38:24Z</end></TimeSpan><styleUrl>#point</styleUrl><Point><altitudeMode>clampToGround</altitudeMode><coordinates>28.21237220428884,-25.780842108651996,1516.6199999999999</coordinates></Point></Placemark><Placemark><TimeSpan><begin>2022-07-24T09:38:24Z</begin><end>2022-07-24T09:38:25Z</end></TimeSpan><styleUrl>#point</styleUrl><Point><altitudeMode>clampToGround</altitudeMode><coordinates>28.212383100762963,-25.780940847471356,1517.0999999999999</coordinates></Point></Placemark><Placemark><TimeSpan><begin>2022-07-24T09:38:25Z</begin><end>2022-07-24T09:38:26Z</end></TimeSpan><styleUrl>#point</styleUrl><Point><altitudeMode>clampToGround</altitudeMode><coordinates>28.212379831820726,-25.781040843576193,1517.5799999999999</coordinates></Point></Placemark><Placemark><TimeSpan><begin>2022-07-24T09:38:26Z</begin><end>2022-07-24T09:38:27Z</end></TimeSpan><styleUrl>#point</styleUrl><Point><altitudeMode>clampToGround</altitudeMode><coordinates>28.212360218167305,-25.781139833852649,1518.0599999999999</coordinates></Point></Placemark><Placemark><TimeSpan><begin>2022-07-24T09:38:27Z</begin><end>2022-07-24T09:38:28Z</end></TimeSpan><styleUrl>#point</styleUrl><Point><altitudeMode>clampToGround</altitudeMode><coordinates>28.212328031659126,-25.781235722824931,1519.02</coordinates></Point></Placemark><Placemark><TimeSpan><begin>2022-07-24T09:38:28Z</begin><end>2022-07-24T09:38:29Z</end></TimeSpan><styleUrl>#point</styleUrl><Point><altitudeMode>clampToGround</altitudeMode><coordinates>28.212281009182334,-25.781327253207564,1519.5</coordinates></Point></Placemark><Placemark><TimeSpan><begin>2022-07-24T09:38:29Z</begin><end>2022-07-24T09:38:30Z</end></TimeSpan><styleUrl>#point</styleUrl><Point><altitudeMode>clampToGround</altitudeMode><coordinates>28.21221437305212,-25.781415095552802,1519.98</coordinates></Point></Placemark><Placemark><TimeSpan><begin>2022-07-24T09:38:30Z</begin><end>2022-07-24T09:38:31Z</end></TimeSpan><styleUrl>#point</styleUrl><Point><altitudeMode>clampToGround</altitudeMode><coordinates>28.212141953408718,-25.781482318416238,1520.46</coordinates></Point></Placemark><Placemark><TimeSpan><begin>2022-07-24T09:38:31Z</begin><end>2022-07-24T09:38:32Z</end></TimeSpan><styleUrl>#point</styleUrl><Point><altitudeMode>clampToGround</altitudeMode><coordinates>28.212054697796702,-25.781543338671327,1520.9400000000001</coordinates></Point></Placemark><Placemark><TimeSpan><begin>2022-07-24T09:38:32Z</begin><end>2022-07-24T09:38:33Z</end></TimeSpan><styleUrl>#point</styleUrl><Point><altitudeMode>clampToGround</altitudeMode><coordinates>28.211959144100547,-25.781593294814229,1521.4200000000001</coordinates></Point></Placemark><Placemark><TimeSpan><begin>2022-07-24T09:38:33Z</begin><end>2022-07-24T09:38:34Z</end></TimeSpan><styleUrl>#point</styleUrl><Point><altitudeMode>clampToGround</altitudeMode><coordinates>28.211857723072171,-25.781633360311389,1521.9000000000001</coordinates></Point></Placemark><Placemark><TimeSpan><begin>2022-07-24T09:38:34Z</begin><end>2022-07-24T09:38:35Z</end></TimeSpan><styleUrl>#point</styleUrl><Point><altitudeMode>clampToGround</altitudeMode><coordinates>28.211751943454146,-25.781664876267314,1522.3900000000001</coordinates></Point></Placemark><Placemark><TimeSpan><begin>2022-07-24T09:38:35Z</begin><end>2022-07-24T09:38:36Z</end></TimeSpan><styleUrl>#point</styleUrl><Point><altitudeMode>clampToGround</altitudeMode><coordinates>28.211641637608409,-25.781689267605543,1522.8699999999999</coordinates></Point></Placemark><Placemark><TimeSpan><begin>2022-07-24T09:38:36Z</begin><end>2022-07-24T09:38:37Z</end></TimeSpan><styleUrl>#point</styleUrl><Point><altitudeMode>clampToGround</altitudeMode><coordinates>28.211531667038798,-25.781706785783172,1523.3499999999999</coordinates></Point></Placemark><Placemark><TimeSpan><begin>2022-07-24T09:38:37Z</begin><end>2022-07-24T09:38:39Z</end></TimeSpan><styleUrl>#point</styleUrl><Point><altitudeMode>clampToGround</altitudeMode><coordinates>28.211299991235137,-25.781722208485007,1524.3099999999999</coordinates></Point></Placemark><Placemark><TimeSpan><begin>2022-07-24T09:38:39Z</begin><end>2022-07-24T09:38:40Z</end></TimeSpan><styleUrl>#point</styleUrl><Point><altitudeMode>clampToGround</altitudeMode><coordinates>28.211195301264524,-25.781717346981168,1524.79</coordinates></Point></Placemark><Placemark><TimeSpan><begin>2022-07-24T09:38:40Z</begin><end>2022-07-24T09:38:41Z</end></TimeSpan><styleUrl>#point</styleUrl><Point><altitudeMode>clampToGround</altitudeMode><coordinates>28.211087677627802,-25.78170427121222,1525.27</coordinates></Point></Placemark><Placemark><TimeSpan><begin>2022-07-24T09:38:41Z</begin><end>2022-07-24T09:38:42Z</end></TimeSpan><styleUrl>#point</styleUrl><Point><altitudeMode>clampToGround</altitudeMode><coordinates>28.210984999313951,-25.781684070825577,1525.75</coordinates></Point></Placemark><Placemark><TimeSpan><begin>2022-07-24T09:38:42Z</begin><end>2022-07-24T09:38:43Z</end></TimeSpan><styleUrl>#point</styleUrl><Point><altitudeMode>clampToGround</altitudeMode><coordinates>28.210891373455524,-25.781658254563808,1526.23</coordinates></Point></Placemark><Placemark><TimeSpan><begin>2022-07-24T09:38:43Z</begin><end>2022-07-24T09:38:44Z</end></TimeSpan><styleUrl>#point</styleUrl><Point><altitudeMode>clampToGround</altitudeMode><coordinates>28.210809985175729,-25.781630678102374,1526.71</coordinates></Point></Placemark><Placemark><TimeSpan><begin>2022-07-24T09:38:44Z</begin><end>2022-07-24T09:38:45Z</end></TimeSpan><styleUrl>#point</styleUrl><Point><altitudeMode>clampToGround</altitudeMode><coordinates>28.210739241912961,-25.781604023650289,1527.1900000000001</coordinates></Point></Placemark><Placemark><TimeSpan><begin>2022-07-24T09:38:45Z</begin><end>2022-07-24T09:38:47Z</end></TimeSpan><styleUrl>#point</styleUrl><Point><altitudeMode>clampToGround</altitudeMode><coordinates>28.210631031543016,-25.781551050022244,1528.1500000000001</coordinates></Point></Placemark><Placemark><TimeSpan><begin>2022-07-24T09:38:47Z</begin><end>2022-07-24T09:38:48Z</end></TimeSpan><styleUrl>#point</styleUrl><Point><altitudeMode>clampToGround</altitudeMode><coordinates>28.210597671568394,-25.781524311751127,1528.1500000000001</coordinates></Point></Placemark><Placemark><TimeSpan><begin>2022-07-24T09:38:48Z</begin><end>2022-07-24T09:38:49Z</end></TimeSpan><styleUrl>#point</styleUrl><Point><altitudeMode>clampToGround</altitudeMode><coordinates>28.210577219724655,-25.781509727239609,1528.6300000000001</coordinates></Point></Placemark><Placemark><TimeSpan><begin>2022-07-24T09:38:49Z</begin><end>2022-07-24T09:38:50Z</end></TimeSpan><styleUrl>#point</styleUrl><Point><altitudeMode>clampToGround</altitudeMode><coordinates>28.210561294108629,-25.781507045030594,1529.1099999999999</coordinates></Point></Placemark><Placemark><TimeSpan><begin>2022-07-24T09:38:50Z</begin><end>2022-07-24T09:39:01Z</end></TimeSpan><styleUrl>#point</styleUrl><Point><altitudeMode>clampToGround</altitudeMode><coordinates>28.210551487281919,-25.781518947333097,1530.0799999999999</coordinates></Point></Placemark><Placemark><TimeSpan><begin>2022-07-24T09:39:01Z</begin><end>2022-07-24T09:39:23Z</end></TimeSpan><styleUrl>#point</styleUrl><Point><altitudeMode>clampToGround</altitudeMode><coordinates>28.21056766435504,-25.781518779695034,1530.0799999999999</coordinates></Point></Placemark><Placemark><TimeSpan><begin>2022-07-24T09:39:23Z</begin><end>2022-07-24T09:39:47Z</end></TimeSpan><styleUrl>#point</styleUrl><Point><altitudeMode>clampToGround</altitudeMode><coordinates>28.210567831993103,-25.781512660905719,1527.6700000000001</coordinates></Point></Placemark><Placemark><TimeSpan><begin>2022-07-24T09:39:47Z</begin><end>2022-07-24T09:40:07Z</end></TimeSpan><styleUrl>#point</styleUrl><Point><altitudeMode>clampToGround</altitudeMode><coordinates>28.210570430383086,-25.781512409448624,1526.71</coordinates></Point></Placemark><Placemark><TimeSpan><begin>2022-07-24T09:40:07Z</begin><end>2022-07-24T09:40:18Z</end></TimeSpan><styleUrl>#point</styleUrl><Point><altitudeMode>clampToGround</altitudeMode><coordinates>28.210563892498612,-25.781512912362814,1526.71</coordinates></Point></Placemark></Folder><Placemark><name>[268] Fort Klapperkop pass</name><Style><LineStyle><color>ff00ff00</color><width>4</width></LineStyle></Style><MultiGeometry><LineString><coordinates>28.210522988811135,-25.781514421105385,1533.4400000000001 28.210540004074574,-25.781516768038273,1532.96 28.210566490888596,-25.781516097486019,1532.96 28.210590714588761,-25.781523892655969,1532.96 28.211096646264195,-25.781689770519733,1530.5599999999999 28.211940452456474,-25.78158650547266,1526.23 28.212097864598036,-25.781496316194534,1525.27 28.212164836004376,-25.781441498547792,1524.79 28.212224179878831,-25.78137787990272,1524.3099999999999 28.21227497421205,-25.781304622069001,1523.8299999999999 28.212315542623401,-25.781222060322762,1523.3499999999999 28.212341945618391,-25.781135391443968,1522.8699999999999 28.212355691939592,-25.781046627089381,1522.3900000000001 28.212359547615051,-25.780958533287048,1521.4200000000001 28.212352087721229,-25.780872954055667,1520.9400000000001 28.212335826829076,-25.780790811404586,1520.46 28.212315374985337,-25.780711518600583,1519.5 28.212178247049451,-25.780161498114467,1515.6600000000001 28.212023014202714,-25.77955037355423,1512.29 28.211494870483875,-25.778740094974637,1507.97 28.210769584402442,-25.777989998459816,1504.1199999999999 28.209611959755421,-25.776794906705618,1495.95 28.208598839119077,-25.775887398049235,1489.22 28.208519211038947,-25.775833586230874,1489.22 28.208427177742124,-25.775782708078623,1488.74 28.20832684636116,-25.775738786906004,1488.26 28.208228442817926,-25.775706181302667,1487.78 28.208123417571187,-25.775679191574454,1487.3 28.208016213029623,-25.775655722245574,1487.3 28.207250023260713,-25.775523204356432,1484.4100000000001 28.207145584747195,-25.775524629279971,1483.9300000000001 28.207049947232008,-25.775535022839904,1483.45 28.206953471526504,-25.775553798303008,1482.97 28.206857331097126,-25.775582632049918,1482.49 28.206764040514827,-25.77562035061419,1482.01 28.206669744104147,-25.775668881833553,1481.53 28.206589696928859,-25.775720179080963,1481.05 28.206508811563253,-25.775784803554416,1480.5699999999999 28.206434212625027,-25.775857642292976,1480.5699999999999 28.206365816295147,-25.775937270373106,1480.0899999999999 28.206302197650075,-25.776024023070931,1479.6099999999999 28.206247380003333,-25.776115888729692,1479.1300000000001 28.20619834586978,-25.776214627549052,1479.1300000000001 28.206153083592653,-25.776318395510316,1478.6500000000001 28.206006987020373,-25.777252307161689,1474.8 28.206331031396985,-25.778177082538605,1469.99 28.206435972824693,-25.778497355058789,1468.0699999999999 28.206449132412672,-25.778609504923224,1467.5899999999999 28.206452820450068,-25.77872458845377,1467.1099999999999 28.206575782969594,-25.779873160645366,1462.3 28.20662984624505,-25.78023886308074,1460.3800000000001 28.206625152379274,-25.780351432040334,1459.9000000000001 28.206604029983282,-25.780462576076388,1459.4200000000001 28.20656924508512,-25.780569864436984,1458.9400000000001 28.206522054970264,-25.780673129484057,1458.46 28.206463800743222,-25.780772119760513,1457.98 28.20639674551785,-25.780866835266352,1457.5 28.20632298476994,-25.780961215496063,1457.02 28.205863405019045,-25.781877608969808,1452.6900000000001 28.205461576581001,-25.782700879499316,1447.4000000000001 28.205090928822756,-25.783176468685269,1443.0799999999999 28.205079361796379,-25.783187616616488,1442.5999999999999 28.205066286027431,-25.783189041540027,1442.5999999999999 28.205058490857482,-25.783150736242533,1442.1099999999999 28.205057820305228,-25.783142270520329,1440.6700000000001 28.20506427437067,-25.78314964659512,1441.1500000000001 28.20506083779037,-25.783154759556055,1444.04 28.205063603818417,-25.783157693222165,1444.04 28.205034686252475,-25.783216618001461,1443.5599999999999 28.205030160024762,-25.783209577202797,1445.48 28.205061508342624,-25.783180240541697,1445.48 28.205404579639435,-25.782759804278612,1447.8800000000001 28.205839935690165,-25.781902251765132,1452.6900000000001 28.206403534859419,-25.780814699828625,1458.9400000000001 28.2065374776721,-25.78057061880827,1459.9000000000001 28.20656530559063,-25.780484704300761,1460.3800000000001 28.206584751605988,-25.780397783964872,1460.8599999999999 28.206596570089459,-25.780054209753871,1462.3 28.20658097974956,-25.77997206710279,1462.78 28.206427926197648,-25.778705812990665,1467.5899999999999 28.206363301724195,-25.778315467759967,1468.55 28.206326337531209,-25.77822083607316,1469.03 28.205982847139239,-25.777116855606437,1474.3199999999999 28.206198681145906,-25.776178333908319,1477.6800000000001 28.206571927294135,-25.775715820491314,1480.0899999999999 28.20665281265974,-25.775661924853921,1480.5699999999999 28.206740403547883,-25.775616494938731,1480.5699999999999 28.206833945587277,-25.77557978220284,1481.05 28.206934696063399,-25.775548852980137,1481.05 28.207035111263394,-25.775526892393827,1481.53 28.207139382138848,-25.775514990091324,1482.01 28.207252202555537,-25.775512643158436,1482.01 28.207359490916133,-25.775523958727717,1482.49 28.207466444000602,-25.775544913485646,1482.97 28.207575911656022,-25.775568298995495,1482.97 28.20837814360857,-25.775754796341062,1486.3399999999999 28.208482582122087,-25.775805842131376,1486.8199999999999 28.208579728379846,-25.775866275653243,1487.3 28.208674862980843,-25.775937857106328,1487.78 28.208758933469653,-25.776009103283286,1488.26 28.209868697449565,-25.777027755975723,1494.99 28.211353300139308,-25.778577066957951,1504.1199999999999 28.212049249559641,-25.779578117653728,1510.3699999999999 28.21237220428884,-25.780842108651996,1516.6199999999999 28.212383100762963,-25.780940847471356,1517.0999999999999 28.212379831820726,-25.781040843576193,1517.5799999999999 28.212360218167305,-25.781139833852649,1518.0599999999999 28.212328031659126,-25.781235722824931,1519.02 28.212281009182334,-25.781327253207564,1519.5 28.21221437305212,-25.781415095552802,1519.98 28.212141953408718,-25.781482318416238,1520.46 28.212054697796702,-25.781543338671327,1520.9400000000001 28.211959144100547,-25.781593294814229,1521.4200000000001 28.211857723072171,-25.781633360311389,1521.9000000000001 28.211751943454146,-25.781664876267314,1522.3900000000001 28.211641637608409,-25.781689267605543,1522.8699999999999 28.211531667038798,-25.781706785783172,1523.3499999999999 28.211299991235137,-25.781722208485007,1524.3099999999999 28.211195301264524,-25.781717346981168,1524.79 28.211087677627802,-25.78170427121222,1525.27 28.210984999313951,-25.781684070825577,1525.75 28.210891373455524,-25.781658254563808,1526.23 28.210809985175729,-25.781630678102374,1526.71 28.210739241912961,-25.781604023650289,1527.1900000000001 28.210631031543016,-25.781551050022244,1528.1500000000001 28.210597671568394,-25.781524311751127,1528.1500000000001 28.210577219724655,-25.781509727239609,1528.6300000000001 28.210561294108629,-25.781507045030594,1529.1099999999999 28.210551487281919,-25.781518947333097,1530.0799999999999 28.21056766435504,-25.781518779695034,1530.0799999999999 28.210567831993103,-25.781512660905719,1527.6700000000001 28.210570430383086,-25.781512409448624,1526.71 28.210563892498612,-25.781512912362814,1526.71 </coordinates></LineString></MultiGeometry></Placemark></Folder></Folder></Document></kml>