<?xml version="1.0" encoding="utf-8"?><kml xmlns="http://www.opengis.net/kml/2.2" xmlns:xsi="http://www.w3.org/2001/XMLSchema-instance" xmlns:kmlx="http://www.google.com/kml/ext/2.2" xmlns:atom="http://www.w3.org/2005/Atom" xmlns:gpxx="http://www.garmin.com/xmlschemas/GpxExtensions/v3"><Document><Style id="point"><IconStyle><scale>0.9</scale><Icon><href>http://maps.google.com/mapfiles/kml/shapes/placemark_circle.png</href></Icon></IconStyle></Style><Folder><name>Tracks</name><Folder><name>[286] Dirt Road</name><Folder><name>Points</name><Style><ListStyle><listItemType>checkHideChildren</listItemType></ListStyle></Style><Placemark><TimeSpan><begin>2022-08-08T09:05:52Z</begin><end>2022-08-08T09:05:52Z</end></TimeSpan><Style><IconStyle><scale>0.9</scale><Icon><href>http://connect.garmin.com/image/main/icons/kml/grn-play.png</href></Icon></IconStyle></Style><Point><altitudeMode>clampToGround</altitudeMode><coordinates>30.388378472998738,-27.585836509242654,1609.3800000000001</coordinates></Point></Placemark><Placemark><TimeSpan><begin>2022-08-08T09:05:52Z</begin><end>2022-08-08T09:06:29Z</end></TimeSpan><styleUrl>#point</styleUrl><Point><altitudeMode>clampToGround</altitudeMode><coordinates>30.388381071388721,-27.585842041298747,1608.9000000000001</coordinates></Point></Placemark><Placemark><TimeSpan><begin>2022-08-08T09:06:29Z</begin><end>2022-08-08T09:07:09Z</end></TimeSpan><styleUrl>#point</styleUrl><Point><altitudeMode>clampToGround</altitudeMode><coordinates>30.388379227370024,-27.585840532556176,1609.3800000000001</coordinates></Point></Placemark><Placemark><TimeSpan><begin>2022-08-08T09:07:09Z</begin><end>2022-08-08T09:07:46Z</end></TimeSpan><styleUrl>#point</styleUrl><Point><altitudeMode>clampToGround</altitudeMode><coordinates>30.388381909579039,-27.585839442908764,1609.3800000000001</coordinates></Point></Placemark><Placemark><TimeSpan><begin>2022-08-08T09:07:46Z</begin><end>2022-08-08T09:08:18Z</end></TimeSpan><styleUrl>#point</styleUrl><Point><altitudeMode>clampToGround</altitudeMode><coordinates>30.388381239026785,-27.585833743214607,1609.3800000000001</coordinates></Point></Placemark><Placemark><TimeSpan><begin>2022-08-08T09:08:18Z</begin><end>2022-08-08T09:08:32Z</end></TimeSpan><styleUrl>#point</styleUrl><Point><altitudeMode>clampToGround</altitudeMode><coordinates>30.388346957042813,-27.585822511464357,1609.3800000000001</coordinates></Point></Placemark><Placemark><TimeSpan><begin>2022-08-08T09:08:32Z</begin><end>2022-08-08T09:08:33Z</end></TimeSpan><styleUrl>#point</styleUrl><Point><altitudeMode>clampToGround</altitudeMode><coordinates>30.388327343389392,-27.585809268057346,1609.3800000000001</coordinates></Point></Placemark><Placemark><TimeSpan><begin>2022-08-08T09:08:33Z</begin><end>2022-08-08T09:08:34Z</end></TimeSpan><styleUrl>#point</styleUrl><Point><altitudeMode>clampToGround</altitudeMode><coordinates>30.388296246528625,-27.585789822041988,1609.3800000000001</coordinates></Point></Placemark><Placemark><TimeSpan><begin>2022-08-08T09:08:34Z</begin><end>2022-08-08T09:08:44Z</end></TimeSpan><styleUrl>#point</styleUrl><Point><altitudeMode>clampToGround</altitudeMode><coordinates>30.38777849636972,-27.585461586713791,1605.54</coordinates></Point></Placemark><Placemark><TimeSpan><begin>2022-08-08T09:08:44Z</begin><end>2022-08-08T09:08:57Z</end></TimeSpan><styleUrl>#point</styleUrl><Point><altitudeMode>clampToGround</altitudeMode><coordinates>30.386789767071605,-27.584861945360899,1601.6900000000001</coordinates></Point></Placemark><Placemark><TimeSpan><begin>2022-08-08T09:08:57Z</begin><end>2022-08-08T09:09:04Z</end></TimeSpan><styleUrl>#point</styleUrl><Point><altitudeMode>clampToGround</altitudeMode><coordinates>30.386407552286983,-27.584657007828355,1599.77</coordinates></Point></Placemark><Placemark><TimeSpan><begin>2022-08-08T09:09:04Z</begin><end>2022-08-08T09:09:14Z</end></TimeSpan><styleUrl>#point</styleUrl><Point><altitudeMode>clampToGround</altitudeMode><coordinates>30.386325074359775,-27.584604201838374,1599.29</coordinates></Point></Placemark><Placemark><TimeSpan><begin>2022-08-08T09:09:14Z</begin><end>2022-08-08T09:09:23Z</end></TimeSpan><styleUrl>#point</styleUrl><Point><altitudeMode>clampToGround</altitudeMode><coordinates>30.385613869875669,-27.584193320944905,1597.8499999999999</coordinates></Point></Placemark><Placemark><TimeSpan><begin>2022-08-08T09:09:23Z</begin><end>2022-08-08T09:09:39Z</end></TimeSpan><styleUrl>#point</styleUrl><Point><altitudeMode>clampToGround</altitudeMode><coordinates>30.383908487856388,-27.583268461748958,1594.48</coordinates></Point></Placemark><Placemark><TimeSpan><begin>2022-08-08T09:09:39Z</begin><end>2022-08-08T09:09:50Z</end></TimeSpan><styleUrl>#point</styleUrl><Point><altitudeMode>clampToGround</altitudeMode><coordinates>30.382525976747274,-27.582502020522952,1593.52</coordinates></Point></Placemark><Placemark><TimeSpan><begin>2022-08-08T09:09:50Z</begin><end>2022-08-08T09:10:04Z</end></TimeSpan><styleUrl>#point</styleUrl><Point><altitudeMode>clampToGround</altitudeMode><coordinates>30.380817241966724,-27.581559307873249,1592.0799999999999</coordinates></Point></Placemark><Placemark><TimeSpan><begin>2022-08-08T09:10:04Z</begin><end>2022-08-08T09:10:17Z</end></TimeSpan><styleUrl>#point</styleUrl><Point><altitudeMode>clampToGround</altitudeMode><coordinates>30.379200372844934,-27.580587426200509,1591.1199999999999</coordinates></Point></Placemark><Placemark><TimeSpan><begin>2022-08-08T09:10:17Z</begin><end>2022-08-08T09:10:27Z</end></TimeSpan><styleUrl>#point</styleUrl><Point><altitudeMode>clampToGround</altitudeMode><coordinates>30.378125729039311,-27.57979785092175,1589.2</coordinates></Point></Placemark><Placemark><TimeSpan><begin>2022-08-08T09:10:27Z</begin><end>2022-08-08T09:10:40Z</end></TimeSpan><styleUrl>#point</styleUrl><Point><altitudeMode>clampToGround</altitudeMode><coordinates>30.376836340874434,-27.578642070293427,1581.99</coordinates></Point></Placemark><Placemark><TimeSpan><begin>2022-08-08T09:10:40Z</begin><end>2022-08-08T09:10:51Z</end></TimeSpan><styleUrl>#point</styleUrl><Point><altitudeMode>clampToGround</altitudeMode><coordinates>30.375744011253119,-27.577554937452078,1575.74</coordinates></Point></Placemark><Placemark><TimeSpan><begin>2022-08-08T09:10:51Z</begin><end>2022-08-08T09:11:03Z</end></TimeSpan><styleUrl>#point</styleUrl><Point><altitudeMode>clampToGround</altitudeMode><coordinates>30.374401230365038,-27.576338052749634,1564.6800000000001</coordinates></Point></Placemark><Placemark><TimeSpan><begin>2022-08-08T09:11:03Z</begin><end>2022-08-08T09:11:17Z</end></TimeSpan><styleUrl>#point</styleUrl><Point><altitudeMode>clampToGround</altitudeMode><coordinates>30.372573891654611,-27.575105829164386,1552.6700000000001</coordinates></Point></Placemark><Placemark><TimeSpan><begin>2022-08-08T09:11:17Z</begin><end>2022-08-08T09:11:26Z</end></TimeSpan><styleUrl>#point</styleUrl><Point><altitudeMode>clampToGround</altitudeMode><coordinates>30.371334124356508,-27.574678268283606,1546.9000000000001</coordinates></Point></Placemark><Placemark><TimeSpan><begin>2022-08-08T09:11:26Z</begin><end>2022-08-08T09:11:36Z</end></TimeSpan><styleUrl>#point</styleUrl><Point><altitudeMode>clampToGround</altitudeMode><coordinates>30.369564620777965,-27.57431541569531,1550.26</coordinates></Point></Placemark><Placemark><TimeSpan><begin>2022-08-08T09:11:36Z</begin><end>2022-08-08T09:11:48Z</end></TimeSpan><styleUrl>#point</styleUrl><Point><altitudeMode>clampToGround</altitudeMode><coordinates>30.367457745596766,-27.573823900893331,1556.03</coordinates></Point></Placemark><Placemark><TimeSpan><begin>2022-08-08T09:11:48Z</begin><end>2022-08-08T09:11:55Z</end></TimeSpan><styleUrl>#point</styleUrl><Point><altitudeMode>clampToGround</altitudeMode><coordinates>30.366579489782453,-27.573440680280328,1558.9200000000001</coordinates></Point></Placemark><Placemark><TimeSpan><begin>2022-08-08T09:11:55Z</begin><end>2022-08-08T09:12:04Z</end></TimeSpan><styleUrl>#point</styleUrl><Point><altitudeMode>clampToGround</altitudeMode><coordinates>30.365615654736757,-27.572683459147811,1560.8399999999999</coordinates></Point></Placemark><Placemark><TimeSpan><begin>2022-08-08T09:12:04Z</begin><end>2022-08-08T09:12:05Z</end></TimeSpan><styleUrl>#point</styleUrl><Point><altitudeMode>clampToGround</altitudeMode><coordinates>30.365550275892019,-27.57259058766067,1561.3199999999999</coordinates></Point></Placemark><Placemark><TimeSpan><begin>2022-08-08T09:12:05Z</begin><end>2022-08-08T09:12:14Z</end></TimeSpan><styleUrl>#point</styleUrl><Point><altitudeMode>clampToGround</altitudeMode><coordinates>30.365061610937119,-27.571495240554214,1563.24</coordinates></Point></Placemark><Placemark><TimeSpan><begin>2022-08-08T09:12:14Z</begin><end>2022-08-08T09:12:28Z</end></TimeSpan><styleUrl>#point</styleUrl><Point><altitudeMode>clampToGround</altitudeMode><coordinates>30.364250829443336,-27.569288872182369,1564.6800000000001</coordinates></Point></Placemark><Placemark><TimeSpan><begin>2022-08-08T09:12:28Z</begin><end>2022-08-08T09:12:35Z</end></TimeSpan><styleUrl>#point</styleUrl><Point><altitudeMode>clampToGround</altitudeMode><coordinates>30.363681362941861,-27.568210372701287,1564.6800000000001</coordinates></Point></Placemark><Placemark><TimeSpan><begin>2022-08-08T09:12:35Z</begin><end>2022-08-08T09:12:45Z</end></TimeSpan><styleUrl>#point</styleUrl><Point><altitudeMode>clampToGround</altitudeMode><coordinates>30.36248660646379,-27.567196162417531,1568.53</coordinates></Point></Placemark><Placemark><TimeSpan><begin>2022-08-08T09:12:45Z</begin><end>2022-08-08T09:12:53Z</end></TimeSpan><styleUrl>#point</styleUrl><Point><altitudeMode>clampToGround</altitudeMode><coordinates>30.361488573253155,-27.566562071442604,1566.1199999999999</coordinates></Point></Placemark><Placemark><TimeSpan><begin>2022-08-08T09:12:53Z</begin><end>2022-08-08T09:13:02Z</end></TimeSpan><styleUrl>#point</styleUrl><Point><altitudeMode>clampToGround</altitudeMode><coordinates>30.359788304194808,-27.565588764846325,1573.3299999999999</coordinates></Point></Placemark><Placemark><TimeSpan><begin>2022-08-08T09:13:02Z</begin><end>2022-08-08T09:13:11Z</end></TimeSpan><styleUrl>#point</styleUrl><Point><altitudeMode>clampToGround</altitudeMode><coordinates>30.358186438679695,-27.564672622829676,1586.79</coordinates></Point></Placemark><Placemark><TimeSpan><begin>2022-08-08T09:13:11Z</begin><end>2022-08-08T09:13:22Z</end></TimeSpan><styleUrl>#point</styleUrl><Point><altitudeMode>clampToGround</altitudeMode><coordinates>30.356077551841736,-27.563483901321888,1596.8900000000001</coordinates></Point></Placemark><Placemark><TimeSpan><begin>2022-08-08T09:13:22Z</begin><end>2022-08-08T09:13:32Z</end></TimeSpan><styleUrl>#point</styleUrl><Point><altitudeMode>clampToGround</altitudeMode><coordinates>30.354411816224456,-27.562592066824436,1605.54</coordinates></Point></Placemark><Placemark><TimeSpan><begin>2022-08-08T09:13:32Z</begin><end>2022-08-08T09:13:46Z</end></TimeSpan><styleUrl>#point</styleUrl><Point><altitudeMode>clampToGround</altitudeMode><coordinates>30.352707523852587,-27.561059854924679,1616.5899999999999</coordinates></Point></Placemark><Placemark><TimeSpan><begin>2022-08-08T09:13:46Z</begin><end>2022-08-08T09:13:48Z</end></TimeSpan><styleUrl>#point</styleUrl><Point><altitudeMode>clampToGround</altitudeMode><coordinates>30.352503592148423,-27.560891630128026,1617.5599999999999</coordinates></Point></Placemark><Placemark><TimeSpan><begin>2022-08-08T09:13:48Z</begin><end>2022-08-08T09:13:49Z</end></TimeSpan><styleUrl>#point</styleUrl><Point><altitudeMode>clampToGround</altitudeMode><coordinates>30.352393956854939,-27.560825832188129,1618.52</coordinates></Point></Placemark><Placemark><TimeSpan><begin>2022-08-08T09:13:49Z</begin><end>2022-08-08T09:13:50Z</end></TimeSpan><styleUrl>#point</styleUrl><Point><altitudeMode>clampToGround</altitudeMode><coordinates>30.352279460057616,-27.560770427808166,1619.48</coordinates></Point></Placemark><Placemark><TimeSpan><begin>2022-08-08T09:13:50Z</begin><end>2022-08-08T09:13:51Z</end></TimeSpan><styleUrl>#point</styleUrl><Point><altitudeMode>clampToGround</altitudeMode><coordinates>30.352159598842263,-27.560723405331373,1620.4400000000001</coordinates></Point></Placemark><Placemark><TimeSpan><begin>2022-08-08T09:13:51Z</begin><end>2022-08-08T09:13:52Z</end></TimeSpan><styleUrl>#point</styleUrl><Point><altitudeMode>clampToGround</altitudeMode><coordinates>30.352031942456961,-27.560681747272611,1621.4000000000001</coordinates></Point></Placemark><Placemark><TimeSpan><begin>2022-08-08T09:13:52Z</begin><end>2022-08-08T09:13:53Z</end></TimeSpan><styleUrl>#point</styleUrl><Point><altitudeMode>clampToGround</altitudeMode><coordinates>30.351895401254296,-27.560644196346402,1622.3599999999999</coordinates></Point></Placemark><Placemark><TimeSpan><begin>2022-08-08T09:13:53Z</begin><end>2022-08-08T09:14:01Z</end></TimeSpan><styleUrl>#point</styleUrl><Point><altitudeMode>clampToGround</altitudeMode><coordinates>30.350507693365216,-27.560337921604514,1624.77</coordinates></Point></Placemark><Placemark><TimeSpan><begin>2022-08-08T09:14:01Z</begin><end>2022-08-08T09:14:12Z</end></TimeSpan><styleUrl>#point</styleUrl><Point><altitudeMode>clampToGround</altitudeMode><coordinates>30.348572647199035,-27.559760073199868,1629.5699999999999</coordinates></Point></Placemark><Placemark><TimeSpan><begin>2022-08-08T09:14:12Z</begin><end>2022-08-08T09:14:26Z</end></TimeSpan><styleUrl>#point</styleUrl><Point><altitudeMode>clampToGround</altitudeMode><coordinates>30.346057238057256,-27.558818366378546,1637.26</coordinates></Point></Placemark><Placemark><TimeSpan><begin>2022-08-08T09:14:26Z</begin><end>2022-08-08T09:14:40Z</end></TimeSpan><styleUrl>#point</styleUrl><Point><altitudeMode>clampToGround</altitudeMode><coordinates>30.343387518078089,-27.55789065733552,1643.51</coordinates></Point></Placemark><Placemark><TimeSpan><begin>2022-08-08T09:14:40Z</begin><end>2022-08-08T09:14:49Z</end></TimeSpan><styleUrl>#point</styleUrl><Point><altitudeMode>clampToGround</altitudeMode><coordinates>30.34191825427115,-27.557400986552238,1646.8800000000001</coordinates></Point></Placemark><Placemark><TimeSpan><begin>2022-08-08T09:14:49Z</begin><end>2022-08-08T09:14:57Z</end></TimeSpan><styleUrl>#point</styleUrl><Point><altitudeMode>clampToGround</altitudeMode><coordinates>30.341077800840139,-27.556819198653102,1650.72</coordinates></Point></Placemark><Placemark><TimeSpan><begin>2022-08-08T09:14:57Z</begin><end>2022-08-08T09:15:09Z</end></TimeSpan><styleUrl>#point</styleUrl><Point><altitudeMode>clampToGround</altitudeMode><coordinates>30.340193929150701,-27.555483123287559,1657.45</coordinates></Point></Placemark><Placemark><TimeSpan><begin>2022-08-08T09:15:09Z</begin><end>2022-08-08T09:15:20Z</end></TimeSpan><styleUrl>#point</styleUrl><Point><altitudeMode>clampToGround</altitudeMode><coordinates>30.339179467409849,-27.553956443443894,1658.4100000000001</coordinates></Point></Placemark><Placemark><TimeSpan><begin>2022-08-08T09:15:20Z</begin><end>2022-08-08T09:15:29Z</end></TimeSpan><styleUrl>#point</styleUrl><Point><altitudeMode>clampToGround</altitudeMode><coordinates>30.338330799713731,-27.552886409685016,1655.05</coordinates></Point></Placemark><Placemark><TimeSpan><begin>2022-08-08T09:15:29Z</begin><end>2022-08-08T09:15:40Z</end></TimeSpan><styleUrl>#point</styleUrl><Point><altitudeMode>clampToGround</altitudeMode><coordinates>30.337334778159857,-27.551764827221632,1648.3199999999999</coordinates></Point></Placemark><Placemark><TimeSpan><begin>2022-08-08T09:15:40Z</begin><end>2022-08-08T09:15:52Z</end></TimeSpan><styleUrl>#point</styleUrl><Point><altitudeMode>clampToGround</altitudeMode><coordinates>30.336085371673107,-27.550627235323191,1637.74</coordinates></Point></Placemark><Placemark><TimeSpan><begin>2022-08-08T09:15:52Z</begin><end>2022-08-08T09:16:03Z</end></TimeSpan><styleUrl>#point</styleUrl><Point><altitudeMode>clampToGround</altitudeMode><coordinates>30.334591129794717,-27.54921262152493,1631.49</coordinates></Point></Placemark><Placemark><TimeSpan><begin>2022-08-08T09:16:03Z</begin><end>2022-08-08T09:16:16Z</end></TimeSpan><styleUrl>#point</styleUrl><Point><altitudeMode>clampToGround</altitudeMode><coordinates>30.332976775243878,-27.547481926158071,1640.6300000000001</coordinates></Point></Placemark><Placemark><TimeSpan><begin>2022-08-08T09:16:16Z</begin><end>2022-08-08T09:16:28Z</end></TimeSpan><styleUrl>#point</styleUrl><Point><altitudeMode>clampToGround</altitudeMode><coordinates>30.331671545282006,-27.546374006196856,1635.3399999999999</coordinates></Point></Placemark><Placemark><TimeSpan><begin>2022-08-08T09:16:28Z</begin><end>2022-08-08T09:16:30Z</end></TimeSpan><styleUrl>#point</styleUrl><Point><altitudeMode>clampToGround</altitudeMode><coordinates>30.331419166177511,-27.546232016757131,1634.3800000000001</coordinates></Point></Placemark><Placemark><TimeSpan><begin>2022-08-08T09:16:30Z</begin><end>2022-08-08T09:16:42Z</end></TimeSpan><styleUrl>#point</styleUrl><Point><altitudeMode>clampToGround</altitudeMode><coordinates>30.329732475802302,-27.54540229216218,1638.7</coordinates></Point></Placemark><Placemark><TimeSpan><begin>2022-08-08T09:16:42Z</begin><end>2022-08-08T09:16:49Z</end></TimeSpan><styleUrl>#point</styleUrl><Point><altitudeMode>clampToGround</altitudeMode><coordinates>30.328593291342258,-27.544577931985259,1635.8199999999999</coordinates></Point></Placemark><Placemark><TimeSpan><begin>2022-08-08T09:16:49Z</begin><end>2022-08-08T09:16:58Z</end></TimeSpan><styleUrl>#point</styleUrl><Point><altitudeMode>clampToGround</altitudeMode><coordinates>30.327430134639144,-27.543597668409348,1635.8199999999999</coordinates></Point></Placemark><Placemark><TimeSpan><begin>2022-08-08T09:16:58Z</begin><end>2022-08-08T09:17:06Z</end></TimeSpan><styleUrl>#point</styleUrl><Point><altitudeMode>clampToGround</altitudeMode><coordinates>30.32634325325489,-27.542573986575007,1643.03</coordinates></Point></Placemark><Placemark><TimeSpan><begin>2022-08-08T09:17:06Z</begin><end>2022-08-08T09:17:08Z</end></TimeSpan><styleUrl>#point</styleUrl><Point><altitudeMode>clampToGround</altitudeMode><coordinates>30.326128425076604,-27.542418334633112,1643.99</coordinates></Point></Placemark><Placemark><TimeSpan><begin>2022-08-08T09:17:08Z</begin><end>2022-08-08T09:17:09Z</end></TimeSpan><styleUrl>#point</styleUrl><Point><altitudeMode>clampToGround</altitudeMode><coordinates>30.326017281040549,-27.542359745129943,1644.47</coordinates></Point></Placemark><Placemark><TimeSpan><begin>2022-08-08T09:17:09Z</begin><end>2022-08-08T09:17:10Z</end></TimeSpan><styleUrl>#point</styleUrl><Point><altitudeMode>clampToGround</altitudeMode><coordinates>30.325898006558418,-27.542310627177358,1644.95</coordinates></Point></Placemark><Placemark><TimeSpan><begin>2022-08-08T09:17:10Z</begin><end>2022-08-08T09:17:11Z</end></TimeSpan><styleUrl>#point</styleUrl><Point><altitudeMode>clampToGround</altitudeMode><coordinates>30.32576858997345,-27.542268801480532,1644.95</coordinates></Point></Placemark><Placemark><TimeSpan><begin>2022-08-08T09:17:11Z</begin><end>2022-08-08T09:17:12Z</end></TimeSpan><styleUrl>#point</styleUrl><Point><altitudeMode>clampToGround</altitudeMode><coordinates>30.325627941638231,-27.542231334373355,1644.95</coordinates></Point></Placemark><Placemark><TimeSpan><begin>2022-08-08T09:17:12Z</begin><end>2022-08-08T09:17:22Z</end></TimeSpan><styleUrl>#point</styleUrl><Point><altitudeMode>clampToGround</altitudeMode><coordinates>30.324102351441979,-27.542027067393064,1644.95</coordinates></Point></Placemark><Placemark><TimeSpan><begin>2022-08-08T09:17:22Z</begin><end>2022-08-08T09:17:33Z</end></TimeSpan><styleUrl>#point</styleUrl><Point><altitudeMode>clampToGround</altitudeMode><coordinates>30.322218351066113,-27.541958587244153,1652.1600000000001</coordinates></Point></Placemark><Placemark><TimeSpan><begin>2022-08-08T09:17:33Z</begin><end>2022-08-08T09:17:44Z</end></TimeSpan><styleUrl>#point</styleUrl><Point><altitudeMode>clampToGround</altitudeMode><coordinates>30.320394113659859,-27.541820202022791,1660.3299999999999</coordinates></Point></Placemark><Placemark><TimeSpan><begin>2022-08-08T09:17:44Z</begin><end>2022-08-08T09:17:53Z</end></TimeSpan><styleUrl>#point</styleUrl><Point><altitudeMode>clampToGround</altitudeMode><coordinates>30.318980673328042,-27.541339416056871,1660.8099999999999</coordinates></Point></Placemark><Placemark><TimeSpan><begin>2022-08-08T09:17:53Z</begin><end>2022-08-08T09:18:04Z</end></TimeSpan><styleUrl>#point</styleUrl><Point><altitudeMode>clampToGround</altitudeMode><coordinates>30.317343436181545,-27.540784869343042,1658.8900000000001</coordinates></Point></Placemark><Placemark><TimeSpan><begin>2022-08-08T09:18:04Z</begin><end>2022-08-08T09:18:12Z</end></TimeSpan><styleUrl>#point</styleUrl><Point><altitudeMode>clampToGround</altitudeMode><coordinates>30.316270468756557,-27.540508015081286,1658.4100000000001</coordinates></Point></Placemark><Placemark><TimeSpan><begin>2022-08-08T09:18:12Z</begin><end>2022-08-08T09:18:13Z</end></TimeSpan><styleUrl>#point</styleUrl><Point><altitudeMode>clampToGround</altitudeMode><coordinates>30.31613920815289,-27.540509020909667,1658.4100000000001</coordinates></Point></Placemark><Placemark><TimeSpan><begin>2022-08-08T09:18:13Z</begin><end>2022-08-08T09:18:14Z</end></TimeSpan><styleUrl>#point</styleUrl><Point><altitudeMode>clampToGround</altitudeMode><coordinates>30.316002499312162,-27.54052042029798,1657.9300000000001</coordinates></Point></Placemark><Placemark><TimeSpan><begin>2022-08-08T09:18:14Z</begin><end>2022-08-08T09:18:16Z</end></TimeSpan><styleUrl>#point</styleUrl><Point><altitudeMode>clampToGround</altitudeMode><coordinates>30.315735368058085,-27.540567442774773,1658.4100000000001</coordinates></Point></Placemark><Placemark><TimeSpan><begin>2022-08-08T09:18:16Z</begin><end>2022-08-08T09:18:17Z</end></TimeSpan><styleUrl>#point</styleUrl><Point><altitudeMode>clampToGround</altitudeMode><coordinates>30.315597988665104,-27.540606083348393,1658.4100000000001</coordinates></Point></Placemark><Placemark><TimeSpan><begin>2022-08-08T09:18:17Z</begin><end>2022-08-08T09:18:26Z</end></TimeSpan><styleUrl>#point</styleUrl><Point><altitudeMode>clampToGround</altitudeMode><coordinates>30.314252022653818,-27.541204132139683,1659.8499999999999</coordinates></Point></Placemark><Placemark><TimeSpan><begin>2022-08-08T09:18:26Z</begin><end>2022-08-08T09:18:38Z</end></TimeSpan><styleUrl>#point</styleUrl><Point><altitudeMode>clampToGround</altitudeMode><coordinates>30.312066441401839,-27.542296880856156,1668.99</coordinates></Point></Placemark><Placemark><TimeSpan><begin>2022-08-08T09:18:38Z</begin><end>2022-08-08T09:18:47Z</end></TimeSpan><styleUrl>#point</styleUrl><Point><altitudeMode>clampToGround</altitudeMode><coordinates>30.310469437390566,-27.543356688693166,1678.1199999999999</coordinates></Point></Placemark><Placemark><TimeSpan><begin>2022-08-08T09:18:47Z</begin><end>2022-08-08T09:18:55Z</end></TimeSpan><styleUrl>#point</styleUrl><Point><altitudeMode>clampToGround</altitudeMode><coordinates>30.309294629842043,-27.544148359447718,1683.4100000000001</coordinates></Point></Placemark><Placemark><TimeSpan><begin>2022-08-08T09:18:55Z</begin><end>2022-08-08T09:19:06Z</end></TimeSpan><styleUrl>#point</styleUrl><Point><altitudeMode>clampToGround</altitudeMode><coordinates>30.307931480929255,-27.544781612232327,1687.25</coordinates></Point></Placemark><Placemark><TimeSpan><begin>2022-08-08T09:19:06Z</begin><end>2022-08-08T09:19:21Z</end></TimeSpan><styleUrl>#point</styleUrl><Point><altitudeMode>clampToGround</altitudeMode><coordinates>30.305789820849895,-27.545474795624614,1688.6900000000001</coordinates></Point></Placemark><Placemark><TimeSpan><begin>2022-08-08T09:19:21Z</begin><end>2022-08-08T09:19:35Z</end></TimeSpan><styleUrl>#point</styleUrl><Point><altitudeMode>clampToGround</altitudeMode><coordinates>30.304019562900066,-27.546023558825254,1684.8499999999999</coordinates></Point></Placemark><Placemark><TimeSpan><begin>2022-08-08T09:19:35Z</begin><end>2022-08-08T09:19:45Z</end></TimeSpan><styleUrl>#point</styleUrl><Point><altitudeMode>clampToGround</altitudeMode><coordinates>30.303029743954539,-27.546074269339442,1678.1199999999999</coordinates></Point></Placemark><Placemark><TimeSpan><begin>2022-08-08T09:19:45Z</begin><end>2022-08-08T09:19:46Z</end></TimeSpan><styleUrl>#point</styleUrl><Point><altitudeMode>clampToGround</altitudeMode><coordinates>30.302944416180253,-27.546061612665653,1677.6400000000001</coordinates></Point></Placemark><Placemark><TimeSpan><begin>2022-08-08T09:19:46Z</begin><end>2022-08-08T09:19:47Z</end></TimeSpan><styleUrl>#point</styleUrl><Point><altitudeMode>clampToGround</altitudeMode><coordinates>30.302857160568237,-27.546039819717407,1677.1600000000001</coordinates></Point></Placemark><Placemark><TimeSpan><begin>2022-08-08T09:19:47Z</begin><end>2022-08-08T09:19:53Z</end></TimeSpan><styleUrl>#point</styleUrl><Point><altitudeMode>clampToGround</altitudeMode><coordinates>30.302258273586631,-27.54580152221024,1674.75</coordinates></Point></Placemark><Placemark><TimeSpan><begin>2022-08-08T09:19:53Z</begin><end>2022-08-08T09:19:54Z</end></TimeSpan><styleUrl>#point</styleUrl><Point><altitudeMode>clampToGround</altitudeMode><coordinates>30.302146207541227,-27.545728767290711,1674.75</coordinates></Point></Placemark><Placemark><TimeSpan><begin>2022-08-08T09:19:54Z</begin><end>2022-08-08T09:20:04Z</end></TimeSpan><styleUrl>#point</styleUrl><Point><altitudeMode>clampToGround</altitudeMode><coordinates>30.301147755235434,-27.544751772657037,1673.3099999999999</coordinates></Point></Placemark><Placemark><TimeSpan><begin>2022-08-08T09:20:04Z</begin><end>2022-08-08T09:20:14Z</end></TimeSpan><styleUrl>#point</styleUrl><Point><altitudeMode>clampToGround</altitudeMode><coordinates>30.300422888249159,-27.5434067286551,1672.8299999999999</coordinates></Point></Placemark><Placemark><TimeSpan><begin>2022-08-08T09:20:14Z</begin><end>2022-08-08T09:20:22Z</end></TimeSpan><styleUrl>#point</styleUrl><Point><altitudeMode>clampToGround</altitudeMode><coordinates>30.299781002104282,-27.542258575558662,1671.3900000000001</coordinates></Point></Placemark><Placemark><TimeSpan><begin>2022-08-08T09:20:22Z</begin><end>2022-08-08T09:20:33Z</end></TimeSpan><styleUrl>#point</styleUrl><Point><altitudeMode>clampToGround</altitudeMode><coordinates>30.298679703846574,-27.541108159348369,1665.1400000000001</coordinates></Point></Placemark><Placemark><TimeSpan><begin>2022-08-08T09:20:33Z</begin><end>2022-08-08T09:20:42Z</end></TimeSpan><styleUrl>#point</styleUrl><Point><altitudeMode>clampToGround</altitudeMode><coordinates>30.297765489667654,-27.540147760882974,1660.8099999999999</coordinates></Point></Placemark><Placemark><TimeSpan><begin>2022-08-08T09:20:42Z</begin><end>2022-08-08T09:20:47Z</end></TimeSpan><styleUrl>#point</styleUrl><Point><altitudeMode>clampToGround</altitudeMode><coordinates>30.297460723668337,-27.539859423413873,1660.8099999999999</coordinates></Point></Placemark><Placemark><TimeSpan><begin>2022-08-08T09:20:47Z</begin><end>2022-08-08T09:20:49Z</end></TimeSpan><styleUrl>#point</styleUrl><Point><altitudeMode>clampToGround</altitudeMode><coordinates>30.297346478328109,-27.539782812818885,1660.8099999999999</coordinates></Point></Placemark><Placemark><TimeSpan><begin>2022-08-08T09:20:49Z</begin><end>2022-08-08T09:20:50Z</end></TimeSpan><styleUrl>#point</styleUrl><Point><altitudeMode>clampToGround</altitudeMode><coordinates>30.297291576862335,-27.53972883336246,1661.3</coordinates></Point></Placemark><Placemark><TimeSpan><begin>2022-08-08T09:20:50Z</begin><end>2022-08-08T09:20:55Z</end></TimeSpan><styleUrl>#point</styleUrl><Point><altitudeMode>clampToGround</altitudeMode><coordinates>30.296845575794578,-27.539246873930097,1663.22</coordinates></Point></Placemark><Placemark><TimeSpan><begin>2022-08-08T09:20:55Z</begin><end>2022-08-08T09:21:03Z</end></TimeSpan><styleUrl>#point</styleUrl><Point><altitudeMode>clampToGround</altitudeMode><coordinates>30.295735895633698,-27.538107521831989,1670.9100000000001</coordinates></Point></Placemark><Placemark><TimeSpan><begin>2022-08-08T09:21:03Z</begin><end>2022-08-08T09:21:15Z</end></TimeSpan><styleUrl>#point</styleUrl><Point><altitudeMode>clampToGround</altitudeMode><coordinates>30.294316252693534,-27.536438098177314,1682.9300000000001</coordinates></Point></Placemark><Placemark><TimeSpan><begin>2022-08-08T09:21:15Z</begin><end>2022-08-08T09:21:21Z</end></TimeSpan><styleUrl>#point</styleUrl><Point><altitudeMode>clampToGround</altitudeMode><coordinates>30.293986508622766,-27.535948008298874,1687.25</coordinates></Point></Placemark><Placemark><TimeSpan><begin>2022-08-08T09:21:21Z</begin><end>2022-08-08T09:21:29Z</end></TimeSpan><styleUrl>#point</styleUrl><Point><altitudeMode>clampToGround</altitudeMode><coordinates>30.293535394594073,-27.535174945369363,1692.54</coordinates></Point></Placemark><Placemark><TimeSpan><begin>2022-08-08T09:21:29Z</begin><end>2022-08-08T09:21:40Z</end></TimeSpan><styleUrl>#point</styleUrl><Point><altitudeMode>clampToGround</altitudeMode><coordinates>30.292735258117318,-27.533725211396813,1697.3399999999999</coordinates></Point></Placemark><Placemark><TimeSpan><begin>2022-08-08T09:21:40Z</begin><end>2022-08-08T09:21:51Z</end></TimeSpan><styleUrl>#point</styleUrl><Point><altitudeMode>clampToGround</altitudeMode><coordinates>30.29165843501687,-27.532238261774182,1707.9200000000001</coordinates></Point></Placemark><Placemark><TimeSpan><begin>2022-08-08T09:21:51Z</begin><end>2022-08-08T09:21:58Z</end></TimeSpan><styleUrl>#point</styleUrl><Point><altitudeMode>clampToGround</altitudeMode><coordinates>30.291106319054961,-27.531538791954517,1713.6900000000001</coordinates></Point></Placemark><Placemark><TimeSpan><begin>2022-08-08T09:21:58Z</begin><end>2022-08-08T09:22:12Z</end></TimeSpan><styleUrl>#point</styleUrl><Point><altitudeMode>clampToGround</altitudeMode><coordinates>30.289556924253702,-27.530030719935894,1724.74</coordinates></Point></Placemark><Placemark><TimeSpan><begin>2022-08-08T09:22:12Z</begin><end>2022-08-08T09:22:21Z</end></TimeSpan><styleUrl>#point</styleUrl><Point><altitudeMode>clampToGround</altitudeMode><coordinates>30.288203833624721,-27.529078032821417,1732.4300000000001</coordinates></Point></Placemark><Placemark><TimeSpan><begin>2022-08-08T09:22:21Z</begin><end>2022-08-08T09:22:33Z</end></TimeSpan><styleUrl>#point</styleUrl><Point><altitudeMode>clampToGround</altitudeMode><coordinates>30.28635730035603,-27.527645565569401,1747.8099999999999</coordinates></Point></Placemark><Placemark><TimeSpan><begin>2022-08-08T09:22:33Z</begin><end>2022-08-08T09:22:40Z</end></TimeSpan><styleUrl>#point</styleUrl><Point><altitudeMode>clampToGround</altitudeMode><coordinates>30.285575771704316,-27.527042655274272,1757.9100000000001</coordinates></Point></Placemark><Placemark><TimeSpan><begin>2022-08-08T09:22:40Z</begin><end>2022-08-08T09:22:49Z</end></TimeSpan><styleUrl>#point</styleUrl><Point><altitudeMode>clampToGround</altitudeMode><coordinates>30.284476233646274,-27.5262969173491,1764.1600000000001</coordinates></Point></Placemark><Placemark><TimeSpan><begin>2022-08-08T09:22:49Z</begin><end>2022-08-08T09:22:57Z</end></TimeSpan><styleUrl>#point</styleUrl><Point><altitudeMode>clampToGround</altitudeMode><coordinates>30.283627146854997,-27.525485968217254,1768</coordinates></Point></Placemark><Placemark><TimeSpan><begin>2022-08-08T09:22:57Z</begin><end>2022-08-08T09:23:08Z</end></TimeSpan><styleUrl>#point</styleUrl><Point><altitudeMode>clampToGround</altitudeMode><coordinates>30.282438257709146,-27.524298671633005,1767.04</coordinates></Point></Placemark><Placemark><TimeSpan><begin>2022-08-08T09:23:08Z</begin><end>2022-08-08T09:23:16Z</end></TimeSpan><styleUrl>#point</styleUrl><Point><altitudeMode>clampToGround</altitudeMode><coordinates>30.281257582828403,-27.523674806579947,1768.96</coordinates></Point></Placemark><Placemark><TimeSpan><begin>2022-08-08T09:23:16Z</begin><end>2022-08-08T09:23:27Z</end></TimeSpan><styleUrl>#point</styleUrl><Point><altitudeMode>clampToGround</altitudeMode><coordinates>30.279477518051863,-27.522882968187332,1771.8499999999999</coordinates></Point></Placemark><Placemark><TimeSpan><begin>2022-08-08T09:23:27Z</begin><end>2022-08-08T09:23:34Z</end></TimeSpan><styleUrl>#point</styleUrl><Point><altitudeMode>clampToGround</altitudeMode><coordinates>30.278697833418846,-27.522521456703544,1768</coordinates></Point></Placemark><Placemark><TimeSpan><begin>2022-08-08T09:23:34Z</begin><end>2022-08-08T09:23:35Z</end></TimeSpan><styleUrl>#point</styleUrl><Point><altitudeMode>clampToGround</altitudeMode><coordinates>30.278590377420187,-27.522498490288854,1767.52</coordinates></Point></Placemark><Placemark><TimeSpan><begin>2022-08-08T09:23:35Z</begin><end>2022-08-08T09:23:36Z</end></TimeSpan><styleUrl>#point</styleUrl><Point><altitudeMode>clampToGround</altitudeMode><coordinates>30.278469091281295,-27.522485833615065,1766.5599999999999</coordinates></Point></Placemark><Placemark><TimeSpan><begin>2022-08-08T09:23:36Z</begin><end>2022-08-08T09:23:37Z</end></TimeSpan><styleUrl>#point</styleUrl><Point><altitudeMode>clampToGround</altitudeMode><coordinates>30.278333639726043,-27.522485749796033,1765.1199999999999</coordinates></Point></Placemark><Placemark><TimeSpan><begin>2022-08-08T09:23:37Z</begin><end>2022-08-08T09:23:38Z</end></TimeSpan><styleUrl>#point</styleUrl><Point><altitudeMode>clampToGround</altitudeMode><coordinates>30.278184860944748,-27.522498238831758,1764.1600000000001</coordinates></Point></Placemark><Placemark><TimeSpan><begin>2022-08-08T09:23:38Z</begin><end>2022-08-08T09:23:39Z</end></TimeSpan><styleUrl>#point</styleUrl><Point><altitudeMode>clampToGround</altitudeMode><coordinates>30.278027867898345,-27.52252078615129,1763.2</coordinates></Point></Placemark><Placemark><TimeSpan><begin>2022-08-08T09:23:39Z</begin><end>2022-08-08T09:23:40Z</end></TimeSpan><styleUrl>#point</styleUrl><Point><altitudeMode>clampToGround</altitudeMode><coordinates>30.277868779376149,-27.522553224116564,1762.23</coordinates></Point></Placemark><Placemark><TimeSpan><begin>2022-08-08T09:23:40Z</begin><end>2022-08-08T09:23:47Z</end></TimeSpan><styleUrl>#point</styleUrl><Point><altitudeMode>clampToGround</altitudeMode><coordinates>30.276823556050658,-27.522803759202361,1761.75</coordinates></Point></Placemark><Placemark><TimeSpan><begin>2022-08-08T09:23:47Z</begin><end>2022-08-08T09:23:48Z</end></TimeSpan><styleUrl>#point</styleUrl><Point><altitudeMode>clampToGround</altitudeMode><coordinates>30.276665724813938,-27.522814655676484,1762.71</coordinates></Point></Placemark><Placemark><TimeSpan><begin>2022-08-08T09:23:48Z</begin><end>2022-08-08T09:23:56Z</end></TimeSpan><styleUrl>#point</styleUrl><Point><altitudeMode>clampToGround</altitudeMode><coordinates>30.27520140632987,-27.522723795846105,1775.6900000000001</coordinates></Point></Placemark><Placemark><TimeSpan><begin>2022-08-08T09:23:56Z</begin><end>2022-08-08T09:24:02Z</end></TimeSpan><styleUrl>#point</styleUrl><Point><altitudeMode>clampToGround</altitudeMode><coordinates>30.274174958467484,-27.522615753114223,1787.71</coordinates></Point></Placemark><Placemark><TimeSpan><begin>2022-08-08T09:24:02Z</begin><end>2022-08-08T09:24:14Z</end></TimeSpan><styleUrl>#point</styleUrl><Point><altitudeMode>clampToGround</altitudeMode><coordinates>30.272698486223817,-27.522271005436778,1801.6500000000001</coordinates></Point></Placemark><Placemark><TimeSpan><begin>2022-08-08T09:24:14Z</begin><end>2022-08-08T09:24:23Z</end></TimeSpan><styleUrl>#point</styleUrl><Point><altitudeMode>clampToGround</altitudeMode><coordinates>30.271105505526066,-27.521760212257504,1811.26</coordinates></Point></Placemark><Placemark><TimeSpan><begin>2022-08-08T09:24:23Z</begin><end>2022-08-08T09:24:34Z</end></TimeSpan><styleUrl>#point</styleUrl><Point><altitudeMode>clampToGround</altitudeMode><coordinates>30.269161323085427,-27.521081194281578,1830.97</coordinates></Point></Placemark><Placemark><TimeSpan><begin>2022-08-08T09:24:34Z</begin><end>2022-08-08T09:24:42Z</end></TimeSpan><styleUrl>#point</styleUrl><Point><altitudeMode>clampToGround</altitudeMode><coordinates>30.26817343197763,-27.520352471619844,1848.75</coordinates></Point></Placemark><Placemark><TimeSpan><begin>2022-08-08T09:24:42Z</begin><end>2022-08-08T09:24:53Z</end></TimeSpan><styleUrl>#point</styleUrl><Point><altitudeMode>clampToGround</altitudeMode><coordinates>30.266667539253831,-27.518959231674671,1879.03</coordinates></Point></Placemark><Placemark><TimeSpan><begin>2022-08-08T09:24:53Z</begin><end>2022-08-08T09:25:03Z</end></TimeSpan><styleUrl>#point</styleUrl><Point><altitudeMode>clampToGround</altitudeMode><coordinates>30.265399692580104,-27.517773527652025,1904.51</coordinates></Point></Placemark><Placemark><TimeSpan><begin>2022-08-08T09:25:03Z</begin><end>2022-08-08T09:25:13Z</end></TimeSpan><styleUrl>#point</styleUrl><Point><altitudeMode>clampToGround</altitudeMode><coordinates>30.264091193675995,-27.516750851646066,1926.1400000000001</coordinates></Point></Placemark><Placemark><TimeSpan><begin>2022-08-08T09:25:13Z</begin><end>2022-08-08T09:25:28Z</end></TimeSpan><styleUrl>#point</styleUrl><Point><altitudeMode>clampToGround</altitudeMode><coordinates>30.262067299336195,-27.515501696616411,1962.1900000000001</coordinates></Point></Placemark><Placemark><TimeSpan><begin>2022-08-08T09:25:28Z</begin><end>2022-08-08T09:25:36Z</end></TimeSpan><styleUrl>#point</styleUrl><Point><altitudeMode>clampToGround</altitudeMode><coordinates>30.261044204235077,-27.515108250081539,1964.5899999999999</coordinates></Point></Placemark><Placemark><TimeSpan><begin>2022-08-08T09:25:36Z</begin><end>2022-08-08T09:25:50Z</end></TimeSpan><styleUrl>#point</styleUrl><Point><altitudeMode>clampToGround</altitudeMode><coordinates>30.259052999317646,-27.514417162165046,1961.71</coordinates></Point></Placemark><Placemark><TimeSpan><begin>2022-08-08T09:25:50Z</begin><end>2022-08-08T09:25:59Z</end></TimeSpan><styleUrl>#point</styleUrl><Point><altitudeMode>clampToGround</altitudeMode><coordinates>30.257947174832225,-27.514034193009138,1962.6700000000001</coordinates></Point></Placemark><Placemark><TimeSpan><begin>2022-08-08T09:25:59Z</begin><end>2022-08-08T09:26:10Z</end></TimeSpan><styleUrl>#point</styleUrl><Point><altitudeMode>clampToGround</altitudeMode><coordinates>30.256427535787225,-27.513818359002471,1965.55</coordinates></Point></Placemark><Placemark><TimeSpan><begin>2022-08-08T09:26:10Z</begin><end>2022-08-08T09:26:23Z</end></TimeSpan><styleUrl>#point</styleUrl><Point><altitudeMode>clampToGround</altitudeMode><coordinates>30.254905465990305,-27.513647619634867,1960.75</coordinates></Point></Placemark><Placemark><TimeSpan><begin>2022-08-08T09:26:23Z</begin><end>2022-08-08T09:26:32Z</end></TimeSpan><styleUrl>#point</styleUrl><Point><altitudeMode>clampToGround</altitudeMode><coordinates>30.253505352884531,-27.513429606333375,1967.48</coordinates></Point></Placemark><Placemark><TimeSpan><begin>2022-08-08T09:26:32Z</begin><end>2022-08-08T09:26:41Z</end></TimeSpan><styleUrl>#point</styleUrl><Point><altitudeMode>clampToGround</altitudeMode><coordinates>30.252126110717654,-27.513241181150079,1967.48</coordinates></Point></Placemark><Placemark><TimeSpan><begin>2022-08-08T09:26:41Z</begin><end>2022-08-08T09:26:54Z</end></TimeSpan><styleUrl>#point</styleUrl><Point><altitudeMode>clampToGround</altitudeMode><coordinates>30.250253174453974,-27.512707589194179,1956.4200000000001</coordinates></Point></Placemark><Placemark><TimeSpan><begin>2022-08-08T09:26:54Z</begin><end>2022-08-08T09:27:09Z</end></TimeSpan><styleUrl>#point</styleUrl><Point><altitudeMode>clampToGround</altitudeMode><coordinates>30.247989557683468,-27.511951290071011,1944.4000000000001</coordinates></Point></Placemark><Placemark><TimeSpan><begin>2022-08-08T09:27:09Z</begin><end>2022-08-08T09:27:12Z</end></TimeSpan><styleUrl>#point</styleUrl><Point><altitudeMode>clampToGround</altitudeMode><coordinates>30.247584376484156,-27.51178314909339,1942.48</coordinates></Point></Placemark><Placemark><TimeSpan><begin>2022-08-08T09:27:12Z</begin><end>2022-08-08T09:27:13Z</end></TimeSpan><styleUrl>#point</styleUrl><Point><altitudeMode>clampToGround</altitudeMode><coordinates>30.247463593259454,-27.511707209050655,1942.48</coordinates></Point></Placemark><Placemark><TimeSpan><begin>2022-08-08T09:27:13Z</begin><end>2022-08-08T09:27:14Z</end></TimeSpan><styleUrl>#point</styleUrl><Point><altitudeMode>clampToGround</altitudeMode><coordinates>30.247347922995687,-27.511620372533798,1942</coordinates></Point></Placemark><Placemark><TimeSpan><begin>2022-08-08T09:27:14Z</begin><end>2022-08-08T09:27:21Z</end></TimeSpan><styleUrl>#point</styleUrl><Point><altitudeMode>clampToGround</altitudeMode><coordinates>30.246451226994395,-27.510781176388264,1943.9200000000001</coordinates></Point></Placemark><Placemark><TimeSpan><begin>2022-08-08T09:27:21Z</begin><end>2022-08-08T09:27:29Z</end></TimeSpan><styleUrl>#point</styleUrl><Point><altitudeMode>clampToGround</altitudeMode><coordinates>30.245572803542018,-27.509346446022391,1948.73</coordinates></Point></Placemark><Placemark><TimeSpan><begin>2022-08-08T09:27:29Z</begin><end>2022-08-08T09:27:37Z</end></TimeSpan><styleUrl>#point</styleUrl><Point><altitudeMode>clampToGround</altitudeMode><coordinates>30.244955141097307,-27.507947757840157,1950.6500000000001</coordinates></Point></Placemark><Placemark><TimeSpan><begin>2022-08-08T09:27:37Z</begin><end>2022-08-08T09:27:51Z</end></TimeSpan><styleUrl>#point</styleUrl><Point><altitudeMode>clampToGround</altitudeMode><coordinates>30.243954174220562,-27.505661258473992,1938.1600000000001</coordinates></Point></Placemark><Placemark><TimeSpan><begin>2022-08-08T09:27:51Z</begin><end>2022-08-08T09:28:04Z</end></TimeSpan><styleUrl>#point</styleUrl><Point><altitudeMode>clampToGround</altitudeMode><coordinates>30.243103662505746,-27.503699725493789,1930.95</coordinates></Point></Placemark><Placemark><TimeSpan><begin>2022-08-08T09:28:04Z</begin><end>2022-08-08T09:28:15Z</end></TimeSpan><styleUrl>#point</styleUrl><Point><altitudeMode>clampToGround</altitudeMode><coordinates>30.242526903748512,-27.502215374261141,1927.5799999999999</coordinates></Point></Placemark><Placemark><TimeSpan><begin>2022-08-08T09:28:15Z</begin><end>2022-08-08T09:28:22Z</end></TimeSpan><styleUrl>#point</styleUrl><Point><altitudeMode>clampToGround</altitudeMode><coordinates>30.242367312312126,-27.501686224713922,1929.02</coordinates></Point></Placemark><Placemark><TimeSpan><begin>2022-08-08T09:28:22Z</begin><end>2022-08-08T09:28:25Z</end></TimeSpan><styleUrl>#point</styleUrl><Point><altitudeMode>clampToGround</altitudeMode><coordinates>30.242360439151525,-27.501618834212422,1929.02</coordinates></Point></Placemark><Placemark><TimeSpan><begin>2022-08-08T09:28:25Z</begin><end>2022-08-08T09:28:26Z</end></TimeSpan><styleUrl>#point</styleUrl><Point><altitudeMode>clampToGround</altitudeMode><coordinates>30.242373766377568,-27.501616152003407,1928.54</coordinates></Point></Placemark><Placemark><TimeSpan><begin>2022-08-08T09:28:26Z</begin><end>2022-08-08T09:28:40Z</end></TimeSpan><styleUrl>#point</styleUrl><Point><altitudeMode>clampToGround</altitudeMode><coordinates>30.242380639538169,-27.501622270792723,1928.0599999999999</coordinates></Point></Placemark><Placemark><TimeSpan><begin>2022-08-08T09:28:40Z</begin><end>2022-08-08T09:29:35Z</end></TimeSpan><styleUrl>#point</styleUrl><Point><altitudeMode>clampToGround</altitudeMode><coordinates>30.242375778034329,-27.501617409288883,1928.54</coordinates></Point></Placemark><Placemark><TimeSpan><begin>2022-08-08T09:29:35Z</begin><end>2022-08-08T09:30:32Z</end></TimeSpan><styleUrl>#point</styleUrl><Point><altitudeMode>clampToGround</altitudeMode><coordinates>30.242374185472727,-27.501619337126613,1929.98</coordinates></Point></Placemark><Placemark><TimeSpan><begin>2022-08-08T09:30:32Z</begin><end>2022-08-08T09:31:16Z</end></TimeSpan><styleUrl>#point</styleUrl><Point><altitudeMode>clampToGround</altitudeMode><coordinates>30.242378208786249,-27.501620259135962,1930.95</coordinates></Point></Placemark><Placemark><TimeSpan><begin>2022-08-08T09:31:16Z</begin><end>2022-08-08T09:31:39Z</end></TimeSpan><styleUrl>#point</styleUrl><Point><altitudeMode>clampToGround</altitudeMode><coordinates>30.242360271513462,-27.501614727079868,1930.95</coordinates></Point></Placemark><Placemark><TimeSpan><begin>2022-08-08T09:31:39Z</begin><end>2022-08-08T09:31:40Z</end></TimeSpan><styleUrl>#point</styleUrl><Point><altitudeMode>clampToGround</altitudeMode><coordinates>30.242354990914464,-27.501596789807081,1930.95</coordinates></Point></Placemark><Placemark><TimeSpan><begin>2022-08-08T09:31:40Z</begin><end>2022-08-08T09:31:41Z</end></TimeSpan><styleUrl>#point</styleUrl><Point><altitudeMode>clampToGround</altitudeMode><coordinates>30.242339232936502,-27.501567034050822,1930.95</coordinates></Point></Placemark><Placemark><TimeSpan><begin>2022-08-08T09:31:41Z</begin><end>2022-08-08T09:31:51Z</end></TimeSpan><styleUrl>#point</styleUrl><Point><altitudeMode>clampToGround</altitudeMode><coordinates>30.242002699524164,-27.501108711585402,1926.1400000000001</coordinates></Point></Placemark><Placemark><TimeSpan><begin>2022-08-08T09:31:51Z</begin><end>2022-08-08T09:32:03Z</end></TimeSpan><styleUrl>#point</styleUrl><Point><altitudeMode>clampToGround</altitudeMode><coordinates>30.241352766752243,-27.500427598133683,1915.0799999999999</coordinates></Point></Placemark><Placemark><TimeSpan><begin>2022-08-08T09:32:03Z</begin><end>2022-08-08T09:32:12Z</end></TimeSpan><styleUrl>#point</styleUrl><Point><altitudeMode>clampToGround</altitudeMode><coordinates>30.241058059036732,-27.499476335942745,1912.2</coordinates></Point></Placemark><Placemark><TimeSpan><begin>2022-08-08T09:32:12Z</begin><end>2022-08-08T09:32:23Z</end></TimeSpan><styleUrl>#point</styleUrl><Point><altitudeMode>clampToGround</altitudeMode><coordinates>30.240800064057112,-27.498094579204917,1900.6600000000001</coordinates></Point></Placemark><Placemark><TimeSpan><begin>2022-08-08T09:32:23Z</begin><end>2022-08-08T09:32:34Z</end></TimeSpan><styleUrl>#point</styleUrl><Point><altitudeMode>clampToGround</altitudeMode><coordinates>30.240660589188337,-27.496609054505825,1891.05</coordinates></Point></Placemark><Placemark><TimeSpan><begin>2022-08-08T09:32:34Z</begin><end>2022-08-08T09:32:46Z</end></TimeSpan><styleUrl>#point</styleUrl><Point><altitudeMode>clampToGround</altitudeMode><coordinates>30.24075455032289,-27.495000651106238,1881.4400000000001</coordinates></Point></Placemark><Placemark><TimeSpan><begin>2022-08-08T09:32:46Z</begin><end>2022-08-08T09:32:53Z</end></TimeSpan><styleUrl>#point</styleUrl><Point><altitudeMode>clampToGround</altitudeMode><coordinates>30.241196108981967,-27.494109403342009,1880.96</coordinates></Point></Placemark><Placemark><TimeSpan><begin>2022-08-08T09:32:53Z</begin><end>2022-08-08T09:32:54Z</end></TimeSpan><styleUrl>#point</styleUrl><Point><altitudeMode>clampToGround</altitudeMode><coordinates>30.24128956720233,-27.494007144123316,1880.96</coordinates></Point></Placemark><Placemark><TimeSpan><begin>2022-08-08T09:32:54Z</begin><end>2022-08-08T09:32:55Z</end></TimeSpan><styleUrl>#point</styleUrl><Point><altitudeMode>clampToGround</altitudeMode><coordinates>30.241386210545897,-27.49391745775938,1880.96</coordinates></Point></Placemark><Placemark><TimeSpan><begin>2022-08-08T09:32:55Z</begin><end>2022-08-08T09:33:00Z</end></TimeSpan><styleUrl>#point</styleUrl><Point><altitudeMode>clampToGround</altitudeMode><coordinates>30.24178896099329,-27.493531135842204,1881.9200000000001</coordinates></Point></Placemark><Placemark><TimeSpan><begin>2022-08-08T09:33:00Z</begin><end>2022-08-08T09:33:01Z</end></TimeSpan><styleUrl>#point</styleUrl><Point><altitudeMode>clampToGround</altitudeMode><coordinates>30.241836486384273,-27.493459638208151,1882.4000000000001</coordinates></Point></Placemark><Placemark><TimeSpan><begin>2022-08-08T09:33:01Z</begin><end>2022-08-08T09:33:02Z</end></TimeSpan><styleUrl>#point</styleUrl><Point><altitudeMode>clampToGround</altitudeMode><coordinates>30.24187152273953,-27.493386128917336,1882.4000000000001</coordinates></Point></Placemark><Placemark><TimeSpan><begin>2022-08-08T09:33:02Z</begin><end>2022-08-08T09:33:03Z</end></TimeSpan><styleUrl>#point</styleUrl><Point><altitudeMode>clampToGround</altitudeMode><coordinates>30.241891723126173,-27.493310859426856,1882.4000000000001</coordinates></Point></Placemark><Placemark><TimeSpan><begin>2022-08-08T09:33:03Z</begin><end>2022-08-08T09:33:04Z</end></TimeSpan><styleUrl>#point</styleUrl><Point><altitudeMode>clampToGround</altitudeMode><coordinates>30.241895662620664,-27.493234584107995,1882.4000000000001</coordinates></Point></Placemark><Placemark><TimeSpan><begin>2022-08-08T09:33:04Z</begin><end>2022-08-08T09:33:05Z</end></TimeSpan><styleUrl>#point</styleUrl><Point><altitudeMode>clampToGround</altitudeMode><coordinates>30.241885520517826,-27.49315763823688,1882.4000000000001</coordinates></Point></Placemark><Placemark><TimeSpan><begin>2022-08-08T09:33:05Z</begin><end>2022-08-08T09:33:06Z</end></TimeSpan><styleUrl>#point</styleUrl><Point><altitudeMode>clampToGround</altitudeMode><coordinates>30.241865739226341,-27.49307993799448,1882.4000000000001</coordinates></Point></Placemark><Placemark><TimeSpan><begin>2022-08-08T09:33:06Z</begin><end>2022-08-08T09:33:07Z</end></TimeSpan><styleUrl>#point</styleUrl><Point><altitudeMode>clampToGround</altitudeMode><coordinates>30.241841096431017,-27.493001986294985,1881.9200000000001</coordinates></Point></Placemark><Placemark><TimeSpan><begin>2022-08-08T09:33:07Z</begin><end>2022-08-08T09:33:15Z</end></TimeSpan><styleUrl>#point</styleUrl><Point><altitudeMode>clampToGround</altitudeMode><coordinates>30.241455445066094,-27.492318358272314,1879.03</coordinates></Point></Placemark><Placemark><TimeSpan><begin>2022-08-08T09:33:15Z</begin><end>2022-08-08T09:33:22Z</end></TimeSpan><styleUrl>#point</styleUrl><Point><altitudeMode>clampToGround</altitudeMode><coordinates>30.241105332970619,-27.491802116855979,1878.55</coordinates></Point></Placemark><Placemark><TimeSpan><begin>2022-08-08T09:33:22Z</begin><end>2022-08-08T09:33:31Z</end></TimeSpan><styleUrl>#point</styleUrl><Point><altitudeMode>clampToGround</altitudeMode><coordinates>30.240438720211387,-27.49082587659359,1878.0699999999999</coordinates></Point></Placemark><Placemark><TimeSpan><begin>2022-08-08T09:33:31Z</begin><end>2022-08-08T09:33:38Z</end></TimeSpan><styleUrl>#point</styleUrl><Point><altitudeMode>clampToGround</altitudeMode><coordinates>30.24019505828619,-27.490474674850702,1878.0699999999999</coordinates></Point></Placemark><Placemark><TimeSpan><begin>2022-08-08T09:33:38Z</begin><end>2022-08-08T09:33:47Z</end></TimeSpan><styleUrl>#point</styleUrl><Point><altitudeMode>clampToGround</altitudeMode><coordinates>30.240184245631099,-27.490455564111471,1877.5899999999999</coordinates></Point></Placemark><Placemark><TimeSpan><begin>2022-08-08T09:33:47Z</begin><end>2022-08-08T09:34:22Z</end></TimeSpan><styleUrl>#point</styleUrl><Point><altitudeMode>clampToGround</altitudeMode><coordinates>30.240176366642118,-27.49046134762466,1876.6300000000001</coordinates></Point></Placemark><Placemark><TimeSpan><begin>2022-08-08T09:34:22Z</begin><end>2022-08-08T09:34:54Z</end></TimeSpan><styleUrl>#point</styleUrl><Point><altitudeMode>clampToGround</altitudeMode><coordinates>30.240174690261483,-27.490463946014643,1877.1099999999999</coordinates></Point></Placemark><Placemark><TimeSpan><begin>2022-08-08T09:34:54Z</begin><end>2022-08-08T09:35:25Z</end></TimeSpan><styleUrl>#point</styleUrl><Point><altitudeMode>clampToGround</altitudeMode><coordinates>30.240174354985356,-27.49047065153718,1877.5899999999999</coordinates></Point></Placemark><Placemark><TimeSpan><begin>2022-08-08T09:35:25Z</begin><end>2022-08-08T09:35:55Z</end></TimeSpan><styleUrl>#point</styleUrl><Point><altitudeMode>clampToGround</altitudeMode><coordinates>30.240176115185022,-27.49046428129077,1876.6300000000001</coordinates></Point></Placemark><Placemark><TimeSpan><begin>2022-08-08T09:35:55Z</begin><end>2022-08-08T09:36:21Z</end></TimeSpan><styleUrl>#point</styleUrl><Point><altitudeMode>clampToGround</altitudeMode><coordinates>30.240176618099213,-27.490451792255044,1876.1500000000001</coordinates></Point></Placemark><Placemark><TimeSpan><begin>2022-08-08T09:36:21Z</begin><end>2022-08-08T09:36:43Z</end></TimeSpan><styleUrl>#point</styleUrl><Point><altitudeMode>clampToGround</altitudeMode><coordinates>30.240176366642118,-27.490450702607632,1876.1500000000001</coordinates></Point></Placemark><Placemark><TimeSpan><begin>2022-08-08T09:36:43Z</begin><end>2022-08-08T09:37:12Z</end></TimeSpan><styleUrl>#point</styleUrl><Point><altitudeMode>clampToGround</altitudeMode><coordinates>30.240172762423754,-27.490458581596613,1876.6300000000001</coordinates></Point></Placemark><Placemark><TimeSpan><begin>2022-08-08T09:37:12Z</begin><end>2022-08-08T09:37:42Z</end></TimeSpan><styleUrl>#point</styleUrl><Point><altitudeMode>clampToGround</altitudeMode><coordinates>30.240173768252134,-27.490468556061387,1877.5899999999999</coordinates></Point></Placemark><Placemark><TimeSpan><begin>2022-08-08T09:37:42Z</begin><end>2022-08-08T09:38:19Z</end></TimeSpan><styleUrl>#point</styleUrl><Point><altitudeMode>clampToGround</altitudeMode><coordinates>30.240173181518912,-27.490467885509133,1878.0699999999999</coordinates></Point></Placemark><Placemark><TimeSpan><begin>2022-08-08T09:38:19Z</begin><end>2022-08-08T09:38:53Z</end></TimeSpan><styleUrl>#point</styleUrl><Point><altitudeMode>clampToGround</altitudeMode><coordinates>30.24017695337534,-27.490461934357882,1878.0699999999999</coordinates></Point></Placemark><Placemark><TimeSpan><begin>2022-08-08T09:38:53Z</begin><end>2022-08-08T09:39:27Z</end></TimeSpan><styleUrl>#point</styleUrl><Point><altitudeMode>clampToGround</altitudeMode><coordinates>30.240183072164655,-27.490457827225327,1878.0699999999999</coordinates></Point></Placemark><Placemark><TimeSpan><begin>2022-08-08T09:39:27Z</begin><end>2022-08-08T09:39:38Z</end></TimeSpan><styleUrl>#point</styleUrl><Point><altitudeMode>clampToGround</altitudeMode><coordinates>30.240054745227098,-27.490276610478759,1877.1099999999999</coordinates></Point></Placemark><Placemark><TimeSpan><begin>2022-08-08T09:39:38Z</begin><end>2022-08-08T09:39:50Z</end></TimeSpan><styleUrl>#point</styleUrl><Point><altitudeMode>clampToGround</altitudeMode><coordinates>30.239471700042486,-27.48948996886611,1872.3</coordinates></Point></Placemark><Placemark><TimeSpan><begin>2022-08-08T09:39:50Z</begin><end>2022-08-08T09:40:02Z</end></TimeSpan><styleUrl>#point</styleUrl><Point><altitudeMode>clampToGround</altitudeMode><coordinates>30.238948836922646,-27.488364698365331,1879.03</coordinates></Point></Placemark><Placemark><TimeSpan><begin>2022-08-08T09:40:02Z</begin><end>2022-08-08T09:40:16Z</end></TimeSpan><styleUrl>#point</styleUrl><Point><altitudeMode>clampToGround</altitudeMode><coordinates>30.238475007936358,-27.486689239740372,1892.49</coordinates></Point></Placemark><Placemark><TimeSpan><begin>2022-08-08T09:40:16Z</begin><end>2022-08-08T09:40:29Z</end></TimeSpan><styleUrl>#point</styleUrl><Point><altitudeMode>clampToGround</altitudeMode><coordinates>30.238082567229867,-27.485295329242945,1907.8699999999999</coordinates></Point></Placemark><Placemark><TimeSpan><begin>2022-08-08T09:40:29Z</begin><end>2022-08-08T09:40:42Z</end></TimeSpan><styleUrl>#point</styleUrl><Point><altitudeMode>clampToGround</altitudeMode><coordinates>30.237820632755756,-27.483678041025996,1915.0799999999999</coordinates></Point></Placemark><Placemark><TimeSpan><begin>2022-08-08T09:40:42Z</begin><end>2022-08-08T09:40:50Z</end></TimeSpan><styleUrl>#point</styleUrl><Point><altitudeMode>clampToGround</altitudeMode><coordinates>30.238111820071936,-27.482659136876464,1917.49</coordinates></Point></Placemark><Placemark><TimeSpan><begin>2022-08-08T09:40:50Z</begin><end>2022-08-08T09:41:00Z</end></TimeSpan><styleUrl>#point</styleUrl><Point><altitudeMode>clampToGround</altitudeMode><coordinates>30.23857181891799,-27.481429930776358,1922.29</coordinates></Point></Placemark><Placemark><TimeSpan><begin>2022-08-08T09:41:00Z</begin><end>2022-08-08T09:41:11Z</end></TimeSpan><styleUrl>#point</styleUrl><Point><altitudeMode>clampToGround</altitudeMode><coordinates>30.238714227452874,-27.480148756876588,1915.5599999999999</coordinates></Point></Placemark><Placemark><TimeSpan><begin>2022-08-08T09:41:11Z</begin><end>2022-08-08T09:41:23Z</end></TimeSpan><styleUrl>#point</styleUrl><Point><altitudeMode>clampToGround</altitudeMode><coordinates>30.238676005974412,-27.478801114484668,1902.5899999999999</coordinates></Point></Placemark><Placemark><TimeSpan><begin>2022-08-08T09:41:23Z</begin><end>2022-08-08T09:41:28Z</end></TimeSpan><styleUrl>#point</styleUrl><Point><altitudeMode>clampToGround</altitudeMode><coordinates>30.238716742023826,-27.478366764262319,1900.1800000000001</coordinates></Point></Placemark><Placemark><TimeSpan><begin>2022-08-08T09:41:28Z</begin><end>2022-08-08T09:41:29Z</end></TimeSpan><styleUrl>#point</styleUrl><Point><altitudeMode>clampToGround</altitudeMode><coordinates>30.238703247159719,-27.47828814201057,1899.7</coordinates></Point></Placemark><Placemark><TimeSpan><begin>2022-08-08T09:41:29Z</begin><end>2022-08-08T09:41:30Z</end></TimeSpan><styleUrl>#point</styleUrl><Point><altitudeMode>clampToGround</altitudeMode><coordinates>30.238680699840188,-27.478216141462326,1899.22</coordinates></Point></Placemark><Placemark><TimeSpan><begin>2022-08-08T09:41:30Z</begin><end>2022-08-08T09:41:31Z</end></TimeSpan><styleUrl>#point</styleUrl><Point><altitudeMode>clampToGround</altitudeMode><coordinates>30.238650441169739,-27.478152355179191,1898.74</coordinates></Point></Placemark><Placemark><TimeSpan><begin>2022-08-08T09:41:31Z</begin><end>2022-08-08T09:41:32Z</end></TimeSpan><styleUrl>#point</styleUrl><Point><altitudeMode>clampToGround</altitudeMode><coordinates>30.238613896071911,-27.478093849495053,1897.78</coordinates></Point></Placemark><Placemark><TimeSpan><begin>2022-08-08T09:41:32Z</begin><end>2022-08-08T09:41:33Z</end></TimeSpan><styleUrl>#point</styleUrl><Point><altitudeMode>clampToGround</altitudeMode><coordinates>30.238574165850878,-27.478039618581533,1897.3</coordinates></Point></Placemark><Placemark><TimeSpan><begin>2022-08-08T09:41:33Z</begin><end>2022-08-08T09:41:34Z</end></TimeSpan><styleUrl>#point</styleUrl><Point><altitudeMode>clampToGround</altitudeMode><coordinates>30.238529574126005,-27.477990752086043,1896.8199999999999</coordinates></Point></Placemark><Placemark><TimeSpan><begin>2022-08-08T09:41:34Z</begin><end>2022-08-08T09:41:35Z</end></TimeSpan><styleUrl>#point</styleUrl><Point><altitudeMode>clampToGround</altitudeMode><coordinates>30.238475343212485,-27.477946998551488,1896.3399999999999</coordinates></Point></Placemark><Placemark><TimeSpan><begin>2022-08-08T09:41:35Z</begin><end>2022-08-08T09:41:36Z</end></TimeSpan><styleUrl>#point</styleUrl><Point><altitudeMode>clampToGround</altitudeMode><coordinates>30.23840962909162,-27.477905172854662,1895.8599999999999</coordinates></Point></Placemark><Placemark><TimeSpan><begin>2022-08-08T09:41:36Z</begin><end>2022-08-08T09:41:37Z</end></TimeSpan><styleUrl>#point</styleUrl><Point><altitudeMode>clampToGround</altitudeMode><coordinates>30.238333437591791,-27.477864352986217,1895.3800000000001</coordinates></Point></Placemark><Placemark><TimeSpan><begin>2022-08-08T09:41:37Z</begin><end>2022-08-08T09:41:38Z</end></TimeSpan><styleUrl>#point</styleUrl><Point><altitudeMode>clampToGround</altitudeMode><coordinates>30.23824886418879,-27.477823281660676,1894.4200000000001</coordinates></Point></Placemark><Placemark><TimeSpan><begin>2022-08-08T09:41:38Z</begin><end>2022-08-08T09:41:48Z</end></TimeSpan><styleUrl>#point</styleUrl><Point><altitudeMode>clampToGround</altitudeMode><coordinates>30.237176567316055,-27.477360432967544,1886.24</coordinates></Point></Placemark><Placemark><TimeSpan><begin>2022-08-08T09:41:48Z</begin><end>2022-08-08T09:42:02Z</end></TimeSpan><styleUrl>#point</styleUrl><Point><altitudeMode>clampToGround</altitudeMode><coordinates>30.235634967684746,-27.476639840751886,1873.27</coordinates></Point></Placemark><Placemark><TimeSpan><begin>2022-08-08T09:42:02Z</begin><end>2022-08-08T09:42:20Z</end></TimeSpan><styleUrl>#point</styleUrl><Point><altitudeMode>clampToGround</altitudeMode><coordinates>30.233809221535921,-27.475679693743587,1851.1600000000001</coordinates></Point></Placemark><Placemark><TimeSpan><begin>2022-08-08T09:42:20Z</begin><end>2022-08-08T09:42:26Z</end></TimeSpan><styleUrl>#point</styleUrl><Point><altitudeMode>clampToGround</altitudeMode><coordinates>30.232885284349322,-27.475195555016398,1845.3900000000001</coordinates></Point></Placemark><Placemark><TimeSpan><begin>2022-08-08T09:42:26Z</begin><end>2022-08-08T09:42:33Z</end></TimeSpan><styleUrl>#point</styleUrl><Point><altitudeMode>clampToGround</altitudeMode><coordinates>30.231895130127668,-27.474677721038461,1844.4300000000001</coordinates></Point></Placemark><Placemark><TimeSpan><begin>2022-08-08T09:42:33Z</begin><end>2022-08-08T09:42:36Z</end></TimeSpan><styleUrl>#point</styleUrl><Point><altitudeMode>clampToGround</altitudeMode><coordinates>30.231572343036532,-27.474453253671527,1844.4300000000001</coordinates></Point></Placemark><Placemark><TimeSpan><begin>2022-08-08T09:42:36Z</begin><end>2022-08-08T09:42:37Z</end></TimeSpan><styleUrl>#point</styleUrl><Point><altitudeMode>clampToGround</altitudeMode><coordinates>30.231481986120343,-27.474367339164019,1844.4300000000001</coordinates></Point></Placemark><Placemark><TimeSpan><begin>2022-08-08T09:42:37Z</begin><end>2022-08-08T09:42:47Z</end></TimeSpan><styleUrl>#point</styleUrl><Point><altitudeMode>clampToGround</altitudeMode><coordinates>30.230572549626231,-27.473338879644871,1842.98</coordinates></Point></Placemark><Placemark><TimeSpan><begin>2022-08-08T09:42:47Z</begin><end>2022-08-08T09:42:59Z</end></TimeSpan><styleUrl>#point</styleUrl><Point><altitudeMode>clampToGround</altitudeMode><coordinates>30.229230606928468,-27.472186954692006,1846.8299999999999</coordinates></Point></Placemark><Placemark><TimeSpan><begin>2022-08-08T09:42:59Z</begin><end>2022-08-08T09:43:13Z</end></TimeSpan><styleUrl>#point</styleUrl><Point><altitudeMode>clampToGround</altitudeMode><coordinates>30.227674171328545,-27.470954060554504,1847.3099999999999</coordinates></Point></Placemark><Placemark><TimeSpan><begin>2022-08-08T09:43:13Z</begin><end>2022-08-08T09:43:19Z</end></TimeSpan><styleUrl>#point</styleUrl><Point><altitudeMode>clampToGround</altitudeMode><coordinates>30.227258931845427,-27.47046179138124,1843.95</coordinates></Point></Placemark><Placemark><TimeSpan><begin>2022-08-08T09:43:19Z</begin><end>2022-08-08T09:43:20Z</end></TimeSpan><styleUrl>#point</styleUrl><Point><altitudeMode>clampToGround</altitudeMode><coordinates>30.227221632376313,-27.470371015369892,1843.47</coordinates></Point></Placemark><Placemark><TimeSpan><begin>2022-08-08T09:43:20Z</begin><end>2022-08-08T09:43:21Z</end></TimeSpan><styleUrl>#point</styleUrl><Point><altitudeMode>clampToGround</altitudeMode><coordinates>30.227195983752608,-27.470274204388261,1842.98</coordinates></Point></Placemark><Placemark><TimeSpan><begin>2022-08-08T09:43:21Z</begin><end>2022-08-08T09:43:22Z</end></TimeSpan><styleUrl>#point</styleUrl><Point><altitudeMode>clampToGround</altitudeMode><coordinates>30.227182656526566,-27.470173789188266,1842.02</coordinates></Point></Placemark><Placemark><TimeSpan><begin>2022-08-08T09:43:22Z</begin><end>2022-08-08T09:43:23Z</end></TimeSpan><styleUrl>#point</styleUrl><Point><altitudeMode>clampToGround</altitudeMode><coordinates>30.227178046479821,-27.470064153894782,1841.54</coordinates></Point></Placemark><Placemark><TimeSpan><begin>2022-08-08T09:43:23Z</begin><end>2022-08-08T09:43:24Z</end></TimeSpan><styleUrl>#point</styleUrl><Point><altitudeMode>clampToGround</altitudeMode><coordinates>30.2271843329072,-27.469947142526507,1840.5799999999999</coordinates></Point></Placemark><Placemark><TimeSpan><begin>2022-08-08T09:43:24Z</begin><end>2022-08-08T09:43:25Z</end></TimeSpan><styleUrl>#point</styleUrl><Point><altitudeMode>clampToGround</altitudeMode><coordinates>30.227200090885162,-27.469824012368917,1840.0999999999999</coordinates></Point></Placemark><Placemark><TimeSpan><begin>2022-08-08T09:43:25Z</begin><end>2022-08-08T09:43:26Z</end></TimeSpan><styleUrl>#point</styleUrl><Point><altitudeMode>clampToGround</altitudeMode><coordinates>30.227224482223392,-27.469695433974266,1839.1400000000001</coordinates></Point></Placemark><Placemark><TimeSpan><begin>2022-08-08T09:43:26Z</begin><end>2022-08-08T09:43:38Z</end></TimeSpan><styleUrl>#point</styleUrl><Point><altitudeMode>clampToGround</altitudeMode><coordinates>30.227631507441401,-27.468247124925256,1828.0799999999999</coordinates></Point></Placemark><Placemark><TimeSpan><begin>2022-08-08T09:43:38Z</begin><end>2022-08-08T09:43:51Z</end></TimeSpan><styleUrl>#point</styleUrl><Point><altitudeMode>clampToGround</altitudeMode><coordinates>30.228081867098808,-27.466667555272579,1813.1800000000001</coordinates></Point></Placemark><Placemark><TimeSpan><begin>2022-08-08T09:43:51Z</begin><end>2022-08-08T09:44:07Z</end></TimeSpan><styleUrl>#point</styleUrl><Point><altitudeMode>clampToGround</altitudeMode><coordinates>30.228573884814978,-27.464896123856306,1802.1300000000001</coordinates></Point></Placemark><Placemark><TimeSpan><begin>2022-08-08T09:44:07Z</begin><end>2022-08-08T09:44:19Z</end></TimeSpan><styleUrl>#point</styleUrl><Point><altitudeMode>clampToGround</altitudeMode><coordinates>30.228976299986243,-27.463470445945859,1792.52</coordinates></Point></Placemark><Placemark><TimeSpan><begin>2022-08-08T09:44:19Z</begin><end>2022-08-08T09:44:28Z</end></TimeSpan><styleUrl>#point</styleUrl><Point><altitudeMode>clampToGround</altitudeMode><coordinates>30.229178806766868,-27.462668046355247,1787.23</coordinates></Point></Placemark><Placemark><TimeSpan><begin>2022-08-08T09:44:28Z</begin><end>2022-08-08T09:44:29Z</end></TimeSpan><styleUrl>#point</styleUrl><Point><altitudeMode>clampToGround</altitudeMode><coordinates>30.22920235991478,-27.462627310305834,1786.75</coordinates></Point></Placemark><Placemark><TimeSpan><begin>2022-08-08T09:44:29Z</begin><end>2022-08-08T09:44:30Z</end></TimeSpan><styleUrl>#point</styleUrl><Point><altitudeMode>clampToGround</altitudeMode><coordinates>30.229233037680387,-27.462596632540226,1786.27</coordinates></Point></Placemark><Placemark><TimeSpan><begin>2022-08-08T09:44:30Z</begin><end>2022-08-08T09:44:31Z</end></TimeSpan><styleUrl>#point</styleUrl><Point><altitudeMode>clampToGround</altitudeMode><coordinates>30.229276204481721,-27.462575174868107,1785.79</coordinates></Point></Placemark></Folder><Placemark><name>[286] Dirt Road</name><Style><LineStyle><color>ffff4040</color><width>4</width></LineStyle></Style><MultiGeometry><LineString><coordinates>30.388378472998738,-27.585836509242654,1609.3800000000001 30.388381071388721,-27.585842041298747,1608.9000000000001 30.388379227370024,-27.585840532556176,1609.3800000000001 30.388381909579039,-27.585839442908764,1609.3800000000001 30.388381239026785,-27.585833743214607,1609.3800000000001 30.388346957042813,-27.585822511464357,1609.3800000000001 30.388327343389392,-27.585809268057346,1609.3800000000001 30.388296246528625,-27.585789822041988,1609.3800000000001 30.38777849636972,-27.585461586713791,1605.54 30.386789767071605,-27.584861945360899,1601.6900000000001 30.386407552286983,-27.584657007828355,1599.77 30.386325074359775,-27.584604201838374,1599.29 30.385613869875669,-27.584193320944905,1597.8499999999999 30.383908487856388,-27.583268461748958,1594.48 30.382525976747274,-27.582502020522952,1593.52 30.380817241966724,-27.581559307873249,1592.0799999999999 30.379200372844934,-27.580587426200509,1591.1199999999999 30.378125729039311,-27.57979785092175,1589.2 30.376836340874434,-27.578642070293427,1581.99 30.375744011253119,-27.577554937452078,1575.74 30.374401230365038,-27.576338052749634,1564.6800000000001 30.372573891654611,-27.575105829164386,1552.6700000000001 30.371334124356508,-27.574678268283606,1546.9000000000001 30.369564620777965,-27.57431541569531,1550.26 30.367457745596766,-27.573823900893331,1556.03 30.366579489782453,-27.573440680280328,1558.9200000000001 30.365615654736757,-27.572683459147811,1560.8399999999999 30.365550275892019,-27.57259058766067,1561.3199999999999 30.365061610937119,-27.571495240554214,1563.24 30.364250829443336,-27.569288872182369,1564.6800000000001 30.363681362941861,-27.568210372701287,1564.6800000000001 30.36248660646379,-27.567196162417531,1568.53 30.361488573253155,-27.566562071442604,1566.1199999999999 30.359788304194808,-27.565588764846325,1573.3299999999999 30.358186438679695,-27.564672622829676,1586.79 30.356077551841736,-27.563483901321888,1596.8900000000001 30.354411816224456,-27.562592066824436,1605.54 30.352707523852587,-27.561059854924679,1616.5899999999999 30.352503592148423,-27.560891630128026,1617.5599999999999 30.352393956854939,-27.560825832188129,1618.52 30.352279460057616,-27.560770427808166,1619.48 30.352159598842263,-27.560723405331373,1620.4400000000001 30.352031942456961,-27.560681747272611,1621.4000000000001 30.351895401254296,-27.560644196346402,1622.3599999999999 30.350507693365216,-27.560337921604514,1624.77 30.348572647199035,-27.559760073199868,1629.5699999999999 30.346057238057256,-27.558818366378546,1637.26 30.343387518078089,-27.55789065733552,1643.51 30.34191825427115,-27.557400986552238,1646.8800000000001 30.341077800840139,-27.556819198653102,1650.72 30.340193929150701,-27.555483123287559,1657.45 30.339179467409849,-27.553956443443894,1658.4100000000001 30.338330799713731,-27.552886409685016,1655.05 30.337334778159857,-27.551764827221632,1648.3199999999999 30.336085371673107,-27.550627235323191,1637.74 30.334591129794717,-27.54921262152493,1631.49 30.332976775243878,-27.547481926158071,1640.6300000000001 30.331671545282006,-27.546374006196856,1635.3399999999999 30.331419166177511,-27.546232016757131,1634.3800000000001 30.329732475802302,-27.54540229216218,1638.7 30.328593291342258,-27.544577931985259,1635.8199999999999 30.327430134639144,-27.543597668409348,1635.8199999999999 30.32634325325489,-27.542573986575007,1643.03 30.326128425076604,-27.542418334633112,1643.99 30.326017281040549,-27.542359745129943,1644.47 30.325898006558418,-27.542310627177358,1644.95 30.32576858997345,-27.542268801480532,1644.95 30.325627941638231,-27.542231334373355,1644.95 30.324102351441979,-27.542027067393064,1644.95 30.322218351066113,-27.541958587244153,1652.1600000000001 30.320394113659859,-27.541820202022791,1660.3299999999999 30.318980673328042,-27.541339416056871,1660.8099999999999 30.317343436181545,-27.540784869343042,1658.8900000000001 30.316270468756557,-27.540508015081286,1658.4100000000001 30.31613920815289,-27.540509020909667,1658.4100000000001 30.316002499312162,-27.54052042029798,1657.9300000000001 30.315735368058085,-27.540567442774773,1658.4100000000001 30.315597988665104,-27.540606083348393,1658.4100000000001 30.314252022653818,-27.541204132139683,1659.8499999999999 30.312066441401839,-27.542296880856156,1668.99 30.310469437390566,-27.543356688693166,1678.1199999999999 30.309294629842043,-27.544148359447718,1683.4100000000001 30.307931480929255,-27.544781612232327,1687.25 30.305789820849895,-27.545474795624614,1688.6900000000001 30.304019562900066,-27.546023558825254,1684.8499999999999 30.303029743954539,-27.546074269339442,1678.1199999999999 30.302944416180253,-27.546061612665653,1677.6400000000001 30.302857160568237,-27.546039819717407,1677.1600000000001 30.302258273586631,-27.54580152221024,1674.75 30.302146207541227,-27.545728767290711,1674.75 30.301147755235434,-27.544751772657037,1673.3099999999999 30.300422888249159,-27.5434067286551,1672.8299999999999 30.299781002104282,-27.542258575558662,1671.3900000000001 30.298679703846574,-27.541108159348369,1665.1400000000001 30.297765489667654,-27.540147760882974,1660.8099999999999 30.297460723668337,-27.539859423413873,1660.8099999999999 30.297346478328109,-27.539782812818885,1660.8099999999999 30.297291576862335,-27.53972883336246,1661.3 30.296845575794578,-27.539246873930097,1663.22 30.295735895633698,-27.538107521831989,1670.9100000000001 30.294316252693534,-27.536438098177314,1682.9300000000001 30.293986508622766,-27.535948008298874,1687.25 30.293535394594073,-27.535174945369363,1692.54 30.292735258117318,-27.533725211396813,1697.3399999999999 30.29165843501687,-27.532238261774182,1707.9200000000001 30.291106319054961,-27.531538791954517,1713.6900000000001 30.289556924253702,-27.530030719935894,1724.74 30.288203833624721,-27.529078032821417,1732.4300000000001 30.28635730035603,-27.527645565569401,1747.8099999999999 30.285575771704316,-27.527042655274272,1757.9100000000001 30.284476233646274,-27.5262969173491,1764.1600000000001 30.283627146854997,-27.525485968217254,1768 30.282438257709146,-27.524298671633005,1767.04 30.281257582828403,-27.523674806579947,1768.96 30.279477518051863,-27.522882968187332,1771.8499999999999 30.278697833418846,-27.522521456703544,1768 30.278590377420187,-27.522498490288854,1767.52 30.278469091281295,-27.522485833615065,1766.5599999999999 30.278333639726043,-27.522485749796033,1765.1199999999999 30.278184860944748,-27.522498238831758,1764.1600000000001 30.278027867898345,-27.52252078615129,1763.2 30.277868779376149,-27.522553224116564,1762.23 30.276823556050658,-27.522803759202361,1761.75 30.276665724813938,-27.522814655676484,1762.71 30.27520140632987,-27.522723795846105,1775.6900000000001 30.274174958467484,-27.522615753114223,1787.71 30.272698486223817,-27.522271005436778,1801.6500000000001 30.271105505526066,-27.521760212257504,1811.26 30.269161323085427,-27.521081194281578,1830.97 30.26817343197763,-27.520352471619844,1848.75 30.266667539253831,-27.518959231674671,1879.03 30.265399692580104,-27.517773527652025,1904.51 30.264091193675995,-27.516750851646066,1926.1400000000001 30.262067299336195,-27.515501696616411,1962.1900000000001 30.261044204235077,-27.515108250081539,1964.5899999999999 30.259052999317646,-27.514417162165046,1961.71 30.257947174832225,-27.514034193009138,1962.6700000000001 30.256427535787225,-27.513818359002471,1965.55 30.254905465990305,-27.513647619634867,1960.75 30.253505352884531,-27.513429606333375,1967.48 30.252126110717654,-27.513241181150079,1967.48 30.250253174453974,-27.512707589194179,1956.4200000000001 30.247989557683468,-27.511951290071011,1944.4000000000001 30.247584376484156,-27.51178314909339,1942.48 30.247463593259454,-27.511707209050655,1942.48 30.247347922995687,-27.511620372533798,1942 30.246451226994395,-27.510781176388264,1943.9200000000001 30.245572803542018,-27.509346446022391,1948.73 30.244955141097307,-27.507947757840157,1950.6500000000001 30.243954174220562,-27.505661258473992,1938.1600000000001 30.243103662505746,-27.503699725493789,1930.95 30.242526903748512,-27.502215374261141,1927.5799999999999 30.242367312312126,-27.501686224713922,1929.02 30.242360439151525,-27.501618834212422,1929.02 30.242373766377568,-27.501616152003407,1928.54 30.242380639538169,-27.501622270792723,1928.0599999999999 30.242375778034329,-27.501617409288883,1928.54 30.242374185472727,-27.501619337126613,1929.98 30.242378208786249,-27.501620259135962,1930.95 30.242360271513462,-27.501614727079868,1930.95 30.242354990914464,-27.501596789807081,1930.95 30.242339232936502,-27.501567034050822,1930.95 30.242002699524164,-27.501108711585402,1926.1400000000001 30.241352766752243,-27.500427598133683,1915.0799999999999 30.241058059036732,-27.499476335942745,1912.2 30.240800064057112,-27.498094579204917,1900.6600000000001 30.240660589188337,-27.496609054505825,1891.05 30.24075455032289,-27.495000651106238,1881.4400000000001 30.241196108981967,-27.494109403342009,1880.96 30.24128956720233,-27.494007144123316,1880.96 30.241386210545897,-27.49391745775938,1880.96 30.24178896099329,-27.493531135842204,1881.9200000000001 30.241836486384273,-27.493459638208151,1882.4000000000001 30.24187152273953,-27.493386128917336,1882.4000000000001 30.241891723126173,-27.493310859426856,1882.4000000000001 30.241895662620664,-27.493234584107995,1882.4000000000001 30.241885520517826,-27.49315763823688,1882.4000000000001 30.241865739226341,-27.49307993799448,1882.4000000000001 30.241841096431017,-27.493001986294985,1881.9200000000001 30.241455445066094,-27.492318358272314,1879.03 30.241105332970619,-27.491802116855979,1878.55 30.240438720211387,-27.49082587659359,1878.0699999999999 30.24019505828619,-27.490474674850702,1878.0699999999999 30.240184245631099,-27.490455564111471,1877.5899999999999 30.240176366642118,-27.49046134762466,1876.6300000000001 30.240174690261483,-27.490463946014643,1877.1099999999999 30.240174354985356,-27.49047065153718,1877.5899999999999 30.240176115185022,-27.49046428129077,1876.6300000000001 30.240176618099213,-27.490451792255044,1876.1500000000001 30.240176366642118,-27.490450702607632,1876.1500000000001 30.240172762423754,-27.490458581596613,1876.6300000000001 30.240173768252134,-27.490468556061387,1877.5899999999999 30.240173181518912,-27.490467885509133,1878.0699999999999 30.24017695337534,-27.490461934357882,1878.0699999999999 30.240183072164655,-27.490457827225327,1878.0699999999999 30.240054745227098,-27.490276610478759,1877.1099999999999 30.239471700042486,-27.48948996886611,1872.3 30.238948836922646,-27.488364698365331,1879.03 30.238475007936358,-27.486689239740372,1892.49 30.238082567229867,-27.485295329242945,1907.8699999999999 30.237820632755756,-27.483678041025996,1915.0799999999999 30.238111820071936,-27.482659136876464,1917.49 30.23857181891799,-27.481429930776358,1922.29 30.238714227452874,-27.480148756876588,1915.5599999999999 30.238676005974412,-27.478801114484668,1902.5899999999999 30.238716742023826,-27.478366764262319,1900.1800000000001 30.238703247159719,-27.47828814201057,1899.7 30.238680699840188,-27.478216141462326,1899.22 30.238650441169739,-27.478152355179191,1898.74 30.238613896071911,-27.478093849495053,1897.78 30.238574165850878,-27.478039618581533,1897.3 30.238529574126005,-27.477990752086043,1896.8199999999999 30.238475343212485,-27.477946998551488,1896.3399999999999 30.23840962909162,-27.477905172854662,1895.8599999999999 30.238333437591791,-27.477864352986217,1895.3800000000001 30.23824886418879,-27.477823281660676,1894.4200000000001 30.237176567316055,-27.477360432967544,1886.24 30.235634967684746,-27.476639840751886,1873.27 30.233809221535921,-27.475679693743587,1851.1600000000001 30.232885284349322,-27.475195555016398,1845.3900000000001 30.231895130127668,-27.474677721038461,1844.4300000000001 30.231572343036532,-27.474453253671527,1844.4300000000001 30.231481986120343,-27.474367339164019,1844.4300000000001 30.230572549626231,-27.473338879644871,1842.98 30.229230606928468,-27.472186954692006,1846.8299999999999 30.227674171328545,-27.470954060554504,1847.3099999999999 30.227258931845427,-27.47046179138124,1843.95 30.227221632376313,-27.470371015369892,1843.47 30.227195983752608,-27.470274204388261,1842.98 30.227182656526566,-27.470173789188266,1842.02 30.227178046479821,-27.470064153894782,1841.54 30.2271843329072,-27.469947142526507,1840.5799999999999 30.227200090885162,-27.469824012368917,1840.0999999999999 30.227224482223392,-27.469695433974266,1839.1400000000001 30.227631507441401,-27.468247124925256,1828.0799999999999 30.228081867098808,-27.466667555272579,1813.1800000000001 30.228573884814978,-27.464896123856306,1802.1300000000001 30.228976299986243,-27.463470445945859,1792.52 30.229178806766868,-27.462668046355247,1787.23 30.22920235991478,-27.462627310305834,1786.75 30.229233037680387,-27.462596632540226,1786.27 30.229276204481721,-27.462575174868107,1785.79 </coordinates></LineString></MultiGeometry></Placemark></Folder></Folder></Document></kml>