<?xml version="1.0" encoding="utf-8"?><kml xmlns="http://www.opengis.net/kml/2.2" xmlns:xsi="http://www.w3.org/2001/XMLSchema-instance" xmlns:kmlx="http://www.google.com/kml/ext/2.2" xmlns:atom="http://www.w3.org/2005/Atom" xmlns:gpxx="http://www.garmin.com/xmlschemas/GpxExtensions/v3"><Document><Style id="point"><IconStyle><scale>0.9</scale><Icon><href>http://maps.google.com/mapfiles/kml/shapes/placemark_circle.png</href></Icon></IconStyle></Style><Folder><name>Tracks</name><Folder><name>[288] Barrowfield Pass to Dam wall</name><Folder><name>Points</name><Style><ListStyle><listItemType>checkHideChildren</listItemType></ListStyle></Style><Placemark><TimeSpan><begin>2022-08-08T10:05:45Z</begin><end>2022-08-08T10:05:45Z</end></TimeSpan><Style><IconStyle><scale>0.9</scale><Icon><href>http://connect.garmin.com/image/main/icons/kml/grn-play.png</href></Icon></IconStyle></Style><Point><altitudeMode>clampToGround</altitudeMode><coordinates>30.08250966668129,-27.464866116642952,1754.54</coordinates></Point></Placemark><Placemark><TimeSpan><begin>2022-08-08T10:05:45Z</begin><end>2022-08-08T10:05:46Z</end></TimeSpan><styleUrl>#point</styleUrl><Point><altitudeMode>clampToGround</altitudeMode><coordinates>30.082359043881297,-27.464925963431597,1754.54</coordinates></Point></Placemark><Placemark><TimeSpan><begin>2022-08-08T10:05:46Z</begin><end>2022-08-08T10:05:47Z</end></TimeSpan><styleUrl>#point</styleUrl><Point><altitudeMode>clampToGround</altitudeMode><coordinates>30.082210935652256,-27.465002406388521,1754.54</coordinates></Point></Placemark><Placemark><TimeSpan><begin>2022-08-08T10:05:47Z</begin><end>2022-08-08T10:05:48Z</end></TimeSpan><styleUrl>#point</styleUrl><Point><altitudeMode>clampToGround</altitudeMode><coordinates>30.082067605108023,-27.465094523504376,1754.54</coordinates></Point></Placemark><Placemark><TimeSpan><begin>2022-08-08T10:05:48Z</begin><end>2022-08-08T10:05:49Z</end></TimeSpan><styleUrl>#point</styleUrl><Point><altitudeMode>clampToGround</altitudeMode><coordinates>30.08193165063858,-27.46519829146564,1754.0599999999999</coordinates></Point></Placemark><Placemark><TimeSpan><begin>2022-08-08T10:05:49Z</begin><end>2022-08-08T10:05:50Z</end></TimeSpan><styleUrl>#point</styleUrl><Point><altitudeMode>clampToGround</altitudeMode><coordinates>30.081804161891341,-27.465311614796519,1754.0599999999999</coordinates></Point></Placemark><Placemark><TimeSpan><begin>2022-08-08T10:05:50Z</begin><end>2022-08-08T10:05:51Z</end></TimeSpan><styleUrl>#point</styleUrl><Point><altitudeMode>clampToGround</altitudeMode><coordinates>30.081683043390512,-27.465431559830904,1753.5799999999999</coordinates></Point></Placemark><Placemark><TimeSpan><begin>2022-08-08T10:05:51Z</begin><end>2022-08-08T10:06:08Z</end></TimeSpan><styleUrl>#point</styleUrl><Point><altitudeMode>clampToGround</altitudeMode><coordinates>30.079590836539865,-27.467522257938981,1750.22</coordinates></Point></Placemark><Placemark><TimeSpan><begin>2022-08-08T10:06:08Z</begin><end>2022-08-08T10:06:16Z</end></TimeSpan><styleUrl>#point</styleUrl><Point><altitudeMode>clampToGround</altitudeMode><coordinates>30.078456681221724,-27.468136651441455,1751.6600000000001</coordinates></Point></Placemark><Placemark><TimeSpan><begin>2022-08-08T10:06:16Z</begin><end>2022-08-08T10:06:24Z</end></TimeSpan><styleUrl>#point</styleUrl><Point><altitudeMode>clampToGround</altitudeMode><coordinates>30.076999319717288,-27.468337649479508,1757.4300000000001</coordinates></Point></Placemark><Placemark><TimeSpan><begin>2022-08-08T10:06:24Z</begin><end>2022-08-08T10:06:34Z</end></TimeSpan><styleUrl>#point</styleUrl><Point><altitudeMode>clampToGround</altitudeMode><coordinates>30.074759172275662,-27.468472514301538,1768.48</coordinates></Point></Placemark><Placemark><TimeSpan><begin>2022-08-08T10:06:34Z</begin><end>2022-08-08T10:06:51Z</end></TimeSpan><styleUrl>#point</styleUrl><Point><altitudeMode>clampToGround</altitudeMode><coordinates>30.070622200146317,-27.468793708831072,1790.5899999999999</coordinates></Point></Placemark><Placemark><TimeSpan><begin>2022-08-08T10:06:51Z</begin><end>2022-08-08T10:06:58Z</end></TimeSpan><styleUrl>#point</styleUrl><Point><altitudeMode>clampToGround</altitudeMode><coordinates>30.069231810048223,-27.468996634706855,1792.03</coordinates></Point></Placemark><Placemark><TimeSpan><begin>2022-08-08T10:06:58Z</begin><end>2022-08-08T10:07:09Z</end></TimeSpan><styleUrl>#point</styleUrl><Point><altitudeMode>clampToGround</altitudeMode><coordinates>30.067228870466352,-27.469273824244738,1788.1900000000001</coordinates></Point></Placemark><Placemark><TimeSpan><begin>2022-08-08T10:07:09Z</begin><end>2022-08-08T10:07:18Z</end></TimeSpan><styleUrl>#point</styleUrl><Point><altitudeMode>clampToGround</altitudeMode><coordinates>30.065930597484112,-27.469127308577299,1778.5799999999999</coordinates></Point></Placemark><Placemark><TimeSpan><begin>2022-08-08T10:07:18Z</begin><end>2022-08-08T10:07:26Z</end></TimeSpan><styleUrl>#point</styleUrl><Point><altitudeMode>clampToGround</altitudeMode><coordinates>30.064806751906872,-27.468553734943271,1765.1199999999999</coordinates></Point></Placemark><Placemark><TimeSpan><begin>2022-08-08T10:07:26Z</begin><end>2022-08-08T10:07:34Z</end></TimeSpan><styleUrl>#point</styleUrl><Point><altitudeMode>clampToGround</altitudeMode><coordinates>30.063877869397402,-27.467550337314606,1755.02</coordinates></Point></Placemark><Placemark><TimeSpan><begin>2022-08-08T10:07:34Z</begin><end>2022-08-08T10:07:42Z</end></TimeSpan><styleUrl>#point</styleUrl><Point><altitudeMode>clampToGround</altitudeMode><coordinates>30.062908418476582,-27.466139579191804,1748.78</coordinates></Point></Placemark><Placemark><TimeSpan><begin>2022-08-08T10:07:42Z</begin><end>2022-08-08T10:07:51Z</end></TimeSpan><styleUrl>#point</styleUrl><Point><altitudeMode>clampToGround</altitudeMode><coordinates>30.061788847669959,-27.464438388124108,1745.8900000000001</coordinates></Point></Placemark><Placemark><TimeSpan><begin>2022-08-08T10:07:51Z</begin><end>2022-08-08T10:07:57Z</end></TimeSpan><styleUrl>#point</styleUrl><Point><altitudeMode>clampToGround</altitudeMode><coordinates>30.061471927911043,-27.463415125384927,1746.3699999999999</coordinates></Point></Placemark><Placemark><TimeSpan><begin>2022-08-08T10:07:57Z</begin><end>2022-08-08T10:08:03Z</end></TimeSpan><styleUrl>#point</styleUrl><Point><altitudeMode>clampToGround</altitudeMode><coordinates>30.061562201008201,-27.46214141137898,1743.49</coordinates></Point></Placemark><Placemark><TimeSpan><begin>2022-08-08T10:08:03Z</begin><end>2022-08-08T10:08:12Z</end></TimeSpan><styleUrl>#point</styleUrl><Point><altitudeMode>clampToGround</altitudeMode><coordinates>30.061818100512028,-27.460318179801106,1741.0799999999999</coordinates></Point></Placemark><Placemark><TimeSpan><begin>2022-08-08T10:08:12Z</begin><end>2022-08-08T10:08:20Z</end></TimeSpan><styleUrl>#point</styleUrl><Point><altitudeMode>clampToGround</altitudeMode><coordinates>30.06159489043057,-27.458751853555441,1742.05</coordinates></Point></Placemark><Placemark><TimeSpan><begin>2022-08-08T10:08:20Z</begin><end>2022-08-08T10:08:32Z</end></TimeSpan><styleUrl>#point</styleUrl><Point><altitudeMode>clampToGround</altitudeMode><coordinates>30.061004888266325,-27.456061262637377,1743.01</coordinates></Point></Placemark><Placemark><TimeSpan><begin>2022-08-08T10:08:32Z</begin><end>2022-08-08T10:08:46Z</end></TimeSpan><styleUrl>#point</styleUrl><Point><altitudeMode>clampToGround</altitudeMode><coordinates>30.060280440375209,-27.453074706718326,1748.29</coordinates></Point></Placemark><Placemark><TimeSpan><begin>2022-08-08T10:08:46Z</begin><end>2022-08-08T10:08:55Z</end></TimeSpan><styleUrl>#point</styleUrl><Point><altitudeMode>clampToGround</altitudeMode><coordinates>30.059576276689768,-27.451539812609553,1753.0999999999999</coordinates></Point></Placemark><Placemark><TimeSpan><begin>2022-08-08T10:08:55Z</begin><end>2022-08-08T10:09:03Z</end></TimeSpan><styleUrl>#point</styleUrl><Point><altitudeMode>clampToGround</altitudeMode><coordinates>30.05908627063036,-27.450405238196254,1751.6600000000001</coordinates></Point></Placemark><Placemark><TimeSpan><begin>2022-08-08T10:09:03Z</begin><end>2022-08-08T10:09:13Z</end></TimeSpan><styleUrl>#point</styleUrl><Point><altitudeMode>clampToGround</altitudeMode><coordinates>30.058640101924539,-27.448703376576304,1749.74</coordinates></Point></Placemark><Placemark><TimeSpan><begin>2022-08-08T10:09:13Z</begin><end>2022-08-08T10:09:23Z</end></TimeSpan><styleUrl>#point</styleUrl><Point><altitudeMode>clampToGround</altitudeMode><coordinates>30.058072479441762,-27.446555513888597,1747.3299999999999</coordinates></Point></Placemark><Placemark><TimeSpan><begin>2022-08-08T10:09:23Z</begin><end>2022-08-08T10:09:35Z</end></TimeSpan><styleUrl>#point</styleUrl><Point><altitudeMode>clampToGround</altitudeMode><coordinates>30.056934971362352,-27.444112524390221,1755.5</coordinates></Point></Placemark><Placemark><TimeSpan><begin>2022-08-08T10:09:35Z</begin><end>2022-08-08T10:09:48Z</end></TimeSpan><styleUrl>#point</styleUrl><Point><altitudeMode>clampToGround</altitudeMode><coordinates>30.055887987837195,-27.441599713638425,1753.0999999999999</coordinates></Point></Placemark><Placemark><TimeSpan><begin>2022-08-08T10:09:48Z</begin><end>2022-08-08T10:09:56Z</end></TimeSpan><styleUrl>#point</styleUrl><Point><altitudeMode>clampToGround</altitudeMode><coordinates>30.055897124111652,-27.440162384882569,1748.29</coordinates></Point></Placemark><Placemark><TimeSpan><begin>2022-08-08T10:09:56Z</begin><end>2022-08-08T10:10:04Z</end></TimeSpan><styleUrl>#point</styleUrl><Point><altitudeMode>clampToGround</altitudeMode><coordinates>30.056358212605119,-27.438877439126372,1742.53</coordinates></Point></Placemark><Placemark><TimeSpan><begin>2022-08-08T10:10:04Z</begin><end>2022-08-08T10:10:14Z</end></TimeSpan><styleUrl>#point</styleUrl><Point><altitudeMode>clampToGround</altitudeMode><coordinates>30.057143345475197,-27.437472967430949,1735.8</coordinates></Point></Placemark><Placemark><TimeSpan><begin>2022-08-08T10:10:14Z</begin><end>2022-08-08T10:10:22Z</end></TimeSpan><styleUrl>#point</styleUrl><Point><altitudeMode>clampToGround</altitudeMode><coordinates>30.05779922939837,-27.436303859576583,1731.95</coordinates></Point></Placemark><Placemark><TimeSpan><begin>2022-08-08T10:10:22Z</begin><end>2022-08-08T10:10:32Z</end></TimeSpan><styleUrl>#point</styleUrl><Point><altitudeMode>clampToGround</altitudeMode><coordinates>30.058312620967627,-27.43536458350718,1727.6300000000001</coordinates></Point></Placemark><Placemark><TimeSpan><begin>2022-08-08T10:10:32Z</begin><end>2022-08-08T10:10:40Z</end></TimeSpan><styleUrl>#point</styleUrl><Point><altitudeMode>clampToGround</altitudeMode><coordinates>30.058876974508166,-27.434374261647463,1722.3399999999999</coordinates></Point></Placemark><Placemark><TimeSpan><begin>2022-08-08T10:10:40Z</begin><end>2022-08-08T10:10:50Z</end></TimeSpan><styleUrl>#point</styleUrl><Point><altitudeMode>clampToGround</altitudeMode><coordinates>30.059871319681406,-27.43333482183516,1713.6900000000001</coordinates></Point></Placemark><Placemark><TimeSpan><begin>2022-08-08T10:10:50Z</begin><end>2022-08-08T10:11:00Z</end></TimeSpan><styleUrl>#point</styleUrl><Point><altitudeMode>clampToGround</altitudeMode><coordinates>30.060856444761157,-27.432427816092968,1700.23</coordinates></Point></Placemark><Placemark><TimeSpan><begin>2022-08-08T10:11:00Z</begin><end>2022-08-08T10:11:09Z</end></TimeSpan><styleUrl>#point</styleUrl><Point><altitudeMode>clampToGround</altitudeMode><coordinates>30.061542671173811,-27.431180840358138,1695.4200000000001</coordinates></Point></Placemark><Placemark><TimeSpan><begin>2022-08-08T10:11:09Z</begin><end>2022-08-08T10:11:20Z</end></TimeSpan><styleUrl>#point</styleUrl><Point><altitudeMode>clampToGround</altitudeMode><coordinates>30.062575154006481,-27.429207572713494,1712.73</coordinates></Point></Placemark><Placemark><TimeSpan><begin>2022-08-08T10:11:20Z</begin><end>2022-08-08T10:11:30Z</end></TimeSpan><styleUrl>#point</styleUrl><Point><altitudeMode>clampToGround</altitudeMode><coordinates>30.063558099791408,-27.427615094929934,1734.8399999999999</coordinates></Point></Placemark><Placemark><TimeSpan><begin>2022-08-08T10:11:30Z</begin><end>2022-08-08T10:11:41Z</end></TimeSpan><styleUrl>#point</styleUrl><Point><altitudeMode>clampToGround</altitudeMode><coordinates>30.064580272883177,-27.426041644066572,1749.74</coordinates></Point></Placemark><Placemark><TimeSpan><begin>2022-08-08T10:11:41Z</begin><end>2022-08-08T10:11:48Z</end></TimeSpan><styleUrl>#point</styleUrl><Point><altitudeMode>clampToGround</altitudeMode><coordinates>30.064778923988342,-27.42506381124258,1753.0999999999999</coordinates></Point></Placemark><Placemark><TimeSpan><begin>2022-08-08T10:11:48Z</begin><end>2022-08-08T10:11:53Z</end></TimeSpan><styleUrl>#point</styleUrl><Point><altitudeMode>clampToGround</altitudeMode><coordinates>30.064769703894854,-27.424763739109039,1754.0599999999999</coordinates></Point></Placemark><Placemark><TimeSpan><begin>2022-08-08T10:11:53Z</begin><end>2022-08-08T10:11:54Z</end></TimeSpan><styleUrl>#point</styleUrl><Point><altitudeMode>clampToGround</altitudeMode><coordinates>30.064784456044436,-27.424755524843931,1754.54</coordinates></Point></Placemark><Placemark><TimeSpan><begin>2022-08-08T10:11:54Z</begin><end>2022-08-08T10:11:55Z</end></TimeSpan><styleUrl>#point</styleUrl><Point><altitudeMode>clampToGround</altitudeMode><coordinates>30.064797028899193,-27.424758290871978,1754.54</coordinates></Point></Placemark><Placemark><TimeSpan><begin>2022-08-08T10:11:55Z</begin><end>2022-08-08T10:11:56Z</end></TimeSpan><styleUrl>#point</styleUrl><Point><altitudeMode>clampToGround</altitudeMode><coordinates>30.064806500449777,-27.4247657507658,1754.54</coordinates></Point></Placemark><Placemark><TimeSpan><begin>2022-08-08T10:11:56Z</begin><end>2022-08-08T10:11:57Z</end></TimeSpan><styleUrl>#point</styleUrl><Point><altitudeMode>clampToGround</altitudeMode><coordinates>30.064813457429409,-27.424779329448938,1754.54</coordinates></Point></Placemark><Placemark><TimeSpan><begin>2022-08-08T10:11:57Z</begin><end>2022-08-08T10:11:58Z</end></TimeSpan><styleUrl>#point</styleUrl><Point><altitudeMode>clampToGround</altitudeMode><coordinates>30.064819240942597,-27.424807827919722,1755.02</coordinates></Point></Placemark><Placemark><TimeSpan><begin>2022-08-08T10:11:58Z</begin><end>2022-08-08T10:11:59Z</end></TimeSpan><styleUrl>#point</styleUrl><Point><altitudeMode>clampToGround</altitudeMode><coordinates>30.064818989485502,-27.424834817647934,1754.54</coordinates></Point></Placemark><Placemark><TimeSpan><begin>2022-08-08T10:11:59Z</begin><end>2022-08-08T10:12:00Z</end></TimeSpan><styleUrl>#point</styleUrl><Point><altitudeMode>clampToGround</altitudeMode><coordinates>30.064817145466805,-27.424884522333741,1754.54</coordinates></Point></Placemark><Placemark><TimeSpan><begin>2022-08-08T10:12:00Z</begin><end>2022-08-08T10:12:06Z</end></TimeSpan><styleUrl>#point</styleUrl><Point><altitudeMode>clampToGround</altitudeMode><coordinates>30.064816391095519,-27.425337480381131,1753.5799999999999</coordinates></Point></Placemark><Placemark><TimeSpan><begin>2022-08-08T10:12:06Z</begin><end>2022-08-08T10:12:07Z</end></TimeSpan><styleUrl>#point</styleUrl><Point><altitudeMode>clampToGround</altitudeMode><coordinates>30.064842626452446,-27.425389280542731,1753.0999999999999</coordinates></Point></Placemark><Placemark><TimeSpan><begin>2022-08-08T10:12:07Z</begin><end>2022-08-08T10:12:08Z</end></TimeSpan><styleUrl>#point</styleUrl><Point><altitudeMode>clampToGround</altitudeMode><coordinates>30.064867185428739,-27.425409145653248,1753.0999999999999</coordinates></Point></Placemark><Placemark><TimeSpan><begin>2022-08-08T10:12:08Z</begin><end>2022-08-08T10:12:09Z</end></TimeSpan><styleUrl>#point</styleUrl><Point><altitudeMode>clampToGround</altitudeMode><coordinates>30.06491219624877,-27.425434878095984,1753.0999999999999</coordinates></Point></Placemark><Placemark><TimeSpan><begin>2022-08-08T10:12:09Z</begin><end>2022-08-08T10:12:10Z</end></TimeSpan><styleUrl>#point</styleUrl><Point><altitudeMode>clampToGround</altitudeMode><coordinates>30.064970953390002,-27.425465723499656,1753.0999999999999</coordinates></Point></Placemark><Placemark><TimeSpan><begin>2022-08-08T10:12:10Z</begin><end>2022-08-08T10:12:11Z</end></TimeSpan><styleUrl>#point</styleUrl><Point><altitudeMode>clampToGround</altitudeMode><coordinates>30.065033817663789,-27.425512243062258,1753.0999999999999</coordinates></Point></Placemark><Placemark><TimeSpan><begin>2022-08-08T10:12:11Z</begin><end>2022-08-08T10:12:12Z</end></TimeSpan><styleUrl>#point</styleUrl><Point><altitudeMode>clampToGround</altitudeMode><coordinates>30.065089222043753,-27.425577873364091,1753.0999999999999</coordinates></Point></Placemark><Placemark><TimeSpan><begin>2022-08-08T10:12:12Z</begin><end>2022-08-08T10:12:13Z</end></TimeSpan><styleUrl>#point</styleUrl><Point><altitudeMode>clampToGround</altitudeMode><coordinates>30.065132388845086,-27.425656914710999,1753.0999999999999</coordinates></Point></Placemark><Placemark><TimeSpan><begin>2022-08-08T10:12:13Z</begin><end>2022-08-08T10:12:14Z</end></TimeSpan><styleUrl>#point</styleUrl><Point><altitudeMode>clampToGround</altitudeMode><coordinates>30.065168933942914,-27.425745511427522,1753.0999999999999</coordinates></Point></Placemark><Placemark><TimeSpan><begin>2022-08-08T10:12:14Z</begin><end>2022-08-08T10:12:15Z</end></TimeSpan><styleUrl>#point</styleUrl><Point><altitudeMode>clampToGround</altitudeMode><coordinates>30.065206401050091,-27.425844417884946,1753.0999999999999</coordinates></Point></Placemark><Placemark><TimeSpan><begin>2022-08-08T10:12:15Z</begin><end>2022-08-08T10:12:22Z</end></TimeSpan><styleUrl>#point</styleUrl><Point><altitudeMode>clampToGround</altitudeMode><coordinates>30.065553076565266,-27.426850916817784,1752.1400000000001</coordinates></Point></Placemark><Placemark><TimeSpan><begin>2022-08-08T10:12:22Z</begin><end>2022-08-08T10:12:30Z</end></TimeSpan><styleUrl>#point</styleUrl><Point><altitudeMode>clampToGround</altitudeMode><coordinates>30.066129164770246,-27.428484549745917,1752.6199999999999</coordinates></Point></Placemark><Placemark><TimeSpan><begin>2022-08-08T10:12:30Z</begin><end>2022-08-08T10:12:37Z</end></TimeSpan><styleUrl>#point</styleUrl><Point><altitudeMode>clampToGround</altitudeMode><coordinates>30.066578686237335,-27.429852141067386,1753.0999999999999</coordinates></Point></Placemark><Placemark><TimeSpan><begin>2022-08-08T10:12:37Z</begin><end>2022-08-08T10:12:45Z</end></TimeSpan><styleUrl>#point</styleUrl><Point><altitudeMode>clampToGround</altitudeMode><coordinates>30.066543063148856,-27.431139266118407,1751.1800000000001</coordinates></Point></Placemark><Placemark><TimeSpan><begin>2022-08-08T10:12:45Z</begin><end>2022-08-08T10:12:46Z</end></TimeSpan><styleUrl>#point</styleUrl><Point><altitudeMode>clampToGround</altitudeMode><coordinates>30.066484725102782,-27.431290224194527,1750.7</coordinates></Point></Placemark><Placemark><TimeSpan><begin>2022-08-08T10:12:46Z</begin><end>2022-08-08T10:12:47Z</end></TimeSpan><styleUrl>#point</styleUrl><Point><altitudeMode>clampToGround</altitudeMode><coordinates>30.066410209983587,-27.431440846994519,1749.74</coordinates></Point></Placemark><Placemark><TimeSpan><begin>2022-08-08T10:12:47Z</begin><end>2022-08-08T10:12:56Z</end></TimeSpan><styleUrl>#point</styleUrl><Point><altitudeMode>clampToGround</altitudeMode><coordinates>30.065475711598992,-27.432972388342023,1739.6400000000001</coordinates></Point></Placemark><Placemark><TimeSpan><begin>2022-08-08T10:12:56Z</begin><end>2022-08-08T10:13:03Z</end></TimeSpan><styleUrl>#point</styleUrl><Point><altitudeMode>clampToGround</altitudeMode><coordinates>30.064772637560964,-27.434147698804736,1739.1600000000001</coordinates></Point></Placemark><Placemark><TimeSpan><begin>2022-08-08T10:13:03Z</begin><end>2022-08-08T10:13:09Z</end></TimeSpan><styleUrl>#point</styleUrl><Point><altitudeMode>clampToGround</altitudeMode><coordinates>30.064429230988026,-27.434763181954622,1740.1199999999999</coordinates></Point></Placemark><Placemark><TimeSpan><begin>2022-08-08T10:13:09Z</begin><end>2022-08-08T10:13:10Z</end></TimeSpan><styleUrl>#point</styleUrl><Point><altitudeMode>clampToGround</altitudeMode><coordinates>30.064399978145957,-27.434874661266804,1740.1199999999999</coordinates></Point></Placemark><Placemark><TimeSpan><begin>2022-08-08T10:13:10Z</begin><end>2022-08-08T10:13:21Z</end></TimeSpan><styleUrl>#point</styleUrl><Point><altitudeMode>clampToGround</altitudeMode><coordinates>30.064149107784033,-27.436292711645365,1740.5999999999999</coordinates></Point></Placemark><Placemark><TimeSpan><begin>2022-08-08T10:13:21Z</begin><end>2022-08-08T10:13:24Z</end></TimeSpan><styleUrl>#point</styleUrl><Point><altitudeMode>clampToGround</altitudeMode><coordinates>30.063957078382373,-27.436668975278735,1740.5999999999999</coordinates></Point></Placemark><Placemark><TimeSpan><begin>2022-08-08T10:13:24Z</begin><end>2022-08-08T10:13:25Z</end></TimeSpan><styleUrl>#point</styleUrl><Point><altitudeMode>clampToGround</altitudeMode><coordinates>30.063871834427118,-27.43678062222898,1741.0799999999999</coordinates></Point></Placemark><Placemark><TimeSpan><begin>2022-08-08T10:13:25Z</begin><end>2022-08-08T10:13:26Z</end></TimeSpan><styleUrl>#point</styleUrl><Point><altitudeMode>clampToGround</altitudeMode><coordinates>30.063775274902582,-27.436887994408607,1741.0799999999999</coordinates></Point></Placemark><Placemark><TimeSpan><begin>2022-08-08T10:13:26Z</begin><end>2022-08-08T10:13:27Z</end></TimeSpan><styleUrl>#point</styleUrl><Point><altitudeMode>clampToGround</altitudeMode><coordinates>30.063670920208097,-27.436991930007935,1741.0799999999999</coordinates></Point></Placemark><Placemark><TimeSpan><begin>2022-08-08T10:13:27Z</begin><end>2022-08-08T10:13:28Z</end></TimeSpan><styleUrl>#point</styleUrl><Point><altitudeMode>clampToGround</altitudeMode><coordinates>30.063557513058186,-27.437091507017612,1741.5699999999999</coordinates></Point></Placemark><Placemark><TimeSpan><begin>2022-08-08T10:13:28Z</begin><end>2022-08-08T10:13:29Z</end></TimeSpan><styleUrl>#point</styleUrl><Point><altitudeMode>clampToGround</altitudeMode><coordinates>30.063434801995754,-27.437187312170863,1741.5699999999999</coordinates></Point></Placemark><Placemark><TimeSpan><begin>2022-08-08T10:13:29Z</begin><end>2022-08-08T10:13:30Z</end></TimeSpan><styleUrl>#point</styleUrl><Point><altitudeMode>clampToGround</altitudeMode><coordinates>30.063309744000435,-27.437277166172862,1741.5699999999999</coordinates></Point></Placemark><Placemark><TimeSpan><begin>2022-08-08T10:13:30Z</begin><end>2022-08-08T10:13:35Z</end></TimeSpan><styleUrl>#point</styleUrl><Point><altitudeMode>clampToGround</altitudeMode><coordinates>30.062850750982761,-27.437567934393883,1742.53</coordinates></Point></Placemark><Placemark><TimeSpan><begin>2022-08-08T10:13:35Z</begin><end>2022-08-08T10:13:36Z</end></TimeSpan><styleUrl>#point</styleUrl><Point><altitudeMode>clampToGround</altitudeMode><coordinates>30.062792664393783,-27.437583860009909,1742.53</coordinates></Point></Placemark><Placemark><TimeSpan><begin>2022-08-08T10:13:36Z</begin><end>2022-08-08T10:13:37Z</end></TimeSpan><styleUrl>#point</styleUrl><Point><altitudeMode>clampToGround</altitudeMode><coordinates>30.062743294984102,-27.437583776190877,1742.05</coordinates></Point></Placemark><Placemark><TimeSpan><begin>2022-08-08T10:13:37Z</begin><end>2022-08-08T10:13:38Z</end></TimeSpan><styleUrl>#point</styleUrl><Point><altitudeMode>clampToGround</altitudeMode><coordinates>30.062691913917661,-27.437571538612247,1742.05</coordinates></Point></Placemark><Placemark><TimeSpan><begin>2022-08-08T10:13:38Z</begin><end>2022-08-08T10:13:39Z</end></TimeSpan><styleUrl>#point</styleUrl><Point><altitudeMode>clampToGround</altitudeMode><coordinates>30.062631228938699,-27.437547566369176,1741.5699999999999</coordinates></Point></Placemark><Placemark><TimeSpan><begin>2022-08-08T10:13:39Z</begin><end>2022-08-08T10:13:40Z</end></TimeSpan><styleUrl>#point</styleUrl><Point><altitudeMode>clampToGround</altitudeMode><coordinates>30.062554785981774,-27.437515296041965,1740.5999999999999</coordinates></Point></Placemark><Placemark><TimeSpan><begin>2022-08-08T10:13:40Z</begin><end>2022-08-08T10:13:48Z</end></TimeSpan><styleUrl>#point</styleUrl><Point><altitudeMode>clampToGround</altitudeMode><coordinates>30.061676613986492,-27.4372199177742,1731.47</coordinates></Point></Placemark><Placemark><TimeSpan><begin>2022-08-08T10:13:48Z</begin><end>2022-08-08T10:13:49Z</end></TimeSpan><styleUrl>#point</styleUrl><Point><altitudeMode>clampToGround</altitudeMode><coordinates>30.06156362593174,-27.437208518385887,1730.03</coordinates></Point></Placemark><Placemark><TimeSpan><begin>2022-08-08T10:13:49Z</begin><end>2022-08-08T10:13:50Z</end></TimeSpan><styleUrl>#point</styleUrl><Point><altitudeMode>clampToGround</altitudeMode><coordinates>30.061451643705368,-27.437209859490395,1729.0699999999999</coordinates></Point></Placemark><Placemark><TimeSpan><begin>2022-08-08T10:13:50Z</begin><end>2022-08-08T10:13:51Z</end></TimeSpan><styleUrl>#point</styleUrl><Point><altitudeMode>clampToGround</altitudeMode><coordinates>30.061339410021901,-27.437222432345152,1727.6300000000001</coordinates></Point></Placemark><Placemark><TimeSpan><begin>2022-08-08T10:13:51Z</begin><end>2022-08-08T10:13:52Z</end></TimeSpan><styleUrl>#point</styleUrl><Point><altitudeMode>clampToGround</altitudeMode><coordinates>30.0612254999578,-27.437243890017271,1726.1800000000001</coordinates></Point></Placemark><Placemark><TimeSpan><begin>2022-08-08T10:13:52Z</begin><end>2022-08-08T10:13:53Z</end></TimeSpan><styleUrl>#point</styleUrl><Point><altitudeMode>clampToGround</altitudeMode><coordinates>30.061108404770494,-27.437268616631627,1725.22</coordinates></Point></Placemark><Placemark><TimeSpan><begin>2022-08-08T10:13:53Z</begin><end>2022-08-08T10:14:03Z</end></TimeSpan><styleUrl>#point</styleUrl><Point><altitudeMode>clampToGround</altitudeMode><coordinates>30.05994332022965,-27.437555864453316,1711.28</coordinates></Point></Placemark><Placemark><TimeSpan><begin>2022-08-08T10:14:03Z</begin><end>2022-08-08T10:14:04Z</end></TimeSpan><styleUrl>#point</styleUrl><Point><altitudeMode>clampToGround</altitudeMode><coordinates>30.059861177578568,-27.437589140608907,1710.3199999999999</coordinates></Point></Placemark><Placemark><TimeSpan><begin>2022-08-08T10:14:04Z</begin><end>2022-08-08T10:14:05Z</end></TimeSpan><styleUrl>#point</styleUrl><Point><altitudeMode>clampToGround</altitudeMode><coordinates>30.059789763763547,-27.437626356258988,1709.3599999999999</coordinates></Point></Placemark><Placemark><TimeSpan><begin>2022-08-08T10:14:05Z</begin><end>2022-08-08T10:14:06Z</end></TimeSpan><styleUrl>#point</styleUrl><Point><altitudeMode>clampToGround</altitudeMode><coordinates>30.059732096269727,-27.437664913013577,1708.4000000000001</coordinates></Point></Placemark><Placemark><TimeSpan><begin>2022-08-08T10:14:06Z</begin><end>2022-08-08T10:14:07Z</end></TimeSpan><styleUrl>#point</styleUrl><Point><altitudeMode>clampToGround</altitudeMode><coordinates>30.059683565050364,-27.437699027359486,1707.9200000000001</coordinates></Point></Placemark><Placemark><TimeSpan><begin>2022-08-08T10:14:07Z</begin><end>2022-08-08T10:14:08Z</end></TimeSpan><styleUrl>#point</styleUrl><Point><altitudeMode>clampToGround</altitudeMode><coordinates>30.059641320258379,-27.437723921611905,1707.4400000000001</coordinates></Point></Placemark><Placemark><TimeSpan><begin>2022-08-08T10:14:08Z</begin><end>2022-08-08T10:14:09Z</end></TimeSpan><styleUrl>#point</styleUrl><Point><altitudeMode>clampToGround</altitudeMode><coordinates>30.059602931141853,-27.43773833848536,1706.48</coordinates></Point></Placemark><Placemark><TimeSpan><begin>2022-08-08T10:14:09Z</begin><end>2022-08-08T10:14:10Z</end></TimeSpan><styleUrl>#point</styleUrl><Point><altitudeMode>clampToGround</altitudeMode><coordinates>30.059572923928499,-27.437742529436946,1706.48</coordinates></Point></Placemark><Placemark><TimeSpan><begin>2022-08-08T10:14:10Z</begin><end>2022-08-08T10:14:20Z</end></TimeSpan><styleUrl>#point</styleUrl><Point><altitudeMode>clampToGround</altitudeMode><coordinates>30.059557668864727,-27.437756778672338,1707.9200000000001</coordinates></Point></Placemark><Placemark><TimeSpan><begin>2022-08-08T10:14:20Z</begin><end>2022-08-08T10:14:46Z</end></TimeSpan><styleUrl>#point</styleUrl><Point><altitudeMode>clampToGround</altitudeMode><coordinates>30.059571666643023,-27.437758119776845,1709.8399999999999</coordinates></Point></Placemark></Folder><Placemark><name>[288] Barrowfield Pass to Dam wall</name><Style><LineStyle><color>ffff4040</color><width>4</width></LineStyle></Style><MultiGeometry><LineString><coordinates>30.08250966668129,-27.464866116642952,1754.54 30.082359043881297,-27.464925963431597,1754.54 30.082210935652256,-27.465002406388521,1754.54 30.082067605108023,-27.465094523504376,1754.54 30.08193165063858,-27.46519829146564,1754.0599999999999 30.081804161891341,-27.465311614796519,1754.0599999999999 30.081683043390512,-27.465431559830904,1753.5799999999999 30.079590836539865,-27.467522257938981,1750.22 30.078456681221724,-27.468136651441455,1751.6600000000001 30.076999319717288,-27.468337649479508,1757.4300000000001 30.074759172275662,-27.468472514301538,1768.48 30.070622200146317,-27.468793708831072,1790.5899999999999 30.069231810048223,-27.468996634706855,1792.03 30.067228870466352,-27.469273824244738,1788.1900000000001 30.065930597484112,-27.469127308577299,1778.5799999999999 30.064806751906872,-27.468553734943271,1765.1199999999999 30.063877869397402,-27.467550337314606,1755.02 30.062908418476582,-27.466139579191804,1748.78 30.061788847669959,-27.464438388124108,1745.8900000000001 30.061471927911043,-27.463415125384927,1746.3699999999999 30.061562201008201,-27.46214141137898,1743.49 30.061818100512028,-27.460318179801106,1741.0799999999999 30.06159489043057,-27.458751853555441,1742.05 30.061004888266325,-27.456061262637377,1743.01 30.060280440375209,-27.453074706718326,1748.29 30.059576276689768,-27.451539812609553,1753.0999999999999 30.05908627063036,-27.450405238196254,1751.6600000000001 30.058640101924539,-27.448703376576304,1749.74 30.058072479441762,-27.446555513888597,1747.3299999999999 30.056934971362352,-27.444112524390221,1755.5 30.055887987837195,-27.441599713638425,1753.0999999999999 30.055897124111652,-27.440162384882569,1748.29 30.056358212605119,-27.438877439126372,1742.53 30.057143345475197,-27.437472967430949,1735.8 30.05779922939837,-27.436303859576583,1731.95 30.058312620967627,-27.43536458350718,1727.6300000000001 30.058876974508166,-27.434374261647463,1722.3399999999999 30.059871319681406,-27.43333482183516,1713.6900000000001 30.060856444761157,-27.432427816092968,1700.23 30.061542671173811,-27.431180840358138,1695.4200000000001 30.062575154006481,-27.429207572713494,1712.73 30.063558099791408,-27.427615094929934,1734.8399999999999 30.064580272883177,-27.426041644066572,1749.74 30.064778923988342,-27.42506381124258,1753.0999999999999 30.064769703894854,-27.424763739109039,1754.0599999999999 30.064784456044436,-27.424755524843931,1754.54 30.064797028899193,-27.424758290871978,1754.54 30.064806500449777,-27.4247657507658,1754.54 30.064813457429409,-27.424779329448938,1754.54 30.064819240942597,-27.424807827919722,1755.02 30.064818989485502,-27.424834817647934,1754.54 30.064817145466805,-27.424884522333741,1754.54 30.064816391095519,-27.425337480381131,1753.5799999999999 30.064842626452446,-27.425389280542731,1753.0999999999999 30.064867185428739,-27.425409145653248,1753.0999999999999 30.06491219624877,-27.425434878095984,1753.0999999999999 30.064970953390002,-27.425465723499656,1753.0999999999999 30.065033817663789,-27.425512243062258,1753.0999999999999 30.065089222043753,-27.425577873364091,1753.0999999999999 30.065132388845086,-27.425656914710999,1753.0999999999999 30.065168933942914,-27.425745511427522,1753.0999999999999 30.065206401050091,-27.425844417884946,1753.0999999999999 30.065553076565266,-27.426850916817784,1752.1400000000001 30.066129164770246,-27.428484549745917,1752.6199999999999 30.066578686237335,-27.429852141067386,1753.0999999999999 30.066543063148856,-27.431139266118407,1751.1800000000001 30.066484725102782,-27.431290224194527,1750.7 30.066410209983587,-27.431440846994519,1749.74 30.065475711598992,-27.432972388342023,1739.6400000000001 30.064772637560964,-27.434147698804736,1739.1600000000001 30.064429230988026,-27.434763181954622,1740.1199999999999 30.064399978145957,-27.434874661266804,1740.1199999999999 30.064149107784033,-27.436292711645365,1740.5999999999999 30.063957078382373,-27.436668975278735,1740.5999999999999 30.063871834427118,-27.43678062222898,1741.0799999999999 30.063775274902582,-27.436887994408607,1741.0799999999999 30.063670920208097,-27.436991930007935,1741.0799999999999 30.063557513058186,-27.437091507017612,1741.5699999999999 30.063434801995754,-27.437187312170863,1741.5699999999999 30.063309744000435,-27.437277166172862,1741.5699999999999 30.062850750982761,-27.437567934393883,1742.53 30.062792664393783,-27.437583860009909,1742.53 30.062743294984102,-27.437583776190877,1742.05 30.062691913917661,-27.437571538612247,1742.05 30.062631228938699,-27.437547566369176,1741.5699999999999 30.062554785981774,-27.437515296041965,1740.5999999999999 30.061676613986492,-27.4372199177742,1731.47 30.06156362593174,-27.437208518385887,1730.03 30.061451643705368,-27.437209859490395,1729.0699999999999 30.061339410021901,-27.437222432345152,1727.6300000000001 30.0612254999578,-27.437243890017271,1726.1800000000001 30.061108404770494,-27.437268616631627,1725.22 30.05994332022965,-27.437555864453316,1711.28 30.059861177578568,-27.437589140608907,1710.3199999999999 30.059789763763547,-27.437626356258988,1709.3599999999999 30.059732096269727,-27.437664913013577,1708.4000000000001 30.059683565050364,-27.437699027359486,1707.9200000000001 30.059641320258379,-27.437723921611905,1707.4400000000001 30.059602931141853,-27.43773833848536,1706.48 30.059572923928499,-27.437742529436946,1706.48 30.059557668864727,-27.437756778672338,1707.9200000000001 30.059571666643023,-27.437758119776845,1709.8399999999999 </coordinates></LineString></MultiGeometry></Placemark></Folder></Folder></Document></kml>