<?xml version="1.0" encoding="utf-8"?><kml xmlns="http://www.opengis.net/kml/2.2" xmlns:xsi="http://www.w3.org/2001/XMLSchema-instance" xmlns:kmlx="http://www.google.com/kml/ext/2.2" xmlns:atom="http://www.w3.org/2005/Atom" xmlns:gpxx="http://www.garmin.com/xmlschemas/GpxExtensions/v3"><Document><Style id="point"><IconStyle><scale>0.9</scale><Icon><href>http://maps.google.com/mapfiles/kml/shapes/placemark_circle.png</href></Icon></IconStyle></Style><Folder><name>Tracks</name><Folder><name>[291] Mollshoogte Pass Dirt Road</name><Folder><name>Points</name><Style><ListStyle><listItemType>checkHideChildren</listItemType></ListStyle></Style><Placemark><TimeSpan><begin>2022-08-08T10:36:32Z</begin><end>2022-08-08T10:36:32Z</end></TimeSpan><Style><IconStyle><scale>0.9</scale><Icon><href>http://connect.garmin.com/image/main/icons/kml/grn-play.png</href></Icon></IconStyle></Style><Point><altitudeMode>clampToGround</altitudeMode><coordinates>30.0420434307307,-27.530679311603308,1402.22</coordinates></Point></Placemark><Placemark><TimeSpan><begin>2022-08-08T10:36:32Z</begin><end>2022-08-08T10:36:33Z</end></TimeSpan><styleUrl>#point</styleUrl><Point><altitudeMode>clampToGround</altitudeMode><coordinates>30.042018620297313,-27.53066673874855,1402.22</coordinates></Point></Placemark><Placemark><TimeSpan><begin>2022-08-08T10:36:33Z</begin><end>2022-08-08T10:36:34Z</end></TimeSpan><styleUrl>#point</styleUrl><Point><altitudeMode>clampToGround</altitudeMode><coordinates>30.041957600042224,-27.530636144801974,1402.22</coordinates></Point></Placemark><Placemark><TimeSpan><begin>2022-08-08T10:36:34Z</begin><end>2022-08-08T10:36:35Z</end></TimeSpan><styleUrl>#point</styleUrl><Point><altitudeMode>clampToGround</altitudeMode><coordinates>30.041902279481292,-27.530616447329521,1402.7</coordinates></Point></Placemark><Placemark><TimeSpan><begin>2022-08-08T10:36:35Z</begin><end>2022-08-08T10:36:36Z</end></TimeSpan><styleUrl>#point</styleUrl><Point><altitudeMode>clampToGround</altitudeMode><coordinates>30.041837319731712,-27.530587697401643,1402.7</coordinates></Point></Placemark><Placemark><TimeSpan><begin>2022-08-08T10:36:36Z</begin><end>2022-08-08T10:36:37Z</end></TimeSpan><styleUrl>#point</styleUrl><Point><altitudeMode>clampToGround</altitudeMode><coordinates>30.041749561205506,-27.530555343255401,1402.22</coordinates></Point></Placemark><Placemark><TimeSpan><begin>2022-08-08T10:36:37Z</begin><end>2022-08-08T10:36:38Z</end></TimeSpan><styleUrl>#point</styleUrl><Point><altitudeMode>clampToGround</altitudeMode><coordinates>30.0416618026793,-27.530526593327522,1402.22</coordinates></Point></Placemark><Placemark><TimeSpan><begin>2022-08-08T10:36:38Z</begin><end>2022-08-08T10:36:50Z</end></TimeSpan><styleUrl>#point</styleUrl><Point><altitudeMode>clampToGround</altitudeMode><coordinates>30.040356488898396,-27.529927203431726,1395.49</coordinates></Point></Placemark><Placemark><TimeSpan><begin>2022-08-08T10:36:50Z</begin><end>2022-08-08T10:36:59Z</end></TimeSpan><styleUrl>#point</styleUrl><Point><altitudeMode>clampToGround</altitudeMode><coordinates>30.039601782336831,-27.529632579535246,1391.1700000000001</coordinates></Point></Placemark><Placemark><TimeSpan><begin>2022-08-08T10:36:59Z</begin><end>2022-08-08T10:37:06Z</end></TimeSpan><styleUrl>#point</styleUrl><Point><altitudeMode>clampToGround</altitudeMode><coordinates>30.039453087374568,-27.529579270631075,1390.6800000000001</coordinates></Point></Placemark><Placemark><TimeSpan><begin>2022-08-08T10:37:06Z</begin><end>2022-08-08T10:37:22Z</end></TimeSpan><styleUrl>#point</styleUrl><Point><altitudeMode>clampToGround</altitudeMode><coordinates>30.039167599752545,-27.529457649216056,1390.6800000000001</coordinates></Point></Placemark><Placemark><TimeSpan><begin>2022-08-08T10:37:22Z</begin><end>2022-08-08T10:37:30Z</end></TimeSpan><styleUrl>#point</styleUrl><Point><altitudeMode>clampToGround</altitudeMode><coordinates>30.038064289838076,-27.529001757502556,1388.76</coordinates></Point></Placemark><Placemark><TimeSpan><begin>2022-08-08T10:37:30Z</begin><end>2022-08-08T10:37:40Z</end></TimeSpan><styleUrl>#point</styleUrl><Point><altitudeMode>clampToGround</altitudeMode><coordinates>30.036617238074541,-27.528364229947329,1384.4400000000001</coordinates></Point></Placemark><Placemark><TimeSpan><begin>2022-08-08T10:37:40Z</begin><end>2022-08-08T10:37:50Z</end></TimeSpan><styleUrl>#point</styleUrl><Point><altitudeMode>clampToGround</altitudeMode><coordinates>30.035646613687277,-27.527799792587757,1379.6300000000001</coordinates></Point></Placemark><Placemark><TimeSpan><begin>2022-08-08T10:37:50Z</begin><end>2022-08-08T10:38:00Z</end></TimeSpan><styleUrl>#point</styleUrl><Point><altitudeMode>clampToGround</altitudeMode><coordinates>30.034353705123067,-27.526949951425195,1372.4200000000001</coordinates></Point></Placemark><Placemark><TimeSpan><begin>2022-08-08T10:38:00Z</begin><end>2022-08-08T10:38:08Z</end></TimeSpan><styleUrl>#point</styleUrl><Point><altitudeMode>clampToGround</altitudeMode><coordinates>30.033021401613951,-27.526095332577825,1365.6900000000001</coordinates></Point></Placemark><Placemark><TimeSpan><begin>2022-08-08T10:38:08Z</begin><end>2022-08-08T10:38:18Z</end></TimeSpan><styleUrl>#point</styleUrl><Point><altitudeMode>clampToGround</altitudeMode><coordinates>30.031583067029715,-27.525232248008251,1357.52</coordinates></Point></Placemark><Placemark><TimeSpan><begin>2022-08-08T10:38:18Z</begin><end>2022-08-08T10:38:25Z</end></TimeSpan><styleUrl>#point</styleUrl><Point><altitudeMode>clampToGround</altitudeMode><coordinates>30.030785864219069,-27.524559013545513,1350.79</coordinates></Point></Placemark><Placemark><TimeSpan><begin>2022-08-08T10:38:25Z</begin><end>2022-08-08T10:38:31Z</end></TimeSpan><styleUrl>#point</styleUrl><Point><altitudeMode>clampToGround</altitudeMode><coordinates>30.030514877289534,-27.524291798472404,1349.8299999999999</coordinates></Point></Placemark><Placemark><TimeSpan><begin>2022-08-08T10:38:31Z</begin><end>2022-08-08T10:38:37Z</end></TimeSpan><styleUrl>#point</styleUrl><Point><altitudeMode>clampToGround</altitudeMode><coordinates>30.029940465465188,-27.523801038041711,1349.3499999999999</coordinates></Point></Placemark><Placemark><TimeSpan><begin>2022-08-08T10:38:37Z</begin><end>2022-08-08T10:38:47Z</end></TimeSpan><styleUrl>#point</styleUrl><Point><altitudeMode>clampToGround</altitudeMode><coordinates>30.028514703735709,-27.522552972659469,1349.8299999999999</coordinates></Point></Placemark><Placemark><TimeSpan><begin>2022-08-08T10:38:47Z</begin><end>2022-08-08T10:38:58Z</end></TimeSpan><styleUrl>#point</styleUrl><Point><altitudeMode>clampToGround</altitudeMode><coordinates>30.02703077159822,-27.521334746852517,1345.5</coordinates></Point></Placemark><Placemark><TimeSpan><begin>2022-08-08T10:38:58Z</begin><end>2022-08-08T10:39:07Z</end></TimeSpan><styleUrl>#point</styleUrl><Point><altitudeMode>clampToGround</altitudeMode><coordinates>30.025721099227667,-27.520381305366755,1343.0999999999999</coordinates></Point></Placemark><Placemark><TimeSpan><begin>2022-08-08T10:39:07Z</begin><end>2022-08-08T10:39:09Z</end></TimeSpan><styleUrl>#point</styleUrl><Point><altitudeMode>clampToGround</altitudeMode><coordinates>30.025417925789952,-27.520200591534376,1344.0599999999999</coordinates></Point></Placemark><Placemark><TimeSpan><begin>2022-08-08T10:39:09Z</begin><end>2022-08-08T10:39:10Z</end></TimeSpan><styleUrl>#point</styleUrl><Point><altitudeMode>clampToGround</altitudeMode><coordinates>30.025273421779275,-27.520139487460256,1345.02</coordinates></Point></Placemark><Placemark><TimeSpan><begin>2022-08-08T10:39:10Z</begin><end>2022-08-08T10:39:11Z</end></TimeSpan><styleUrl>#point</styleUrl><Point><altitudeMode>clampToGround</altitudeMode><coordinates>30.025131097063422,-27.520101685076952,1345.5</coordinates></Point></Placemark><Placemark><TimeSpan><begin>2022-08-08T10:39:11Z</begin><end>2022-08-08T10:39:12Z</end></TimeSpan><styleUrl>#point</styleUrl><Point><altitudeMode>clampToGround</altitudeMode><coordinates>30.024986425414681,-27.520088106393814,1346.46</coordinates></Point></Placemark><Placemark><TimeSpan><begin>2022-08-08T10:39:12Z</begin><end>2022-08-08T10:39:13Z</end></TimeSpan><styleUrl>#point</styleUrl><Point><altitudeMode>clampToGround</altitudeMode><coordinates>30.024835215881467,-27.52009036950767,1346.9400000000001</coordinates></Point></Placemark><Placemark><TimeSpan><begin>2022-08-08T10:39:13Z</begin><end>2022-08-08T10:39:14Z</end></TimeSpan><styleUrl>#point</styleUrl><Point><altitudeMode>clampToGround</altitudeMode><coordinates>30.024679312482476,-27.520097158849239,1347.4300000000001</coordinates></Point></Placemark><Placemark><TimeSpan><begin>2022-08-08T10:39:14Z</begin><end>2022-08-08T10:39:17Z</end></TimeSpan><styleUrl>#point</styleUrl><Point><altitudeMode>clampToGround</altitudeMode><coordinates>30.02424412406981,-27.520097913220525,1348.3900000000001</coordinates></Point></Placemark><Placemark><TimeSpan><begin>2022-08-08T10:39:17Z</begin><end>2022-08-08T10:39:18Z</end></TimeSpan><styleUrl>#point</styleUrl><Point><altitudeMode>clampToGround</altitudeMode><coordinates>30.024109678342938,-27.520069163292646,1348.3900000000001</coordinates></Point></Placemark><Placemark><TimeSpan><begin>2022-08-08T10:39:18Z</begin><end>2022-08-08T10:39:19Z</end></TimeSpan><styleUrl>#point</styleUrl><Point><altitudeMode>clampToGround</altitudeMode><coordinates>30.02397732809186,-27.520017866045237,1348.8699999999999</coordinates></Point></Placemark><Placemark><TimeSpan><begin>2022-08-08T10:39:19Z</begin><end>2022-08-08T10:39:20Z</end></TimeSpan><styleUrl>#point</styleUrl><Point><altitudeMode>clampToGround</altitudeMode><coordinates>30.023848498240113,-27.519943686202168,1348.8699999999999</coordinates></Point></Placemark><Placemark><TimeSpan><begin>2022-08-08T10:39:20Z</begin><end>2022-08-08T10:39:21Z</end></TimeSpan><styleUrl>#point</styleUrl><Point><altitudeMode>clampToGround</altitudeMode><coordinates>30.023725368082523,-27.519851569086313,1349.3499999999999</coordinates></Point></Placemark><Placemark><TimeSpan><begin>2022-08-08T10:39:21Z</begin><end>2022-08-08T10:39:22Z</end></TimeSpan><styleUrl>#point</styleUrl><Point><altitudeMode>clampToGround</altitudeMode><coordinates>30.023603076115251,-27.519744616001844,1350.3099999999999</coordinates></Point></Placemark><Placemark><TimeSpan><begin>2022-08-08T10:39:22Z</begin><end>2022-08-08T10:39:23Z</end></TimeSpan><styleUrl>#point</styleUrl><Point><altitudeMode>clampToGround</altitudeMode><coordinates>30.023479862138629,-27.519626431167126,1350.79</coordinates></Point></Placemark><Placemark><TimeSpan><begin>2022-08-08T10:39:23Z</begin><end>2022-08-08T10:39:32Z</end></TimeSpan><styleUrl>#point</styleUrl><Point><altitudeMode>clampToGround</altitudeMode><coordinates>30.022200867533684,-27.518347688019276,1358.96</coordinates></Point></Placemark><Placemark><TimeSpan><begin>2022-08-08T10:39:32Z</begin><end>2022-08-08T10:39:43Z</end></TimeSpan><styleUrl>#point</styleUrl><Point><altitudeMode>clampToGround</altitudeMode><coordinates>30.020697824656963,-27.516898373141885,1355.5999999999999</coordinates></Point></Placemark><Placemark><TimeSpan><begin>2022-08-08T10:39:43Z</begin><end>2022-08-08T10:39:56Z</end></TimeSpan><styleUrl>#point</styleUrl><Point><altitudeMode>clampToGround</altitudeMode><coordinates>30.018964363262057,-27.515240432694554,1344.0599999999999</coordinates></Point></Placemark><Placemark><TimeSpan><begin>2022-08-08T10:39:56Z</begin><end>2022-08-08T10:40:05Z</end></TimeSpan><styleUrl>#point</styleUrl><Point><altitudeMode>clampToGround</altitudeMode><coordinates>30.01761931926012,-27.513999324291945,1341.1800000000001</coordinates></Point></Placemark><Placemark><TimeSpan><begin>2022-08-08T10:40:05Z</begin><end>2022-08-08T10:40:12Z</end></TimeSpan><styleUrl>#point</styleUrl><Point><altitudeMode>clampToGround</altitudeMode><coordinates>30.016584573313594,-27.513153925538063,1340.7</coordinates></Point></Placemark><Placemark><TimeSpan><begin>2022-08-08T10:40:12Z</begin><end>2022-08-08T10:40:22Z</end></TimeSpan><styleUrl>#point</styleUrl><Point><altitudeMode>clampToGround</altitudeMode><coordinates>30.015200134366751,-27.512033935636282,1342.6199999999999</coordinates></Point></Placemark><Placemark><TimeSpan><begin>2022-08-08T10:40:22Z</begin><end>2022-08-08T10:40:31Z</end></TimeSpan><styleUrl>#point</styleUrl><Point><altitudeMode>clampToGround</altitudeMode><coordinates>30.013751490041614,-27.510897684842348,1358.48</coordinates></Point></Placemark><Placemark><TimeSpan><begin>2022-08-08T10:40:31Z</begin><end>2022-08-08T10:40:33Z</end></TimeSpan><styleUrl>#point</styleUrl><Point><altitudeMode>clampToGround</altitudeMode><coordinates>30.013506906107068,-27.510665757581592,1361.8399999999999</coordinates></Point></Placemark><Placemark><TimeSpan><begin>2022-08-08T10:40:33Z</begin><end>2022-08-08T10:40:34Z</end></TimeSpan><styleUrl>#point</styleUrl><Point><altitudeMode>clampToGround</altitudeMode><coordinates>30.013410430401564,-27.510537514463067,1363.77</coordinates></Point></Placemark><Placemark><TimeSpan><begin>2022-08-08T10:40:34Z</begin><end>2022-08-08T10:40:35Z</end></TimeSpan><styleUrl>#point</styleUrl><Point><altitudeMode>clampToGround</altitudeMode><coordinates>30.013324767351151,-27.510395105928183,1364.73</coordinates></Point></Placemark><Placemark><TimeSpan><begin>2022-08-08T10:40:35Z</begin><end>2022-08-08T10:40:36Z</end></TimeSpan><styleUrl>#point</styleUrl><Point><altitudeMode>clampToGround</altitudeMode><coordinates>30.013247318565845,-27.510239789262414,1365.6900000000001</coordinates></Point></Placemark><Placemark><TimeSpan><begin>2022-08-08T10:40:36Z</begin><end>2022-08-08T10:40:37Z</end></TimeSpan><styleUrl>#point</styleUrl><Point><altitudeMode>clampToGround</altitudeMode><coordinates>30.013172887265682,-27.510073492303491,1367.1300000000001</coordinates></Point></Placemark><Placemark><TimeSpan><begin>2022-08-08T10:40:37Z</begin><end>2022-08-08T10:40:45Z</end></TimeSpan><styleUrl>#point</styleUrl><Point><altitudeMode>clampToGround</altitudeMode><coordinates>30.012522116303444,-27.508485121652484,1377.23</coordinates></Point></Placemark><Placemark><TimeSpan><begin>2022-08-08T10:40:45Z</begin><end>2022-08-08T10:40:58Z</end></TimeSpan><styleUrl>#point</styleUrl><Point><altitudeMode>clampToGround</altitudeMode><coordinates>30.011418638750911,-27.505767708644271,1402.7</coordinates></Point></Placemark><Placemark><TimeSpan><begin>2022-08-08T10:40:58Z</begin><end>2022-08-08T10:41:06Z</end></TimeSpan><styleUrl>#point</styleUrl><Point><altitudeMode>clampToGround</altitudeMode><coordinates>30.010648425668478,-27.504396177828312,1415.6800000000001</coordinates></Point></Placemark><Placemark><TimeSpan><begin>2022-08-08T10:41:06Z</begin><end>2022-08-08T10:41:14Z</end></TimeSpan><styleUrl>#point</styleUrl><Point><altitudeMode>clampToGround</altitudeMode><coordinates>30.009427266195416,-27.503016851842403,1432.02</coordinates></Point></Placemark><Placemark><TimeSpan><begin>2022-08-08T10:41:14Z</begin><end>2022-08-08T10:41:20Z</end></TimeSpan><styleUrl>#point</styleUrl><Point><altitudeMode>clampToGround</altitudeMode><coordinates>30.008592428639531,-27.502176901325583,1444.52</coordinates></Point></Placemark><Placemark><TimeSpan><begin>2022-08-08T10:41:20Z</begin><end>2022-08-08T10:41:27Z</end></TimeSpan><styleUrl>#point</styleUrl><Point><altitudeMode>clampToGround</altitudeMode><coordinates>30.008069481700659,-27.501191440969706,1454.6099999999999</coordinates></Point></Placemark><Placemark><TimeSpan><begin>2022-08-08T10:41:27Z</begin><end>2022-08-08T10:41:35Z</end></TimeSpan><styleUrl>#point</styleUrl><Point><altitudeMode>clampToGround</altitudeMode><coordinates>30.007927073165774,-27.499905321747065,1473.8399999999999</coordinates></Point></Placemark><Placemark><TimeSpan><begin>2022-08-08T10:41:35Z</begin><end>2022-08-08T10:41:44Z</end></TimeSpan><styleUrl>#point</styleUrl><Point><altitudeMode>clampToGround</altitudeMode><coordinates>30.007918691262603,-27.498350981622934,1485.3699999999999</coordinates></Point></Placemark><Placemark><TimeSpan><begin>2022-08-08T10:41:44Z</begin><end>2022-08-08T10:41:45Z</end></TimeSpan><styleUrl>#point</styleUrl><Point><altitudeMode>clampToGround</altitudeMode><coordinates>30.007860856130719,-27.498185355216265,1485.8499999999999</coordinates></Point></Placemark><Placemark><TimeSpan><begin>2022-08-08T10:41:45Z</begin><end>2022-08-08T10:41:46Z</end></TimeSpan><styleUrl>#point</styleUrl><Point><altitudeMode>clampToGround</altitudeMode><coordinates>30.007785251364112,-27.498018471524119,1486.8199999999999</coordinates></Point></Placemark><Placemark><TimeSpan><begin>2022-08-08T10:41:46Z</begin><end>2022-08-08T10:41:55Z</end></TimeSpan><styleUrl>#point</styleUrl><Point><altitudeMode>clampToGround</altitudeMode><coordinates>30.006851172074676,-27.496457006782293,1494.51</coordinates></Point></Placemark><Placemark><TimeSpan><begin>2022-08-08T10:41:55Z</begin><end>2022-08-08T10:42:03Z</end></TimeSpan><styleUrl>#point</styleUrl><Point><altitudeMode>clampToGround</altitudeMode><coordinates>30.006159245967865,-27.495300220325589,1505.0799999999999</coordinates></Point></Placemark><Placemark><TimeSpan><begin>2022-08-08T10:42:03Z</begin><end>2022-08-08T10:42:08Z</end></TimeSpan><styleUrl>#point</styleUrl><Point><altitudeMode>clampToGround</altitudeMode><coordinates>30.006064781919122,-27.495129816234112,1507.48</coordinates></Point></Placemark><Placemark><TimeSpan><begin>2022-08-08T10:42:08Z</begin><end>2022-08-08T10:42:28Z</end></TimeSpan><styleUrl>#point</styleUrl><Point><altitudeMode>clampToGround</altitudeMode><coordinates>30.006070481613278,-27.495153117924929,1506.04</coordinates></Point></Placemark><Placemark><TimeSpan><begin>2022-08-08T10:42:28Z</begin><end>2022-08-08T10:43:06Z</end></TimeSpan><styleUrl>#point</styleUrl><Point><altitudeMode>clampToGround</altitudeMode><coordinates>30.006071235984564,-27.495152112096548,1504.5999999999999</coordinates></Point></Placemark><Placemark><TimeSpan><begin>2022-08-08T10:43:06Z</begin><end>2022-08-08T10:43:51Z</end></TimeSpan><styleUrl>#point</styleUrl><Point><altitudeMode>clampToGround</altitudeMode><coordinates>30.006077522411942,-27.495154291391373,1504.1199999999999</coordinates></Point></Placemark><Placemark><TimeSpan><begin>2022-08-08T10:43:51Z</begin><end>2022-08-08T10:44:36Z</end></TimeSpan><styleUrl>#point</styleUrl><Point><altitudeMode>clampToGround</altitudeMode><coordinates>30.006079869344831,-27.495154710486531,1504.1199999999999</coordinates></Point></Placemark><Placemark><TimeSpan><begin>2022-08-08T10:44:36Z</begin><end>2022-08-08T10:45:21Z</end></TimeSpan><styleUrl>#point</styleUrl><Point><altitudeMode>clampToGround</altitudeMode><coordinates>30.00607349909842,-27.495154375210404,1504.1199999999999</coordinates></Point></Placemark><Placemark><TimeSpan><begin>2022-08-08T10:45:21Z</begin><end>2022-08-08T10:46:09Z</end></TimeSpan><styleUrl>#point</styleUrl><Point><altitudeMode>clampToGround</altitudeMode><coordinates>30.006076600402594,-27.495149932801723,1504.5999999999999</coordinates></Point></Placemark><Placemark><TimeSpan><begin>2022-08-08T10:46:09Z</begin><end>2022-08-08T10:46:45Z</end></TimeSpan><styleUrl>#point</styleUrl><Point><altitudeMode>clampToGround</altitudeMode><coordinates>30.006066039204597,-27.495106598362327,1505.0799999999999</coordinates></Point></Placemark><Placemark><TimeSpan><begin>2022-08-08T10:46:45Z</begin><end>2022-08-08T10:46:46Z</end></TimeSpan><styleUrl>#point</styleUrl><Point><altitudeMode>clampToGround</altitudeMode><coordinates>30.00604659318924,-27.495063850656152,1505.0799999999999</coordinates></Point></Placemark><Placemark><TimeSpan><begin>2022-08-08T10:46:46Z</begin><end>2022-08-08T10:46:47Z</end></TimeSpan><styleUrl>#point</styleUrl><Point><altitudeMode>clampToGround</altitudeMode><coordinates>30.006015412509441,-27.495008362457156,1505.5599999999999</coordinates></Point></Placemark><Placemark><TimeSpan><begin>2022-08-08T10:46:47Z</begin><end>2022-08-08T10:46:57Z</end></TimeSpan><styleUrl>#point</styleUrl><Point><altitudeMode>clampToGround</altitudeMode><coordinates>30.005588857457042,-27.49417981132865,1516.6199999999999</coordinates></Point></Placemark><Placemark><TimeSpan><begin>2022-08-08T10:46:57Z</begin><end>2022-08-08T10:47:05Z</end></TimeSpan><styleUrl>#point</styleUrl><Point><altitudeMode>clampToGround</altitudeMode><coordinates>30.005344357341528,-27.493129139766097,1527.1900000000001</coordinates></Point></Placemark><Placemark><TimeSpan><begin>2022-08-08T10:47:05Z</begin><end>2022-08-08T10:47:14Z</end></TimeSpan><styleUrl>#point</styleUrl><Point><altitudeMode>clampToGround</altitudeMode><coordinates>30.004976224154234,-27.491822149604559,1543.53</coordinates></Point></Placemark><Placemark><TimeSpan><begin>2022-08-08T10:47:14Z</begin><end>2022-08-08T10:47:25Z</end></TimeSpan><styleUrl>#point</styleUrl><Point><altitudeMode>clampToGround</altitudeMode><coordinates>30.004100734367967,-27.489999840036035,1565.1600000000001</coordinates></Point></Placemark><Placemark><TimeSpan><begin>2022-08-08T10:47:25Z</begin><end>2022-08-08T10:47:37Z</end></TimeSpan><styleUrl>#point</styleUrl><Point><altitudeMode>clampToGround</altitudeMode><coordinates>30.00297898426652,-27.48792783357203,1592.5599999999999</coordinates></Point></Placemark><Placemark><TimeSpan><begin>2022-08-08T10:47:37Z</begin><end>2022-08-08T10:47:45Z</end></TimeSpan><styleUrl>#point</styleUrl><Point><altitudeMode>clampToGround</altitudeMode><coordinates>30.002349000424147,-27.486752439290285,1607.9400000000001</coordinates></Point></Placemark><Placemark><TimeSpan><begin>2022-08-08T10:47:45Z</begin><end>2022-08-08T10:47:53Z</end></TimeSpan><styleUrl>#point</styleUrl><Point><altitudeMode>clampToGround</altitudeMode><coordinates>30.00197977758944,-27.485649716109037,1615.6300000000001</coordinates></Point></Placemark><Placemark><TimeSpan><begin>2022-08-08T10:47:53Z</begin><end>2022-08-08T10:48:02Z</end></TimeSpan><styleUrl>#point</styleUrl><Point><altitudeMode>clampToGround</altitudeMode><coordinates>30.00132841989398,-27.483787089586258,1621.8800000000001</coordinates></Point></Placemark><Placemark><TimeSpan><begin>2022-08-08T10:48:02Z</begin><end>2022-08-08T10:48:08Z</end></TimeSpan><styleUrl>#point</styleUrl><Point><altitudeMode>clampToGround</altitudeMode><coordinates>30.000794744119048,-27.482554111629725,1624.77</coordinates></Point></Placemark><Placemark><TimeSpan><begin>2022-08-08T10:48:08Z</begin><end>2022-08-08T10:48:09Z</end></TimeSpan><styleUrl>#point</styleUrl><Point><altitudeMode>clampToGround</altitudeMode><coordinates>30.000664405524731,-27.48237800784409,1624.77</coordinates></Point></Placemark><Placemark><TimeSpan><begin>2022-08-08T10:48:09Z</begin><end>2022-08-08T10:48:18Z</end></TimeSpan><styleUrl>#point</styleUrl><Point><altitudeMode>clampToGround</altitudeMode><coordinates>29.999195476993918,-27.480698442086577,1628.1300000000001</coordinates></Point></Placemark><Placemark><TimeSpan><begin>2022-08-08T10:48:18Z</begin><end>2022-08-08T10:48:28Z</end></TimeSpan><styleUrl>#point</styleUrl><Point><altitudeMode>clampToGround</altitudeMode><coordinates>29.99754449352622,-27.478961879387498,1624.77</coordinates></Point></Placemark><Placemark><TimeSpan><begin>2022-08-08T10:48:28Z</begin><end>2022-08-08T10:48:35Z</end></TimeSpan><styleUrl>#point</styleUrl><Point><altitudeMode>clampToGround</altitudeMode><coordinates>29.996683755889535,-27.477808445692062,1627.6500000000001</coordinates></Point></Placemark><Placemark><TimeSpan><begin>2022-08-08T10:48:35Z</begin><end>2022-08-08T10:48:43Z</end></TimeSpan><styleUrl>#point</styleUrl><Point><altitudeMode>clampToGround</altitudeMode><coordinates>29.99558363109827,-27.476630369201303,1642.55</coordinates></Point></Placemark><Placemark><TimeSpan><begin>2022-08-08T10:48:43Z</begin><end>2022-08-08T10:48:51Z</end></TimeSpan><styleUrl>#point</styleUrl><Point><altitudeMode>clampToGround</altitudeMode><coordinates>29.993943125009537,-27.475614650174975,1654.0899999999999</coordinates></Point></Placemark><Placemark><TimeSpan><begin>2022-08-08T10:48:51Z</begin><end>2022-08-08T10:48:58Z</end></TimeSpan><styleUrl>#point</styleUrl><Point><altitudeMode>clampToGround</altitudeMode><coordinates>29.992836713790894,-27.474665567278862,1660.8099999999999</coordinates></Point></Placemark><Placemark><TimeSpan><begin>2022-08-08T10:48:58Z</begin><end>2022-08-08T10:49:05Z</end></TimeSpan><styleUrl>#point</styleUrl><Point><altitudeMode>clampToGround</altitudeMode><coordinates>29.991702558472753,-27.473866688087583,1656.97</coordinates></Point></Placemark><Placemark><TimeSpan><begin>2022-08-08T10:49:05Z</begin><end>2022-08-08T10:49:12Z</end></TimeSpan><styleUrl>#point</styleUrl><Point><altitudeMode>clampToGround</altitudeMode><coordinates>29.990658173337579,-27.473162105306983,1647.3599999999999</coordinates></Point></Placemark><Placemark><TimeSpan><begin>2022-08-08T10:49:12Z</begin><end>2022-08-08T10:49:13Z</end></TimeSpan><styleUrl>#point</styleUrl><Point><altitudeMode>clampToGround</altitudeMode><coordinates>29.990569576621056,-27.473057666793466,1646.4000000000001</coordinates></Point></Placemark><Placemark><TimeSpan><begin>2022-08-08T10:49:13Z</begin><end>2022-08-08T10:49:14Z</end></TimeSpan><styleUrl>#point</styleUrl><Point><altitudeMode>clampToGround</altitudeMode><coordinates>29.990503443405032,-27.472950462251902,1645.9100000000001</coordinates></Point></Placemark><Placemark><TimeSpan><begin>2022-08-08T10:49:14Z</begin><end>2022-08-08T10:49:15Z</end></TimeSpan><styleUrl>#point</styleUrl><Point><altitudeMode>clampToGround</altitudeMode><coordinates>29.990457007661462,-27.472836971282959,1645.4300000000001</coordinates></Point></Placemark><Placemark><TimeSpan><begin>2022-08-08T10:49:15Z</begin><end>2022-08-08T10:49:16Z</end></TimeSpan><styleUrl>#point</styleUrl><Point><altitudeMode>clampToGround</altitudeMode><coordinates>29.990431778132915,-27.472720043733716,1645.4300000000001</coordinates></Point></Placemark><Placemark><TimeSpan><begin>2022-08-08T10:49:16Z</begin><end>2022-08-08T10:49:17Z</end></TimeSpan><styleUrl>#point</styleUrl><Point><altitudeMode>clampToGround</altitudeMode><coordinates>29.990416523069143,-27.472593728452921,1644.95</coordinates></Point></Placemark><Placemark><TimeSpan><begin>2022-08-08T10:49:17Z</begin><end>2022-08-08T10:49:18Z</end></TimeSpan><styleUrl>#point</styleUrl><Point><altitudeMode>clampToGround</altitudeMode><coordinates>29.990405458956957,-27.472456768155098,1644.47</coordinates></Point></Placemark><Placemark><TimeSpan><begin>2022-08-08T10:49:18Z</begin><end>2022-08-08T10:49:27Z</end></TimeSpan><styleUrl>#point</styleUrl><Point><altitudeMode>clampToGround</altitudeMode><coordinates>29.990389281883836,-27.471049195155501,1648.8</coordinates></Point></Placemark><Placemark><TimeSpan><begin>2022-08-08T10:49:27Z</begin><end>2022-08-08T10:49:30Z</end></TimeSpan><styleUrl>#point</styleUrl><Point><altitudeMode>clampToGround</altitudeMode><coordinates>29.99042809009552,-27.470598164945841,1652.6400000000001</coordinates></Point></Placemark><Placemark><TimeSpan><begin>2022-08-08T10:49:30Z</begin><end>2022-08-08T10:49:31Z</end></TimeSpan><styleUrl>#point</styleUrl><Point><altitudeMode>clampToGround</altitudeMode><coordinates>29.99046815559268,-27.470466820523143,1654.0899999999999</coordinates></Point></Placemark><Placemark><TimeSpan><begin>2022-08-08T10:49:31Z</begin><end>2022-08-08T10:49:32Z</end></TimeSpan><styleUrl>#point</styleUrl><Point><altitudeMode>clampToGround</altitudeMode><coordinates>29.990531522780657,-27.470346037298441,1655.53</coordinates></Point></Placemark><Placemark><TimeSpan><begin>2022-08-08T10:49:32Z</begin><end>2022-08-08T10:49:33Z</end></TimeSpan><styleUrl>#point</styleUrl><Point><altitudeMode>clampToGround</altitudeMode><coordinates>29.990613833069801,-27.470232462510467,1656.97</coordinates></Point></Placemark><Placemark><TimeSpan><begin>2022-08-08T10:49:33Z</begin><end>2022-08-08T10:49:34Z</end></TimeSpan><styleUrl>#point</styleUrl><Point><altitudeMode>clampToGround</altitudeMode><coordinates>29.990711398422718,-27.470123833045363,1658.8900000000001</coordinates></Point></Placemark><Placemark><TimeSpan><begin>2022-08-08T10:49:34Z</begin><end>2022-08-08T10:49:35Z</end></TimeSpan><styleUrl>#point</styleUrl><Point><altitudeMode>clampToGround</altitudeMode><coordinates>29.990822123363614,-27.470018556341529,1660.8099999999999</coordinates></Point></Placemark><Placemark><TimeSpan><begin>2022-08-08T10:49:35Z</begin><end>2022-08-08T10:49:36Z</end></TimeSpan><styleUrl>#point</styleUrl><Point><altitudeMode>clampToGround</altitudeMode><coordinates>29.990932680666447,-27.46991747058928,1662.26</coordinates></Point></Placemark><Placemark><TimeSpan><begin>2022-08-08T10:49:36Z</begin><end>2022-08-08T10:49:37Z</end></TimeSpan><styleUrl>#point</styleUrl><Point><altitudeMode>clampToGround</altitudeMode><coordinates>29.991027815267444,-27.4698197375983,1663.22</coordinates></Point></Placemark><Placemark><TimeSpan><begin>2022-08-08T10:49:37Z</begin><end>2022-08-08T10:49:38Z</end></TimeSpan><styleUrl>#point</styleUrl><Point><altitudeMode>clampToGround</altitudeMode><coordinates>29.991102581843734,-27.469718651846051,1664.1800000000001</coordinates></Point></Placemark><Placemark><TimeSpan><begin>2022-08-08T10:49:38Z</begin><end>2022-08-08T10:49:39Z</end></TimeSpan><styleUrl>#point</styleUrl><Point><altitudeMode>clampToGround</altitudeMode><coordinates>29.991153879091144,-27.469604657962918,1665.1400000000001</coordinates></Point></Placemark><Placemark><TimeSpan><begin>2022-08-08T10:49:39Z</begin><end>2022-08-08T10:49:40Z</end></TimeSpan><styleUrl>#point</styleUrl><Point><altitudeMode>clampToGround</altitudeMode><coordinates>29.991178940981627,-27.469476582482457,1666.0999999999999</coordinates></Point></Placemark><Placemark><TimeSpan><begin>2022-08-08T10:49:40Z</begin><end>2022-08-08T10:49:41Z</end></TimeSpan><styleUrl>#point</styleUrl><Point><altitudeMode>clampToGround</altitudeMode><coordinates>29.991176845505834,-27.469336353242397,1667.0599999999999</coordinates></Point></Placemark><Placemark><TimeSpan><begin>2022-08-08T10:49:41Z</begin><end>2022-08-08T10:49:42Z</end></TimeSpan><styleUrl>#point</styleUrl><Point><altitudeMode>clampToGround</altitudeMode><coordinates>29.991152789443731,-27.469185898080468,1667.54</coordinates></Point></Placemark><Placemark><TimeSpan><begin>2022-08-08T10:49:42Z</begin><end>2022-08-08T10:49:43Z</end></TimeSpan><styleUrl>#point</styleUrl><Point><altitudeMode>clampToGround</altitudeMode><coordinates>29.991113897413015,-27.469027899205685,1668.99</coordinates></Point></Placemark><Placemark><TimeSpan><begin>2022-08-08T10:49:43Z</begin><end>2022-08-08T10:49:44Z</end></TimeSpan><styleUrl>#point</styleUrl><Point><altitudeMode>clampToGround</altitudeMode><coordinates>29.991069389507174,-27.468862775713205,1669.95</coordinates></Point></Placemark><Placemark><TimeSpan><begin>2022-08-08T10:49:44Z</begin><end>2022-08-08T10:49:50Z</end></TimeSpan><styleUrl>#point</styleUrl><Point><altitudeMode>clampToGround</altitudeMode><coordinates>29.990891441702843,-27.467875136062503,1681</coordinates></Point></Placemark><Placemark><TimeSpan><begin>2022-08-08T10:49:50Z</begin><end>2022-08-08T10:49:51Z</end></TimeSpan><styleUrl>#point</styleUrl><Point><altitudeMode>clampToGround</altitudeMode><coordinates>29.990907702594995,-27.467723675072193,1682.4400000000001</coordinates></Point></Placemark><Placemark><TimeSpan><begin>2022-08-08T10:49:51Z</begin><end>2022-08-08T10:49:52Z</end></TimeSpan><styleUrl>#point</styleUrl><Point><altitudeMode>clampToGround</altitudeMode><coordinates>29.990943241864443,-27.467570453882217,1683.8900000000001</coordinates></Point></Placemark><Placemark><TimeSpan><begin>2022-08-08T10:49:52Z</begin><end>2022-08-08T10:49:53Z</end></TimeSpan><styleUrl>#point</styleUrl><Point><altitudeMode>clampToGround</altitudeMode><coordinates>29.990999065339565,-27.467415053397417,1685.3299999999999</coordinates></Point></Placemark><Placemark><TimeSpan><begin>2022-08-08T10:49:53Z</begin><end>2022-08-08T10:49:54Z</end></TimeSpan><styleUrl>#point</styleUrl><Point><altitudeMode>clampToGround</altitudeMode><coordinates>29.991075173020363,-27.467255713418126,1686.29</coordinates></Point></Placemark><Placemark><TimeSpan><begin>2022-08-08T10:49:54Z</begin><end>2022-08-08T10:49:55Z</end></TimeSpan><styleUrl>#point</styleUrl><Point><altitudeMode>clampToGround</altitudeMode><coordinates>29.991167541593313,-27.467090003192425,1686.77</coordinates></Point></Placemark><Placemark><TimeSpan><begin>2022-08-08T10:49:55Z</begin><end>2022-08-08T10:50:02Z</end></TimeSpan><styleUrl>#point</styleUrl><Point><altitudeMode>clampToGround</altitudeMode><coordinates>29.991723680868745,-27.465727105736732,1695.9000000000001</coordinates></Point></Placemark><Placemark><TimeSpan><begin>2022-08-08T10:50:02Z</begin><end>2022-08-08T10:50:11Z</end></TimeSpan><styleUrl>#point</styleUrl><Point><altitudeMode>clampToGround</altitudeMode><coordinates>29.991864413022995,-27.463785773143172,1718.01</coordinates></Point></Placemark><Placemark><TimeSpan><begin>2022-08-08T10:50:11Z</begin><end>2022-08-08T10:50:18Z</end></TimeSpan><styleUrl>#point</styleUrl><Point><altitudeMode>clampToGround</altitudeMode><coordinates>29.991350183263421,-27.462411727756262,1720.9000000000001</coordinates></Point></Placemark><Placemark><TimeSpan><begin>2022-08-08T10:50:18Z</begin><end>2022-08-08T10:50:26Z</end></TimeSpan><styleUrl>#point</styleUrl><Point><altitudeMode>clampToGround</altitudeMode><coordinates>29.990511070936918,-27.460654294118285,1713.6900000000001</coordinates></Point></Placemark><Placemark><TimeSpan><begin>2022-08-08T10:50:26Z</begin><end>2022-08-08T10:50:35Z</end></TimeSpan><styleUrl>#point</styleUrl><Point><altitudeMode>clampToGround</altitudeMode><coordinates>29.989806739613414,-27.459013285115361,1709.3599999999999</coordinates></Point></Placemark><Placemark><TimeSpan><begin>2022-08-08T10:50:35Z</begin><end>2022-08-08T10:50:36Z</end></TimeSpan><styleUrl>#point</styleUrl><Point><altitudeMode>clampToGround</altitudeMode><coordinates>29.989784276112914,-27.4588368460536,1710.3199999999999</coordinates></Point></Placemark><Placemark><TimeSpan><begin>2022-08-08T10:50:36Z</begin><end>2022-08-08T10:50:37Z</end></TimeSpan><styleUrl>#point</styleUrl><Point><altitudeMode>clampToGround</altitudeMode><coordinates>29.989777402952313,-27.458660239353776,1710.8</coordinates></Point></Placemark><Placemark><TimeSpan><begin>2022-08-08T10:50:37Z</begin><end>2022-08-08T10:50:44Z</end></TimeSpan><styleUrl>#point</styleUrl><Point><altitudeMode>clampToGround</altitudeMode><coordinates>29.989870106801391,-27.457202794030309,1707.9200000000001</coordinates></Point></Placemark><Placemark><TimeSpan><begin>2022-08-08T10:50:44Z</begin><end>2022-08-08T10:50:55Z</end></TimeSpan><styleUrl>#point</styleUrl><Point><altitudeMode>clampToGround</altitudeMode><coordinates>29.990104297176003,-27.454960299655795,1693.02</coordinates></Point></Placemark><Placemark><TimeSpan><begin>2022-08-08T10:50:55Z</begin><end>2022-08-08T10:51:04Z</end></TimeSpan><styleUrl>#point</styleUrl><Point><altitudeMode>clampToGround</altitudeMode><coordinates>29.990268414840102,-27.453351225703955,1683.4100000000001</coordinates></Point></Placemark><Placemark><TimeSpan><begin>2022-08-08T10:51:04Z</begin><end>2022-08-08T10:51:15Z</end></TimeSpan><styleUrl>#point</styleUrl><Point><altitudeMode>clampToGround</altitudeMode><coordinates>29.99028735794127,-27.451405366882682,1681.96</coordinates></Point></Placemark><Placemark><TimeSpan><begin>2022-08-08T10:51:15Z</begin><end>2022-08-08T10:51:22Z</end></TimeSpan><styleUrl>#point</styleUrl><Point><altitudeMode>clampToGround</altitudeMode><coordinates>29.98997756280005,-27.450136346742511,1678.1199999999999</coordinates></Point></Placemark><Placemark><TimeSpan><begin>2022-08-08T10:51:22Z</begin><end>2022-08-08T10:51:33Z</end></TimeSpan><styleUrl>#point</styleUrl><Point><altitudeMode>clampToGround</altitudeMode><coordinates>29.989448413252831,-27.447758065536618,1675.23</coordinates></Point></Placemark><Placemark><TimeSpan><begin>2022-08-08T10:51:33Z</begin><end>2022-08-08T10:51:43Z</end></TimeSpan><styleUrl>#point</styleUrl><Point><altitudeMode>clampToGround</altitudeMode><coordinates>29.988656155765057,-27.445497130975127,1670.4300000000001</coordinates></Point></Placemark><Placemark><TimeSpan><begin>2022-08-08T10:51:43Z</begin><end>2022-08-08T10:51:49Z</end></TimeSpan><styleUrl>#point</styleUrl><Point><altitudeMode>clampToGround</altitudeMode><coordinates>29.988144440576434,-27.444480154663324,1668.51</coordinates></Point></Placemark><Placemark><TimeSpan><begin>2022-08-08T10:51:49Z</begin><end>2022-08-08T10:51:53Z</end></TimeSpan><styleUrl>#point</styleUrl><Point><altitudeMode>clampToGround</altitudeMode><coordinates>29.987643454223871,-27.443947065621614,1666.0999999999999</coordinates></Point></Placemark><Placemark><TimeSpan><begin>2022-08-08T10:51:53Z</begin><end>2022-08-08T10:51:54Z</end></TimeSpan><styleUrl>#point</styleUrl><Point><altitudeMode>clampToGround</altitudeMode><coordinates>29.987483359873295,-27.443829886615276,1665.6199999999999</coordinates></Point></Placemark><Placemark><TimeSpan><begin>2022-08-08T10:51:54Z</begin><end>2022-08-08T10:52:03Z</end></TimeSpan><styleUrl>#point</styleUrl><Point><altitudeMode>clampToGround</altitudeMode><coordinates>29.986059106886387,-27.442867644131184,1656.97</coordinates></Point></Placemark><Placemark><TimeSpan><begin>2022-08-08T10:52:03Z</begin><end>2022-08-08T10:52:12Z</end></TimeSpan><styleUrl>#point</styleUrl><Point><altitudeMode>clampToGround</altitudeMode><coordinates>29.984805677086115,-27.44157750159502,1645.9100000000001</coordinates></Point></Placemark><Placemark><TimeSpan><begin>2022-08-08T10:52:12Z</begin><end>2022-08-08T10:52:21Z</end></TimeSpan><styleUrl>#point</styleUrl><Point><altitudeMode>clampToGround</altitudeMode><coordinates>29.983516037464142,-27.440145453438163,1643.99</coordinates></Point></Placemark><Placemark><TimeSpan><begin>2022-08-08T10:52:21Z</begin><end>2022-08-08T10:52:34Z</end></TimeSpan><styleUrl>#point</styleUrl><Point><altitudeMode>clampToGround</altitudeMode><coordinates>29.981754496693611,-27.438299506902695,1642.0699999999999</coordinates></Point></Placemark><Placemark><TimeSpan><begin>2022-08-08T10:52:34Z</begin><end>2022-08-08T10:52:36Z</end></TimeSpan><styleUrl>#point</styleUrl><Point><altitudeMode>clampToGround</altitudeMode><coordinates>29.981424082070589,-27.438096078112721,1641.1099999999999</coordinates></Point></Placemark><Placemark><TimeSpan><begin>2022-08-08T10:52:36Z</begin><end>2022-08-08T10:52:37Z</end></TimeSpan><styleUrl>#point</styleUrl><Point><altitudeMode>clampToGround</altitudeMode><coordinates>29.981227358803153,-27.438012007623911,1640.1500000000001</coordinates></Point></Placemark><Placemark><TimeSpan><begin>2022-08-08T10:52:37Z</begin><end>2022-08-08T10:52:38Z</end></TimeSpan><styleUrl>#point</styleUrl><Point><altitudeMode>clampToGround</altitudeMode><coordinates>29.981026025488973,-27.437948808073997,1639.6700000000001</coordinates></Point></Placemark><Placemark><TimeSpan><begin>2022-08-08T10:52:38Z</begin><end>2022-08-08T10:52:39Z</end></TimeSpan><styleUrl>#point</styleUrl><Point><altitudeMode>clampToGround</altitudeMode><coordinates>29.98080407269299,-27.437895080074668,1639.1900000000001</coordinates></Point></Placemark><Placemark><TimeSpan><begin>2022-08-08T10:52:39Z</begin><end>2022-08-08T10:52:40Z</end></TimeSpan><styleUrl>#point</styleUrl><Point><altitudeMode>clampToGround</altitudeMode><coordinates>29.980589579790831,-27.43785073980689,1638.7</coordinates></Point></Placemark><Placemark><TimeSpan><begin>2022-08-08T10:52:40Z</begin><end>2022-08-08T10:52:48Z</end></TimeSpan><styleUrl>#point</styleUrl><Point><altitudeMode>clampToGround</altitudeMode><coordinates>29.979113610461354,-27.437491491436958,1630.05</coordinates></Point></Placemark><Placemark><TimeSpan><begin>2022-08-08T10:52:48Z</begin><end>2022-08-08T10:52:54Z</end></TimeSpan><styleUrl>#point</styleUrl><Point><altitudeMode>clampToGround</altitudeMode><coordinates>29.978073416277766,-27.436841139569879,1624.77</coordinates></Point></Placemark><Placemark><TimeSpan><begin>2022-08-08T10:52:54Z</begin><end>2022-08-08T10:53:02Z</end></TimeSpan><styleUrl>#point</styleUrl><Point><altitudeMode>clampToGround</altitudeMode><coordinates>29.977027690038085,-27.435951987281442,1621.4000000000001</coordinates></Point></Placemark><Placemark><TimeSpan><begin>2022-08-08T10:53:02Z</begin><end>2022-08-08T10:53:10Z</end></TimeSpan><styleUrl>#point</styleUrl><Point><altitudeMode>clampToGround</altitudeMode><coordinates>29.9761962890625,-27.434940291568637,1619.96</coordinates></Point></Placemark><Placemark><TimeSpan><begin>2022-08-08T10:53:10Z</begin><end>2022-08-08T10:53:11Z</end></TimeSpan><styleUrl>#point</styleUrl><Point><altitudeMode>clampToGround</altitudeMode><coordinates>29.976129904389381,-27.434789836406708,1620.4400000000001</coordinates></Point></Placemark><Placemark><TimeSpan><begin>2022-08-08T10:53:11Z</begin><end>2022-08-08T10:53:12Z</end></TimeSpan><styleUrl>#point</styleUrl><Point><altitudeMode>clampToGround</altitudeMode><coordinates>29.97608246281743,-27.434641225263476,1620.4400000000001</coordinates></Point></Placemark><Placemark><TimeSpan><begin>2022-08-08T10:53:12Z</begin><end>2022-08-08T10:53:13Z</end></TimeSpan><styleUrl>#point</styleUrl><Point><altitudeMode>clampToGround</altitudeMode><coordinates>29.976046001538634,-27.434477442875504,1620.9200000000001</coordinates></Point></Placemark><Placemark><TimeSpan><begin>2022-08-08T10:53:13Z</begin><end>2022-08-08T10:53:14Z</end></TimeSpan><styleUrl>#point</styleUrl><Point><altitudeMode>clampToGround</altitudeMode><coordinates>29.976022532209754,-27.434313241392374,1621.8800000000001</coordinates></Point></Placemark><Placemark><TimeSpan><begin>2022-08-08T10:53:14Z</begin><end>2022-08-08T10:53:15Z</end></TimeSpan><styleUrl>#point</styleUrl><Point><altitudeMode>clampToGround</altitudeMode><coordinates>29.97601012699306,-27.434141915291548,1622.3599999999999</coordinates></Point></Placemark><Placemark><TimeSpan><begin>2022-08-08T10:53:15Z</begin><end>2022-08-08T10:53:23Z</end></TimeSpan><styleUrl>#point</styleUrl><Point><altitudeMode>clampToGround</altitudeMode><coordinates>29.976051533594728,-27.432483220472932,1623.3199999999999</coordinates></Point></Placemark><Placemark><TimeSpan><begin>2022-08-08T10:53:23Z</begin><end>2022-08-08T10:53:36Z</end></TimeSpan><styleUrl>#point</styleUrl><Point><altitudeMode>clampToGround</altitudeMode><coordinates>29.976273737847805,-27.429624320939183,1623.3199999999999</coordinates></Point></Placemark><Placemark><TimeSpan><begin>2022-08-08T10:53:36Z</begin><end>2022-08-08T10:53:44Z</end></TimeSpan><styleUrl>#point</styleUrl><Point><altitudeMode>clampToGround</altitudeMode><coordinates>29.97670641168952,-27.428000159561634,1624.28</coordinates></Point></Placemark><Placemark><TimeSpan><begin>2022-08-08T10:53:44Z</begin><end>2022-08-08T10:53:49Z</end></TimeSpan><styleUrl>#point</styleUrl><Point><altitudeMode>clampToGround</altitudeMode><coordinates>29.976777406409383,-27.427082508802414,1622.3599999999999</coordinates></Point></Placemark><Placemark><TimeSpan><begin>2022-08-08T10:53:49Z</begin><end>2022-08-08T10:53:50Z</end></TimeSpan><styleUrl>#point</styleUrl><Point><altitudeMode>clampToGround</altitudeMode><coordinates>29.976747734472156,-27.426898861303926,1621.8800000000001</coordinates></Point></Placemark><Placemark><TimeSpan><begin>2022-08-08T10:53:50Z</begin><end>2022-08-08T10:53:51Z</end></TimeSpan><styleUrl>#point</styleUrl><Point><altitudeMode>clampToGround</altitudeMode><coordinates>29.976702304556966,-27.426724266260862,1622.3599999999999</coordinates></Point></Placemark><Placemark><TimeSpan><begin>2022-08-08T10:53:51Z</begin><end>2022-08-08T10:53:59Z</end></TimeSpan><styleUrl>#point</styleUrl><Point><altitudeMode>clampToGround</altitudeMode><coordinates>29.976147254928946,-27.425161711871624,1624.77</coordinates></Point></Placemark><Placemark><TimeSpan><begin>2022-08-08T10:53:59Z</begin><end>2022-08-08T10:54:07Z</end></TimeSpan><styleUrl>#point</styleUrl><Point><altitudeMode>clampToGround</altitudeMode><coordinates>29.975977269932628,-27.423454150557518,1630.05</coordinates></Point></Placemark><Placemark><TimeSpan><begin>2022-08-08T10:54:07Z</begin><end>2022-08-08T10:54:18Z</end></TimeSpan><styleUrl>#point</styleUrl><Point><altitudeMode>clampToGround</altitudeMode><coordinates>29.975849445909262,-27.420850563794374,1632.46</coordinates></Point></Placemark><Placemark><TimeSpan><begin>2022-08-08T10:54:18Z</begin><end>2022-08-08T10:54:27Z</end></TimeSpan><styleUrl>#point</styleUrl><Point><altitudeMode>clampToGround</altitudeMode><coordinates>29.975746935233474,-27.418854078277946,1639.1900000000001</coordinates></Point></Placemark><Placemark><TimeSpan><begin>2022-08-08T10:54:27Z</begin><end>2022-08-08T10:54:34Z</end></TimeSpan><styleUrl>#point</styleUrl><Point><altitudeMode>clampToGround</altitudeMode><coordinates>29.976103752851486,-27.41737324744463,1643.03</coordinates></Point></Placemark><Placemark><TimeSpan><begin>2022-08-08T10:54:34Z</begin><end>2022-08-08T10:54:40Z</end></TimeSpan><styleUrl>#point</styleUrl><Point><altitudeMode>clampToGround</altitudeMode><coordinates>29.976375997066498,-27.416293742135167,1644.47</coordinates></Point></Placemark><Placemark><TimeSpan><begin>2022-08-08T10:54:40Z</begin><end>2022-08-08T10:54:42Z</end></TimeSpan><styleUrl>#point</styleUrl><Point><altitudeMode>clampToGround</altitudeMode><coordinates>29.97640885412693,-27.415999034419656,1643.03</coordinates></Point></Placemark><Placemark><TimeSpan><begin>2022-08-08T10:54:42Z</begin><end>2022-08-08T10:54:43Z</end></TimeSpan><styleUrl>#point</styleUrl><Point><altitudeMode>clampToGround</altitudeMode><coordinates>29.976399717852473,-27.415858805179596,1642.0699999999999</coordinates></Point></Placemark><Placemark><TimeSpan><begin>2022-08-08T10:54:43Z</begin><end>2022-08-08T10:54:44Z</end></TimeSpan><styleUrl>#point</styleUrl><Point><altitudeMode>clampToGround</altitudeMode><coordinates>29.976370465010405,-27.415718492120504,1641.5899999999999</coordinates></Point></Placemark><Placemark><TimeSpan><begin>2022-08-08T10:54:44Z</begin><end>2022-08-08T10:54:45Z</end></TimeSpan><styleUrl>#point</styleUrl><Point><altitudeMode>clampToGround</altitudeMode><coordinates>29.97631455771625,-27.415569294244051,1641.1099999999999</coordinates></Point></Placemark><Placemark><TimeSpan><begin>2022-08-08T10:54:45Z</begin><end>2022-08-08T10:54:46Z</end></TimeSpan><styleUrl>#point</styleUrl><Point><altitudeMode>clampToGround</altitudeMode><coordinates>29.976238282397389,-27.415429903194308,1641.1099999999999</coordinates></Point></Placemark><Placemark><TimeSpan><begin>2022-08-08T10:54:46Z</begin><end>2022-08-08T10:54:47Z</end></TimeSpan><styleUrl>#point</styleUrl><Point><altitudeMode>clampToGround</altitudeMode><coordinates>29.976137867197394,-27.415282381698489,1642.0699999999999</coordinates></Point></Placemark><Placemark><TimeSpan><begin>2022-08-08T10:54:47Z</begin><end>2022-08-08T10:54:48Z</end></TimeSpan><styleUrl>#point</styleUrl><Point><altitudeMode>clampToGround</altitudeMode><coordinates>29.976038793101907,-27.415155479684472,1642.55</coordinates></Point></Placemark><Placemark><TimeSpan><begin>2022-08-08T10:54:48Z</begin><end>2022-08-08T10:54:57Z</end></TimeSpan><styleUrl>#point</styleUrl><Point><altitudeMode>clampToGround</altitudeMode><coordinates>29.975226921960711,-27.413790738210082,1656.97</coordinates></Point></Placemark><Placemark><TimeSpan><begin>2022-08-08T10:54:57Z</begin><end>2022-08-08T10:55:05Z</end></TimeSpan><styleUrl>#point</styleUrl><Point><altitudeMode>clampToGround</altitudeMode><coordinates>29.975065402686596,-27.412304626777768,1666.5799999999999</coordinates></Point></Placemark><Placemark><TimeSpan><begin>2022-08-08T10:55:05Z</begin><end>2022-08-08T10:55:14Z</end></TimeSpan><styleUrl>#point</styleUrl><Point><altitudeMode>clampToGround</altitudeMode><coordinates>29.975089710205793,-27.410537889227271,1672.8299999999999</coordinates></Point></Placemark><Placemark><TimeSpan><begin>2022-08-08T10:55:14Z</begin><end>2022-08-08T10:55:23Z</end></TimeSpan><styleUrl>#point</styleUrl><Point><altitudeMode>clampToGround</altitudeMode><coordinates>29.975142516195774,-27.408573674038053,1670.4300000000001</coordinates></Point></Placemark><Placemark><TimeSpan><begin>2022-08-08T10:55:23Z</begin><end>2022-08-08T10:55:37Z</end></TimeSpan><styleUrl>#point</styleUrl><Point><altitudeMode>clampToGround</altitudeMode><coordinates>29.975247206166387,-27.405486032366753,1676.2</coordinates></Point></Placemark><Placemark><TimeSpan><begin>2022-08-08T10:55:37Z</begin><end>2022-08-08T10:55:47Z</end></TimeSpan><styleUrl>#point</styleUrl><Point><altitudeMode>clampToGround</altitudeMode><coordinates>29.975315434858203,-27.403288967907429,1680.52</coordinates></Point></Placemark><Placemark><TimeSpan><begin>2022-08-08T10:55:47Z</begin><end>2022-08-08T10:55:57Z</end></TimeSpan><styleUrl>#point</styleUrl><Point><altitudeMode>clampToGround</altitudeMode><coordinates>29.975274866446853,-27.401600265875459,1665.1400000000001</coordinates></Point></Placemark><Placemark><TimeSpan><begin>2022-08-08T10:55:57Z</begin><end>2022-08-08T10:55:59Z</end></TimeSpan><styleUrl>#point</styleUrl><Point><altitudeMode>clampToGround</altitudeMode><coordinates>29.975209906697273,-27.401306480169296,1663.22</coordinates></Point></Placemark><Placemark><TimeSpan><begin>2022-08-08T10:55:59Z</begin><end>2022-08-08T10:56:00Z</end></TimeSpan><styleUrl>#point</styleUrl><Point><altitudeMode>clampToGround</altitudeMode><coordinates>29.975146036595106,-27.401156360283494,1662.74</coordinates></Point></Placemark><Placemark><TimeSpan><begin>2022-08-08T10:56:00Z</begin><end>2022-08-08T10:56:01Z</end></TimeSpan><styleUrl>#point</styleUrl><Point><altitudeMode>clampToGround</altitudeMode><coordinates>29.975065570324659,-27.401016131043434,1662.26</coordinates></Point></Placemark><Placemark><TimeSpan><begin>2022-08-08T10:56:01Z</begin><end>2022-08-08T10:56:02Z</end></TimeSpan><styleUrl>#point</styleUrl><Point><altitudeMode>clampToGround</altitudeMode><coordinates>29.974974039942026,-27.400880511850119,1662.26</coordinates></Point></Placemark><Placemark><TimeSpan><begin>2022-08-08T10:56:02Z</begin><end>2022-08-08T10:56:03Z</end></TimeSpan><styleUrl>#point</styleUrl><Point><altitudeMode>clampToGround</altitudeMode><coordinates>29.97485987842083,-27.400727206841111,1662.26</coordinates></Point></Placemark><Placemark><TimeSpan><begin>2022-08-08T10:56:03Z</begin><end>2022-08-08T10:56:11Z</end></TimeSpan><styleUrl>#point</styleUrl><Point><altitudeMode>clampToGround</altitudeMode><coordinates>29.973881291225553,-27.399356430396438,1669.47</coordinates></Point></Placemark><Placemark><TimeSpan><begin>2022-08-08T10:56:11Z</begin><end>2022-08-08T10:56:21Z</end></TimeSpan><styleUrl>#point</styleUrl><Point><altitudeMode>clampToGround</altitudeMode><coordinates>29.972928604111075,-27.397285597398877,1683.4100000000001</coordinates></Point></Placemark><Placemark><TimeSpan><begin>2022-08-08T10:56:21Z</begin><end>2022-08-08T10:56:35Z</end></TimeSpan><styleUrl>#point</styleUrl><Point><altitudeMode>clampToGround</altitudeMode><coordinates>29.971598898991942,-27.394279427826405,1697.3399999999999</coordinates></Point></Placemark><Placemark><TimeSpan><begin>2022-08-08T10:56:35Z</begin><end>2022-08-08T10:56:50Z</end></TimeSpan><styleUrl>#point</styleUrl><Point><altitudeMode>clampToGround</altitudeMode><coordinates>29.97012703679502,-27.390993470326066,1724.26</coordinates></Point></Placemark><Placemark><TimeSpan><begin>2022-08-08T10:56:50Z</begin><end>2022-08-08T10:57:04Z</end></TimeSpan><styleUrl>#point</styleUrl><Point><altitudeMode>clampToGround</altitudeMode><coordinates>29.968806132674217,-27.388043124228716,1740.1199999999999</coordinates></Point></Placemark><Placemark><TimeSpan><begin>2022-08-08T10:57:04Z</begin><end>2022-08-08T10:57:14Z</end></TimeSpan><styleUrl>#point</styleUrl><Point><altitudeMode>clampToGround</altitudeMode><coordinates>29.967851517722011,-27.385914539918303,1738.2</coordinates></Point></Placemark><Placemark><TimeSpan><begin>2022-08-08T10:57:14Z</begin><end>2022-08-08T10:57:21Z</end></TimeSpan><styleUrl>#point</styleUrl><Point><altitudeMode>clampToGround</altitudeMode><coordinates>29.967385064810514,-27.384853474795818,1737.72</coordinates></Point></Placemark><Placemark><TimeSpan><begin>2022-08-08T10:57:21Z</begin><end>2022-08-08T10:57:26Z</end></TimeSpan><styleUrl>#point</styleUrl><Point><altitudeMode>clampToGround</altitudeMode><coordinates>29.96724022552371,-27.384573938325047,1736.76</coordinates></Point></Placemark><Placemark><TimeSpan><begin>2022-08-08T10:57:26Z</begin><end>2022-08-08T10:57:37Z</end></TimeSpan><styleUrl>#point</styleUrl><Point><altitudeMode>clampToGround</altitudeMode><coordinates>29.967233100906014,-27.384567568078637,1735.3199999999999</coordinates></Point></Placemark><Placemark><TimeSpan><begin>2022-08-08T10:57:37Z</begin><end>2022-08-08T10:57:52Z</end></TimeSpan><styleUrl>#point</styleUrl><Point><altitudeMode>clampToGround</altitudeMode><coordinates>29.967105444520712,-27.384403198957443,1735.3199999999999</coordinates></Point></Placemark><Placemark><TimeSpan><begin>2022-08-08T10:57:52Z</begin><end>2022-08-08T10:57:58Z</end></TimeSpan><styleUrl>#point</styleUrl><Point><altitudeMode>clampToGround</altitudeMode><coordinates>29.966526841744781,-27.383902799338102,1734.8399999999999</coordinates></Point></Placemark><Placemark><TimeSpan><begin>2022-08-08T10:57:58Z</begin><end>2022-08-08T10:58:07Z</end></TimeSpan><styleUrl>#point</styleUrl><Point><altitudeMode>clampToGround</altitudeMode><coordinates>29.965339964255691,-27.382912980392575,1730.03</coordinates></Point></Placemark><Placemark><TimeSpan><begin>2022-08-08T10:58:07Z</begin><end>2022-08-08T10:58:15Z</end></TimeSpan><styleUrl>#point</styleUrl><Point><altitudeMode>clampToGround</altitudeMode><coordinates>29.964450225234032,-27.382148215547204,1727.6300000000001</coordinates></Point></Placemark><Placemark><TimeSpan><begin>2022-08-08T10:58:15Z</begin><end>2022-08-08T10:58:24Z</end></TimeSpan><styleUrl>#point</styleUrl><Point><altitudeMode>clampToGround</altitudeMode><coordinates>29.963007364422083,-27.380914315581322,1727.6300000000001</coordinates></Point></Placemark><Placemark><TimeSpan><begin>2022-08-08T10:58:24Z</begin><end>2022-08-08T10:58:34Z</end></TimeSpan><styleUrl>#point</styleUrl><Point><altitudeMode>clampToGround</altitudeMode><coordinates>29.961407426744699,-27.379532139748335,1726.6700000000001</coordinates></Point></Placemark><Placemark><TimeSpan><begin>2022-08-08T10:58:34Z</begin><end>2022-08-08T10:58:41Z</end></TimeSpan><styleUrl>#point</styleUrl><Point><altitudeMode>clampToGround</altitudeMode><coordinates>29.960648026317358,-27.378636030480266,1720.4200000000001</coordinates></Point></Placemark><Placemark><TimeSpan><begin>2022-08-08T10:58:41Z</begin><end>2022-08-08T10:58:48Z</end></TimeSpan><styleUrl>#point</styleUrl><Point><altitudeMode>clampToGround</altitudeMode><coordinates>29.960156427696347,-27.377491313964128,1712.73</coordinates></Point></Placemark><Placemark><TimeSpan><begin>2022-08-08T10:58:48Z</begin><end>2022-08-08T10:58:57Z</end></TimeSpan><styleUrl>#point</styleUrl><Point><altitudeMode>clampToGround</altitudeMode><coordinates>29.959185048937798,-27.37584326416254,1724.74</coordinates></Point></Placemark><Placemark><TimeSpan><begin>2022-08-08T10:58:57Z</begin><end>2022-08-08T10:59:06Z</end></TimeSpan><styleUrl>#point</styleUrl><Point><altitudeMode>clampToGround</altitudeMode><coordinates>29.95779549703002,-27.374454718083143,1732.4300000000001</coordinates></Point></Placemark><Placemark><TimeSpan><begin>2022-08-08T10:59:06Z</begin><end>2022-08-08T10:59:23Z</end></TimeSpan><styleUrl>#point</styleUrl><Point><altitudeMode>clampToGround</altitudeMode><coordinates>29.955467591062188,-27.372109042480588,1739.1600000000001</coordinates></Point></Placemark><Placemark><TimeSpan><begin>2022-08-08T10:59:23Z</begin><end>2022-08-08T10:59:36Z</end></TimeSpan><styleUrl>#point</styleUrl><Point><altitudeMode>clampToGround</altitudeMode><coordinates>29.953823648393154,-27.370451353490353,1751.1800000000001</coordinates></Point></Placemark><Placemark><TimeSpan><begin>2022-08-08T10:59:36Z</begin><end>2022-08-08T10:59:47Z</end></TimeSpan><styleUrl>#point</styleUrl><Point><altitudeMode>clampToGround</altitudeMode><coordinates>29.952247850596905,-27.368876980617642,1748.78</coordinates></Point></Placemark><Placemark><TimeSpan><begin>2022-08-08T10:59:47Z</begin><end>2022-08-08T11:00:01Z</end></TimeSpan><styleUrl>#point</styleUrl><Point><altitudeMode>clampToGround</altitudeMode><coordinates>29.950339123606682,-27.366961464285851,1736.28</coordinates></Point></Placemark><Placemark><TimeSpan><begin>2022-08-08T11:00:01Z</begin><end>2022-08-08T11:00:14Z</end></TimeSpan><styleUrl>#point</styleUrl><Point><altitudeMode>clampToGround</altitudeMode><coordinates>29.948573810979724,-27.365195145830512,1724.26</coordinates></Point></Placemark><Placemark><TimeSpan><begin>2022-08-08T11:00:14Z</begin><end>2022-08-08T11:00:23Z</end></TimeSpan><styleUrl>#point</styleUrl><Point><altitudeMode>clampToGround</altitudeMode><coordinates>29.947343682870269,-27.363946661353111,1718.49</coordinates></Point></Placemark><Placemark><TimeSpan><begin>2022-08-08T11:00:23Z</begin><end>2022-08-08T11:00:33Z</end></TimeSpan><styleUrl>#point</styleUrl><Point><altitudeMode>clampToGround</altitudeMode><coordinates>29.94590861722827,-27.3625105060637,1712.73</coordinates></Point></Placemark><Placemark><TimeSpan><begin>2022-08-08T11:00:33Z</begin><end>2022-08-08T11:00:39Z</end></TimeSpan><styleUrl>#point</styleUrl><Point><altitudeMode>clampToGround</altitudeMode><coordinates>29.945351891219616,-27.361953612416983,1709.3599999999999</coordinates></Point></Placemark><Placemark><TimeSpan><begin>2022-08-08T11:00:39Z</begin><end>2022-08-08T11:00:40Z</end></TimeSpan><styleUrl>#point</styleUrl><Point><altitudeMode>clampToGround</altitudeMode><coordinates>29.945303108543158,-27.361858058720827,1708.8800000000001</coordinates></Point></Placemark><Placemark><TimeSpan><begin>2022-08-08T11:00:40Z</begin><end>2022-08-08T11:00:41Z</end></TimeSpan><styleUrl>#point</styleUrl><Point><altitudeMode>clampToGround</altitudeMode><coordinates>29.945273520424962,-27.361748507246375,1708.4000000000001</coordinates></Point></Placemark><Placemark><TimeSpan><begin>2022-08-08T11:00:41Z</begin><end>2022-08-08T11:00:42Z</end></TimeSpan><styleUrl>#point</styleUrl><Point><altitudeMode>clampToGround</altitudeMode><coordinates>29.945259941741824,-27.361628143116832,1707.9200000000001</coordinates></Point></Placemark><Placemark><TimeSpan><begin>2022-08-08T11:00:42Z</begin><end>2022-08-08T11:00:43Z</end></TimeSpan><styleUrl>#point</styleUrl><Point><altitudeMode>clampToGround</altitudeMode><coordinates>29.945251978933811,-27.361501660197973,1707.4400000000001</coordinates></Point></Placemark><Placemark><TimeSpan><begin>2022-08-08T11:00:43Z</begin><end>2022-08-08T11:00:50Z</end></TimeSpan><styleUrl>#point</styleUrl><Point><altitudeMode>clampToGround</altitudeMode><coordinates>29.945249296724796,-27.360458197072148,1705.04</coordinates></Point></Placemark><Placemark><TimeSpan><begin>2022-08-08T11:00:50Z</begin><end>2022-08-08T11:00:55Z</end></TimeSpan><styleUrl>#point</styleUrl><Point><altitudeMode>clampToGround</altitudeMode><coordinates>29.945237813517451,-27.359959222376347,1703.5899999999999</coordinates></Point></Placemark><Placemark><TimeSpan><begin>2022-08-08T11:00:55Z</begin><end>2022-08-08T11:00:56Z</end></TimeSpan><styleUrl>#point</styleUrl><Point><altitudeMode>clampToGround</altitudeMode><coordinates>29.945222893729806,-27.359913876280189,1703.1099999999999</coordinates></Point></Placemark><Placemark><TimeSpan><begin>2022-08-08T11:00:56Z</begin><end>2022-08-08T11:00:57Z</end></TimeSpan><styleUrl>#point</styleUrl><Point><altitudeMode>clampToGround</altitudeMode><coordinates>29.945201016962528,-27.359882863238454,1702.6300000000001</coordinates></Point></Placemark><Placemark><TimeSpan><begin>2022-08-08T11:00:57Z</begin><end>2022-08-08T11:01:01Z</end></TimeSpan><styleUrl>#point</styleUrl><Point><altitudeMode>clampToGround</altitudeMode><coordinates>29.945079144090414,-27.35981329344213,1702.1500000000001</coordinates></Point></Placemark></Folder><Placemark><name>[291] Mollshoogte Pass Dirt Road</name><Style><LineStyle><color>ffff4040</color><width>4</width></LineStyle></Style><MultiGeometry><LineString><coordinates>30.0420434307307,-27.530679311603308,1402.22 30.042018620297313,-27.53066673874855,1402.22 30.041957600042224,-27.530636144801974,1402.22 30.041902279481292,-27.530616447329521,1402.7 30.041837319731712,-27.530587697401643,1402.7 30.041749561205506,-27.530555343255401,1402.22 30.0416618026793,-27.530526593327522,1402.22 30.040356488898396,-27.529927203431726,1395.49 30.039601782336831,-27.529632579535246,1391.1700000000001 30.039453087374568,-27.529579270631075,1390.6800000000001 30.039167599752545,-27.529457649216056,1390.6800000000001 30.038064289838076,-27.529001757502556,1388.76 30.036617238074541,-27.528364229947329,1384.4400000000001 30.035646613687277,-27.527799792587757,1379.6300000000001 30.034353705123067,-27.526949951425195,1372.4200000000001 30.033021401613951,-27.526095332577825,1365.6900000000001 30.031583067029715,-27.525232248008251,1357.52 30.030785864219069,-27.524559013545513,1350.79 30.030514877289534,-27.524291798472404,1349.8299999999999 30.029940465465188,-27.523801038041711,1349.3499999999999 30.028514703735709,-27.522552972659469,1349.8299999999999 30.02703077159822,-27.521334746852517,1345.5 30.025721099227667,-27.520381305366755,1343.0999999999999 30.025417925789952,-27.520200591534376,1344.0599999999999 30.025273421779275,-27.520139487460256,1345.02 30.025131097063422,-27.520101685076952,1345.5 30.024986425414681,-27.520088106393814,1346.46 30.024835215881467,-27.52009036950767,1346.9400000000001 30.024679312482476,-27.520097158849239,1347.4300000000001 30.02424412406981,-27.520097913220525,1348.3900000000001 30.024109678342938,-27.520069163292646,1348.3900000000001 30.02397732809186,-27.520017866045237,1348.8699999999999 30.023848498240113,-27.519943686202168,1348.8699999999999 30.023725368082523,-27.519851569086313,1349.3499999999999 30.023603076115251,-27.519744616001844,1350.3099999999999 30.023479862138629,-27.519626431167126,1350.79 30.022200867533684,-27.518347688019276,1358.96 30.020697824656963,-27.516898373141885,1355.5999999999999 30.018964363262057,-27.515240432694554,1344.0599999999999 30.01761931926012,-27.513999324291945,1341.1800000000001 30.016584573313594,-27.513153925538063,1340.7 30.015200134366751,-27.512033935636282,1342.6199999999999 30.013751490041614,-27.510897684842348,1358.48 30.013506906107068,-27.510665757581592,1361.8399999999999 30.013410430401564,-27.510537514463067,1363.77 30.013324767351151,-27.510395105928183,1364.73 30.013247318565845,-27.510239789262414,1365.6900000000001 30.013172887265682,-27.510073492303491,1367.1300000000001 30.012522116303444,-27.508485121652484,1377.23 30.011418638750911,-27.505767708644271,1402.7 30.010648425668478,-27.504396177828312,1415.6800000000001 30.009427266195416,-27.503016851842403,1432.02 30.008592428639531,-27.502176901325583,1444.52 30.008069481700659,-27.501191440969706,1454.6099999999999 30.007927073165774,-27.499905321747065,1473.8399999999999 30.007918691262603,-27.498350981622934,1485.3699999999999 30.007860856130719,-27.498185355216265,1485.8499999999999 30.007785251364112,-27.498018471524119,1486.8199999999999 30.006851172074676,-27.496457006782293,1494.51 30.006159245967865,-27.495300220325589,1505.0799999999999 30.006064781919122,-27.495129816234112,1507.48 30.006070481613278,-27.495153117924929,1506.04 30.006071235984564,-27.495152112096548,1504.5999999999999 30.006077522411942,-27.495154291391373,1504.1199999999999 30.006079869344831,-27.495154710486531,1504.1199999999999 30.00607349909842,-27.495154375210404,1504.1199999999999 30.006076600402594,-27.495149932801723,1504.5999999999999 30.006066039204597,-27.495106598362327,1505.0799999999999 30.00604659318924,-27.495063850656152,1505.0799999999999 30.006015412509441,-27.495008362457156,1505.5599999999999 30.005588857457042,-27.49417981132865,1516.6199999999999 30.005344357341528,-27.493129139766097,1527.1900000000001 30.004976224154234,-27.491822149604559,1543.53 30.004100734367967,-27.489999840036035,1565.1600000000001 30.00297898426652,-27.48792783357203,1592.5599999999999 30.002349000424147,-27.486752439290285,1607.9400000000001 30.00197977758944,-27.485649716109037,1615.6300000000001 30.00132841989398,-27.483787089586258,1621.8800000000001 30.000794744119048,-27.482554111629725,1624.77 30.000664405524731,-27.48237800784409,1624.77 29.999195476993918,-27.480698442086577,1628.1300000000001 29.99754449352622,-27.478961879387498,1624.77 29.996683755889535,-27.477808445692062,1627.6500000000001 29.99558363109827,-27.476630369201303,1642.55 29.993943125009537,-27.475614650174975,1654.0899999999999 29.992836713790894,-27.474665567278862,1660.8099999999999 29.991702558472753,-27.473866688087583,1656.97 29.990658173337579,-27.473162105306983,1647.3599999999999 29.990569576621056,-27.473057666793466,1646.4000000000001 29.990503443405032,-27.472950462251902,1645.9100000000001 29.990457007661462,-27.472836971282959,1645.4300000000001 29.990431778132915,-27.472720043733716,1645.4300000000001 29.990416523069143,-27.472593728452921,1644.95 29.990405458956957,-27.472456768155098,1644.47 29.990389281883836,-27.471049195155501,1648.8 29.99042809009552,-27.470598164945841,1652.6400000000001 29.99046815559268,-27.470466820523143,1654.0899999999999 29.990531522780657,-27.470346037298441,1655.53 29.990613833069801,-27.470232462510467,1656.97 29.990711398422718,-27.470123833045363,1658.8900000000001 29.990822123363614,-27.470018556341529,1660.8099999999999 29.990932680666447,-27.46991747058928,1662.26 29.991027815267444,-27.4698197375983,1663.22 29.991102581843734,-27.469718651846051,1664.1800000000001 29.991153879091144,-27.469604657962918,1665.1400000000001 29.991178940981627,-27.469476582482457,1666.0999999999999 29.991176845505834,-27.469336353242397,1667.0599999999999 29.991152789443731,-27.469185898080468,1667.54 29.991113897413015,-27.469027899205685,1668.99 29.991069389507174,-27.468862775713205,1669.95 29.990891441702843,-27.467875136062503,1681 29.990907702594995,-27.467723675072193,1682.4400000000001 29.990943241864443,-27.467570453882217,1683.8900000000001 29.990999065339565,-27.467415053397417,1685.3299999999999 29.991075173020363,-27.467255713418126,1686.29 29.991167541593313,-27.467090003192425,1686.77 29.991723680868745,-27.465727105736732,1695.9000000000001 29.991864413022995,-27.463785773143172,1718.01 29.991350183263421,-27.462411727756262,1720.9000000000001 29.990511070936918,-27.460654294118285,1713.6900000000001 29.989806739613414,-27.459013285115361,1709.3599999999999 29.989784276112914,-27.4588368460536,1710.3199999999999 29.989777402952313,-27.458660239353776,1710.8 29.989870106801391,-27.457202794030309,1707.9200000000001 29.990104297176003,-27.454960299655795,1693.02 29.990268414840102,-27.453351225703955,1683.4100000000001 29.99028735794127,-27.451405366882682,1681.96 29.98997756280005,-27.450136346742511,1678.1199999999999 29.989448413252831,-27.447758065536618,1675.23 29.988656155765057,-27.445497130975127,1670.4300000000001 29.988144440576434,-27.444480154663324,1668.51 29.987643454223871,-27.443947065621614,1666.0999999999999 29.987483359873295,-27.443829886615276,1665.6199999999999 29.986059106886387,-27.442867644131184,1656.97 29.984805677086115,-27.44157750159502,1645.9100000000001 29.983516037464142,-27.440145453438163,1643.99 29.981754496693611,-27.438299506902695,1642.0699999999999 29.981424082070589,-27.438096078112721,1641.1099999999999 29.981227358803153,-27.438012007623911,1640.1500000000001 29.981026025488973,-27.437948808073997,1639.6700000000001 29.98080407269299,-27.437895080074668,1639.1900000000001 29.980589579790831,-27.43785073980689,1638.7 29.979113610461354,-27.437491491436958,1630.05 29.978073416277766,-27.436841139569879,1624.77 29.977027690038085,-27.435951987281442,1621.4000000000001 29.9761962890625,-27.434940291568637,1619.96 29.976129904389381,-27.434789836406708,1620.4400000000001 29.97608246281743,-27.434641225263476,1620.4400000000001 29.976046001538634,-27.434477442875504,1620.9200000000001 29.976022532209754,-27.434313241392374,1621.8800000000001 29.97601012699306,-27.434141915291548,1622.3599999999999 29.976051533594728,-27.432483220472932,1623.3199999999999 29.976273737847805,-27.429624320939183,1623.3199999999999 29.97670641168952,-27.428000159561634,1624.28 29.976777406409383,-27.427082508802414,1622.3599999999999 29.976747734472156,-27.426898861303926,1621.8800000000001 29.976702304556966,-27.426724266260862,1622.3599999999999 29.976147254928946,-27.425161711871624,1624.77 29.975977269932628,-27.423454150557518,1630.05 29.975849445909262,-27.420850563794374,1632.46 29.975746935233474,-27.418854078277946,1639.1900000000001 29.976103752851486,-27.41737324744463,1643.03 29.976375997066498,-27.416293742135167,1644.47 29.97640885412693,-27.415999034419656,1643.03 29.976399717852473,-27.415858805179596,1642.0699999999999 29.976370465010405,-27.415718492120504,1641.5899999999999 29.97631455771625,-27.415569294244051,1641.1099999999999 29.976238282397389,-27.415429903194308,1641.1099999999999 29.976137867197394,-27.415282381698489,1642.0699999999999 29.976038793101907,-27.415155479684472,1642.55 29.975226921960711,-27.413790738210082,1656.97 29.975065402686596,-27.412304626777768,1666.5799999999999 29.975089710205793,-27.410537889227271,1672.8299999999999 29.975142516195774,-27.408573674038053,1670.4300000000001 29.975247206166387,-27.405486032366753,1676.2 29.975315434858203,-27.403288967907429,1680.52 29.975274866446853,-27.401600265875459,1665.1400000000001 29.975209906697273,-27.401306480169296,1663.22 29.975146036595106,-27.401156360283494,1662.74 29.975065570324659,-27.401016131043434,1662.26 29.974974039942026,-27.400880511850119,1662.26 29.97485987842083,-27.400727206841111,1662.26 29.973881291225553,-27.399356430396438,1669.47 29.972928604111075,-27.397285597398877,1683.4100000000001 29.971598898991942,-27.394279427826405,1697.3399999999999 29.97012703679502,-27.390993470326066,1724.26 29.968806132674217,-27.388043124228716,1740.1199999999999 29.967851517722011,-27.385914539918303,1738.2 29.967385064810514,-27.384853474795818,1737.72 29.96724022552371,-27.384573938325047,1736.76 29.967233100906014,-27.384567568078637,1735.3199999999999 29.967105444520712,-27.384403198957443,1735.3199999999999 29.966526841744781,-27.383902799338102,1734.8399999999999 29.965339964255691,-27.382912980392575,1730.03 29.964450225234032,-27.382148215547204,1727.6300000000001 29.963007364422083,-27.380914315581322,1727.6300000000001 29.961407426744699,-27.379532139748335,1726.6700000000001 29.960648026317358,-27.378636030480266,1720.4200000000001 29.960156427696347,-27.377491313964128,1712.73 29.959185048937798,-27.37584326416254,1724.74 29.95779549703002,-27.374454718083143,1732.4300000000001 29.955467591062188,-27.372109042480588,1739.1600000000001 29.953823648393154,-27.370451353490353,1751.1800000000001 29.952247850596905,-27.368876980617642,1748.78 29.950339123606682,-27.366961464285851,1736.28 29.948573810979724,-27.365195145830512,1724.26 29.947343682870269,-27.363946661353111,1718.49 29.94590861722827,-27.3625105060637,1712.73 29.945351891219616,-27.361953612416983,1709.3599999999999 29.945303108543158,-27.361858058720827,1708.8800000000001 29.945273520424962,-27.361748507246375,1708.4000000000001 29.945259941741824,-27.361628143116832,1707.9200000000001 29.945251978933811,-27.361501660197973,1707.4400000000001 29.945249296724796,-27.360458197072148,1705.04 29.945237813517451,-27.359959222376347,1703.5899999999999 29.945222893729806,-27.359913876280189,1703.1099999999999 29.945201016962528,-27.359882863238454,1702.6300000000001 29.945079144090414,-27.35981329344213,1702.1500000000001 </coordinates></LineString></MultiGeometry></Placemark></Folder></Folder></Document></kml>