<?xml version="1.0" encoding="utf-8"?><kml xmlns="http://www.opengis.net/kml/2.2" xmlns:xsi="http://www.w3.org/2001/XMLSchema-instance" xmlns:kmlx="http://www.google.com/kml/ext/2.2" xmlns:atom="http://www.w3.org/2005/Atom" xmlns:gpxx="http://www.garmin.com/xmlschemas/GpxExtensions/v3"><Document><Style id="point"><IconStyle><scale>0.9</scale><Icon><href>http://maps.google.com/mapfiles/kml/shapes/placemark_circle.png</href></Icon></IconStyle></Style><Folder><name>Tracks</name><Folder><name>[293] Kwaggasnek Pass</name><Folder><name>Points</name><Style><ListStyle><listItemType>checkHideChildren</listItemType></ListStyle></Style><Placemark><TimeSpan><begin>2022-08-08T11:30:02Z</begin><end>2022-08-08T11:30:02Z</end></TimeSpan><Style><IconStyle><scale>0.9</scale><Icon><href>http://connect.garmin.com/image/main/icons/kml/grn-play.png</href></Icon></IconStyle></Style><Point><altitudeMode>clampToGround</altitudeMode><coordinates>29.76392668671906,-27.493784772232175,1604.0999999999999</coordinates></Point></Placemark><Placemark><TimeSpan><begin>2022-08-08T11:30:02Z</begin><end>2022-08-08T11:30:03Z</end></TimeSpan><styleUrl>#point</styleUrl><Point><altitudeMode>clampToGround</altitudeMode><coordinates>29.76382409222424,-27.493882589042187,1603.6199999999999</coordinates></Point></Placemark><Placemark><TimeSpan><begin>2022-08-08T11:30:03Z</begin><end>2022-08-08T11:30:04Z</end></TimeSpan><styleUrl>#point</styleUrl><Point><altitudeMode>clampToGround</altitudeMode><coordinates>29.763735327869654,-27.493986440822482,1603.1400000000001</coordinates></Point></Placemark><Placemark><TimeSpan><begin>2022-08-08T11:30:04Z</begin><end>2022-08-08T11:30:05Z</end></TimeSpan><styleUrl>#point</styleUrl><Point><altitudeMode>clampToGround</altitudeMode><coordinates>29.76365645416081,-27.494092555716634,1602.1700000000001</coordinates></Point></Placemark><Placemark><TimeSpan><begin>2022-08-08T11:30:05Z</begin><end>2022-08-08T11:30:14Z</end></TimeSpan><styleUrl>#point</styleUrl><Point><altitudeMode>clampToGround</altitudeMode><coordinates>29.762977687641978,-27.495092349126935,1598.8099999999999</coordinates></Point></Placemark><Placemark><TimeSpan><begin>2022-08-08T11:30:14Z</begin><end>2022-08-08T11:30:21Z</end></TimeSpan><styleUrl>#point</styleUrl><Point><altitudeMode>clampToGround</altitudeMode><coordinates>29.762334879487753,-27.495968509465456,1603.1400000000001</coordinates></Point></Placemark><Placemark><TimeSpan><begin>2022-08-08T11:30:21Z</begin><end>2022-08-08T11:30:28Z</end></TimeSpan><styleUrl>#point</styleUrl><Point><altitudeMode>clampToGround</altitudeMode><coordinates>29.761543795466423,-27.496993616223335,1606.98</coordinates></Point></Placemark><Placemark><TimeSpan><begin>2022-08-08T11:30:28Z</begin><end>2022-08-08T11:30:38Z</end></TimeSpan><styleUrl>#point</styleUrl><Point><altitudeMode>clampToGround</altitudeMode><coordinates>29.760180059820414,-27.498772088438272,1614.6700000000001</coordinates></Point></Placemark><Placemark><TimeSpan><begin>2022-08-08T11:30:38Z</begin><end>2022-08-08T11:30:47Z</end></TimeSpan><styleUrl>#point</styleUrl><Point><altitudeMode>clampToGround</altitudeMode><coordinates>29.759034924209118,-27.499913536012173,1616.5899999999999</coordinates></Point></Placemark><Placemark><TimeSpan><begin>2022-08-08T11:30:47Z</begin><end>2022-08-08T11:30:57Z</end></TimeSpan><styleUrl>#point</styleUrl><Point><altitudeMode>clampToGround</altitudeMode><coordinates>29.757575718685985,-27.501179706305265,1611.79</coordinates></Point></Placemark><Placemark><TimeSpan><begin>2022-08-08T11:30:57Z</begin><end>2022-08-08T11:31:08Z</end></TimeSpan><styleUrl>#point</styleUrl><Point><altitudeMode>clampToGround</altitudeMode><coordinates>29.755745194852352,-27.502776877954602,1619</coordinates></Point></Placemark><Placemark><TimeSpan><begin>2022-08-08T11:31:08Z</begin><end>2022-08-08T11:31:21Z</end></TimeSpan><styleUrl>#point</styleUrl><Point><altitudeMode>clampToGround</altitudeMode><coordinates>29.753526337444782,-27.50496044754982,1631.98</coordinates></Point></Placemark><Placemark><TimeSpan><begin>2022-08-08T11:31:21Z</begin><end>2022-08-08T11:31:31Z</end></TimeSpan><styleUrl>#point</styleUrl><Point><altitudeMode>clampToGround</altitudeMode><coordinates>29.752180874347687,-27.506581256166101,1643.51</coordinates></Point></Placemark><Placemark><TimeSpan><begin>2022-08-08T11:31:31Z</begin><end>2022-08-08T11:31:41Z</end></TimeSpan><styleUrl>#point</styleUrl><Point><altitudeMode>clampToGround</altitudeMode><coordinates>29.75098880007863,-27.508021937683225,1653.5999999999999</coordinates></Point></Placemark><Placemark><TimeSpan><begin>2022-08-08T11:31:41Z</begin><end>2022-08-08T11:31:51Z</end></TimeSpan><styleUrl>#point</styleUrl><Point><altitudeMode>clampToGround</altitudeMode><coordinates>29.749724306166172,-27.509240582585335,1661.3</coordinates></Point></Placemark><Placemark><TimeSpan><begin>2022-08-08T11:31:51Z</begin><end>2022-08-08T11:31:59Z</end></TimeSpan><styleUrl>#point</styleUrl><Point><altitudeMode>clampToGround</altitudeMode><coordinates>29.749005809426308,-27.509970981627703,1662.74</coordinates></Point></Placemark><Placemark><TimeSpan><begin>2022-08-08T11:31:59Z</begin><end>2022-08-08T11:32:09Z</end></TimeSpan><styleUrl>#point</styleUrl><Point><altitudeMode>clampToGround</altitudeMode><coordinates>29.748041303828359,-27.511165486648679,1666.5799999999999</coordinates></Point></Placemark><Placemark><TimeSpan><begin>2022-08-08T11:32:09Z</begin><end>2022-08-08T11:32:21Z</end></TimeSpan><styleUrl>#point</styleUrl><Point><altitudeMode>clampToGround</altitudeMode><coordinates>29.746689386665821,-27.512842621654272,1678.1199999999999</coordinates></Point></Placemark><Placemark><TimeSpan><begin>2022-08-08T11:32:21Z</begin><end>2022-08-08T11:32:31Z</end></TimeSpan><styleUrl>#point</styleUrl><Point><altitudeMode>clampToGround</altitudeMode><coordinates>29.745436375960708,-27.514649089425802,1690.1400000000001</coordinates></Point></Placemark><Placemark><TimeSpan><begin>2022-08-08T11:32:31Z</begin><end>2022-08-08T11:32:39Z</end></TimeSpan><styleUrl>#point</styleUrl><Point><altitudeMode>clampToGround</altitudeMode><coordinates>29.744534315541387,-27.515991535037756,1703.1099999999999</coordinates></Point></Placemark><Placemark><TimeSpan><begin>2022-08-08T11:32:39Z</begin><end>2022-08-08T11:32:43Z</end></TimeSpan><styleUrl>#point</styleUrl><Point><altitudeMode>clampToGround</altitudeMode><coordinates>29.744267351925373,-27.51652873121202,1708.4000000000001</coordinates></Point></Placemark><Placemark><TimeSpan><begin>2022-08-08T11:32:43Z</begin><end>2022-08-08T11:32:44Z</end></TimeSpan><styleUrl>#point</styleUrl><Point><altitudeMode>clampToGround</altitudeMode><coordinates>29.744236255064607,-27.516677090898156,1710.3199999999999</coordinates></Point></Placemark><Placemark><TimeSpan><begin>2022-08-08T11:32:44Z</begin><end>2022-08-08T11:32:45Z</end></TimeSpan><styleUrl>#point</styleUrl><Point><altitudeMode>clampToGround</altitudeMode><coordinates>29.744220916181803,-27.516829809173942,1711.76</coordinates></Point></Placemark><Placemark><TimeSpan><begin>2022-08-08T11:32:45Z</begin><end>2022-08-08T11:32:56Z</end></TimeSpan><styleUrl>#point</styleUrl><Point><altitudeMode>clampToGround</altitudeMode><coordinates>29.744134582579136,-27.518530832603574,1730.99</coordinates></Point></Placemark><Placemark><TimeSpan><begin>2022-08-08T11:32:56Z</begin><end>2022-08-08T11:33:05Z</end></TimeSpan><styleUrl>#point</styleUrl><Point><altitudeMode>clampToGround</altitudeMode><coordinates>29.744042968377471,-27.519983500242233,1743.01</coordinates></Point></Placemark><Placemark><TimeSpan><begin>2022-08-08T11:33:05Z</begin><end>2022-08-08T11:33:13Z</end></TimeSpan><styleUrl>#point</styleUrl><Point><altitudeMode>clampToGround</altitudeMode><coordinates>29.744306663051248,-27.521197702735662,1751.6600000000001</coordinates></Point></Placemark><Placemark><TimeSpan><begin>2022-08-08T11:33:13Z</begin><end>2022-08-08T11:33:22Z</end></TimeSpan><styleUrl>#point</styleUrl><Point><altitudeMode>clampToGround</altitudeMode><coordinates>29.744519563391805,-27.522429004311562,1767.04</coordinates></Point></Placemark><Placemark><TimeSpan><begin>2022-08-08T11:33:22Z</begin><end>2022-08-08T11:33:29Z</end></TimeSpan><styleUrl>#point</styleUrl><Point><altitudeMode>clampToGround</altitudeMode><coordinates>29.744560718536377,-27.523172646760941,1776.6500000000001</coordinates></Point></Placemark><Placemark><TimeSpan><begin>2022-08-08T11:33:29Z</begin><end>2022-08-08T11:33:30Z</end></TimeSpan><styleUrl>#point</styleUrl><Point><altitudeMode>clampToGround</altitudeMode><coordinates>29.744573459029198,-27.523219166323543,1777.1300000000001</coordinates></Point></Placemark><Placemark><TimeSpan><begin>2022-08-08T11:33:30Z</begin><end>2022-08-08T11:33:37Z</end></TimeSpan><styleUrl>#point</styleUrl><Point><altitudeMode>clampToGround</altitudeMode><coordinates>29.744592234492302,-27.523262081667781,1776.6500000000001</coordinates></Point></Placemark><Placemark><TimeSpan><begin>2022-08-08T11:33:37Z</begin><end>2022-08-08T11:34:08Z</end></TimeSpan><styleUrl>#point</styleUrl><Point><altitudeMode>clampToGround</altitudeMode><coordinates>29.744594162330031,-27.523254035040736,1776.6500000000001</coordinates></Point></Placemark><Placemark><TimeSpan><begin>2022-08-08T11:34:08Z</begin><end>2022-08-08T11:34:45Z</end></TimeSpan><styleUrl>#point</styleUrl><Point><altitudeMode>clampToGround</altitudeMode><coordinates>29.744596173986793,-27.523250179365277,1777.1300000000001</coordinates></Point></Placemark><Placemark><TimeSpan><begin>2022-08-08T11:34:45Z</begin><end>2022-08-08T11:35:20Z</end></TimeSpan><styleUrl>#point</styleUrl><Point><altitudeMode>clampToGround</altitudeMode><coordinates>29.744600113481283,-27.523248502984643,1776.6500000000001</coordinates></Point></Placemark><Placemark><TimeSpan><begin>2022-08-08T11:35:20Z</begin><end>2022-08-08T11:35:51Z</end></TimeSpan><styleUrl>#point</styleUrl><Point><altitudeMode>clampToGround</altitudeMode><coordinates>29.744604220613837,-27.523246742784977,1777.1300000000001</coordinates></Point></Placemark><Placemark><TimeSpan><begin>2022-08-08T11:35:51Z</begin><end>2022-08-08T11:36:24Z</end></TimeSpan><styleUrl>#point</styleUrl><Point><altitudeMode>clampToGround</altitudeMode><coordinates>29.744603214785457,-27.523249592632055,1777.1300000000001</coordinates></Point></Placemark><Placemark><TimeSpan><begin>2022-08-08T11:36:24Z</begin><end>2022-08-08T11:36:55Z</end></TimeSpan><styleUrl>#point</styleUrl><Point><altitudeMode>clampToGround</altitudeMode><coordinates>29.744598269462585,-27.5232542026788,1777.6099999999999</coordinates></Point></Placemark><Placemark><TimeSpan><begin>2022-08-08T11:36:55Z</begin><end>2022-08-08T11:37:22Z</end></TimeSpan><styleUrl>#point</styleUrl><Point><altitudeMode>clampToGround</altitudeMode><coordinates>29.744602208957076,-27.523254957050085,1777.1300000000001</coordinates></Point></Placemark><Placemark><TimeSpan><begin>2022-08-08T11:37:22Z</begin><end>2022-08-08T11:37:59Z</end></TimeSpan><styleUrl>#point</styleUrl><Point><altitudeMode>clampToGround</altitudeMode><coordinates>29.744602795690298,-27.523254789412022,1778.0999999999999</coordinates></Point></Placemark><Placemark><TimeSpan><begin>2022-08-08T11:37:59Z</begin><end>2022-08-08T11:38:37Z</end></TimeSpan><styleUrl>#point</styleUrl><Point><altitudeMode>clampToGround</altitudeMode><coordinates>29.744601873680949,-27.523258561268449,1777.6099999999999</coordinates></Point></Placemark><Placemark><TimeSpan><begin>2022-08-08T11:38:37Z</begin><end>2022-08-08T11:39:10Z</end></TimeSpan><styleUrl>#point</styleUrl><Point><altitudeMode>clampToGround</altitudeMode><coordinates>29.744599442929029,-27.523254118859768,1778.0999999999999</coordinates></Point></Placemark><Placemark><TimeSpan><begin>2022-08-08T11:39:10Z</begin><end>2022-08-08T11:39:47Z</end></TimeSpan><styleUrl>#point</styleUrl><Point><altitudeMode>clampToGround</altitudeMode><coordinates>29.744598940014839,-27.523252693936229,1778.5799999999999</coordinates></Point></Placemark><Placemark><TimeSpan><begin>2022-08-08T11:39:47Z</begin><end>2022-08-08T11:40:26Z</end></TimeSpan><styleUrl>#point</styleUrl><Point><altitudeMode>clampToGround</altitudeMode><coordinates>29.744605645537376,-27.523256046697497,1778.0999999999999</coordinates></Point></Placemark><Placemark><TimeSpan><begin>2022-08-08T11:40:26Z</begin><end>2022-08-08T11:41:07Z</end></TimeSpan><styleUrl>#point</styleUrl><Point><altitudeMode>clampToGround</altitudeMode><coordinates>29.744608495384455,-27.523250430822372,1778.0999999999999</coordinates></Point></Placemark><Placemark><TimeSpan><begin>2022-08-08T11:41:07Z</begin><end>2022-08-08T11:41:36Z</end></TimeSpan><styleUrl>#point</styleUrl><Point><altitudeMode>clampToGround</altitudeMode><coordinates>29.744604807347059,-27.52324934117496,1776.6500000000001</coordinates></Point></Placemark><Placemark><TimeSpan><begin>2022-08-08T11:41:36Z</begin><end>2022-08-08T11:41:59Z</end></TimeSpan><styleUrl>#point</styleUrl><Point><altitudeMode>clampToGround</altitudeMode><coordinates>29.744593659415841,-27.523262752220035,1776.1700000000001</coordinates></Point></Placemark><Placemark><TimeSpan><begin>2022-08-08T11:41:59Z</begin><end>2022-08-08T11:42:08Z</end></TimeSpan><styleUrl>#point</styleUrl><Point><altitudeMode>clampToGround</altitudeMode><coordinates>29.744563987478614,-27.523496355861425,1775.21</coordinates></Point></Placemark><Placemark><TimeSpan><begin>2022-08-08T11:42:08Z</begin><end>2022-08-08T11:42:18Z</end></TimeSpan><styleUrl>#point</styleUrl><Point><altitudeMode>clampToGround</altitudeMode><coordinates>29.744471283629537,-27.523800116032362,1773.29</coordinates></Point></Placemark><Placemark><TimeSpan><begin>2022-08-08T11:42:18Z</begin><end>2022-08-08T11:42:30Z</end></TimeSpan><styleUrl>#point</styleUrl><Point><altitudeMode>clampToGround</altitudeMode><coordinates>29.74450808018446,-27.524151653051376,1763.2</coordinates></Point></Placemark></Folder><Placemark><name>[293] Kwaggasnek Pass</name><Style><LineStyle><color>ff0000ff</color><width>4</width></LineStyle></Style><MultiGeometry><LineString><coordinates>29.76392668671906,-27.493784772232175,1604.0999999999999 29.76382409222424,-27.493882589042187,1603.6199999999999 29.763735327869654,-27.493986440822482,1603.1400000000001 29.76365645416081,-27.494092555716634,1602.1700000000001 29.762977687641978,-27.495092349126935,1598.8099999999999 29.762334879487753,-27.495968509465456,1603.1400000000001 29.761543795466423,-27.496993616223335,1606.98 29.760180059820414,-27.498772088438272,1614.6700000000001 29.759034924209118,-27.499913536012173,1616.5899999999999 29.757575718685985,-27.501179706305265,1611.79 29.755745194852352,-27.502776877954602,1619 29.753526337444782,-27.50496044754982,1631.98 29.752180874347687,-27.506581256166101,1643.51 29.75098880007863,-27.508021937683225,1653.5999999999999 29.749724306166172,-27.509240582585335,1661.3 29.749005809426308,-27.509970981627703,1662.74 29.748041303828359,-27.511165486648679,1666.5799999999999 29.746689386665821,-27.512842621654272,1678.1199999999999 29.745436375960708,-27.514649089425802,1690.1400000000001 29.744534315541387,-27.515991535037756,1703.1099999999999 29.744267351925373,-27.51652873121202,1708.4000000000001 29.744236255064607,-27.516677090898156,1710.3199999999999 29.744220916181803,-27.516829809173942,1711.76 29.744134582579136,-27.518530832603574,1730.99 29.744042968377471,-27.519983500242233,1743.01 29.744306663051248,-27.521197702735662,1751.6600000000001 29.744519563391805,-27.522429004311562,1767.04 29.744560718536377,-27.523172646760941,1776.6500000000001 29.744573459029198,-27.523219166323543,1777.1300000000001 29.744592234492302,-27.523262081667781,1776.6500000000001 29.744594162330031,-27.523254035040736,1776.6500000000001 29.744596173986793,-27.523250179365277,1777.1300000000001 29.744600113481283,-27.523248502984643,1776.6500000000001 29.744604220613837,-27.523246742784977,1777.1300000000001 29.744603214785457,-27.523249592632055,1777.1300000000001 29.744598269462585,-27.5232542026788,1777.6099999999999 29.744602208957076,-27.523254957050085,1777.1300000000001 29.744602795690298,-27.523254789412022,1778.0999999999999 29.744601873680949,-27.523258561268449,1777.6099999999999 29.744599442929029,-27.523254118859768,1778.0999999999999 29.744598940014839,-27.523252693936229,1778.5799999999999 29.744605645537376,-27.523256046697497,1778.0999999999999 29.744608495384455,-27.523250430822372,1778.0999999999999 29.744604807347059,-27.52324934117496,1776.6500000000001 29.744593659415841,-27.523262752220035,1776.1700000000001 29.744563987478614,-27.523496355861425,1775.21 29.744471283629537,-27.523800116032362,1773.29 29.74450808018446,-27.524151653051376,1763.2 </coordinates></LineString></MultiGeometry></Placemark></Folder></Folder></Document></kml>