<?xml version="1.0" encoding="utf-8"?><kml xmlns="http://www.opengis.net/kml/2.2" xmlns:xsi="http://www.w3.org/2001/XMLSchema-instance" xmlns:kmlx="http://www.google.com/kml/ext/2.2" xmlns:atom="http://www.w3.org/2005/Atom" xmlns:gpxx="http://www.garmin.com/xmlschemas/GpxExtensions/v3"><Document><Style id="point"><IconStyle><scale>0.9</scale><Icon><href>http://maps.google.com/mapfiles/kml/shapes/placemark_circle.png</href></Icon></IconStyle></Style><Folder><name>Tracks</name><Folder><name>[295] Oom Louis se Hoogte</name><Folder><name>Points</name><Style><ListStyle><listItemType>checkHideChildren</listItemType></ListStyle></Style><Placemark><TimeSpan><begin>2022-08-08T11:48:31Z</begin><end>2022-08-08T11:48:31Z</end></TimeSpan><Style><IconStyle><scale>0.9</scale><Icon><href>http://connect.garmin.com/image/main/icons/kml/grn-play.png</href></Icon></IconStyle></Style><Point><altitudeMode>clampToGround</altitudeMode><coordinates>29.691730421036482,-27.557402746751904,1740.1199999999999</coordinates></Point></Placemark><Placemark><TimeSpan><begin>2022-08-08T11:48:31Z</begin><end>2022-08-08T11:48:37Z</end></TimeSpan><styleUrl>#point</styleUrl><Point><altitudeMode>clampToGround</altitudeMode><coordinates>29.691607793793082,-27.558586271479726,1746.8499999999999</coordinates></Point></Placemark><Placemark><TimeSpan><begin>2022-08-08T11:48:37Z</begin><end>2022-08-08T11:48:44Z</end></TimeSpan><styleUrl>#point</styleUrl><Point><altitudeMode>clampToGround</altitudeMode><coordinates>29.69194583594799,-27.559685809537768,1747.8099999999999</coordinates></Point></Placemark><Placemark><TimeSpan><begin>2022-08-08T11:48:44Z</begin><end>2022-08-08T11:48:54Z</end></TimeSpan><styleUrl>#point</styleUrl><Point><altitudeMode>clampToGround</altitudeMode><coordinates>29.6928018797189,-27.561067566275597,1738.2</coordinates></Point></Placemark><Placemark><TimeSpan><begin>2022-08-08T11:48:54Z</begin><end>2022-08-08T11:49:06Z</end></TimeSpan><styleUrl>#point</styleUrl><Point><altitudeMode>clampToGround</altitudeMode><coordinates>29.69393745996058,-27.562913848087192,1738.2</coordinates></Point></Placemark><Placemark><TimeSpan><begin>2022-08-08T11:49:06Z</begin><end>2022-08-08T11:49:21Z</end></TimeSpan><styleUrl>#point</styleUrl><Point><altitudeMode>clampToGround</altitudeMode><coordinates>29.695511581376195,-27.565486505627632,1754.0599999999999</coordinates></Point></Placemark><Placemark><TimeSpan><begin>2022-08-08T11:49:21Z</begin><end>2022-08-08T11:49:35Z</end></TimeSpan><styleUrl>#point</styleUrl><Point><altitudeMode>clampToGround</altitudeMode><coordinates>29.696973636746407,-27.56789093837142,1780.02</coordinates></Point></Placemark><Placemark><TimeSpan><begin>2022-08-08T11:49:35Z</begin><end>2022-08-08T11:49:45Z</end></TimeSpan><styleUrl>#point</styleUrl><Point><altitudeMode>clampToGround</altitudeMode><coordinates>29.69800922088325,-27.569562122225761,1797.3199999999999</coordinates></Point></Placemark><Placemark><TimeSpan><begin>2022-08-08T11:49:45Z</begin><end>2022-08-08T11:49:54Z</end></TimeSpan><styleUrl>#point</styleUrl><Point><altitudeMode>clampToGround</altitudeMode><coordinates>29.69902703538537,-27.570661408826709,1795.8800000000001</coordinates></Point></Placemark><Placemark><TimeSpan><begin>2022-08-08T11:49:54Z</begin><end>2022-08-08T11:50:09Z</end></TimeSpan><styleUrl>#point</styleUrl><Point><altitudeMode>clampToGround</altitudeMode><coordinates>29.701038189232349,-27.572237374261022,1778.5799999999999</coordinates></Point></Placemark><Placemark><TimeSpan><begin>2022-08-08T11:50:09Z</begin><end>2022-08-08T11:50:20Z</end></TimeSpan><styleUrl>#point</styleUrl><Point><altitudeMode>clampToGround</altitudeMode><coordinates>29.702711803838611,-27.573566325008869,1758.8699999999999</coordinates></Point></Placemark><Placemark><TimeSpan><begin>2022-08-08T11:50:20Z</begin><end>2022-08-08T11:50:28Z</end></TimeSpan><styleUrl>#point</styleUrl><Point><altitudeMode>clampToGround</altitudeMode><coordinates>29.703965904191136,-27.574259927496314,1748.29</coordinates></Point></Placemark><Placemark><TimeSpan><begin>2022-08-08T11:50:28Z</begin><end>2022-08-08T11:50:34Z</end></TimeSpan><styleUrl>#point</styleUrl><Point><altitudeMode>clampToGround</altitudeMode><coordinates>29.705434329807758,-27.574563436210155,1743.01</coordinates></Point></Placemark><Placemark><TimeSpan><begin>2022-08-08T11:50:34Z</begin><end>2022-08-08T11:50:43Z</end></TimeSpan><styleUrl>#point</styleUrl><Point><altitudeMode>clampToGround</altitudeMode><coordinates>29.707251694053411,-27.574854288250208,1740.1199999999999</coordinates></Point></Placemark><Placemark><TimeSpan><begin>2022-08-08T11:50:43Z</begin><end>2022-08-08T11:50:55Z</end></TimeSpan><styleUrl>#point</styleUrl><Point><altitudeMode>clampToGround</altitudeMode><coordinates>29.70939964056015,-27.575188977643847,1726.1800000000001</coordinates></Point></Placemark><Placemark><TimeSpan><begin>2022-08-08T11:50:55Z</begin><end>2022-08-08T11:51:03Z</end></TimeSpan><styleUrl>#point</styleUrl><Point><altitudeMode>clampToGround</altitudeMode><coordinates>29.710569670423865,-27.575520230457187,1726.6700000000001</coordinates></Point></Placemark><Placemark><TimeSpan><begin>2022-08-08T11:51:03Z</begin><end>2022-08-08T11:51:10Z</end></TimeSpan><styleUrl>#point</styleUrl><Point><altitudeMode>clampToGround</altitudeMode><coordinates>29.711342230439186,-27.576017947867513,1732.4300000000001</coordinates></Point></Placemark><Placemark><TimeSpan><begin>2022-08-08T11:51:10Z</begin><end>2022-08-08T11:51:17Z</end></TimeSpan><styleUrl>#point</styleUrl><Point><altitudeMode>clampToGround</altitudeMode><coordinates>29.711944721639156,-27.576669724658132,1737.24</coordinates></Point></Placemark><Placemark><TimeSpan><begin>2022-08-08T11:51:17Z</begin><end>2022-08-08T11:51:27Z</end></TimeSpan><styleUrl>#point</styleUrl><Point><altitudeMode>clampToGround</altitudeMode><coordinates>29.712420729920268,-27.577669266611338,1745.8900000000001</coordinates></Point></Placemark></Folder><Placemark><name>[295] Oom Louis se Hoogte</name><Style><LineStyle><color>ff0000ff</color><width>4</width></LineStyle></Style><MultiGeometry><LineString><coordinates>29.691730421036482,-27.557402746751904,1740.1199999999999 29.691607793793082,-27.558586271479726,1746.8499999999999 29.69194583594799,-27.559685809537768,1747.8099999999999 29.6928018797189,-27.561067566275597,1738.2 29.69393745996058,-27.562913848087192,1738.2 29.695511581376195,-27.565486505627632,1754.0599999999999 29.696973636746407,-27.56789093837142,1780.02 29.69800922088325,-27.569562122225761,1797.3199999999999 29.69902703538537,-27.570661408826709,1795.8800000000001 29.701038189232349,-27.572237374261022,1778.5799999999999 29.702711803838611,-27.573566325008869,1758.8699999999999 29.703965904191136,-27.574259927496314,1748.29 29.705434329807758,-27.574563436210155,1743.01 29.707251694053411,-27.574854288250208,1740.1199999999999 29.70939964056015,-27.575188977643847,1726.1800000000001 29.710569670423865,-27.575520230457187,1726.6700000000001 29.711342230439186,-27.576017947867513,1732.4300000000001 29.711944721639156,-27.576669724658132,1737.24 29.712420729920268,-27.577669266611338,1745.8900000000001 </coordinates></LineString></MultiGeometry></Placemark></Folder></Folder></Document></kml>