<?xml version="1.0" encoding="utf-8"?><kml xmlns="http://www.opengis.net/kml/2.2" xmlns:xsi="http://www.w3.org/2001/XMLSchema-instance" xmlns:kmlx="http://www.google.com/kml/ext/2.2" xmlns:atom="http://www.w3.org/2005/Atom" xmlns:gpxx="http://www.garmin.com/xmlschemas/GpxExtensions/v3"><Document><Style id="point"><IconStyle><scale>0.9</scale><Icon><href>http://maps.google.com/mapfiles/kml/shapes/placemark_circle.png</href></Icon></IconStyle></Style><Folder><name>Tracks</name><Folder><name>[299] Verkyknek Pass</name><Folder><name>Points</name><Style><ListStyle><listItemType>checkHideChildren</listItemType></ListStyle></Style><Placemark><TimeSpan><begin>2022-08-09T07:27:07Z</begin><end>2022-08-09T07:27:07Z</end></TimeSpan><Style><IconStyle><scale>0.9</scale><Icon><href>http://connect.garmin.com/image/main/icons/kml/grn-play.png</href></Icon></IconStyle></Style><Point><altitudeMode>clampToGround</altitudeMode><coordinates>29.891473352909088,-27.323483442887664,1779.54</coordinates></Point></Placemark><Placemark><TimeSpan><begin>2022-08-09T07:27:07Z</begin><end>2022-08-09T07:27:15Z</end></TimeSpan><styleUrl>#point</styleUrl><Point><altitudeMode>clampToGround</altitudeMode><coordinates>29.89193812943995,-27.321040369570255,1782.4200000000001</coordinates></Point></Placemark><Placemark><TimeSpan><begin>2022-08-09T07:27:15Z</begin><end>2022-08-09T07:27:26Z</end></TimeSpan><styleUrl>#point</styleUrl><Point><altitudeMode>clampToGround</altitudeMode><coordinates>29.892647322267294,-27.317863795906305,1800.21</coordinates></Point></Placemark><Placemark><TimeSpan><begin>2022-08-09T07:27:26Z</begin><end>2022-08-09T07:27:30Z</end></TimeSpan><styleUrl>#point</styleUrl><Point><altitudeMode>clampToGround</altitudeMode><coordinates>29.892914285883307,-27.31682175770402,1804.05</coordinates></Point></Placemark><Placemark><TimeSpan><begin>2022-08-09T07:27:30Z</begin><end>2022-08-09T07:27:31Z</end></TimeSpan><styleUrl>#point</styleUrl><Point><altitudeMode>clampToGround</altitudeMode><coordinates>29.893027944490314,-27.316590584814548,1805.01</coordinates></Point></Placemark><Placemark><TimeSpan><begin>2022-08-09T07:27:31Z</begin><end>2022-08-09T07:27:32Z</end></TimeSpan><styleUrl>#point</styleUrl><Point><altitudeMode>clampToGround</altitudeMode><coordinates>29.893164318054914,-27.316368548199534,1805.97</coordinates></Point></Placemark><Placemark><TimeSpan><begin>2022-08-09T07:27:32Z</begin><end>2022-08-09T07:27:33Z</end></TimeSpan><styleUrl>#point</styleUrl><Point><altitudeMode>clampToGround</altitudeMode><coordinates>29.893325166776776,-27.316153971478343,1806.9400000000001</coordinates></Point></Placemark><Placemark><TimeSpan><begin>2022-08-09T07:27:33Z</begin><end>2022-08-09T07:27:34Z</end></TimeSpan><styleUrl>#point</styleUrl><Point><altitudeMode>clampToGround</altitudeMode><coordinates>29.893511664122343,-27.315949872136116,1808.3800000000001</coordinates></Point></Placemark><Placemark><TimeSpan><begin>2022-08-09T07:27:34Z</begin><end>2022-08-09T07:27:35Z</end></TimeSpan><styleUrl>#point</styleUrl><Point><altitudeMode>clampToGround</altitudeMode><coordinates>29.893718948587775,-27.315757256001234,1809.8199999999999</coordinates></Point></Placemark><Placemark><TimeSpan><begin>2022-08-09T07:27:35Z</begin><end>2022-08-09T07:27:36Z</end></TimeSpan><styleUrl>#point</styleUrl><Point><altitudeMode>clampToGround</altitudeMode><coordinates>29.893941236659884,-27.315573189407587,1811.74</coordinates></Point></Placemark><Placemark><TimeSpan><begin>2022-08-09T07:27:36Z</begin><end>2022-08-09T07:27:42Z</end></TimeSpan><styleUrl>#point</styleUrl><Point><altitudeMode>clampToGround</altitudeMode><coordinates>29.895146889612079,-27.314411206170917,1822.8</coordinates></Point></Placemark><Placemark><TimeSpan><begin>2022-08-09T07:27:42Z</begin><end>2022-08-09T07:27:43Z</end></TimeSpan><styleUrl>#point</styleUrl><Point><altitudeMode>clampToGround</altitudeMode><coordinates>29.895285358652472,-27.314186403527856,1825.2</coordinates></Point></Placemark><Placemark><TimeSpan><begin>2022-08-09T07:27:43Z</begin><end>2022-08-09T07:27:44Z</end></TimeSpan><styleUrl>#point</styleUrl><Point><altitudeMode>clampToGround</altitudeMode><coordinates>29.895399687811732,-27.313951542600989,1827.1199999999999</coordinates></Point></Placemark><Placemark><TimeSpan><begin>2022-08-09T07:27:44Z</begin><end>2022-08-09T07:27:45Z</end></TimeSpan><styleUrl>#point</styleUrl><Point><altitudeMode>clampToGround</altitudeMode><coordinates>29.895491134375334,-27.313709892332554,1828.5599999999999</coordinates></Point></Placemark><Placemark><TimeSpan><begin>2022-08-09T07:27:45Z</begin><end>2022-08-09T07:27:46Z</end></TimeSpan><styleUrl>#point</styleUrl><Point><altitudeMode>clampToGround</altitudeMode><coordinates>29.89555835723877,-27.313463632017374,1830.49</coordinates></Point></Placemark><Placemark><TimeSpan><begin>2022-08-09T07:27:46Z</begin><end>2022-08-09T07:27:47Z</end></TimeSpan><styleUrl>#point</styleUrl><Point><altitudeMode>clampToGround</altitudeMode><coordinates>29.895600769668818,-27.313214438036084,1832.4100000000001</coordinates></Point></Placemark><Placemark><TimeSpan><begin>2022-08-09T07:27:47Z</begin><end>2022-08-09T07:27:48Z</end></TimeSpan><styleUrl>#point</styleUrl><Point><altitudeMode>clampToGround</altitudeMode><coordinates>29.895618539303541,-27.312967590987682,1834.3299999999999</coordinates></Point></Placemark><Placemark><TimeSpan><begin>2022-08-09T07:27:48Z</begin><end>2022-08-09T07:27:49Z</end></TimeSpan><styleUrl>#point</styleUrl><Point><altitudeMode>clampToGround</altitudeMode><coordinates>29.8956189583987,-27.312725773081183,1836.26</coordinates></Point></Placemark><Placemark><TimeSpan><begin>2022-08-09T07:27:49Z</begin><end>2022-08-09T07:27:53Z</end></TimeSpan><styleUrl>#point</styleUrl><Point><altitudeMode>clampToGround</altitudeMode><coordinates>29.895661622285843,-27.311800997704268,1841.54</coordinates></Point></Placemark><Placemark><TimeSpan><begin>2022-08-09T07:27:53Z</begin><end>2022-08-09T07:27:54Z</end></TimeSpan><styleUrl>#point</styleUrl><Point><altitudeMode>clampToGround</altitudeMode><coordinates>29.895719541236758,-27.311572590842843,1842.5</coordinates></Point></Placemark><Placemark><TimeSpan><begin>2022-08-09T07:27:54Z</begin><end>2022-08-09T07:27:55Z</end></TimeSpan><styleUrl>#point</styleUrl><Point><altitudeMode>clampToGround</altitudeMode><coordinates>29.895800510421395,-27.311343094334006,1843.47</coordinates></Point></Placemark><Placemark><TimeSpan><begin>2022-08-09T07:27:55Z</begin><end>2022-08-09T07:27:56Z</end></TimeSpan><styleUrl>#point</styleUrl><Point><altitudeMode>clampToGround</altitudeMode><coordinates>29.895903188735247,-27.31111359782517,1844.4300000000001</coordinates></Point></Placemark><Placemark><TimeSpan><begin>2022-08-09T07:27:56Z</begin><end>2022-08-09T07:27:57Z</end></TimeSpan><styleUrl>#point</styleUrl><Point><altitudeMode>clampToGround</altitudeMode><coordinates>29.896026570349932,-27.310885023325682,1845.3900000000001</coordinates></Point></Placemark><Placemark><TimeSpan><begin>2022-08-09T07:27:57Z</begin><end>2022-08-09T07:27:58Z</end></TimeSpan><styleUrl>#point</styleUrl><Point><altitudeMode>clampToGround</altitudeMode><coordinates>29.896166464313865,-27.310657119378448,1845.8699999999999</coordinates></Point></Placemark><Placemark><TimeSpan><begin>2022-08-09T07:27:58Z</begin><end>2022-08-09T07:28:08Z</end></TimeSpan><styleUrl>#point</styleUrl><Point><altitudeMode>clampToGround</altitudeMode><coordinates>29.897679230198264,-27.308264588937163,1848.27</coordinates></Point></Placemark><Placemark><TimeSpan><begin>2022-08-09T07:28:08Z</begin><end>2022-08-09T07:28:15Z</end></TimeSpan><styleUrl>#point</styleUrl><Point><altitudeMode>clampToGround</altitudeMode><coordinates>29.89829764701426,-27.306575048714876,1842.98</coordinates></Point></Placemark><Placemark><TimeSpan><begin>2022-08-09T07:28:15Z</begin><end>2022-08-09T07:28:22Z</end></TimeSpan><styleUrl>#point</styleUrl><Point><altitudeMode>clampToGround</altitudeMode><coordinates>29.898426979780197,-27.30458895675838,1834.8099999999999</coordinates></Point></Placemark><Placemark><TimeSpan><begin>2022-08-09T07:28:22Z</begin><end>2022-08-09T07:28:36Z</end></TimeSpan><styleUrl>#point</styleUrl><Point><altitudeMode>clampToGround</altitudeMode><coordinates>29.898586655035615,-27.300252327695489,1811.74</coordinates></Point></Placemark><Placemark><TimeSpan><begin>2022-08-09T07:28:36Z</begin><end>2022-08-09T07:28:45Z</end></TimeSpan><styleUrl>#point</styleUrl><Point><altitudeMode>clampToGround</altitudeMode><coordinates>29.898372832685709,-27.297439444810152,1793</coordinates></Point></Placemark><Placemark><TimeSpan><begin>2022-08-09T07:28:45Z</begin><end>2022-08-09T07:29:06Z</end></TimeSpan><styleUrl>#point</styleUrl><Point><altitudeMode>clampToGround</altitudeMode><coordinates>29.89725150167942,-27.290676422417164,1748.29</coordinates></Point></Placemark><Placemark><TimeSpan><begin>2022-08-09T07:29:06Z</begin><end>2022-08-09T07:29:30Z</end></TimeSpan><styleUrl>#point</styleUrl><Point><altitudeMode>clampToGround</altitudeMode><coordinates>29.895964628085494,-27.282963395118713,1728.5899999999999</coordinates></Point></Placemark></Folder><Placemark><name>[299] Verkyknek Pass</name><Style><LineStyle><color>ff00ff00</color><width>4</width></LineStyle></Style><MultiGeometry><LineString><coordinates>29.891473352909088,-27.323483442887664,1779.54 29.89193812943995,-27.321040369570255,1782.4200000000001 29.892647322267294,-27.317863795906305,1800.21 29.892914285883307,-27.31682175770402,1804.05 29.893027944490314,-27.316590584814548,1805.01 29.893164318054914,-27.316368548199534,1805.97 29.893325166776776,-27.316153971478343,1806.9400000000001 29.893511664122343,-27.315949872136116,1808.3800000000001 29.893718948587775,-27.315757256001234,1809.8199999999999 29.893941236659884,-27.315573189407587,1811.74 29.895146889612079,-27.314411206170917,1822.8 29.895285358652472,-27.314186403527856,1825.2 29.895399687811732,-27.313951542600989,1827.1199999999999 29.895491134375334,-27.313709892332554,1828.5599999999999 29.89555835723877,-27.313463632017374,1830.49 29.895600769668818,-27.313214438036084,1832.4100000000001 29.895618539303541,-27.312967590987682,1834.3299999999999 29.8956189583987,-27.312725773081183,1836.26 29.895661622285843,-27.311800997704268,1841.54 29.895719541236758,-27.311572590842843,1842.5 29.895800510421395,-27.311343094334006,1843.47 29.895903188735247,-27.31111359782517,1844.4300000000001 29.896026570349932,-27.310885023325682,1845.3900000000001 29.896166464313865,-27.310657119378448,1845.8699999999999 29.897679230198264,-27.308264588937163,1848.27 29.89829764701426,-27.306575048714876,1842.98 29.898426979780197,-27.30458895675838,1834.8099999999999 29.898586655035615,-27.300252327695489,1811.74 29.898372832685709,-27.297439444810152,1793 29.89725150167942,-27.290676422417164,1748.29 29.895964628085494,-27.282963395118713,1728.5899999999999 </coordinates></LineString></MultiGeometry></Placemark></Folder></Folder></Document></kml>