<?xml version="1.0" encoding="utf-8"?><kml xmlns="http://www.opengis.net/kml/2.2" xmlns:xsi="http://www.w3.org/2001/XMLSchema-instance" xmlns:kmlx="http://www.google.com/kml/ext/2.2" xmlns:atom="http://www.w3.org/2005/Atom" xmlns:gpxx="http://www.garmin.com/xmlschemas/GpxExtensions/v3"><Document><Style id="point"><IconStyle><scale>0.9</scale><Icon><href>http://maps.google.com/mapfiles/kml/shapes/placemark_circle.png</href></Icon></IconStyle></Style><Folder><name>Tracks</name><Folder><name>[305] Killian's Pass</name><Folder><name>Points</name><Style><ListStyle><listItemType>checkHideChildren</listItemType></ListStyle></Style><Placemark><TimeSpan><begin>2022-09-06T09:06:39Z</begin><end>2022-09-06T09:06:39Z</end></TimeSpan><Style><IconStyle><scale>0.9</scale><Icon><href>http://connect.garmin.com/image/main/icons/kml/grn-play.png</href></Icon></IconStyle></Style><Point><altitudeMode>clampToGround</altitudeMode><coordinates>17.739916015416384,-30.204797023907304,360.63</coordinates></Point></Placemark><Placemark><TimeSpan><begin>2022-09-06T09:06:39Z</begin><end>2022-09-06T09:06:43Z</end></TimeSpan><styleUrl>#point</styleUrl><Point><altitudeMode>clampToGround</altitudeMode><coordinates>17.739541009068489,-30.204536011442542,364.48000000000002</coordinates></Point></Placemark><Placemark><TimeSpan><begin>2022-09-06T09:06:43Z</begin><end>2022-09-06T09:06:44Z</end></TimeSpan><styleUrl>#point</styleUrl><Point><altitudeMode>clampToGround</altitudeMode><coordinates>17.73945702239871,-30.204483037814498,364.95999999999998</coordinates></Point></Placemark><Placemark><TimeSpan><begin>2022-09-06T09:06:44Z</begin><end>2022-09-06T09:06:47Z</end></TimeSpan><styleUrl>#point</styleUrl><Point><altitudeMode>clampToGround</altitudeMode><coordinates>17.739200033247471,-30.204319003969431,366.39999999999998</coordinates></Point></Placemark><Placemark><TimeSpan><begin>2022-09-06T09:06:47Z</begin><end>2022-09-06T09:06:57Z</end></TimeSpan><styleUrl>#point</styleUrl><Point><altitudeMode>clampToGround</altitudeMode><coordinates>17.738257991150022,-30.203708969056606,370.24000000000001</coordinates></Point></Placemark><Placemark><TimeSpan><begin>2022-09-06T09:06:57Z</begin><end>2022-09-06T09:06:58Z</end></TimeSpan><styleUrl>#point</styleUrl><Point><altitudeMode>clampToGround</altitudeMode><coordinates>17.738165035843849,-30.203640991821885,370.24000000000001</coordinates></Point></Placemark><Placemark><TimeSpan><begin>2022-09-06T09:06:58Z</begin><end>2022-09-06T09:07:11Z</end></TimeSpan><styleUrl>#point</styleUrl><Point><altitudeMode>clampToGround</altitudeMode><coordinates>17.73700900375843,-30.202881004661322,369.75999999999999</coordinates></Point></Placemark><Placemark><TimeSpan><begin>2022-09-06T09:07:11Z</begin><end>2022-09-06T09:07:16Z</end></TimeSpan><styleUrl>#point</styleUrl><Point><altitudeMode>clampToGround</altitudeMode><coordinates>17.73651204071939,-30.202747983857989,367.83999999999997</coordinates></Point></Placemark><Placemark><TimeSpan><begin>2022-09-06T09:07:16Z</begin><end>2022-09-06T09:07:29Z</end></TimeSpan><styleUrl>#point</styleUrl><Point><altitudeMode>clampToGround</altitudeMode><coordinates>17.735109999775887,-30.202788971364498,364.48000000000002</coordinates></Point></Placemark><Placemark><TimeSpan><begin>2022-09-06T09:07:29Z</begin><end>2022-09-06T09:07:46Z</end></TimeSpan><styleUrl>#point</styleUrl><Point><altitudeMode>clampToGround</altitudeMode><coordinates>17.733322978019714,-30.203002039343119,366.39999999999998</coordinates></Point></Placemark><Placemark><TimeSpan><begin>2022-09-06T09:07:46Z</begin><end>2022-09-06T09:07:48Z</end></TimeSpan><styleUrl>#point</styleUrl><Point><altitudeMode>clampToGround</altitudeMode><coordinates>17.733084009960294,-30.2029840182513,367.36000000000001</coordinates></Point></Placemark><Placemark><TimeSpan><begin>2022-09-06T09:07:48Z</begin><end>2022-09-06T09:07:52Z</end></TimeSpan><styleUrl>#point</styleUrl><Point><altitudeMode>clampToGround</altitudeMode><coordinates>17.732669021934271,-30.202945964410901,370.24000000000001</coordinates></Point></Placemark><Placemark><TimeSpan><begin>2022-09-06T09:07:52Z</begin><end>2022-09-06T09:07:55Z</end></TimeSpan><styleUrl>#point</styleUrl><Point><altitudeMode>clampToGround</altitudeMode><coordinates>17.732372973114252,-30.202844962477684,372.64999999999998</coordinates></Point></Placemark><Placemark><TimeSpan><begin>2022-09-06T09:07:55Z</begin><end>2022-09-06T09:08:00Z</end></TimeSpan><styleUrl>#point</styleUrl><Point><altitudeMode>clampToGround</altitudeMode><coordinates>17.73193602450192,-30.202566012740135,375.05000000000001</coordinates></Point></Placemark><Placemark><TimeSpan><begin>2022-09-06T09:08:00Z</begin><end>2022-09-06T09:08:04Z</end></TimeSpan><styleUrl>#point</styleUrl><Point><altitudeMode>clampToGround</altitudeMode><coordinates>17.731619020923972,-30.202313968911767,378.89999999999998</coordinates></Point></Placemark><Placemark><TimeSpan><begin>2022-09-06T09:08:04Z</begin><end>2022-09-06T09:08:05Z</end></TimeSpan><styleUrl>#point</styleUrl><Point><altitudeMode>clampToGround</altitudeMode><coordinates>17.731538973748684,-30.20225596614182,378.89999999999998</coordinates></Point></Placemark><Placemark><TimeSpan><begin>2022-09-06T09:08:05Z</begin><end>2022-09-06T09:08:11Z</end></TimeSpan><styleUrl>#point</styleUrl><Point><altitudeMode>clampToGround</altitudeMode><coordinates>17.730995994061232,-30.201907027512789,378.89999999999998</coordinates></Point></Placemark><Placemark><TimeSpan><begin>2022-09-06T09:08:11Z</begin><end>2022-09-06T09:08:17Z</end></TimeSpan><styleUrl>#point</styleUrl><Point><altitudeMode>clampToGround</altitudeMode><coordinates>17.730259979143739,-30.201586000621319,380.33999999999997</coordinates></Point></Placemark><Placemark><TimeSpan><begin>2022-09-06T09:08:17Z</begin><end>2022-09-06T09:08:22Z</end></TimeSpan><styleUrl>#point</styleUrl><Point><altitudeMode>clampToGround</altitudeMode><coordinates>17.729821018874645,-30.201490027830005,383.69999999999999</coordinates></Point></Placemark><Placemark><TimeSpan><begin>2022-09-06T09:08:22Z</begin><end>2022-09-06T09:08:23Z</end></TimeSpan><styleUrl>#point</styleUrl><Point><altitudeMode>clampToGround</altitudeMode><coordinates>17.729707024991512,-30.201469995081425,383.69999999999999</coordinates></Point></Placemark><Placemark><TimeSpan><begin>2022-09-06T09:08:23Z</begin><end>2022-09-06T09:08:27Z</end></TimeSpan><styleUrl>#point</styleUrl><Point><altitudeMode>clampToGround</altitudeMode><coordinates>17.729286001995206,-30.201420960947871,387.06999999999999</coordinates></Point></Placemark><Placemark><TimeSpan><begin>2022-09-06T09:08:27Z</begin><end>2022-09-06T09:08:29Z</end></TimeSpan><styleUrl>#point</styleUrl><Point><altitudeMode>clampToGround</altitudeMode><coordinates>17.729081986472011,-30.201430013403296,388.02999999999997</coordinates></Point></Placemark><Placemark><TimeSpan><begin>2022-09-06T09:08:29Z</begin><end>2022-09-06T09:08:30Z</end></TimeSpan><styleUrl>#point</styleUrl><Point><altitudeMode>clampToGround</altitudeMode><coordinates>17.728986013680696,-30.201434036716819,388.50999999999999</coordinates></Point></Placemark><Placemark><TimeSpan><begin>2022-09-06T09:08:30Z</begin><end>2022-09-06T09:08:31Z</end></TimeSpan><styleUrl>#point</styleUrl><Point><altitudeMode>clampToGround</altitudeMode><coordinates>17.728894986212254,-30.201441999524832,388.99000000000001</coordinates></Point></Placemark><Placemark><TimeSpan><begin>2022-09-06T09:08:31Z</begin><end>2022-09-06T09:08:32Z</end></TimeSpan><styleUrl>#point</styleUrl><Point><altitudeMode>clampToGround</altitudeMode><coordinates>17.728803036734462,-30.201473012566566,389.94999999999999</coordinates></Point></Placemark><Placemark><TimeSpan><begin>2022-09-06T09:08:32Z</begin><end>2022-09-06T09:08:33Z</end></TimeSpan><styleUrl>#point</styleUrl><Point><altitudeMode>clampToGround</altitudeMode><coordinates>17.728706980124116,-30.201505031436682,390.91000000000003</coordinates></Point></Placemark><Placemark><TimeSpan><begin>2022-09-06T09:08:33Z</begin><end>2022-09-06T09:08:34Z</end></TimeSpan><styleUrl>#point</styleUrl><Point><altitudeMode>clampToGround</altitudeMode><coordinates>17.728608995676041,-30.201536966487765,391.87</coordinates></Point></Placemark><Placemark><TimeSpan><begin>2022-09-06T09:08:34Z</begin><end>2022-09-06T09:08:36Z</end></TimeSpan><styleUrl>#point</styleUrl><Point><altitudeMode>clampToGround</altitudeMode><coordinates>17.728415960446,-30.201602010056376,393.80000000000001</coordinates></Point></Placemark><Placemark><TimeSpan><begin>2022-09-06T09:08:36Z</begin><end>2022-09-06T09:08:37Z</end></TimeSpan><styleUrl>#point</styleUrl><Point><altitudeMode>clampToGround</altitudeMode><coordinates>17.728324010968208,-30.201633023098111,394.75999999999999</coordinates></Point></Placemark><Placemark><TimeSpan><begin>2022-09-06T09:08:37Z</begin><end>2022-09-06T09:08:38Z</end></TimeSpan><styleUrl>#point</styleUrl><Point><altitudeMode>clampToGround</altitudeMode><coordinates>17.728237006813288,-30.201662024483085,395.24000000000001</coordinates></Point></Placemark><Placemark><TimeSpan><begin>2022-09-06T09:08:38Z</begin><end>2022-09-06T09:08:39Z</end></TimeSpan><styleUrl>#point</styleUrl><Point><altitudeMode>clampToGround</altitudeMode><coordinates>17.728137010708451,-30.201664958149195,396.68000000000001</coordinates></Point></Placemark><Placemark><TimeSpan><begin>2022-09-06T09:08:39Z</begin><end>2022-09-06T09:08:40Z</end></TimeSpan><styleUrl>#point</styleUrl><Point><altitudeMode>clampToGround</altitudeMode><coordinates>17.728050006553531,-30.201651966199279,398.12</coordinates></Point></Placemark><Placemark><TimeSpan><begin>2022-09-06T09:08:40Z</begin><end>2022-09-06T09:08:41Z</end></TimeSpan><styleUrl>#point</styleUrl><Point><altitudeMode>clampToGround</altitudeMode><coordinates>17.727989992126822,-30.201593041419983,399.56999999999999</coordinates></Point></Placemark><Placemark><TimeSpan><begin>2022-09-06T09:08:41Z</begin><end>2022-09-06T09:08:42Z</end></TimeSpan><styleUrl>#point</styleUrl><Point><altitudeMode>clampToGround</altitudeMode><coordinates>17.727867029607296,-30.201468989253044,401.00999999999999</coordinates></Point></Placemark><Placemark><TimeSpan><begin>2022-09-06T09:08:42Z</begin><end>2022-09-06T09:08:43Z</end></TimeSpan><styleUrl>#point</styleUrl><Point><altitudeMode>clampToGround</altitudeMode><coordinates>17.727867029607296,-30.201468989253044,401.97000000000003</coordinates></Point></Placemark><Placemark><TimeSpan><begin>2022-09-06T09:08:43Z</begin><end>2022-09-06T09:08:44Z</end></TimeSpan><styleUrl>#point</styleUrl><Point><altitudeMode>clampToGround</altitudeMode><coordinates>17.727805003523827,-30.201407968997955,402.93000000000001</coordinates></Point></Placemark><Placemark><TimeSpan><begin>2022-09-06T09:08:44Z</begin><end>2022-09-06T09:08:45Z</end></TimeSpan><styleUrl>#point</styleUrl><Point><altitudeMode>clampToGround</altitudeMode><coordinates>17.72774800658226,-30.201349966228008,403.88999999999999</coordinates></Point></Placemark><Placemark><TimeSpan><begin>2022-09-06T09:08:45Z</begin><end>2022-09-06T09:08:46Z</end></TimeSpan><styleUrl>#point</styleUrl><Point><altitudeMode>clampToGround</altitudeMode><coordinates>17.727693021297455,-30.201295986771584,404.37</coordinates></Point></Placemark><Placemark><TimeSpan><begin>2022-09-06T09:08:46Z</begin><end>2022-09-06T09:08:47Z</end></TimeSpan><styleUrl>#point</styleUrl><Point><altitudeMode>clampToGround</altitudeMode><coordinates>17.72761800326407,-30.201258016750216,404.85000000000002</coordinates></Point></Placemark><Placemark><TimeSpan><begin>2022-09-06T09:08:47Z</begin><end>2022-09-06T09:08:48Z</end></TimeSpan><styleUrl>#point</styleUrl><Point><altitudeMode>clampToGround</altitudeMode><coordinates>17.727542985230684,-30.20122398622334,405.32999999999998</coordinates></Point></Placemark><Placemark><TimeSpan><begin>2022-09-06T09:08:48Z</begin><end>2022-09-06T09:08:49Z</end></TimeSpan><styleUrl>#point</styleUrl><Point><altitudeMode>clampToGround</altitudeMode><coordinates>17.727462016046047,-30.201206970959902,406.29000000000002</coordinates></Point></Placemark><Placemark><TimeSpan><begin>2022-09-06T09:08:49Z</begin><end>2022-09-06T09:08:50Z</end></TimeSpan><styleUrl>#point</styleUrl><Point><altitudeMode>clampToGround</altitudeMode><coordinates>17.727377023547888,-30.201221974566579,406.29000000000002</coordinates></Point></Placemark><Placemark><TimeSpan><begin>2022-09-06T09:08:50Z</begin><end>2022-09-06T09:08:51Z</end></TimeSpan><styleUrl>#point</styleUrl><Point><altitudeMode>clampToGround</altitudeMode><coordinates>17.727287001907825,-30.201237984001637,407.25999999999999</coordinates></Point></Placemark><Placemark><TimeSpan><begin>2022-09-06T09:08:51Z</begin><end>2022-09-06T09:08:52Z</end></TimeSpan><styleUrl>#point</styleUrl><Point><altitudeMode>clampToGround</altitudeMode><coordinates>17.727197986096144,-30.201253993436694,408.22000000000003</coordinates></Point></Placemark><Placemark><TimeSpan><begin>2022-09-06T09:08:52Z</begin><end>2022-09-06T09:08:55Z</end></TimeSpan><styleUrl>#point</styleUrl><Point><altitudeMode>clampToGround</altitudeMode><coordinates>17.726937979459763,-30.201301015913486,410.62</coordinates></Point></Placemark><Placemark><TimeSpan><begin>2022-09-06T09:08:55Z</begin><end>2022-09-06T09:08:56Z</end></TimeSpan><styleUrl>#point</styleUrl><Point><altitudeMode>clampToGround</altitudeMode><coordinates>17.72684401832521,-30.201304033398628,411.57999999999998</coordinates></Point></Placemark><Placemark><TimeSpan><begin>2022-09-06T09:08:56Z</begin><end>2022-09-06T09:08:57Z</end></TimeSpan><styleUrl>#point</styleUrl><Point><altitudeMode>clampToGround</altitudeMode><coordinates>17.726757014170289,-30.201295986771584,412.54000000000002</coordinates></Point></Placemark><Placemark><TimeSpan><begin>2022-09-06T09:08:57Z</begin><end>2022-09-06T09:08:58Z</end></TimeSpan><styleUrl>#point</styleUrl><Point><altitudeMode>clampToGround</altitudeMode><coordinates>17.726666992530227,-30.201284000650048,413.01999999999998</coordinates></Point></Placemark><Placemark><TimeSpan><begin>2022-09-06T09:08:58Z</begin><end>2022-09-06T09:08:59Z</end></TimeSpan><styleUrl>#point</styleUrl><Point><altitudeMode>clampToGround</altitudeMode><coordinates>17.72658602334559,-30.201247958466411,413.98000000000002</coordinates></Point></Placemark><Placemark><TimeSpan><begin>2022-09-06T09:08:59Z</begin><end>2022-09-06T09:09:03Z</end></TimeSpan><styleUrl>#point</styleUrl><Point><altitudeMode>clampToGround</altitudeMode><coordinates>17.726240018382668,-30.201095994561911,417.82999999999998</coordinates></Point></Placemark><Placemark><TimeSpan><begin>2022-09-06T09:09:03Z</begin><end>2022-09-06T09:09:06Z</end></TimeSpan><styleUrl>#point</styleUrl><Point><altitudeMode>clampToGround</altitudeMode><coordinates>17.725969031453133,-30.200980994850397,421.19</coordinates></Point></Placemark><Placemark><TimeSpan><begin>2022-09-06T09:09:06Z</begin><end>2022-09-06T09:09:09Z</end></TimeSpan><styleUrl>#point</styleUrl><Point><altitudeMode>clampToGround</altitudeMode><coordinates>17.725688992068172,-30.200897008180618,424.56</coordinates></Point></Placemark><Placemark><TimeSpan><begin>2022-09-06T09:09:09Z</begin><end>2022-09-06T09:09:10Z</end></TimeSpan><styleUrl>#point</styleUrl><Point><altitudeMode>clampToGround</altitudeMode><coordinates>17.725598970428109,-30.200870018452406,425.51999999999998</coordinates></Point></Placemark><Placemark><TimeSpan><begin>2022-09-06T09:09:10Z</begin><end>2022-09-06T09:09:11Z</end></TimeSpan><styleUrl>#point</styleUrl><Point><altitudeMode>clampToGround</altitudeMode><coordinates>17.725422028452158,-30.20081696100533,426.48000000000002</coordinates></Point></Placemark><Placemark><TimeSpan><begin>2022-09-06T09:09:11Z</begin><end>2022-09-06T09:09:12Z</end></TimeSpan><styleUrl>#point</styleUrl><Point><altitudeMode>clampToGround</altitudeMode><coordinates>17.725422028452158,-30.20081696100533,427.44</coordinates></Point></Placemark><Placemark><TimeSpan><begin>2022-09-06T09:09:12Z</begin><end>2022-09-06T09:09:16Z</end></TimeSpan><styleUrl>#point</styleUrl><Point><altitudeMode>clampToGround</altitudeMode><coordinates>17.725045010447502,-30.200777985155582,431.29000000000002</coordinates></Point></Placemark><Placemark><TimeSpan><begin>2022-09-06T09:09:16Z</begin><end>2022-09-06T09:09:20Z</end></TimeSpan><styleUrl>#point</styleUrl><Point><altitudeMode>clampToGround</altitudeMode><coordinates>17.724662963300943,-30.200757030397654,434.64999999999998</coordinates></Point></Placemark><Placemark><TimeSpan><begin>2022-09-06T09:09:20Z</begin><end>2022-09-06T09:09:24Z</end></TimeSpan><styleUrl>#point</styleUrl><Point><altitudeMode>clampToGround</altitudeMode><coordinates>17.7242870349437,-30.200736997649074,438.01999999999998</coordinates></Point></Placemark><Placemark><TimeSpan><begin>2022-09-06T09:09:24Z</begin><end>2022-09-06T09:09:28Z</end></TimeSpan><styleUrl>#point</styleUrl><Point><altitudeMode>clampToGround</altitudeMode><coordinates>17.723910016939044,-30.200715959072113,442.33999999999997</coordinates></Point></Placemark><Placemark><TimeSpan><begin>2022-09-06T09:09:28Z</begin><end>2022-09-06T09:09:29Z</end></TimeSpan><styleUrl>#point</styleUrl><Point><altitudeMode>clampToGround</altitudeMode><coordinates>17.72381697781384,-30.200711013749242,443.31</coordinates></Point></Placemark><Placemark><TimeSpan><begin>2022-09-06T09:09:29Z</begin><end>2022-09-06T09:09:33Z</end></TimeSpan><styleUrl>#point</styleUrl><Point><altitudeMode>clampToGround</altitudeMode><coordinates>17.723438031971455,-30.200689975172281,446.67000000000002</coordinates></Point></Placemark><Placemark><TimeSpan><begin>2022-09-06T09:09:33Z</begin><end>2022-09-06T09:09:37Z</end></TimeSpan><styleUrl>#point</styleUrl><Point><altitudeMode>clampToGround</altitudeMode><coordinates>17.722966969013214,-30.200586039572954,450.51999999999998</coordinates></Point></Placemark><Placemark><TimeSpan><begin>2022-09-06T09:09:37Z</begin><end>2022-09-06T09:09:40Z</end></TimeSpan><styleUrl>#point</styleUrl><Point><altitudeMode>clampToGround</altitudeMode><coordinates>17.722772005945444,-30.200537005439401,453.39999999999998</coordinates></Point></Placemark><Placemark><TimeSpan><begin>2022-09-06T09:09:40Z</begin><end>2022-09-06T09:09:41Z</end></TimeSpan><styleUrl>#point</styleUrl><Point><altitudeMode>clampToGround</altitudeMode><coordinates>17.72267603315413,-30.20051303319633,454.36000000000001</coordinates></Point></Placemark><Placemark><TimeSpan><begin>2022-09-06T09:09:41Z</begin><end>2022-09-06T09:09:42Z</end></TimeSpan><styleUrl>#point</styleUrl><Point><altitudeMode>clampToGround</altitudeMode><coordinates>17.722579976543784,-30.200488977134228,455.31999999999999</coordinates></Point></Placemark><Placemark><TimeSpan><begin>2022-09-06T09:09:42Z</begin><end>2022-09-06T09:09:43Z</end></TimeSpan><styleUrl>#point</styleUrl><Point><altitudeMode>clampToGround</altitudeMode><coordinates>17.722481992095709,-30.200463999062777,456.27999999999997</coordinates></Point></Placemark><Placemark><TimeSpan><begin>2022-09-06T09:09:43Z</begin><end>2022-09-06T09:09:45Z</end></TimeSpan><styleUrl>#point</styleUrl><Point><altitudeMode>clampToGround</altitudeMode><coordinates>17.722271019592881,-30.200425023213029,460.13</coordinates></Point></Placemark><Placemark><TimeSpan><begin>2022-09-06T09:09:45Z</begin><end>2022-09-06T09:09:47Z</end></TimeSpan><styleUrl>#point</styleUrl><Point><altitudeMode>clampToGround</altitudeMode><coordinates>17.722047977149487,-30.200410019606352,464.44999999999999</coordinates></Point></Placemark><Placemark><TimeSpan><begin>2022-09-06T09:09:47Z</begin><end>2022-09-06T09:09:49Z</end></TimeSpan><styleUrl>#point</styleUrl><Point><altitudeMode>clampToGround</altitudeMode><coordinates>17.721837004646659,-30.200438015162945,467.81999999999999</coordinates></Point></Placemark><Placemark><TimeSpan><begin>2022-09-06T09:09:49Z</begin><end>2022-09-06T09:09:51Z</end></TimeSpan><styleUrl>#point</styleUrl><Point><altitudeMode>clampToGround</altitudeMode><coordinates>17.721630977466702,-30.20047196187079,471.18000000000001</coordinates></Point></Placemark><Placemark><TimeSpan><begin>2022-09-06T09:09:51Z</begin><end>2022-09-06T09:09:54Z</end></TimeSpan><styleUrl>#point</styleUrl><Point><altitudeMode>clampToGround</altitudeMode><coordinates>17.721340963616967,-30.20047196187079,474.55000000000001</coordinates></Point></Placemark><Placemark><TimeSpan><begin>2022-09-06T09:09:54Z</begin><end>2022-09-06T09:09:58Z</end></TimeSpan><styleUrl>#point</styleUrl><Point><altitudeMode>clampToGround</altitudeMode><coordinates>17.720992024987936,-30.20047196187079,477.91000000000003</coordinates></Point></Placemark><Placemark><TimeSpan><begin>2022-09-06T09:09:58Z</begin><end>2022-09-06T09:10:00Z</end></TimeSpan><styleUrl>#point</styleUrl><Point><altitudeMode>clampToGround</altitudeMode><coordinates>17.72085296921432,-30.20047196187079,478.38999999999999</coordinates></Point></Placemark><Placemark><TimeSpan><begin>2022-09-06T09:10:00Z</begin><end>2022-09-06T09:10:08Z</end></TimeSpan><styleUrl>#point</styleUrl><Point><altitudeMode>clampToGround</altitudeMode><coordinates>17.720664041116834,-30.200436003506184,478.87</coordinates></Point></Placemark><Placemark><TimeSpan><begin>2022-09-06T09:10:08Z</begin><end>2022-09-06T09:13:21Z</end></TimeSpan><styleUrl>#point</styleUrl><Point><altitudeMode>clampToGround</altitudeMode><coordinates>17.720435969531536,-30.200388981029391,477.43000000000001</coordinates></Point></Placemark><Placemark><TimeSpan><begin>2022-09-06T09:13:21Z</begin><end>2022-09-06T09:13:26Z</end></TimeSpan><styleUrl>#point</styleUrl><Point><altitudeMode>clampToGround</altitudeMode><coordinates>17.72007898427546,-30.200315974652767,473.58999999999997</coordinates></Point></Placemark><Placemark><TimeSpan><begin>2022-09-06T09:13:26Z</begin><end>2022-09-06T09:13:30Z</end></TimeSpan><styleUrl>#point</styleUrl><Point><altitudeMode>clampToGround</altitudeMode><coordinates>17.71971495822072,-30.200293008238077,470.22000000000003</coordinates></Point></Placemark><Placemark><TimeSpan><begin>2022-09-06T09:13:30Z</begin><end>2022-09-06T09:13:34Z</end></TimeSpan><styleUrl>#point</styleUrl><Point><altitudeMode>clampToGround</altitudeMode><coordinates>17.719343975186348,-30.200282027944922,466.38</coordinates></Point></Placemark><Placemark><TimeSpan><begin>2022-09-06T09:13:34Z</begin><end>2022-09-06T09:13:38Z</end></TimeSpan><styleUrl>#point</styleUrl><Point><altitudeMode>clampToGround</altitudeMode><coordinates>17.718889005482197,-30.200370037928224,462.52999999999997</coordinates></Point></Placemark><Placemark><TimeSpan><begin>2022-09-06T09:13:38Z</begin><end>2022-09-06T09:13:41Z</end></TimeSpan><styleUrl>#point</styleUrl><Point><altitudeMode>clampToGround</altitudeMode><coordinates>17.718694964423776,-30.200420999899507,459.17000000000002</coordinates></Point></Placemark><Placemark><TimeSpan><begin>2022-09-06T09:13:41Z</begin><end>2022-09-06T09:13:43Z</end></TimeSpan><styleUrl>#point</styleUrl><Point><altitudeMode>clampToGround</altitudeMode><coordinates>17.718387013301253,-30.200523007661104,454.83999999999997</coordinates></Point></Placemark><Placemark><TimeSpan><begin>2022-09-06T09:13:43Z</begin><end>2022-09-06T09:13:46Z</end></TimeSpan><styleUrl>#point</styleUrl><Point><altitudeMode>clampToGround</altitudeMode><coordinates>17.718193978071213,-30.200609005987644,451.48000000000002</coordinates></Point></Placemark><Placemark><TimeSpan><begin>2022-09-06T09:13:46Z</begin><end>2022-09-06T09:13:50Z</end></TimeSpan><styleUrl>#point</styleUrl><Point><altitudeMode>clampToGround</altitudeMode><coordinates>17.717877980321646,-30.200778990983963,447.63</coordinates></Point></Placemark><Placemark><TimeSpan><begin>2022-09-06T09:13:50Z</begin><end>2022-09-06T09:13:53Z</end></TimeSpan><styleUrl>#point</styleUrl><Point><altitudeMode>clampToGround</altitudeMode><coordinates>17.71771302446723,-30.20090002566576,444.26999999999998</coordinates></Point></Placemark><Placemark><TimeSpan><begin>2022-09-06T09:13:53Z</begin><end>2022-09-06T09:13:56Z</end></TimeSpan><styleUrl>#point</styleUrl><Point><altitudeMode>clampToGround</altitudeMode><coordinates>17.717549996450543,-30.201034974306822,441.38</coordinates></Point></Placemark><Placemark><TimeSpan><begin>2022-09-06T09:13:56Z</begin><end>2022-09-06T09:13:59Z</end></TimeSpan><styleUrl>#point</styleUrl><Point><altitudeMode>clampToGround</altitudeMode><coordinates>17.717383028939366,-30.201173024252057,438.01999999999998</coordinates></Point></Placemark><Placemark><TimeSpan><begin>2022-09-06T09:13:59Z</begin><end>2022-09-06T09:14:01Z</end></TimeSpan><styleUrl>#point</styleUrl><Point><altitudeMode>clampToGround</altitudeMode><coordinates>17.717267023399472,-30.201268997043371,436.10000000000002</coordinates></Point></Placemark><Placemark><TimeSpan><begin>2022-09-06T09:14:01Z</begin><end>2022-09-06T09:14:02Z</end></TimeSpan><styleUrl>#point</styleUrl><Point><altitudeMode>clampToGround</altitudeMode><coordinates>17.717209020629525,-30.201317025348544,435.13</coordinates></Point></Placemark><Placemark><TimeSpan><begin>2022-09-06T09:14:02Z</begin><end>2022-09-06T09:14:03Z</end></TimeSpan><styleUrl>#point</styleUrl><Point><altitudeMode>clampToGround</altitudeMode><coordinates>17.717115981504321,-30.201332028955221,434.17000000000002</coordinates></Point></Placemark><Placemark><TimeSpan><begin>2022-09-06T09:14:03Z</begin><end>2022-09-06T09:14:04Z</end></TimeSpan><styleUrl>#point</styleUrl><Point><altitudeMode>clampToGround</altitudeMode><coordinates>17.717038029804826,-30.201334040611982,433.69</coordinates></Point></Placemark><Placemark><TimeSpan><begin>2022-09-06T09:14:04Z</begin><end>2022-09-06T09:14:05Z</end></TimeSpan><styleUrl>#point</styleUrl><Point><altitudeMode>clampToGround</altitudeMode><coordinates>17.716959994286299,-30.201335968449712,433.20999999999998</coordinates></Point></Placemark><Placemark><TimeSpan><begin>2022-09-06T09:14:05Z</begin><end>2022-09-06T09:14:06Z</end></TimeSpan><styleUrl>#point</styleUrl><Point><altitudeMode>clampToGround</altitudeMode><coordinates>17.716884976252913,-30.201337980106473,432.73000000000002</coordinates></Point></Placemark><Placemark><TimeSpan><begin>2022-09-06T09:14:06Z</begin><end>2022-09-06T09:14:11Z</end></TimeSpan><styleUrl>#point</styleUrl><Point><altitudeMode>clampToGround</altitudeMode><coordinates>17.716533020138741,-30.201346026733518,429.37</coordinates></Point></Placemark><Placemark><TimeSpan><begin>2022-09-06T09:14:11Z</begin><end>2022-09-06T09:14:17Z</end></TimeSpan><styleUrl>#point</styleUrl><Point><altitudeMode>clampToGround</altitudeMode><coordinates>17.716140998527408,-30.201402017846704,426</coordinates></Point></Placemark><Placemark><TimeSpan><begin>2022-09-06T09:14:17Z</begin><end>2022-09-06T09:14:19Z</end></TimeSpan><styleUrl>#point</styleUrl><Point><altitudeMode>clampToGround</altitudeMode><coordinates>17.716041002422571,-30.201439987868071,425.04000000000002</coordinates></Point></Placemark><Placemark><TimeSpan><begin>2022-09-06T09:14:19Z</begin><end>2022-09-06T09:14:32Z</end></TimeSpan><styleUrl>#point</styleUrl><Point><altitudeMode>clampToGround</altitudeMode><coordinates>17.716014012694359,-30.201449962332845,425.04000000000002</coordinates></Point></Placemark><Placemark><TimeSpan><begin>2022-09-06T09:14:32Z</begin><end>2022-09-06T09:14:53Z</end></TimeSpan><styleUrl>#point</styleUrl><Point><altitudeMode>clampToGround</altitudeMode><coordinates>17.715818965807557,-30.201564962044358,421.68000000000001</coordinates></Point></Placemark><Placemark><TimeSpan><begin>2022-09-06T09:14:53Z</begin><end>2022-09-06T09:14:58Z</end></TimeSpan><styleUrl>#point</styleUrl><Point><altitudeMode>clampToGround</altitudeMode><coordinates>17.71556599996984,-30.201721033081412,418.31</coordinates></Point></Placemark><Placemark><TimeSpan><begin>2022-09-06T09:14:58Z</begin><end>2022-09-06T09:15:03Z</end></TimeSpan><styleUrl>#point</styleUrl><Point><altitudeMode>clampToGround</altitudeMode><coordinates>17.715239021927118,-30.201923036947846,414.94999999999999</coordinates></Point></Placemark><Placemark><TimeSpan><begin>2022-09-06T09:15:03Z</begin><end>2022-09-06T09:15:08Z</end></TimeSpan><styleUrl>#point</styleUrl><Point><altitudeMode>clampToGround</altitudeMode><coordinates>17.715012961998582,-30.202062008902431,411.57999999999998</coordinates></Point></Placemark><Placemark><TimeSpan><begin>2022-09-06T09:15:08Z</begin><end>2022-09-06T09:15:14Z</end></TimeSpan><styleUrl>#point</styleUrl><Point><altitudeMode>clampToGround</altitudeMode><coordinates>17.714657988399267,-30.202293014153838,408.22000000000003</coordinates></Point></Placemark><Placemark><TimeSpan><begin>2022-09-06T09:15:14Z</begin><end>2022-09-06T09:15:20Z</end></TimeSpan><styleUrl>#point</styleUrl><Point><altitudeMode>clampToGround</altitudeMode><coordinates>17.714438969269395,-30.202486971393228,405.32999999999998</coordinates></Point></Placemark><Placemark><TimeSpan><begin>2022-09-06T09:15:20Z</begin><end>2022-09-06T09:15:25Z</end></TimeSpan><styleUrl>#point</styleUrl><Point><altitudeMode>clampToGround</altitudeMode><coordinates>17.714162031188607,-30.202730968594551,402.44999999999999</coordinates></Point></Placemark><Placemark><TimeSpan><begin>2022-09-06T09:15:25Z</begin><end>2022-09-06T09:15:30Z</end></TimeSpan><styleUrl>#point</styleUrl><Point><altitudeMode>clampToGround</altitudeMode><coordinates>17.713927002623677,-30.202925009652972,399.07999999999998</coordinates></Point></Placemark><Placemark><TimeSpan><begin>2022-09-06T09:15:30Z</begin><end>2022-09-06T09:15:34Z</end></TimeSpan><styleUrl>#point</styleUrl><Point><altitudeMode>clampToGround</altitudeMode><coordinates>17.713607987388968,-30.20311301574111,394.27999999999997</coordinates></Point></Placemark><Placemark><TimeSpan><begin>2022-09-06T09:15:34Z</begin><end>2022-09-06T09:15:37Z</end></TimeSpan><styleUrl>#point</styleUrl><Point><altitudeMode>clampToGround</altitudeMode><coordinates>17.713323002681136,-30.203280989080667,391.38999999999999</coordinates></Point></Placemark><Placemark><TimeSpan><begin>2022-09-06T09:15:37Z</begin><end>2022-09-06T09:15:48Z</end></TimeSpan><styleUrl>#point</styleUrl><Point><altitudeMode>clampToGround</altitudeMode><coordinates>17.712400993332267,-30.203855987638235,388.50999999999999</coordinates></Point></Placemark><Placemark><TimeSpan><begin>2022-09-06T09:15:48Z</begin><end>2022-09-06T09:15:53Z</end></TimeSpan><styleUrl>#point</styleUrl><Point><altitudeMode>clampToGround</altitudeMode><coordinates>17.711982987821102,-30.204152036458254,385.14999999999998</coordinates></Point></Placemark><Placemark><TimeSpan><begin>2022-09-06T09:15:53Z</begin><end>2022-09-06T09:15:57Z</end></TimeSpan><styleUrl>#point</styleUrl><Point><altitudeMode>clampToGround</altitudeMode><coordinates>17.711575040593743,-30.204376000910997,383.22000000000003</coordinates></Point></Placemark><Placemark><TimeSpan><begin>2022-09-06T09:15:57Z</begin><end>2022-09-06T09:16:05Z</end></TimeSpan><styleUrl>#point</styleUrl><Point><altitudeMode>clampToGround</altitudeMode><coordinates>17.710727965459228,-30.204717982560396,380.33999999999997</coordinates></Point></Placemark><Placemark><TimeSpan><begin>2022-09-06T09:16:05Z</begin><end>2022-09-06T09:16:11Z</end></TimeSpan><styleUrl>#point</styleUrl><Point><altitudeMode>clampToGround</altitudeMode><coordinates>17.710096975788474,-30.204992992803454,376.97000000000003</coordinates></Point></Placemark><Placemark><TimeSpan><begin>2022-09-06T09:16:11Z</begin><end>2022-09-06T09:16:21Z</end></TimeSpan><styleUrl>#point</styleUrl><Point><altitudeMode>clampToGround</altitudeMode><coordinates>17.709059966728091,-30.205461960285902,374.08999999999997</coordinates></Point></Placemark><Placemark><TimeSpan><begin>2022-09-06T09:16:21Z</begin><end>2022-09-06T09:16:32Z</end></TimeSpan><styleUrl>#point</styleUrl><Point><altitudeMode>clampToGround</altitudeMode><coordinates>17.707784995436668,-30.205721966922283,371.20999999999998</coordinates></Point></Placemark><Placemark><TimeSpan><begin>2022-09-06T09:16:32Z</begin><end>2022-09-06T09:16:38Z</end></TimeSpan><styleUrl>#point</styleUrl><Point><altitudeMode>clampToGround</altitudeMode><coordinates>17.70705702714622,-30.205651978030801,369.75999999999999</coordinates></Point></Placemark><Placemark><TimeSpan><begin>2022-09-06T09:16:38Z</begin><end>2022-09-06T09:16:52Z</end></TimeSpan><styleUrl>#point</styleUrl><Point><altitudeMode>clampToGround</altitudeMode><coordinates>17.705300012603402,-30.20526397973299,367.83999999999997</coordinates></Point></Placemark><Placemark><TimeSpan><begin>2022-09-06T09:16:52Z</begin><end>2022-09-06T09:17:02Z</end></TimeSpan><styleUrl>#point</styleUrl><Point><altitudeMode>clampToGround</altitudeMode><coordinates>17.704184968024492,-30.205235984176397,364.95999999999998</coordinates></Point></Placemark><Placemark><TimeSpan><begin>2022-09-06T09:17:02Z</begin><end>2022-09-06T09:17:16Z</end></TimeSpan><styleUrl>#point</styleUrl><Point><altitudeMode>clampToGround</altitudeMode><coordinates>17.702559968456626,-30.205336986109614,363.04000000000002</coordinates></Point></Placemark><Placemark><TimeSpan><begin>2022-09-06T09:17:16Z</begin><end>2022-09-06T09:17:28Z</end></TimeSpan><styleUrl>#point</styleUrl><Point><altitudeMode>clampToGround</altitudeMode><coordinates>17.700746962800622,-30.205500014126301,363.04000000000002</coordinates></Point></Placemark><Placemark><TimeSpan><begin>2022-09-06T09:17:28Z</begin><end>2022-09-06T09:17:40Z</end></TimeSpan><styleUrl>#point</styleUrl><Point><altitudeMode>clampToGround</altitudeMode><coordinates>17.699585985392332,-30.205767983570695,361.58999999999997</coordinates></Point></Placemark><Placemark><TimeSpan><begin>2022-09-06T09:17:40Z</begin><end>2022-09-06T09:17:44Z</end></TimeSpan><styleUrl>#point</styleUrl><Point><altitudeMode>clampToGround</altitudeMode><coordinates>17.699222965165973,-30.205938974395394,360.14999999999998</coordinates></Point></Placemark></Folder><Placemark><name>[305] Killian's Pass</name><Style><LineStyle><color>ff0000ff</color><width>4</width></LineStyle></Style><MultiGeometry><LineString><coordinates>17.739916015416384,-30.204797023907304,360.63 17.739541009068489,-30.204536011442542,364.48000000000002 17.73945702239871,-30.204483037814498,364.95999999999998 17.739200033247471,-30.204319003969431,366.39999999999998 17.738257991150022,-30.203708969056606,370.24000000000001 17.738165035843849,-30.203640991821885,370.24000000000001 17.73700900375843,-30.202881004661322,369.75999999999999 17.73651204071939,-30.202747983857989,367.83999999999997 17.735109999775887,-30.202788971364498,364.48000000000002 17.733322978019714,-30.203002039343119,366.39999999999998 17.733084009960294,-30.2029840182513,367.36000000000001 17.732669021934271,-30.202945964410901,370.24000000000001 17.732372973114252,-30.202844962477684,372.64999999999998 17.73193602450192,-30.202566012740135,375.05000000000001 17.731619020923972,-30.202313968911767,378.89999999999998 17.731538973748684,-30.20225596614182,378.89999999999998 17.730995994061232,-30.201907027512789,378.89999999999998 17.730259979143739,-30.201586000621319,380.33999999999997 17.729821018874645,-30.201490027830005,383.69999999999999 17.729707024991512,-30.201469995081425,383.69999999999999 17.729286001995206,-30.201420960947871,387.06999999999999 17.729081986472011,-30.201430013403296,388.02999999999997 17.728986013680696,-30.201434036716819,388.50999999999999 17.728894986212254,-30.201441999524832,388.99000000000001 17.728803036734462,-30.201473012566566,389.94999999999999 17.728706980124116,-30.201505031436682,390.91000000000003 17.728608995676041,-30.201536966487765,391.87 17.728415960446,-30.201602010056376,393.80000000000001 17.728324010968208,-30.201633023098111,394.75999999999999 17.728237006813288,-30.201662024483085,395.24000000000001 17.728137010708451,-30.201664958149195,396.68000000000001 17.728050006553531,-30.201651966199279,398.12 17.727989992126822,-30.201593041419983,399.56999999999999 17.727867029607296,-30.201468989253044,401.00999999999999 17.727867029607296,-30.201468989253044,401.97000000000003 17.727805003523827,-30.201407968997955,402.93000000000001 17.72774800658226,-30.201349966228008,403.88999999999999 17.727693021297455,-30.201295986771584,404.37 17.72761800326407,-30.201258016750216,404.85000000000002 17.727542985230684,-30.20122398622334,405.32999999999998 17.727462016046047,-30.201206970959902,406.29000000000002 17.727377023547888,-30.201221974566579,406.29000000000002 17.727287001907825,-30.201237984001637,407.25999999999999 17.727197986096144,-30.201253993436694,408.22000000000003 17.726937979459763,-30.201301015913486,410.62 17.72684401832521,-30.201304033398628,411.57999999999998 17.726757014170289,-30.201295986771584,412.54000000000002 17.726666992530227,-30.201284000650048,413.01999999999998 17.72658602334559,-30.201247958466411,413.98000000000002 17.726240018382668,-30.201095994561911,417.82999999999998 17.725969031453133,-30.200980994850397,421.19 17.725688992068172,-30.200897008180618,424.56 17.725598970428109,-30.200870018452406,425.51999999999998 17.725422028452158,-30.20081696100533,426.48000000000002 17.725422028452158,-30.20081696100533,427.44 17.725045010447502,-30.200777985155582,431.29000000000002 17.724662963300943,-30.200757030397654,434.64999999999998 17.7242870349437,-30.200736997649074,438.01999999999998 17.723910016939044,-30.200715959072113,442.33999999999997 17.72381697781384,-30.200711013749242,443.31 17.723438031971455,-30.200689975172281,446.67000000000002 17.722966969013214,-30.200586039572954,450.51999999999998 17.722772005945444,-30.200537005439401,453.39999999999998 17.72267603315413,-30.20051303319633,454.36000000000001 17.722579976543784,-30.200488977134228,455.31999999999999 17.722481992095709,-30.200463999062777,456.27999999999997 17.722271019592881,-30.200425023213029,460.13 17.722047977149487,-30.200410019606352,464.44999999999999 17.721837004646659,-30.200438015162945,467.81999999999999 17.721630977466702,-30.20047196187079,471.18000000000001 17.721340963616967,-30.20047196187079,474.55000000000001 17.720992024987936,-30.20047196187079,477.91000000000003 17.72085296921432,-30.20047196187079,478.38999999999999 17.720664041116834,-30.200436003506184,478.87 17.720435969531536,-30.200388981029391,477.43000000000001 17.72007898427546,-30.200315974652767,473.58999999999997 17.71971495822072,-30.200293008238077,470.22000000000003 17.719343975186348,-30.200282027944922,466.38 17.718889005482197,-30.200370037928224,462.52999999999997 17.718694964423776,-30.200420999899507,459.17000000000002 17.718387013301253,-30.200523007661104,454.83999999999997 17.718193978071213,-30.200609005987644,451.48000000000002 17.717877980321646,-30.200778990983963,447.63 17.71771302446723,-30.20090002566576,444.26999999999998 17.717549996450543,-30.201034974306822,441.38 17.717383028939366,-30.201173024252057,438.01999999999998 17.717267023399472,-30.201268997043371,436.10000000000002 17.717209020629525,-30.201317025348544,435.13 17.717115981504321,-30.201332028955221,434.17000000000002 17.717038029804826,-30.201334040611982,433.69 17.716959994286299,-30.201335968449712,433.20999999999998 17.716884976252913,-30.201337980106473,432.73000000000002 17.716533020138741,-30.201346026733518,429.37 17.716140998527408,-30.201402017846704,426 17.716041002422571,-30.201439987868071,425.04000000000002 17.716014012694359,-30.201449962332845,425.04000000000002 17.715818965807557,-30.201564962044358,421.68000000000001 17.71556599996984,-30.201721033081412,418.31 17.715239021927118,-30.201923036947846,414.94999999999999 17.715012961998582,-30.202062008902431,411.57999999999998 17.714657988399267,-30.202293014153838,408.22000000000003 17.714438969269395,-30.202486971393228,405.32999999999998 17.714162031188607,-30.202730968594551,402.44999999999999 17.713927002623677,-30.202925009652972,399.07999999999998 17.713607987388968,-30.20311301574111,394.27999999999997 17.713323002681136,-30.203280989080667,391.38999999999999 17.712400993332267,-30.203855987638235,388.50999999999999 17.711982987821102,-30.204152036458254,385.14999999999998 17.711575040593743,-30.204376000910997,383.22000000000003 17.710727965459228,-30.204717982560396,380.33999999999997 17.710096975788474,-30.204992992803454,376.97000000000003 17.709059966728091,-30.205461960285902,374.08999999999997 17.707784995436668,-30.205721966922283,371.20999999999998 17.70705702714622,-30.205651978030801,369.75999999999999 17.705300012603402,-30.20526397973299,367.83999999999997 17.704184968024492,-30.205235984176397,364.95999999999998 17.702559968456626,-30.205336986109614,363.04000000000002 17.700746962800622,-30.205500014126301,363.04000000000002 17.699585985392332,-30.205767983570695,361.58999999999997 17.699222965165973,-30.205938974395394,360.14999999999998 </coordinates></LineString></MultiGeometry></Placemark></Folder></Folder></Document></kml>