<?xml version="1.0" encoding="utf-8"?><kml xmlns="http://www.opengis.net/kml/2.2" xmlns:xsi="http://www.w3.org/2001/XMLSchema-instance" xmlns:kmlx="http://www.google.com/kml/ext/2.2" xmlns:atom="http://www.w3.org/2005/Atom" xmlns:gpxx="http://www.garmin.com/xmlschemas/GpxExtensions/v3"><Document><Style id="point"><IconStyle><scale>0.9</scale><Icon><href>http://maps.google.com/mapfiles/kml/shapes/placemark_circle.png</href></Icon></IconStyle></Style><Folder><name>Tracks</name><Folder><name>[317] Lang's nek Railway Tunnel</name><Folder><name>Points</name><Style><ListStyle><listItemType>checkHideChildren</listItemType></ListStyle></Style><Placemark><TimeSpan><begin>2022-10-29T07:50:36Z</begin><end>2022-10-29T07:50:36Z</end></TimeSpan><Style><IconStyle><scale>0.9</scale><Icon><href>http://connect.garmin.com/image/main/icons/kml/grn-play.png</href></Icon></IconStyle></Style><Point><altitudeMode>clampToGround</altitudeMode><coordinates>29.869120744988322,-27.452195109799504,1657.9300000000001</coordinates></Point></Placemark><Placemark><TimeSpan><begin>2022-10-29T07:50:36Z</begin><end>2022-10-29T07:50:44Z</end></TimeSpan><styleUrl>#point</styleUrl><Point><altitudeMode>clampToGround</altitudeMode><coordinates>29.86963078379631,-27.452662903815508,1657.9300000000001</coordinates></Point></Placemark><Placemark><TimeSpan><begin>2022-10-29T07:50:44Z</begin><end>2022-10-29T07:50:53Z</end></TimeSpan><styleUrl>#point</styleUrl><Point><altitudeMode>clampToGround</altitudeMode><coordinates>29.87024936825037,-27.453220719471574,1656.97</coordinates></Point></Placemark><Placemark><TimeSpan><begin>2022-10-29T07:50:53Z</begin><end>2022-10-29T07:51:11Z</end></TimeSpan><styleUrl>#point</styleUrl><Point><altitudeMode>clampToGround</altitudeMode><coordinates>29.871279085054994,-27.454132083803415,1655.05</coordinates></Point></Placemark><Placemark><TimeSpan><begin>2022-10-29T07:51:11Z</begin><end>2022-10-29T07:51:25Z</end></TimeSpan><styleUrl>#point</styleUrl><Point><altitudeMode>clampToGround</altitudeMode><coordinates>29.87197863869369,-27.454931382089853,1653.1199999999999</coordinates></Point></Placemark><Placemark><TimeSpan><begin>2022-10-29T07:51:25Z</begin><end>2022-10-29T07:51:37Z</end></TimeSpan><styleUrl>#point</styleUrl><Point><altitudeMode>clampToGround</altitudeMode><coordinates>29.872308634221554,-27.455661026760936,1652.6400000000001</coordinates></Point></Placemark><Placemark><TimeSpan><begin>2022-10-29T07:51:37Z</begin><end>2022-10-29T07:51:49Z</end></TimeSpan><styleUrl>#point</styleUrl><Point><altitudeMode>clampToGround</altitudeMode><coordinates>29.872677773237228,-27.456399723887444,1652.1600000000001</coordinates></Point></Placemark><Placemark><TimeSpan><begin>2022-10-29T07:51:49Z</begin><end>2022-10-29T07:52:03Z</end></TimeSpan><styleUrl>#point</styleUrl><Point><altitudeMode>clampToGround</altitudeMode><coordinates>29.873095862567425,-27.457306226715446,1652.1600000000001</coordinates></Point></Placemark><Placemark><TimeSpan><begin>2022-10-29T07:52:03Z</begin><end>2022-10-29T07:52:15Z</end></TimeSpan><styleUrl>#point</styleUrl><Point><altitudeMode>clampToGround</altitudeMode><coordinates>29.873306499794126,-27.457834621891379,1651.6800000000001</coordinates></Point></Placemark><Placemark><TimeSpan><begin>2022-10-29T07:52:15Z</begin><end>2022-10-29T07:52:20Z</end></TimeSpan><styleUrl>#point</styleUrl><Point><altitudeMode>clampToGround</altitudeMode><coordinates>29.873365676030517,-27.458004774525762,1652.6400000000001</coordinates></Point></Placemark><Placemark><TimeSpan><begin>2022-10-29T07:52:20Z</begin><end>2022-10-29T07:52:31Z</end></TimeSpan><styleUrl>#point</styleUrl><Point><altitudeMode>clampToGround</altitudeMode><coordinates>29.873484196141362,-27.458243072032928,1653.1199999999999</coordinates></Point></Placemark><Placemark><TimeSpan><begin>2022-10-29T07:52:31Z</begin><end>2022-10-29T07:52:59Z</end></TimeSpan><styleUrl>#point</styleUrl><Point><altitudeMode>clampToGround</altitudeMode><coordinates>29.873493080958724,-27.458236617967486,1653.1199999999999</coordinates></Point></Placemark><Placemark><TimeSpan><begin>2022-10-29T07:52:59Z</begin><end>2022-10-29T07:53:25Z</end></TimeSpan><styleUrl>#point</styleUrl><Point><altitudeMode>clampToGround</altitudeMode><coordinates>29.873483860865235,-27.45824902318418,1653.1199999999999</coordinates></Point></Placemark><Placemark><TimeSpan><begin>2022-10-29T07:53:25Z</begin><end>2022-10-29T07:53:58Z</end></TimeSpan><styleUrl>#point</styleUrl><Point><altitudeMode>clampToGround</altitudeMode><coordinates>29.873495763167739,-27.458258494734764,1652.6400000000001</coordinates></Point></Placemark><Placemark><TimeSpan><begin>2022-10-29T07:53:58Z</begin><end>2022-10-29T07:54:25Z</end></TimeSpan><styleUrl>#point</styleUrl><Point><altitudeMode>clampToGround</altitudeMode><coordinates>29.873493835330009,-27.458258662372828,1653.5999999999999</coordinates></Point></Placemark><Placemark><TimeSpan><begin>2022-10-29T07:54:25Z</begin><end>2022-10-29T07:54:50Z</end></TimeSpan><styleUrl>#point</styleUrl><Point><altitudeMode>clampToGround</altitudeMode><coordinates>29.873480591922998,-27.458257572725415,1652.1600000000001</coordinates></Point></Placemark><Placemark><TimeSpan><begin>2022-10-29T07:54:50Z</begin><end>2022-10-29T07:55:15Z</end></TimeSpan><styleUrl>#point</styleUrl><Point><altitudeMode>clampToGround</altitudeMode><coordinates>29.873489225283265,-27.458257572725415,1651.6800000000001</coordinates></Point></Placemark><Placemark><TimeSpan><begin>2022-10-29T07:55:15Z</begin><end>2022-10-29T07:55:35Z</end></TimeSpan><styleUrl>#point</styleUrl><Point><altitudeMode>clampToGround</altitudeMode><coordinates>29.873490231111646,-27.458260171115398,1651.6800000000001</coordinates></Point></Placemark><Placemark><TimeSpan><begin>2022-10-29T07:55:35Z</begin><end>2022-10-29T07:56:09Z</end></TimeSpan><styleUrl>#point</styleUrl><Point><altitudeMode>clampToGround</altitudeMode><coordinates>29.873481094837189,-27.458258578553796,1650.24</coordinates></Point></Placemark><Placemark><TimeSpan><begin>2022-10-29T07:56:09Z</begin><end>2022-10-29T07:56:46Z</end></TimeSpan><styleUrl>#point</styleUrl><Point><altitudeMode>clampToGround</altitudeMode><coordinates>29.873477825894952,-27.458259081467986,1654.5699999999999</coordinates></Point></Placemark><Placemark><TimeSpan><begin>2022-10-29T07:56:46Z</begin><end>2022-10-29T07:57:22Z</end></TimeSpan><styleUrl>#point</styleUrl><Point><altitudeMode>clampToGround</altitudeMode><coordinates>29.873472964391112,-27.458248855546117,1655.53</coordinates></Point></Placemark><Placemark><TimeSpan><begin>2022-10-29T07:57:22Z</begin><end>2022-10-29T07:57:57Z</end></TimeSpan><styleUrl>#point</styleUrl><Point><altitudeMode>clampToGround</altitudeMode><coordinates>29.873498110100627,-27.45824608951807,1655.53</coordinates></Point></Placemark><Placemark><TimeSpan><begin>2022-10-29T07:57:57Z</begin><end>2022-10-29T07:58:24Z</end></TimeSpan><styleUrl>#point</styleUrl><Point><altitudeMode>clampToGround</altitudeMode><coordinates>29.873492661863565,-27.458248939365149,1654.0899999999999</coordinates></Point></Placemark><Placemark><TimeSpan><begin>2022-10-29T07:58:24Z</begin><end>2022-10-29T07:58:54Z</end></TimeSpan><styleUrl>#point</styleUrl><Point><altitudeMode>clampToGround</altitudeMode><coordinates>29.873492494225502,-27.458250867202878,1654.5699999999999</coordinates></Point></Placemark><Placemark><TimeSpan><begin>2022-10-29T07:58:54Z</begin><end>2022-10-29T07:59:27Z</end></TimeSpan><styleUrl>#point</styleUrl><Point><altitudeMode>clampToGround</altitudeMode><coordinates>29.873506743460894,-27.458243323490024,1654.5699999999999</coordinates></Point></Placemark><Placemark><TimeSpan><begin>2022-10-29T07:59:27Z</begin><end>2022-10-29T07:59:56Z</end></TimeSpan><styleUrl>#point</styleUrl><Point><altitudeMode>clampToGround</altitudeMode><coordinates>29.873510180041194,-27.458244329318404,1654.0899999999999</coordinates></Point></Placemark><Placemark><TimeSpan><begin>2022-10-29T07:59:56Z</begin><end>2022-10-29T08:00:23Z</end></TimeSpan><styleUrl>#point</styleUrl><Point><altitudeMode>clampToGround</altitudeMode><coordinates>29.873505067080259,-27.458244496956468,1653.1199999999999</coordinates></Point></Placemark><Placemark><TimeSpan><begin>2022-10-29T08:00:23Z</begin><end>2022-10-29T08:01:02Z</end></TimeSpan><styleUrl>#point</styleUrl><Point><altitudeMode>clampToGround</altitudeMode><coordinates>29.873488387092948,-27.458245418965816,1652.1600000000001</coordinates></Point></Placemark><Placemark><TimeSpan><begin>2022-10-29T08:01:02Z</begin><end>2022-10-29T08:01:33Z</end></TimeSpan><styleUrl>#point</styleUrl><Point><altitudeMode>clampToGround</altitudeMode><coordinates>29.873497691005468,-27.458248604089022,1652.1600000000001</coordinates></Point></Placemark><Placemark><TimeSpan><begin>2022-10-29T08:01:33Z</begin><end>2022-10-29T08:02:13Z</end></TimeSpan><styleUrl>#point</styleUrl><Point><altitudeMode>clampToGround</altitudeMode><coordinates>29.873474892228842,-27.458264445886016,1654.5699999999999</coordinates></Point></Placemark><Placemark><TimeSpan><begin>2022-10-29T08:02:13Z</begin><end>2022-10-29T08:02:38Z</end></TimeSpan><styleUrl>#point</styleUrl><Point><altitudeMode>clampToGround</altitudeMode><coordinates>29.873472042381763,-27.45826218277216,1653.1199999999999</coordinates></Point></Placemark><Placemark><TimeSpan><begin>2022-10-29T08:02:38Z</begin><end>2022-10-29T08:03:15Z</end></TimeSpan><styleUrl>#point</styleUrl><Point><altitudeMode>clampToGround</altitudeMode><coordinates>29.873494086787105,-27.45824902318418,1651.6800000000001</coordinates></Point></Placemark><Placemark><TimeSpan><begin>2022-10-29T08:03:15Z</begin><end>2022-10-29T08:03:55Z</end></TimeSpan><styleUrl>#point</styleUrl><Point><altitudeMode>clampToGround</altitudeMode><coordinates>29.873488806188107,-27.45824315585196,1652.6400000000001</coordinates></Point></Placemark><Placemark><TimeSpan><begin>2022-10-29T08:03:55Z</begin><end>2022-10-29T08:04:31Z</end></TimeSpan><styleUrl>#point</styleUrl><Point><altitudeMode>clampToGround</altitudeMode><coordinates>29.87348897382617,-27.458239970728755,1654.5699999999999</coordinates></Point></Placemark><Placemark><TimeSpan><begin>2022-10-29T08:04:31Z</begin><end>2022-10-29T08:05:11Z</end></TimeSpan><styleUrl>#point</styleUrl><Point><altitudeMode>clampToGround</altitudeMode><coordinates>29.873489644378424,-27.458239048719406,1651.6800000000001</coordinates></Point></Placemark><Placemark><TimeSpan><begin>2022-10-29T08:05:11Z</begin><end>2022-10-29T08:05:47Z</end></TimeSpan><styleUrl>#point</styleUrl><Point><altitudeMode>clampToGround</altitudeMode><coordinates>29.873493164777756,-27.458240892738104,1650.24</coordinates></Point></Placemark><Placemark><TimeSpan><begin>2022-10-29T08:05:47Z</begin><end>2022-10-29T08:06:15Z</end></TimeSpan><styleUrl>#point</styleUrl><Point><altitudeMode>clampToGround</altitudeMode><coordinates>29.87349534407258,-27.458243574947119,1649.76</coordinates></Point></Placemark><Placemark><TimeSpan><begin>2022-10-29T08:06:15Z</begin><end>2022-10-29T08:06:23Z</end></TimeSpan><styleUrl>#point</styleUrl><Point><altitudeMode>clampToGround</altitudeMode><coordinates>29.873492745682597,-27.458246005699039,1650.24</coordinates></Point></Placemark><Placemark><TimeSpan><begin>2022-10-29T08:06:23Z</begin><end>2022-10-29T08:06:34Z</end></TimeSpan><styleUrl>#point</styleUrl><Point><altitudeMode>clampToGround</altitudeMode><coordinates>29.873569188639522,-27.458504168316722,1649.76</coordinates></Point></Placemark><Placemark><TimeSpan><begin>2022-10-29T08:06:34Z</begin><end>2022-10-29T08:08:31Z</end></TimeSpan><styleUrl>#point</styleUrl><Point><altitudeMode>clampToGround</altitudeMode><coordinates>29.875976471230388,-27.464341912418604,1651.6800000000001</coordinates></Point></Placemark><Placemark><TimeSpan><begin>2022-10-29T08:08:31Z</begin><end>2022-10-29T08:08:39Z</end></TimeSpan><styleUrl>#point</styleUrl><Point><altitudeMode>clampToGround</altitudeMode><coordinates>29.876011675223708,-27.464340990409255,1640.1500000000001</coordinates></Point></Placemark><Placemark><TimeSpan><begin>2022-10-29T08:08:39Z</begin><end>2022-10-29T08:09:09Z</end></TimeSpan><styleUrl>#point</styleUrl><Point><altitudeMode>clampToGround</altitudeMode><coordinates>29.876026343554258,-27.464317101985216,1640.1500000000001</coordinates></Point></Placemark><Placemark><TimeSpan><begin>2022-10-29T08:09:09Z</begin><end>2022-10-29T08:09:42Z</end></TimeSpan><styleUrl>#point</styleUrl><Point><altitudeMode>clampToGround</altitudeMode><coordinates>29.875982422381639,-27.464326238259673,1639.6700000000001</coordinates></Point></Placemark><Placemark><TimeSpan><begin>2022-10-29T08:09:42Z</begin><end>2022-10-29T08:10:27Z</end></TimeSpan><styleUrl>#point</styleUrl><Point><altitudeMode>clampToGround</altitudeMode><coordinates>29.875971525907516,-27.464330848306417,1641.1099999999999</coordinates></Point></Placemark><Placemark><TimeSpan><begin>2022-10-29T08:10:27Z</begin><end>2022-10-29T08:10:35Z</end></TimeSpan><styleUrl>#point</styleUrl><Point><altitudeMode>clampToGround</altitudeMode><coordinates>29.876041347160935,-27.464525559917092,1642.0699999999999</coordinates></Point></Placemark><Placemark><TimeSpan><begin>2022-10-29T08:10:35Z</begin><end>2022-10-29T08:10:48Z</end></TimeSpan><styleUrl>#point</styleUrl><Point><altitudeMode>clampToGround</altitudeMode><coordinates>29.876207308843732,-27.464956138283014,1643.99</coordinates></Point></Placemark><Placemark><TimeSpan><begin>2022-10-29T08:10:48Z</begin><end>2022-10-29T08:10:59Z</end></TimeSpan><styleUrl>#point</styleUrl><Point><altitudeMode>clampToGround</altitudeMode><coordinates>29.876308813691139,-27.465307172387838,1643.99</coordinates></Point></Placemark><Placemark><TimeSpan><begin>2022-10-29T08:10:59Z</begin><end>2022-10-29T08:11:02Z</end></TimeSpan><styleUrl>#point</styleUrl><Point><altitudeMode>clampToGround</altitudeMode><coordinates>29.876321470364928,-27.465442707762122,1643.03</coordinates></Point></Placemark><Placemark><TimeSpan><begin>2022-10-29T08:11:02Z</begin><end>2022-10-29T08:11:14Z</end></TimeSpan><styleUrl>#point</styleUrl><Point><altitudeMode>clampToGround</altitudeMode><coordinates>29.876262042671442,-27.465983340516686,1641.1099999999999</coordinates></Point></Placemark><Placemark><TimeSpan><begin>2022-10-29T08:11:14Z</begin><end>2022-10-29T08:11:25Z</end></TimeSpan><styleUrl>#point</styleUrl><Point><altitudeMode>clampToGround</altitudeMode><coordinates>29.876098092645407,-27.466398496180773,1638.7</coordinates></Point></Placemark><Placemark><TimeSpan><begin>2022-10-29T08:11:25Z</begin><end>2022-10-29T08:11:33Z</end></TimeSpan><styleUrl>#point</styleUrl><Point><altitudeMode>clampToGround</altitudeMode><coordinates>29.875778323039412,-27.466841815039515,1636.78</coordinates></Point></Placemark><Placemark><TimeSpan><begin>2022-10-29T08:11:33Z</begin><end>2022-10-29T08:11:43Z</end></TimeSpan><styleUrl>#point</styleUrl><Point><altitudeMode>clampToGround</altitudeMode><coordinates>29.875588221475482,-27.467029066756368,1636.3</coordinates></Point></Placemark><Placemark><TimeSpan><begin>2022-10-29T08:11:43Z</begin><end>2022-10-29T08:11:55Z</end></TimeSpan><styleUrl>#point</styleUrl><Point><altitudeMode>clampToGround</altitudeMode><coordinates>29.875591406598687,-27.467033928260207,1635.8199999999999</coordinates></Point></Placemark><Placemark><TimeSpan><begin>2022-10-29T08:11:55Z</begin><end>2022-10-29T08:12:25Z</end></TimeSpan><styleUrl>#point</styleUrl><Point><altitudeMode>clampToGround</altitudeMode><coordinates>29.875586880370975,-27.467040549963713,1637.26</coordinates></Point></Placemark><Placemark><TimeSpan><begin>2022-10-29T08:12:25Z</begin><end>2022-10-29T08:12:55Z</end></TimeSpan><styleUrl>#point</styleUrl><Point><altitudeMode>clampToGround</altitudeMode><coordinates>29.875577576458454,-27.467053374275565,1637.74</coordinates></Point></Placemark><Placemark><TimeSpan><begin>2022-10-29T08:12:55Z</begin><end>2022-10-29T08:13:30Z</end></TimeSpan><styleUrl>#point</styleUrl><Point><altitudeMode>clampToGround</altitudeMode><coordinates>29.875576486811042,-27.467061504721642,1636.78</coordinates></Point></Placemark><Placemark><TimeSpan><begin>2022-10-29T08:13:30Z</begin><end>2022-10-29T08:14:02Z</end></TimeSpan><styleUrl>#point</styleUrl><Point><altitudeMode>clampToGround</altitudeMode><coordinates>29.87558520399034,-27.467047842219472,1634.3800000000001</coordinates></Point></Placemark><Placemark><TimeSpan><begin>2022-10-29T08:14:02Z</begin><end>2022-10-29T08:14:30Z</end></TimeSpan><styleUrl>#point</styleUrl><Point><altitudeMode>clampToGround</altitudeMode><coordinates>29.875587550923228,-27.467044154182076,1634.3800000000001</coordinates></Point></Placemark><Placemark><TimeSpan><begin>2022-10-29T08:14:30Z</begin><end>2022-10-29T08:14:53Z</end></TimeSpan><styleUrl>#point</styleUrl><Point><altitudeMode>clampToGround</altitudeMode><coordinates>29.875597106292844,-27.467043399810791,1635.3399999999999</coordinates></Point></Placemark><Placemark><TimeSpan><begin>2022-10-29T08:14:53Z</begin><end>2022-10-29T08:15:21Z</end></TimeSpan><styleUrl>#point</styleUrl><Point><altitudeMode>clampToGround</altitudeMode><coordinates>29.875611187890172,-27.467039879411459,1634.3800000000001</coordinates></Point></Placemark><Placemark><TimeSpan><begin>2022-10-29T08:15:21Z</begin><end>2022-10-29T08:15:48Z</end></TimeSpan><styleUrl>#point</styleUrl><Point><altitudeMode>clampToGround</altitudeMode><coordinates>29.875606829300523,-27.467041471973062,1632.9400000000001</coordinates></Point></Placemark><Placemark><TimeSpan><begin>2022-10-29T08:15:48Z</begin><end>2022-10-29T08:16:11Z</end></TimeSpan><styleUrl>#point</styleUrl><Point><altitudeMode>clampToGround</altitudeMode><coordinates>29.875606577843428,-27.467040214687586,1632.46</coordinates></Point></Placemark><Placemark><TimeSpan><begin>2022-10-29T08:16:11Z</begin><end>2022-10-29T08:16:40Z</end></TimeSpan><styleUrl>#point</styleUrl><Point><altitudeMode>clampToGround</altitudeMode><coordinates>29.875592580065131,-27.467035688459873,1631.01</coordinates></Point></Placemark><Placemark><TimeSpan><begin>2022-10-29T08:16:40Z</begin><end>2022-10-29T08:17:03Z</end></TimeSpan><styleUrl>#point</styleUrl><Point><altitudeMode>clampToGround</altitudeMode><coordinates>29.875593250617385,-27.467036191374063,1631.01</coordinates></Point></Placemark><Placemark><TimeSpan><begin>2022-10-29T08:17:03Z</begin><end>2022-10-29T08:17:30Z</end></TimeSpan><styleUrl>#point</styleUrl><Point><altitudeMode>clampToGround</altitudeMode><coordinates>29.875586545094848,-27.467034934088588,1630.53</coordinates></Point></Placemark><Placemark><TimeSpan><begin>2022-10-29T08:17:30Z</begin><end>2022-10-29T08:17:57Z</end></TimeSpan><styleUrl>#point</styleUrl><Point><altitudeMode>clampToGround</altitudeMode><coordinates>29.875583024695516,-27.467042058706284,1631.49</coordinates></Point></Placemark><Placemark><TimeSpan><begin>2022-10-29T08:17:57Z</begin><end>2022-10-29T08:18:27Z</end></TimeSpan><styleUrl>#point</styleUrl><Point><altitudeMode>clampToGround</altitudeMode><coordinates>29.875583108514547,-27.46703652665019,1632.46</coordinates></Point></Placemark><Placemark><TimeSpan><begin>2022-10-29T08:18:27Z</begin><end>2022-10-29T08:18:55Z</end></TimeSpan><styleUrl>#point</styleUrl><Point><altitudeMode>clampToGround</altitudeMode><coordinates>29.875592160969973,-27.467039963230491,1632.46</coordinates></Point></Placemark><Placemark><TimeSpan><begin>2022-10-29T08:18:55Z</begin><end>2022-10-29T08:19:26Z</end></TimeSpan><styleUrl>#point</styleUrl><Point><altitudeMode>clampToGround</altitudeMode><coordinates>29.875584449619055,-27.467047506943345,1633.9000000000001</coordinates></Point></Placemark><Placemark><TimeSpan><begin>2022-10-29T08:19:26Z</begin><end>2022-10-29T08:20:00Z</end></TimeSpan><styleUrl>#point</styleUrl><Point><altitudeMode>clampToGround</altitudeMode><coordinates>29.87558470107615,-27.467055134475231,1634.3800000000001</coordinates></Point></Placemark><Placemark><TimeSpan><begin>2022-10-29T08:20:00Z</begin><end>2022-10-29T08:20:26Z</end></TimeSpan><styleUrl>#point</styleUrl><Point><altitudeMode>clampToGround</altitudeMode><coordinates>29.875586628913879,-27.46704675257206,1634.8599999999999</coordinates></Point></Placemark><Placemark><TimeSpan><begin>2022-10-29T08:20:26Z</begin><end>2022-10-29T08:21:03Z</end></TimeSpan><styleUrl>#point</styleUrl><Point><altitudeMode>clampToGround</altitudeMode><coordinates>29.875584533438087,-27.467038538306952,1635.8199999999999</coordinates></Point></Placemark><Placemark><TimeSpan><begin>2022-10-29T08:21:03Z</begin><end>2022-10-29T08:21:27Z</end></TimeSpan><styleUrl>#point</styleUrl><Point><altitudeMode>clampToGround</altitudeMode><coordinates>29.875582102686167,-27.467037448659539,1635.8199999999999</coordinates></Point></Placemark><Placemark><TimeSpan><begin>2022-10-29T08:21:27Z</begin><end>2022-10-29T08:21:48Z</end></TimeSpan><styleUrl>#point</styleUrl><Point><altitudeMode>clampToGround</altitudeMode><coordinates>29.875584617257118,-27.467038035392761,1635.3399999999999</coordinates></Point></Placemark><Placemark><TimeSpan><begin>2022-10-29T08:21:48Z</begin><end>2022-10-29T08:22:26Z</end></TimeSpan><styleUrl>#point</styleUrl><Point><altitudeMode>clampToGround</altitudeMode><coordinates>29.875573385506868,-27.467044405639172,1634.3800000000001</coordinates></Point></Placemark><Placemark><TimeSpan><begin>2022-10-29T08:22:26Z</begin><end>2022-10-29T08:22:50Z</end></TimeSpan><styleUrl>#point</styleUrl><Point><altitudeMode>clampToGround</altitudeMode><coordinates>29.875584449619055,-27.467046417295933,1633.4200000000001</coordinates></Point></Placemark><Placemark><TimeSpan><begin>2022-10-29T08:22:50Z</begin><end>2022-10-29T08:23:16Z</end></TimeSpan><styleUrl>#point</styleUrl><Point><altitudeMode>clampToGround</altitudeMode><coordinates>29.875588305294514,-27.467053961008787,1634.8599999999999</coordinates></Point></Placemark><Placemark><TimeSpan><begin>2022-10-29T08:23:16Z</begin><end>2022-10-29T08:23:48Z</end></TimeSpan><styleUrl>#point</styleUrl><Point><altitudeMode>clampToGround</altitudeMode><coordinates>29.875597441568971,-27.467049434781075,1635.3399999999999</coordinates></Point></Placemark><Placemark><TimeSpan><begin>2022-10-29T08:23:48Z</begin><end>2022-10-29T08:24:22Z</end></TimeSpan><styleUrl>#point</styleUrl><Point><altitudeMode>clampToGround</altitudeMode><coordinates>29.875586545094848,-27.467042310163379,1638.22</coordinates></Point></Placemark><Placemark><TimeSpan><begin>2022-10-29T08:24:22Z</begin><end>2022-10-29T08:24:51Z</end></TimeSpan><styleUrl>#point</styleUrl><Point><altitudeMode>clampToGround</altitudeMode><coordinates>29.875589227303863,-27.467043399810791,1636.78</coordinates></Point></Placemark><Placemark><TimeSpan><begin>2022-10-29T08:24:51Z</begin><end>2022-10-29T08:25:15Z</end></TimeSpan><styleUrl>#point</styleUrl><Point><altitudeMode>clampToGround</altitudeMode><coordinates>29.875595010817051,-27.467049937695265,1634.8599999999999</coordinates></Point></Placemark><Placemark><TimeSpan><begin>2022-10-29T08:25:15Z</begin><end>2022-10-29T08:25:45Z</end></TimeSpan><styleUrl>#point</styleUrl><Point><altitudeMode>clampToGround</altitudeMode><coordinates>29.875590316951275,-27.467051614075899,1632.46</coordinates></Point></Placemark><Placemark><TimeSpan><begin>2022-10-29T08:25:45Z</begin><end>2022-10-29T08:26:18Z</end></TimeSpan><styleUrl>#point</styleUrl><Point><altitudeMode>clampToGround</altitudeMode><coordinates>29.875593585893512,-27.467047674581409,1633.4200000000001</coordinates></Point></Placemark><Placemark><TimeSpan><begin>2022-10-29T08:26:18Z</begin><end>2022-10-29T08:26:48Z</end></TimeSpan><styleUrl>#point</styleUrl><Point><altitudeMode>clampToGround</altitudeMode><coordinates>29.875588724389672,-27.467046249657869,1635.3399999999999</coordinates></Point></Placemark><Placemark><TimeSpan><begin>2022-10-29T08:26:48Z</begin><end>2022-10-29T08:27:18Z</end></TimeSpan><styleUrl>#point</styleUrl><Point><altitudeMode>clampToGround</altitudeMode><coordinates>29.875598028302193,-27.467057313770056,1637.74</coordinates></Point></Placemark><Placemark><TimeSpan><begin>2022-10-29T08:27:18Z</begin><end>2022-10-29T08:27:48Z</end></TimeSpan><styleUrl>#point</styleUrl><Point><altitudeMode>clampToGround</altitudeMode><coordinates>29.875601213425398,-27.467055972665548,1636.78</coordinates></Point></Placemark><Placemark><TimeSpan><begin>2022-10-29T08:27:48Z</begin><end>2022-10-29T08:28:20Z</end></TimeSpan><styleUrl>#point</styleUrl><Point><altitudeMode>clampToGround</altitudeMode><coordinates>29.875608589500189,-27.467052787542343,1638.22</coordinates></Point></Placemark><Placemark><TimeSpan><begin>2022-10-29T08:28:20Z</begin><end>2022-10-29T08:28:50Z</end></TimeSpan><styleUrl>#point</styleUrl><Point><altitudeMode>clampToGround</altitudeMode><coordinates>29.875610349699855,-27.467054380103946,1639.1900000000001</coordinates></Point></Placemark><Placemark><TimeSpan><begin>2022-10-29T08:28:50Z</begin><end>2022-10-29T08:29:22Z</end></TimeSpan><styleUrl>#point</styleUrl><Point><altitudeMode>clampToGround</altitudeMode><coordinates>29.875610852614045,-27.467054463922977,1638.7</coordinates></Point></Placemark><Placemark><TimeSpan><begin>2022-10-29T08:29:22Z</begin><end>2022-10-29T08:29:54Z</end></TimeSpan><styleUrl>#point</styleUrl><Point><altitudeMode>clampToGround</altitudeMode><coordinates>29.875596519559622,-27.467047842219472,1637.74</coordinates></Point></Placemark><Placemark><TimeSpan><begin>2022-10-29T08:29:54Z</begin><end>2022-10-29T08:30:22Z</end></TimeSpan><styleUrl>#point</styleUrl><Point><altitudeMode>clampToGround</altitudeMode><coordinates>29.875592496246099,-27.467050105333328,1636.3</coordinates></Point></Placemark><Placemark><TimeSpan><begin>2022-10-29T08:30:22Z</begin><end>2022-10-29T08:30:40Z</end></TimeSpan><styleUrl>#point</styleUrl><Point><altitudeMode>clampToGround</altitudeMode><coordinates>29.875524016097188,-27.467103414237499,1636.78</coordinates></Point></Placemark><Placemark><TimeSpan><begin>2022-10-29T08:30:40Z</begin><end>2022-10-29T08:30:51Z</end></TimeSpan><styleUrl>#point</styleUrl><Point><altitudeMode>clampToGround</altitudeMode><coordinates>29.875290496274829,-27.467226963490248,1636.3</coordinates></Point></Placemark><Placemark><TimeSpan><begin>2022-10-29T08:30:51Z</begin><end>2022-10-29T08:31:09Z</end></TimeSpan><styleUrl>#point</styleUrl><Point><altitudeMode>clampToGround</altitudeMode><coordinates>29.874818176031113,-27.467414466664195,1634.3800000000001</coordinates></Point></Placemark><Placemark><TimeSpan><begin>2022-10-29T08:31:09Z</begin><end>2022-10-29T08:31:20Z</end></TimeSpan><styleUrl>#point</styleUrl><Point><altitudeMode>clampToGround</altitudeMode><coordinates>29.874329678714275,-27.46750557795167,1632.9400000000001</coordinates></Point></Placemark><Placemark><TimeSpan><begin>2022-10-29T08:31:20Z</begin><end>2022-10-29T08:31:31Z</end></TimeSpan><styleUrl>#point</styleUrl><Point><altitudeMode>clampToGround</altitudeMode><coordinates>29.874122394248843,-27.467517564073205,1629.5699999999999</coordinates></Point></Placemark><Placemark><TimeSpan><begin>2022-10-29T08:31:31Z</begin><end>2022-10-29T08:31:58Z</end></TimeSpan><styleUrl>#point</styleUrl><Point><altitudeMode>clampToGround</altitudeMode><coordinates>29.87408903427422,-27.467524604871869,1629.0899999999999</coordinates></Point></Placemark><Placemark><TimeSpan><begin>2022-10-29T08:31:58Z</begin><end>2022-10-29T08:32:05Z</end></TimeSpan><styleUrl>#point</styleUrl><Point><altitudeMode>clampToGround</altitudeMode><coordinates>29.873896250501275,-27.467593252658844,1629.0899999999999</coordinates></Point></Placemark><Placemark><TimeSpan><begin>2022-10-29T08:32:05Z</begin><end>2022-10-29T08:32:17Z</end></TimeSpan><styleUrl>#point</styleUrl><Point><altitudeMode>clampToGround</altitudeMode><coordinates>29.873084127902985,-27.467628289014101,1627.1700000000001</coordinates></Point></Placemark><Placemark><TimeSpan><begin>2022-10-29T08:32:17Z</begin><end>2022-10-29T08:32:18Z</end></TimeSpan><styleUrl>#point</styleUrl><Point><altitudeMode>clampToGround</altitudeMode><coordinates>29.873029813170433,-27.467630384489894,1626.6900000000001</coordinates></Point></Placemark><Placemark><TimeSpan><begin>2022-10-29T08:32:18Z</begin><end>2022-10-29T08:32:27Z</end></TimeSpan><styleUrl>#point</styleUrl><Point><altitudeMode>clampToGround</altitudeMode><coordinates>29.87263385206461,-27.467719484120607,1626.21</coordinates></Point></Placemark><Placemark><TimeSpan><begin>2022-10-29T08:32:27Z</begin><end>2022-10-29T08:32:34Z</end></TimeSpan><styleUrl>#point</styleUrl><Point><altitudeMode>clampToGround</altitudeMode><coordinates>29.872285583987832,-27.467659637331963,1625.73</coordinates></Point></Placemark><Placemark><TimeSpan><begin>2022-10-29T08:32:34Z</begin><end>2022-10-29T08:32:36Z</end></TimeSpan><styleUrl>#point</styleUrl><Point><altitudeMode>clampToGround</altitudeMode><coordinates>29.872178882360458,-27.467687632888556,1625.73</coordinates></Point></Placemark><Placemark><TimeSpan><begin>2022-10-29T08:32:36Z</begin><end>2022-10-29T08:32:42Z</end></TimeSpan><styleUrl>#point</styleUrl><Point><altitudeMode>clampToGround</altitudeMode><coordinates>29.871819633990526,-27.467852337285876,1625.73</coordinates></Point></Placemark><Placemark><TimeSpan><begin>2022-10-29T08:32:42Z</begin><end>2022-10-29T08:32:46Z</end></TimeSpan><styleUrl>#point</styleUrl><Point><altitudeMode>clampToGround</altitudeMode><coordinates>29.871678315103054,-27.46795610524714,1624.77</coordinates></Point></Placemark><Placemark><TimeSpan><begin>2022-10-29T08:32:46Z</begin><end>2022-10-29T08:32:53Z</end></TimeSpan><styleUrl>#point</styleUrl><Point><altitudeMode>clampToGround</altitudeMode><coordinates>29.871259303763509,-27.468311917036772,1624.28</coordinates></Point></Placemark><Placemark><TimeSpan><begin>2022-10-29T08:32:53Z</begin><end>2022-10-29T08:33:05Z</end></TimeSpan><styleUrl>#point</styleUrl><Point><altitudeMode>clampToGround</altitudeMode><coordinates>29.870850685983896,-27.469104509800673,1621.8800000000001</coordinates></Point></Placemark><Placemark><TimeSpan><begin>2022-10-29T08:33:05Z</begin><end>2022-10-29T08:33:16Z</end></TimeSpan><styleUrl>#point</styleUrl><Point><altitudeMode>clampToGround</altitudeMode><coordinates>29.870766699314117,-27.469936329871416,1621.8800000000001</coordinates></Point></Placemark><Placemark><TimeSpan><begin>2022-10-29T08:33:16Z</begin><end>2022-10-29T08:33:25Z</end></TimeSpan><styleUrl>#point</styleUrl><Point><altitudeMode>clampToGround</altitudeMode><coordinates>29.870939701795578,-27.470735544338822,1623.8</coordinates></Point></Placemark><Placemark><TimeSpan><begin>2022-10-29T08:33:25Z</begin><end>2022-10-29T08:33:37Z</end></TimeSpan><styleUrl>#point</styleUrl><Point><altitudeMode>clampToGround</altitudeMode><coordinates>29.87120901234448,-27.471839189529419,1624.77</coordinates></Point></Placemark><Placemark><TimeSpan><begin>2022-10-29T08:33:37Z</begin><end>2022-10-29T08:33:48Z</end></TimeSpan><styleUrl>#point</styleUrl><Point><altitudeMode>clampToGround</altitudeMode><coordinates>29.871408753097057,-27.472693389281631,1619.96</coordinates></Point></Placemark><Placemark><TimeSpan><begin>2022-10-29T08:33:48Z</begin><end>2022-10-29T08:33:58Z</end></TimeSpan><styleUrl>#point</styleUrl><Point><altitudeMode>clampToGround</altitudeMode><coordinates>29.871626179665327,-27.473432002589107,1620.4400000000001</coordinates></Point></Placemark><Placemark><TimeSpan><begin>2022-10-29T08:33:58Z</begin><end>2022-10-29T08:34:08Z</end></TimeSpan><styleUrl>#point</styleUrl><Point><altitudeMode>clampToGround</altitudeMode><coordinates>29.871977213770151,-27.474138345569372,1618.52</coordinates></Point></Placemark><Placemark><TimeSpan><begin>2022-10-29T08:34:08Z</begin><end>2022-10-29T08:34:12Z</end></TimeSpan><styleUrl>#point</styleUrl><Point><altitudeMode>clampToGround</altitudeMode><coordinates>29.872132446616888,-27.47439919039607,1616.1099999999999</coordinates></Point></Placemark><Placemark><TimeSpan><begin>2022-10-29T08:34:12Z</begin><end>2022-10-29T08:34:22Z</end></TimeSpan><styleUrl>#point</styleUrl><Point><altitudeMode>clampToGround</altitudeMode><coordinates>29.872577860951424,-27.474914593622088,1611.3099999999999</coordinates></Point></Placemark><Placemark><TimeSpan><begin>2022-10-29T08:34:22Z</begin><end>2022-10-29T08:34:34Z</end></TimeSpan><styleUrl>#point</styleUrl><Point><altitudeMode>clampToGround</altitudeMode><coordinates>29.873464917764068,-27.475731913000345,1607.46</coordinates></Point></Placemark><Placemark><TimeSpan><begin>2022-10-29T08:34:34Z</begin><end>2022-10-29T08:34:42Z</end></TimeSpan><styleUrl>#point</styleUrl><Point><altitudeMode>clampToGround</altitudeMode><coordinates>29.874125998467207,-27.47629651799798,1606.02</coordinates></Point></Placemark><Placemark><TimeSpan><begin>2022-10-29T08:34:42Z</begin><end>2022-10-29T08:34:50Z</end></TimeSpan><styleUrl>#point</styleUrl><Point><altitudeMode>clampToGround</altitudeMode><coordinates>29.87459035590291,-27.476722234860063,1605.0599999999999</coordinates></Point></Placemark></Folder><Placemark><name>[317] Lang's nek Railway Tunnel</name><Style><LineStyle><color>ff00f0f0</color><width>4</width></LineStyle></Style><MultiGeometry><LineString><coordinates>29.869120744988322,-27.452195109799504,1657.9300000000001 29.86963078379631,-27.452662903815508,1657.9300000000001 29.87024936825037,-27.453220719471574,1656.97 29.871279085054994,-27.454132083803415,1655.05 29.87197863869369,-27.454931382089853,1653.1199999999999 29.872308634221554,-27.455661026760936,1652.6400000000001 29.872677773237228,-27.456399723887444,1652.1600000000001 29.873095862567425,-27.457306226715446,1652.1600000000001 29.873306499794126,-27.457834621891379,1651.6800000000001 29.873365676030517,-27.458004774525762,1652.6400000000001 29.873484196141362,-27.458243072032928,1653.1199999999999 29.873493080958724,-27.458236617967486,1653.1199999999999 29.873483860865235,-27.45824902318418,1653.1199999999999 29.873495763167739,-27.458258494734764,1652.6400000000001 29.873493835330009,-27.458258662372828,1653.5999999999999 29.873480591922998,-27.458257572725415,1652.1600000000001 29.873489225283265,-27.458257572725415,1651.6800000000001 29.873490231111646,-27.458260171115398,1651.6800000000001 29.873481094837189,-27.458258578553796,1650.24 29.873477825894952,-27.458259081467986,1654.5699999999999 29.873472964391112,-27.458248855546117,1655.53 29.873498110100627,-27.45824608951807,1655.53 29.873492661863565,-27.458248939365149,1654.0899999999999 29.873492494225502,-27.458250867202878,1654.5699999999999 29.873506743460894,-27.458243323490024,1654.5699999999999 29.873510180041194,-27.458244329318404,1654.0899999999999 29.873505067080259,-27.458244496956468,1653.1199999999999 29.873488387092948,-27.458245418965816,1652.1600000000001 29.873497691005468,-27.458248604089022,1652.1600000000001 29.873474892228842,-27.458264445886016,1654.5699999999999 29.873472042381763,-27.45826218277216,1653.1199999999999 29.873494086787105,-27.45824902318418,1651.6800000000001 29.873488806188107,-27.45824315585196,1652.6400000000001 29.87348897382617,-27.458239970728755,1654.5699999999999 29.873489644378424,-27.458239048719406,1651.6800000000001 29.873493164777756,-27.458240892738104,1650.24 29.87349534407258,-27.458243574947119,1649.76 29.873492745682597,-27.458246005699039,1650.24 29.873569188639522,-27.458504168316722,1649.76 29.875976471230388,-27.464341912418604,1651.6800000000001 29.876011675223708,-27.464340990409255,1640.1500000000001 29.876026343554258,-27.464317101985216,1640.1500000000001 29.875982422381639,-27.464326238259673,1639.6700000000001 29.875971525907516,-27.464330848306417,1641.1099999999999 29.876041347160935,-27.464525559917092,1642.0699999999999 29.876207308843732,-27.464956138283014,1643.99 29.876308813691139,-27.465307172387838,1643.99 29.876321470364928,-27.465442707762122,1643.03 29.876262042671442,-27.465983340516686,1641.1099999999999 29.876098092645407,-27.466398496180773,1638.7 29.875778323039412,-27.466841815039515,1636.78 29.875588221475482,-27.467029066756368,1636.3 29.875591406598687,-27.467033928260207,1635.8199999999999 29.875586880370975,-27.467040549963713,1637.26 29.875577576458454,-27.467053374275565,1637.74 29.875576486811042,-27.467061504721642,1636.78 29.87558520399034,-27.467047842219472,1634.3800000000001 29.875587550923228,-27.467044154182076,1634.3800000000001 29.875597106292844,-27.467043399810791,1635.3399999999999 29.875611187890172,-27.467039879411459,1634.3800000000001 29.875606829300523,-27.467041471973062,1632.9400000000001 29.875606577843428,-27.467040214687586,1632.46 29.875592580065131,-27.467035688459873,1631.01 29.875593250617385,-27.467036191374063,1631.01 29.875586545094848,-27.467034934088588,1630.53 29.875583024695516,-27.467042058706284,1631.49 29.875583108514547,-27.46703652665019,1632.46 29.875592160969973,-27.467039963230491,1632.46 29.875584449619055,-27.467047506943345,1633.9000000000001 29.87558470107615,-27.467055134475231,1634.3800000000001 29.875586628913879,-27.46704675257206,1634.8599999999999 29.875584533438087,-27.467038538306952,1635.8199999999999 29.875582102686167,-27.467037448659539,1635.8199999999999 29.875584617257118,-27.467038035392761,1635.3399999999999 29.875573385506868,-27.467044405639172,1634.3800000000001 29.875584449619055,-27.467046417295933,1633.4200000000001 29.875588305294514,-27.467053961008787,1634.8599999999999 29.875597441568971,-27.467049434781075,1635.3399999999999 29.875586545094848,-27.467042310163379,1638.22 29.875589227303863,-27.467043399810791,1636.78 29.875595010817051,-27.467049937695265,1634.8599999999999 29.875590316951275,-27.467051614075899,1632.46 29.875593585893512,-27.467047674581409,1633.4200000000001 29.875588724389672,-27.467046249657869,1635.3399999999999 29.875598028302193,-27.467057313770056,1637.74 29.875601213425398,-27.467055972665548,1636.78 29.875608589500189,-27.467052787542343,1638.22 29.875610349699855,-27.467054380103946,1639.1900000000001 29.875610852614045,-27.467054463922977,1638.7 29.875596519559622,-27.467047842219472,1637.74 29.875592496246099,-27.467050105333328,1636.3 29.875524016097188,-27.467103414237499,1636.78 29.875290496274829,-27.467226963490248,1636.3 29.874818176031113,-27.467414466664195,1634.3800000000001 29.874329678714275,-27.46750557795167,1632.9400000000001 29.874122394248843,-27.467517564073205,1629.5699999999999 29.87408903427422,-27.467524604871869,1629.0899999999999 29.873896250501275,-27.467593252658844,1629.0899999999999 29.873084127902985,-27.467628289014101,1627.1700000000001 29.873029813170433,-27.467630384489894,1626.6900000000001 29.87263385206461,-27.467719484120607,1626.21 29.872285583987832,-27.467659637331963,1625.73 29.872178882360458,-27.467687632888556,1625.73 29.871819633990526,-27.467852337285876,1625.73 29.871678315103054,-27.46795610524714,1624.77 29.871259303763509,-27.468311917036772,1624.28 29.870850685983896,-27.469104509800673,1621.8800000000001 29.870766699314117,-27.469936329871416,1621.8800000000001 29.870939701795578,-27.470735544338822,1623.8 29.87120901234448,-27.471839189529419,1624.77 29.871408753097057,-27.472693389281631,1619.96 29.871626179665327,-27.473432002589107,1620.4400000000001 29.871977213770151,-27.474138345569372,1618.52 29.872132446616888,-27.47439919039607,1616.1099999999999 29.872577860951424,-27.474914593622088,1611.3099999999999 29.873464917764068,-27.475731913000345,1607.46 29.874125998467207,-27.47629651799798,1606.02 29.87459035590291,-27.476722234860063,1605.0599999999999 </coordinates></LineString></MultiGeometry></Placemark></Folder></Folder></Document></kml>