<?xml version="1.0" encoding="utf-8"?><kml xmlns="http://www.opengis.net/kml/2.2" xmlns:xsi="http://www.w3.org/2001/XMLSchema-instance" xmlns:kmlx="http://www.google.com/kml/ext/2.2" xmlns:atom="http://www.w3.org/2005/Atom" xmlns:gpxx="http://www.garmin.com/xmlschemas/GpxExtensions/v3"><Document><Style id="point"><IconStyle><scale>0.9</scale><Icon><href>http://maps.google.com/mapfiles/kml/shapes/placemark_circle.png</href></Icon></IconStyle></Style><Folder><name>Tracks</name><Folder><name>[319] Memel to R543 Dirt Road</name><Folder><name>Points</name><Style><ListStyle><listItemType>checkHideChildren</listItemType></ListStyle></Style><Placemark><TimeSpan><begin>2022-10-29T11:08:19Z</begin><end>2022-10-29T11:08:19Z</end></TimeSpan><Style><IconStyle><scale>0.9</scale><Icon><href>http://connect.garmin.com/image/main/icons/kml/grn-play.png</href></Icon></IconStyle></Style><Point><altitudeMode>clampToGround</altitudeMode><coordinates>29.546590726822615,-27.631115214899182,1758.3900000000001</coordinates></Point></Placemark><Placemark><TimeSpan><begin>2022-10-29T11:08:19Z</begin><end>2022-10-29T11:08:20Z</end></TimeSpan><styleUrl>#point</styleUrl><Point><altitudeMode>clampToGround</altitudeMode><coordinates>29.546645963564515,-27.630982864648104,1758.3900000000001</coordinates></Point></Placemark><Placemark><TimeSpan><begin>2022-10-29T11:08:20Z</begin><end>2022-10-29T11:08:21Z</end></TimeSpan><styleUrl>#point</styleUrl><Point><altitudeMode>clampToGround</altitudeMode><coordinates>29.546713521704078,-27.630846993997693,1758.8699999999999</coordinates></Point></Placemark><Placemark><TimeSpan><begin>2022-10-29T11:08:21Z</begin><end>2022-10-29T11:08:22Z</end></TimeSpan><styleUrl>#point</styleUrl><Point><altitudeMode>clampToGround</altitudeMode><coordinates>29.546790635213256,-27.630705591291189,1758.8699999999999</coordinates></Point></Placemark><Placemark><TimeSpan><begin>2022-10-29T11:08:22Z</begin><end>2022-10-29T11:08:34Z</end></TimeSpan><styleUrl>#point</styleUrl><Point><altitudeMode>clampToGround</altitudeMode><coordinates>29.547901153564453,-27.628863751888275,1755.5</coordinates></Point></Placemark><Placemark><TimeSpan><begin>2022-10-29T11:08:34Z</begin><end>2022-10-29T11:08:47Z</end></TimeSpan><styleUrl>#point</styleUrl><Point><altitudeMode>clampToGround</altitudeMode><coordinates>29.549072189256549,-27.626953683793545,1755.02</coordinates></Point></Placemark><Placemark><TimeSpan><begin>2022-10-29T11:08:47Z</begin><end>2022-10-29T11:09:02Z</end></TimeSpan><styleUrl>#point</styleUrl><Point><altitudeMode>clampToGround</altitudeMode><coordinates>29.550479175522923,-27.624651594087481,1761.75</coordinates></Point></Placemark><Placemark><TimeSpan><begin>2022-10-29T11:09:02Z</begin><end>2022-10-29T11:09:14Z</end></TimeSpan><styleUrl>#point</styleUrl><Point><altitudeMode>clampToGround</altitudeMode><coordinates>29.55141669139266,-27.622951827943325,1777.6099999999999</coordinates></Point></Placemark><Placemark><TimeSpan><begin>2022-10-29T11:09:14Z</begin><end>2022-10-29T11:09:23Z</end></TimeSpan><styleUrl>#point</styleUrl><Point><altitudeMode>clampToGround</altitudeMode><coordinates>29.55182321369648,-27.621747432276607,1779.54</coordinates></Point></Placemark><Placemark><TimeSpan><begin>2022-10-29T11:09:23Z</begin><end>2022-10-29T11:09:36Z</end></TimeSpan><styleUrl>#point</styleUrl><Point><altitudeMode>clampToGround</altitudeMode><coordinates>29.552573142573237,-27.619739798828959,1768</coordinates></Point></Placemark><Placemark><TimeSpan><begin>2022-10-29T11:09:36Z</begin><end>2022-10-29T11:09:51Z</end></TimeSpan><styleUrl>#point</styleUrl><Point><altitudeMode>clampToGround</altitudeMode><coordinates>29.553461037576199,-27.617434523999691,1760.79</coordinates></Point></Placemark><Placemark><TimeSpan><begin>2022-10-29T11:09:51Z</begin><end>2022-10-29T11:10:00Z</end></TimeSpan><styleUrl>#point</styleUrl><Point><altitudeMode>clampToGround</altitudeMode><coordinates>29.554128153249621,-27.615716233849525,1757.4300000000001</coordinates></Point></Placemark><Placemark><TimeSpan><begin>2022-10-29T11:10:00Z</begin><end>2022-10-29T11:10:09Z</end></TimeSpan><styleUrl>#point</styleUrl><Point><altitudeMode>clampToGround</altitudeMode><coordinates>29.554651686921716,-27.614345792680979,1755.99</coordinates></Point></Placemark><Placemark><TimeSpan><begin>2022-10-29T11:10:09Z</begin><end>2022-10-29T11:10:19Z</end></TimeSpan><styleUrl>#point</styleUrl><Point><altitudeMode>clampToGround</altitudeMode><coordinates>29.555431287735701,-27.613042239099741,1749.26</coordinates></Point></Placemark><Placemark><TimeSpan><begin>2022-10-29T11:10:19Z</begin><end>2022-10-29T11:10:32Z</end></TimeSpan><styleUrl>#point</styleUrl><Point><altitudeMode>clampToGround</altitudeMode><coordinates>29.556862832978368,-27.61144925840199,1739.1600000000001</coordinates></Point></Placemark><Placemark><TimeSpan><begin>2022-10-29T11:10:32Z</begin><end>2022-10-29T11:10:44Z</end></TimeSpan><styleUrl>#point</styleUrl><Point><altitudeMode>clampToGround</altitudeMode><coordinates>29.558194717392325,-27.609958620741963,1732.9100000000001</coordinates></Point></Placemark><Placemark><TimeSpan><begin>2022-10-29T11:10:44Z</begin><end>2022-10-29T11:10:53Z</end></TimeSpan><styleUrl>#point</styleUrl><Point><altitudeMode>clampToGround</altitudeMode><coordinates>29.559284616261721,-27.608752297237515,1729.0699999999999</coordinates></Point></Placemark><Placemark><TimeSpan><begin>2022-10-29T11:10:53Z</begin><end>2022-10-29T11:11:05Z</end></TimeSpan><styleUrl>#point</styleUrl><Point><altitudeMode>clampToGround</altitudeMode><coordinates>29.561113463714719,-27.606732929125428,1726.1800000000001</coordinates></Point></Placemark><Placemark><TimeSpan><begin>2022-10-29T11:11:05Z</begin><end>2022-10-29T11:11:15Z</end></TimeSpan><styleUrl>#point</styleUrl><Point><altitudeMode>clampToGround</altitudeMode><coordinates>29.562516342848539,-27.605190323665738,1724.74</coordinates></Point></Placemark><Placemark><TimeSpan><begin>2022-10-29T11:11:15Z</begin><end>2022-10-29T11:11:23Z</end></TimeSpan><styleUrl>#point</styleUrl><Point><altitudeMode>clampToGround</altitudeMode><coordinates>29.563448829576373,-27.604105118662119,1722.8199999999999</coordinates></Point></Placemark><Placemark><TimeSpan><begin>2022-10-29T11:11:23Z</begin><end>2022-10-29T11:11:31Z</end></TimeSpan><styleUrl>#point</styleUrl><Point><altitudeMode>clampToGround</altitudeMode><coordinates>29.563950151205063,-27.603069869801402,1720.4200000000001</coordinates></Point></Placemark><Placemark><TimeSpan><begin>2022-10-29T11:11:31Z</begin><end>2022-10-29T11:11:43Z</end></TimeSpan><styleUrl>#point</styleUrl><Point><altitudeMode>clampToGround</altitudeMode><coordinates>29.56470150500536,-27.601137757301331,1718.01</coordinates></Point></Placemark><Placemark><TimeSpan><begin>2022-10-29T11:11:43Z</begin><end>2022-10-29T11:11:56Z</end></TimeSpan><styleUrl>#point</styleUrl><Point><altitudeMode>clampToGround</altitudeMode><coordinates>29.565537264570594,-27.599024763330817,1714.6500000000001</coordinates></Point></Placemark><Placemark><TimeSpan><begin>2022-10-29T11:11:56Z</begin><end>2022-10-29T11:12:05Z</end></TimeSpan><styleUrl>#point</styleUrl><Point><altitudeMode>clampToGround</altitudeMode><coordinates>29.56607504747808,-27.597630685195327,1713.21</coordinates></Point></Placemark><Placemark><TimeSpan><begin>2022-10-29T11:12:05Z</begin><end>2022-10-29T11:12:20Z</end></TimeSpan><styleUrl>#point</styleUrl><Point><altitudeMode>clampToGround</altitudeMode><coordinates>29.567039720714092,-27.595175877213478,1712.25</coordinates></Point></Placemark><Placemark><TimeSpan><begin>2022-10-29T11:12:20Z</begin><end>2022-10-29T11:12:29Z</end></TimeSpan><styleUrl>#point</styleUrl><Point><altitudeMode>clampToGround</altitudeMode><coordinates>29.567538192495704,-27.593921693041921,1710.8</coordinates></Point></Placemark><Placemark><TimeSpan><begin>2022-10-29T11:12:29Z</begin><end>2022-10-29T11:12:36Z</end></TimeSpan><styleUrl>#point</styleUrl><Point><altitudeMode>clampToGround</altitudeMode><coordinates>29.567835414782166,-27.593117784708738,1709.8399999999999</coordinates></Point></Placemark><Placemark><TimeSpan><begin>2022-10-29T11:12:36Z</begin><end>2022-10-29T11:12:46Z</end></TimeSpan><styleUrl>#point</styleUrl><Point><altitudeMode>clampToGround</altitudeMode><coordinates>29.568292312324047,-27.591998800635338,1707.9200000000001</coordinates></Point></Placemark><Placemark><TimeSpan><begin>2022-10-29T11:12:46Z</begin><end>2022-10-29T11:12:54Z</end></TimeSpan><styleUrl>#point</styleUrl><Point><altitudeMode>clampToGround</altitudeMode><coordinates>29.568645190447569,-27.591044018045068,1706.96</coordinates></Point></Placemark><Placemark><TimeSpan><begin>2022-10-29T11:12:54Z</begin><end>2022-10-29T11:13:05Z</end></TimeSpan><styleUrl>#point</styleUrl><Point><altitudeMode>clampToGround</altitudeMode><coordinates>29.569171741604805,-27.589741973206401,1706</coordinates></Point></Placemark><Placemark><TimeSpan><begin>2022-10-29T11:13:05Z</begin><end>2022-10-29T11:13:12Z</end></TimeSpan><styleUrl>#point</styleUrl><Point><altitudeMode>clampToGround</altitudeMode><coordinates>29.569406770169735,-27.589121963828802,1706</coordinates></Point></Placemark><Placemark><TimeSpan><begin>2022-10-29T11:13:12Z</begin><end>2022-10-29T11:13:18Z</end></TimeSpan><styleUrl>#point</styleUrl><Point><altitudeMode>clampToGround</altitudeMode><coordinates>29.569785380735993,-27.588172629475594,1705.52</coordinates></Point></Placemark><Placemark><TimeSpan><begin>2022-10-29T11:13:18Z</begin><end>2022-10-29T11:13:27Z</end></TimeSpan><styleUrl>#point</styleUrl><Point><altitudeMode>clampToGround</altitudeMode><coordinates>29.570531789213419,-27.586275972425938,1705.52</coordinates></Point></Placemark><Placemark><TimeSpan><begin>2022-10-29T11:13:27Z</begin><end>2022-10-29T11:13:34Z</end></TimeSpan><styleUrl>#point</styleUrl><Point><altitudeMode>clampToGround</altitudeMode><coordinates>29.571030596271157,-27.584986332803965,1705.52</coordinates></Point></Placemark><Placemark><TimeSpan><begin>2022-10-29T11:13:34Z</begin><end>2022-10-29T11:13:46Z</end></TimeSpan><styleUrl>#point</styleUrl><Point><altitudeMode>clampToGround</altitudeMode><coordinates>29.5716293156147,-27.583441380411386,1703.5899999999999</coordinates></Point></Placemark><Placemark><TimeSpan><begin>2022-10-29T11:13:46Z</begin><end>2022-10-29T11:13:53Z</end></TimeSpan><styleUrl>#point</styleUrl><Point><altitudeMode>clampToGround</altitudeMode><coordinates>29.57205637358129,-27.582345446571708,1701.6700000000001</coordinates></Point></Placemark><Placemark><TimeSpan><begin>2022-10-29T11:13:53Z</begin><end>2022-10-29T11:14:00Z</end></TimeSpan><styleUrl>#point</styleUrl><Point><altitudeMode>clampToGround</altitudeMode><coordinates>29.572381759062409,-27.581551345065236,1701.1900000000001</coordinates></Point></Placemark><Placemark><TimeSpan><begin>2022-10-29T11:14:00Z</begin><end>2022-10-29T11:14:07Z</end></TimeSpan><styleUrl>#point</styleUrl><Point><altitudeMode>clampToGround</altitudeMode><coordinates>29.57274092361331,-27.580593544989824,1700.23</coordinates></Point></Placemark><Placemark><TimeSpan><begin>2022-10-29T11:14:07Z</begin><end>2022-10-29T11:14:13Z</end></TimeSpan><styleUrl>#point</styleUrl><Point><altitudeMode>clampToGround</altitudeMode><coordinates>29.573242161422968,-27.579317232593894,1700.23</coordinates></Point></Placemark><Placemark><TimeSpan><begin>2022-10-29T11:14:13Z</begin><end>2022-10-29T11:14:22Z</end></TimeSpan><styleUrl>#point</styleUrl><Point><altitudeMode>clampToGround</altitudeMode><coordinates>29.573984295129776,-27.577437590807676,1702.1500000000001</coordinates></Point></Placemark><Placemark><TimeSpan><begin>2022-10-29T11:14:22Z</begin><end>2022-10-29T11:14:33Z</end></TimeSpan><styleUrl>#point</styleUrl><Point><altitudeMode>clampToGround</altitudeMode><coordinates>29.574765907600522,-27.575274053961039,1700.71</coordinates></Point></Placemark><Placemark><TimeSpan><begin>2022-10-29T11:14:33Z</begin><end>2022-10-29T11:14:47Z</end></TimeSpan><styleUrl>#point</styleUrl><Point><altitudeMode>clampToGround</altitudeMode><coordinates>29.575517093762755,-27.572872135788202,1697.8299999999999</coordinates></Point></Placemark><Placemark><TimeSpan><begin>2022-10-29T11:14:47Z</begin><end>2022-10-29T11:14:58Z</end></TimeSpan><styleUrl>#point</styleUrl><Point><altitudeMode>clampToGround</altitudeMode><coordinates>29.576070802286267,-27.571062734350562,1695.9000000000001</coordinates></Point></Placemark><Placemark><TimeSpan><begin>2022-10-29T11:14:58Z</begin><end>2022-10-29T11:15:02Z</end></TimeSpan><styleUrl>#point</styleUrl><Point><altitudeMode>clampToGround</altitudeMode><coordinates>29.576170714572072,-27.570604328066111,1694.9400000000001</coordinates></Point></Placemark><Placemark><TimeSpan><begin>2022-10-29T11:15:02Z</begin><end>2022-10-29T11:15:03Z</end></TimeSpan><styleUrl>#point</styleUrl><Point><altitudeMode>clampToGround</altitudeMode><coordinates>29.576159734278917,-27.570506846532226,1694.9400000000001</coordinates></Point></Placemark><Placemark><TimeSpan><begin>2022-10-29T11:15:03Z</begin><end>2022-10-29T11:15:04Z</end></TimeSpan><styleUrl>#point</styleUrl><Point><altitudeMode>clampToGround</altitudeMode><coordinates>29.576131319627166,-27.570418165996671,1694.46</coordinates></Point></Placemark><Placemark><TimeSpan><begin>2022-10-29T11:15:04Z</begin><end>2022-10-29T11:15:05Z</end></TimeSpan><styleUrl>#point</styleUrl><Point><altitudeMode>clampToGround</altitudeMode><coordinates>29.576087146997452,-27.570340549573302,1693.98</coordinates></Point></Placemark><Placemark><TimeSpan><begin>2022-10-29T11:15:05Z</begin><end>2022-10-29T11:15:06Z</end></TimeSpan><styleUrl>#point</styleUrl><Point><altitudeMode>clampToGround</altitudeMode><coordinates>29.576022019609809,-27.570267375558615,1693.98</coordinates></Point></Placemark><Placemark><TimeSpan><begin>2022-10-29T11:15:06Z</begin><end>2022-10-29T11:15:07Z</end></TimeSpan><styleUrl>#point</styleUrl><Point><altitudeMode>clampToGround</altitudeMode><coordinates>29.575935853645205,-27.570199063047767,1693.98</coordinates></Point></Placemark><Placemark><TimeSpan><begin>2022-10-29T11:15:07Z</begin><end>2022-10-29T11:15:08Z</end></TimeSpan><styleUrl>#point</styleUrl><Point><altitudeMode>clampToGround</altitudeMode><coordinates>29.575833845883608,-27.570137707516551,1693.98</coordinates></Point></Placemark><Placemark><TimeSpan><begin>2022-10-29T11:15:08Z</begin><end>2022-10-29T11:15:09Z</end></TimeSpan><styleUrl>#point</styleUrl><Point><altitudeMode>clampToGround</altitudeMode><coordinates>29.575725132599473,-27.570083057507873,1693.98</coordinates></Point></Placemark><Placemark><TimeSpan><begin>2022-10-29T11:15:09Z</begin><end>2022-10-29T11:15:14Z</end></TimeSpan><styleUrl>#point</styleUrl><Point><altitudeMode>clampToGround</altitudeMode><coordinates>29.575293716043234,-27.56985817104578,1693.98</coordinates></Point></Placemark><Placemark><TimeSpan><begin>2022-10-29T11:15:14Z</begin><end>2022-10-29T11:15:15Z</end></TimeSpan><styleUrl>#point</styleUrl><Point><altitudeMode>clampToGround</altitudeMode><coordinates>29.57523194141686,-27.569795474410057,1693.98</coordinates></Point></Placemark><Placemark><TimeSpan><begin>2022-10-29T11:15:15Z</begin><end>2022-10-29T11:15:16Z</end></TimeSpan><styleUrl>#point</styleUrl><Point><altitudeMode>clampToGround</altitudeMode><coordinates>29.575180476531386,-27.569718109443784,1693.98</coordinates></Point></Placemark><Placemark><TimeSpan><begin>2022-10-29T11:15:16Z</begin><end>2022-10-29T11:15:17Z</end></TimeSpan><styleUrl>#point</styleUrl><Point><altitudeMode>clampToGround</altitudeMode><coordinates>29.575137309730053,-27.569624315947294,1694.46</coordinates></Point></Placemark><Placemark><TimeSpan><begin>2022-10-29T11:15:17Z</begin><end>2022-10-29T11:15:18Z</end></TimeSpan><styleUrl>#point</styleUrl><Point><altitudeMode>clampToGround</altitudeMode><coordinates>29.575104955583811,-27.569513004273176,1694.46</coordinates></Point></Placemark><Placemark><TimeSpan><begin>2022-10-29T11:15:18Z</begin><end>2022-10-29T11:15:19Z</end></TimeSpan><styleUrl>#point</styleUrl><Point><altitudeMode>clampToGround</altitudeMode><coordinates>29.575081821531057,-27.569383755326271,1694.46</coordinates></Point></Placemark><Placemark><TimeSpan><begin>2022-10-29T11:15:19Z</begin><end>2022-10-29T11:15:20Z</end></TimeSpan><styleUrl>#point</styleUrl><Point><altitudeMode>clampToGround</altitudeMode><coordinates>29.575066985562444,-27.569231791421771,1694.46</coordinates></Point></Placemark><Placemark><TimeSpan><begin>2022-10-29T11:15:20Z</begin><end>2022-10-29T11:15:28Z</end></TimeSpan><styleUrl>#point</styleUrl><Point><altitudeMode>clampToGround</altitudeMode><coordinates>29.575003618374467,-27.567895464599133,1694.46</coordinates></Point></Placemark><Placemark><TimeSpan><begin>2022-10-29T11:15:28Z</begin><end>2022-10-29T11:15:34Z</end></TimeSpan><styleUrl>#point</styleUrl><Point><altitudeMode>clampToGround</altitudeMode><coordinates>29.574529035016894,-27.566846888512373,1694.46</coordinates></Point></Placemark><Placemark><TimeSpan><begin>2022-10-29T11:15:34Z</begin><end>2022-10-29T11:15:43Z</end></TimeSpan><styleUrl>#point</styleUrl><Point><altitudeMode>clampToGround</altitudeMode><coordinates>29.57351884804666,-27.564980154857039,1701.6700000000001</coordinates></Point></Placemark><Placemark><TimeSpan><begin>2022-10-29T11:15:43Z</begin><end>2022-10-29T11:15:51Z</end></TimeSpan><styleUrl>#point</styleUrl><Point><altitudeMode>clampToGround</altitudeMode><coordinates>29.572771098464727,-27.563516590744257,1710.8</coordinates></Point></Placemark><Placemark><TimeSpan><begin>2022-10-29T11:15:51Z</begin><end>2022-10-29T11:15:58Z</end></TimeSpan><styleUrl>#point</styleUrl><Point><altitudeMode>clampToGround</altitudeMode><coordinates>29.572529532015324,-27.562312027439475,1714.6500000000001</coordinates></Point></Placemark><Placemark><TimeSpan><begin>2022-10-29T11:15:58Z</begin><end>2022-10-29T11:16:06Z</end></TimeSpan><styleUrl>#point</styleUrl><Point><altitudeMode>clampToGround</altitudeMode><coordinates>29.572646878659725,-27.560583427548409,1715.6099999999999</coordinates></Point></Placemark><Placemark><TimeSpan><begin>2022-10-29T11:16:06Z</begin><end>2022-10-29T11:16:17Z</end></TimeSpan><styleUrl>#point</styleUrl><Point><altitudeMode>clampToGround</altitudeMode><coordinates>29.572936724871397,-27.558317380025983,1716.0899999999999</coordinates></Point></Placemark><Placemark><TimeSpan><begin>2022-10-29T11:16:17Z</begin><end>2022-10-29T11:16:28Z</end></TimeSpan><styleUrl>#point</styleUrl><Point><altitudeMode>clampToGround</altitudeMode><coordinates>29.573630997911096,-27.556251240894198,1716.0899999999999</coordinates></Point></Placemark><Placemark><TimeSpan><begin>2022-10-29T11:16:28Z</begin><end>2022-10-29T11:16:39Z</end></TimeSpan><styleUrl>#point</styleUrl><Point><altitudeMode>clampToGround</altitudeMode><coordinates>29.574307501316071,-27.554422561079264,1715.6099999999999</coordinates></Point></Placemark><Placemark><TimeSpan><begin>2022-10-29T11:16:39Z</begin><end>2022-10-29T11:16:50Z</end></TimeSpan><styleUrl>#point</styleUrl><Point><altitudeMode>clampToGround</altitudeMode><coordinates>29.57498517818749,-27.552550379186869,1711.28</coordinates></Point></Placemark><Placemark><TimeSpan><begin>2022-10-29T11:16:50Z</begin><end>2022-10-29T11:17:04Z</end></TimeSpan><styleUrl>#point</styleUrl><Point><altitudeMode>clampToGround</altitudeMode><coordinates>29.575903415679932,-27.550032623112202,1710.3199999999999</coordinates></Point></Placemark><Placemark><TimeSpan><begin>2022-10-29T11:17:04Z</begin><end>2022-10-29T11:17:11Z</end></TimeSpan><styleUrl>#point</styleUrl><Point><altitudeMode>clampToGround</altitudeMode><coordinates>29.576210947707295,-27.54884566180408,1709.3599999999999</coordinates></Point></Placemark><Placemark><TimeSpan><begin>2022-10-29T11:17:11Z</begin><end>2022-10-29T11:17:19Z</end></TimeSpan><styleUrl>#point</styleUrl><Point><altitudeMode>clampToGround</altitudeMode><coordinates>29.576035095378757,-27.547541689127684,1707.9200000000001</coordinates></Point></Placemark><Placemark><TimeSpan><begin>2022-10-29T11:17:19Z</begin><end>2022-10-29T11:17:31Z</end></TimeSpan><styleUrl>#point</styleUrl><Point><altitudeMode>clampToGround</altitudeMode><coordinates>29.575687749311328,-27.545504048466682,1702.6300000000001</coordinates></Point></Placemark><Placemark><TimeSpan><begin>2022-10-29T11:17:31Z</begin><end>2022-10-29T11:17:45Z</end></TimeSpan><styleUrl>#point</styleUrl><Point><altitudeMode>clampToGround</altitudeMode><coordinates>29.575293799862266,-27.543293740600348,1696.8599999999999</coordinates></Point></Placemark><Placemark><TimeSpan><begin>2022-10-29T11:17:45Z</begin><end>2022-10-29T11:17:59Z</end></TimeSpan><styleUrl>#point</styleUrl><Point><altitudeMode>clampToGround</altitudeMode><coordinates>29.574932875111699,-27.541557010263205,1693.98</coordinates></Point></Placemark><Placemark><TimeSpan><begin>2022-10-29T11:17:59Z</begin><end>2022-10-29T11:18:09Z</end></TimeSpan><styleUrl>#point</styleUrl><Point><altitudeMode>clampToGround</altitudeMode><coordinates>29.574603047221899,-27.540207523852587,1694.9400000000001</coordinates></Point></Placemark><Placemark><TimeSpan><begin>2022-10-29T11:18:09Z</begin><end>2022-10-29T11:18:22Z</end></TimeSpan><styleUrl>#point</styleUrl><Point><altitudeMode>clampToGround</altitudeMode><coordinates>29.574121590703726,-27.538172146305442,1706.48</coordinates></Point></Placemark><Placemark><TimeSpan><begin>2022-10-29T11:18:22Z</begin><end>2022-10-29T11:18:35Z</end></TimeSpan><styleUrl>#point</styleUrl><Point><altitudeMode>clampToGround</altitudeMode><coordinates>29.573708614334464,-27.536363666877151,1721.3800000000001</coordinates></Point></Placemark><Placemark><TimeSpan><begin>2022-10-29T11:18:35Z</begin><end>2022-10-29T11:18:44Z</end></TimeSpan><styleUrl>#point</styleUrl><Point><altitudeMode>clampToGround</altitudeMode><coordinates>29.573474507778883,-27.535142172127962,1737.24</coordinates></Point></Placemark><Placemark><TimeSpan><begin>2022-10-29T11:18:44Z</begin><end>2022-10-29T11:18:53Z</end></TimeSpan><styleUrl>#point</styleUrl><Point><altitudeMode>clampToGround</altitudeMode><coordinates>29.573252806439996,-27.533939871937037,1748.78</coordinates></Point></Placemark><Placemark><TimeSpan><begin>2022-10-29T11:18:53Z</begin><end>2022-10-29T11:18:55Z</end></TimeSpan><styleUrl>#point</styleUrl><Point><altitudeMode>clampToGround</altitudeMode><coordinates>29.57325104624033,-27.53368548117578,1750.22</coordinates></Point></Placemark><Placemark><TimeSpan><begin>2022-10-29T11:18:55Z</begin><end>2022-10-29T11:18:56Z</end></TimeSpan><styleUrl>#point</styleUrl><Point><altitudeMode>clampToGround</altitudeMode><coordinates>29.573269067332149,-27.533558243885636,1751.1800000000001</coordinates></Point></Placemark><Placemark><TimeSpan><begin>2022-10-29T11:18:56Z</begin><end>2022-10-29T11:19:04Z</end></TimeSpan><styleUrl>#point</styleUrl><Point><altitudeMode>clampToGround</altitudeMode><coordinates>29.57356620579958,-27.532346472144127,1749.74</coordinates></Point></Placemark><Placemark><TimeSpan><begin>2022-10-29T11:19:04Z</begin><end>2022-10-29T11:19:15Z</end></TimeSpan><styleUrl>#point</styleUrl><Point><altitudeMode>clampToGround</altitudeMode><coordinates>29.573951018974185,-27.530860528349876,1739.1600000000001</coordinates></Point></Placemark><Placemark><TimeSpan><begin>2022-10-29T11:19:15Z</begin><end>2022-10-29T11:19:25Z</end></TimeSpan><styleUrl>#point</styleUrl><Point><altitudeMode>clampToGround</altitudeMode><coordinates>29.574342370033264,-27.529393695294857,1729.55</coordinates></Point></Placemark><Placemark><TimeSpan><begin>2022-10-29T11:19:25Z</begin><end>2022-10-29T11:19:43Z</end></TimeSpan><styleUrl>#point</styleUrl><Point><altitudeMode>clampToGround</altitudeMode><coordinates>29.575055921450257,-27.526682736352086,1716.5699999999999</coordinates></Point></Placemark><Placemark><TimeSpan><begin>2022-10-29T11:19:43Z</begin><end>2022-10-29T11:19:54Z</end></TimeSpan><styleUrl>#point</styleUrl><Point><altitudeMode>clampToGround</altitudeMode><coordinates>29.575482308864594,-27.525018844753504,1714.6500000000001</coordinates></Point></Placemark><Placemark><TimeSpan><begin>2022-10-29T11:19:54Z</begin><end>2022-10-29T11:20:04Z</end></TimeSpan><styleUrl>#point</styleUrl><Point><altitudeMode>clampToGround</altitudeMode><coordinates>29.575889585539699,-27.523459643125534,1715.6099999999999</coordinates></Point></Placemark><Placemark><TimeSpan><begin>2022-10-29T11:20:04Z</begin><end>2022-10-29T11:20:14Z</end></TimeSpan><styleUrl>#point</styleUrl><Point><altitudeMode>clampToGround</altitudeMode><coordinates>29.576310189440846,-27.521827183663845,1719.9400000000001</coordinates></Point></Placemark><Placemark><TimeSpan><begin>2022-10-29T11:20:14Z</begin><end>2022-10-29T11:20:26Z</end></TimeSpan><styleUrl>#point</styleUrl><Point><altitudeMode>clampToGround</altitudeMode><coordinates>29.576836740598083,-27.519784681499004,1731.47</coordinates></Point></Placemark><Placemark><TimeSpan><begin>2022-10-29T11:20:26Z</begin><end>2022-10-29T11:20:34Z</end></TimeSpan><styleUrl>#point</styleUrl><Point><altitudeMode>clampToGround</altitudeMode><coordinates>29.577134884893894,-27.51865672878921,1736.76</coordinates></Point></Placemark><Placemark><TimeSpan><begin>2022-10-29T11:20:34Z</begin><end>2022-10-29T11:20:46Z</end></TimeSpan><styleUrl>#point</styleUrl><Point><altitudeMode>clampToGround</altitudeMode><coordinates>29.577620532363653,-27.516843723133206,1744.9300000000001</coordinates></Point></Placemark><Placemark><TimeSpan><begin>2022-10-29T11:20:46Z</begin><end>2022-10-29T11:20:52Z</end></TimeSpan><styleUrl>#point</styleUrl><Point><altitudeMode>clampToGround</altitudeMode><coordinates>29.57771466113627,-27.51642907038331,1746.3699999999999</coordinates></Point></Placemark><Placemark><TimeSpan><begin>2022-10-29T11:20:52Z</begin><end>2022-10-29T11:21:00Z</end></TimeSpan><styleUrl>#point</styleUrl><Point><altitudeMode>clampToGround</altitudeMode><coordinates>29.577720360830426,-27.516387915238738,1746.8499999999999</coordinates></Point></Placemark><Placemark><TimeSpan><begin>2022-10-29T11:21:00Z</begin><end>2022-10-29T11:21:05Z</end></TimeSpan><styleUrl>#point</styleUrl><Point><altitudeMode>clampToGround</altitudeMode><coordinates>29.577816417440772,-27.516013160347939,1746.3699999999999</coordinates></Point></Placemark><Placemark><TimeSpan><begin>2022-10-29T11:21:05Z</begin><end>2022-10-29T11:21:13Z</end></TimeSpan><styleUrl>#point</styleUrl><Point><altitudeMode>clampToGround</altitudeMode><coordinates>29.57809142768383,-27.514860229566693,1742.05</coordinates></Point></Placemark><Placemark><TimeSpan><begin>2022-10-29T11:21:13Z</begin><end>2022-10-29T11:21:21Z</end></TimeSpan><styleUrl>#point</styleUrl><Point><altitudeMode>clampToGround</altitudeMode><coordinates>29.578023534268141,-27.51367561519146,1737.72</coordinates></Point></Placemark><Placemark><TimeSpan><begin>2022-10-29T11:21:21Z</begin><end>2022-10-29T11:21:29Z</end></TimeSpan><styleUrl>#point</styleUrl><Point><altitudeMode>clampToGround</altitudeMode><coordinates>29.577413918450475,-27.512432746589184,1736.28</coordinates></Point></Placemark><Placemark><TimeSpan><begin>2022-10-29T11:21:29Z</begin><end>2022-10-29T11:21:40Z</end></TimeSpan><styleUrl>#point</styleUrl><Point><altitudeMode>clampToGround</altitudeMode><coordinates>29.576526610180736,-27.510626362636685,1732.9100000000001</coordinates></Point></Placemark><Placemark><TimeSpan><begin>2022-10-29T11:21:40Z</begin><end>2022-10-29T11:21:48Z</end></TimeSpan><styleUrl>#point</styleUrl><Point><altitudeMode>clampToGround</altitudeMode><coordinates>29.576374813914299,-27.509255167096853,1729.0699999999999</coordinates></Point></Placemark><Placemark><TimeSpan><begin>2022-10-29T11:21:48Z</begin><end>2022-10-29T11:21:59Z</end></TimeSpan><styleUrl>#point</styleUrl><Point><altitudeMode>clampToGround</altitudeMode><coordinates>29.576278505846858,-27.507482981309295,1724.74</coordinates></Point></Placemark><Placemark><TimeSpan><begin>2022-10-29T11:21:59Z</begin><end>2022-10-29T11:22:14Z</end></TimeSpan><styleUrl>#point</styleUrl><Point><altitudeMode>clampToGround</altitudeMode><coordinates>29.576152022927999,-27.505088858306408,1720.9000000000001</coordinates></Point></Placemark><Placemark><TimeSpan><begin>2022-10-29T11:22:14Z</begin><end>2022-10-29T11:22:24Z</end></TimeSpan><styleUrl>#point</styleUrl><Point><altitudeMode>clampToGround</altitudeMode><coordinates>29.576110783964396,-27.503831656649709,1719.9400000000001</coordinates></Point></Placemark><Placemark><TimeSpan><begin>2022-10-29T11:22:24Z</begin><end>2022-10-29T11:22:31Z</end></TimeSpan><styleUrl>#point</styleUrl><Point><altitudeMode>clampToGround</altitudeMode><coordinates>29.576446898281574,-27.502696244046092,1718.49</coordinates></Point></Placemark><Placemark><TimeSpan><begin>2022-10-29T11:22:31Z</begin><end>2022-10-29T11:22:45Z</end></TimeSpan><styleUrl>#point</styleUrl><Point><altitudeMode>clampToGround</altitudeMode><coordinates>29.577248878777027,-27.500294828787446,1713.6900000000001</coordinates></Point></Placemark><Placemark><TimeSpan><begin>2022-10-29T11:22:45Z</begin><end>2022-10-29T11:23:01Z</end></TimeSpan><styleUrl>#point</styleUrl><Point><altitudeMode>clampToGround</altitudeMode><coordinates>29.578184047713876,-27.497441293671727,1709.8399999999999</coordinates></Point></Placemark><Placemark><TimeSpan><begin>2022-10-29T11:23:01Z</begin><end>2022-10-29T11:23:17Z</end></TimeSpan><styleUrl>#point</styleUrl><Point><altitudeMode>clampToGround</altitudeMode><coordinates>29.579114774242043,-27.494541322812438,1706.96</coordinates></Point></Placemark><Placemark><TimeSpan><begin>2022-10-29T11:23:17Z</begin><end>2022-10-29T11:23:28Z</end></TimeSpan><styleUrl>#point</styleUrl><Point><altitudeMode>clampToGround</altitudeMode><coordinates>29.579795468598604,-27.492502089589834,1706</coordinates></Point></Placemark><Placemark><TimeSpan><begin>2022-10-29T11:23:28Z</begin><end>2022-10-29T11:23:36Z</end></TimeSpan><styleUrl>#point</styleUrl><Point><altitudeMode>clampToGround</altitudeMode><coordinates>29.580371137708426,-27.490729736164212,1704.0699999999999</coordinates></Point></Placemark><Placemark><TimeSpan><begin>2022-10-29T11:23:36Z</begin><end>2022-10-29T11:23:44Z</end></TimeSpan><styleUrl>#point</styleUrl><Point><altitudeMode>clampToGround</altitudeMode><coordinates>29.580841027200222,-27.489305902272463,1701.6700000000001</coordinates></Point></Placemark><Placemark><TimeSpan><begin>2022-10-29T11:23:44Z</begin><end>2022-10-29T11:23:52Z</end></TimeSpan><styleUrl>#point</styleUrl><Point><altitudeMode>clampToGround</altitudeMode><coordinates>29.581447541713715,-27.487459871917963,1698.79</coordinates></Point></Placemark><Placemark><TimeSpan><begin>2022-10-29T11:23:52Z</begin><end>2022-10-29T11:23:59Z</end></TimeSpan><styleUrl>#point</styleUrl><Point><altitudeMode>clampToGround</altitudeMode><coordinates>29.581860853359103,-27.486182805150747,1695.9000000000001</coordinates></Point></Placemark><Placemark><TimeSpan><begin>2022-10-29T11:23:59Z</begin><end>2022-10-29T11:24:02Z</end></TimeSpan><styleUrl>#point</styleUrl><Point><altitudeMode>clampToGround</altitudeMode><coordinates>29.582032263278961,-27.485769912600517,1693.98</coordinates></Point></Placemark><Placemark><TimeSpan><begin>2022-10-29T11:24:02Z</begin><end>2022-10-29T11:24:03Z</end></TimeSpan><styleUrl>#point</styleUrl><Point><altitudeMode>clampToGround</altitudeMode><coordinates>29.58210744895041,-27.485657343640924,1693.5</coordinates></Point></Placemark><Placemark><TimeSpan><begin>2022-10-29T11:24:03Z</begin><end>2022-10-29T11:24:04Z</end></TimeSpan><styleUrl>#point</styleUrl><Point><altitudeMode>clampToGround</altitudeMode><coordinates>29.582200236618519,-27.485556844621897,1693.02</coordinates></Point></Placemark><Placemark><TimeSpan><begin>2022-10-29T11:24:04Z</begin><end>2022-10-29T11:24:05Z</end></TimeSpan><styleUrl>#point</styleUrl><Point><altitudeMode>clampToGround</altitudeMode><coordinates>29.582310039550066,-27.485465900972486,1692.54</coordinates></Point></Placemark><Placemark><TimeSpan><begin>2022-10-29T11:24:05Z</begin><end>2022-10-29T11:24:06Z</end></TimeSpan><styleUrl>#point</styleUrl><Point><altitudeMode>clampToGround</altitudeMode><coordinates>29.582430319860578,-27.485386608168483,1692.54</coordinates></Point></Placemark><Placemark><TimeSpan><begin>2022-10-29T11:24:06Z</begin><end>2022-10-29T11:24:07Z</end></TimeSpan><styleUrl>#point</styleUrl><Point><altitudeMode>clampToGround</altitudeMode><coordinates>29.582555713132024,-27.485322235152125,1692.0599999999999</coordinates></Point></Placemark><Placemark><TimeSpan><begin>2022-10-29T11:24:07Z</begin><end>2022-10-29T11:24:08Z</end></TimeSpan><styleUrl>#point</styleUrl><Point><altitudeMode>clampToGround</altitudeMode><coordinates>29.582685548812151,-27.485271524637938,1691.5799999999999</coordinates></Point></Placemark><Placemark><TimeSpan><begin>2022-10-29T11:24:08Z</begin><end>2022-10-29T11:24:09Z</end></TimeSpan><styleUrl>#point</styleUrl><Point><altitudeMode>clampToGround</altitudeMode><coordinates>29.58282183855772,-27.485234644263983,1691.0999999999999</coordinates></Point></Placemark><Placemark><TimeSpan><begin>2022-10-29T11:24:09Z</begin><end>2022-10-29T11:24:10Z</end></TimeSpan><styleUrl>#point</styleUrl><Point><altitudeMode>clampToGround</altitudeMode><coordinates>29.582966091111302,-27.485211510211229,1690.6199999999999</coordinates></Point></Placemark><Placemark><TimeSpan><begin>2022-10-29T11:24:10Z</begin><end>2022-10-29T11:24:11Z</end></TimeSpan><styleUrl>#point</styleUrl><Point><altitudeMode>clampToGround</altitudeMode><coordinates>29.583130544051528,-27.485201116651297,1690.1400000000001</coordinates></Point></Placemark><Placemark><TimeSpan><begin>2022-10-29T11:24:11Z</begin><end>2022-10-29T11:24:12Z</end></TimeSpan><styleUrl>#point</styleUrl><Point><altitudeMode>clampToGround</altitudeMode><coordinates>29.583287285640836,-27.485203295946121,1689.6500000000001</coordinates></Point></Placemark><Placemark><TimeSpan><begin>2022-10-29T11:24:12Z</begin><end>2022-10-29T11:24:13Z</end></TimeSpan><styleUrl>#point</styleUrl><Point><altitudeMode>clampToGround</altitudeMode><coordinates>29.583466993644834,-27.485216120257974,1689.1700000000001</coordinates></Point></Placemark><Placemark><TimeSpan><begin>2022-10-29T11:24:13Z</begin><end>2022-10-29T11:24:14Z</end></TimeSpan><styleUrl>#point</styleUrl><Point><altitudeMode>clampToGround</altitudeMode><coordinates>29.583659023046494,-27.485238332301378,1688.6900000000001</coordinates></Point></Placemark><Placemark><TimeSpan><begin>2022-10-29T11:24:14Z</begin><end>2022-10-29T11:24:20Z</end></TimeSpan><styleUrl>#point</styleUrl><Point><altitudeMode>clampToGround</altitudeMode><coordinates>29.584663091227412,-27.485306309536099,1684.8499999999999</coordinates></Point></Placemark><Placemark><TimeSpan><begin>2022-10-29T11:24:20Z</begin><end>2022-10-29T11:24:21Z</end></TimeSpan><styleUrl>#point</styleUrl><Point><altitudeMode>clampToGround</altitudeMode><coordinates>29.584811367094517,-27.485283762216568,1684.3699999999999</coordinates></Point></Placemark><Placemark><TimeSpan><begin>2022-10-29T11:24:21Z</begin><end>2022-10-29T11:24:22Z</end></TimeSpan><styleUrl>#point</styleUrl><Point><altitudeMode>clampToGround</altitudeMode><coordinates>29.584960481151938,-27.485249899327755,1683.8900000000001</coordinates></Point></Placemark><Placemark><TimeSpan><begin>2022-10-29T11:24:22Z</begin><end>2022-10-29T11:24:23Z</end></TimeSpan><styleUrl>#point</styleUrl><Point><altitudeMode>clampToGround</altitudeMode><coordinates>29.585107667371631,-27.485205391421914,1683.4100000000001</coordinates></Point></Placemark><Placemark><TimeSpan><begin>2022-10-29T11:24:23Z</begin><end>2022-10-29T11:24:24Z</end></TimeSpan><styleUrl>#point</styleUrl><Point><altitudeMode>clampToGround</altitudeMode><coordinates>29.585245884954929,-27.485154261812568,1682.9300000000001</coordinates></Point></Placemark><Placemark><TimeSpan><begin>2022-10-29T11:24:24Z</begin><end>2022-10-29T11:24:25Z</end></TimeSpan><styleUrl>#point</styleUrl><Point><altitudeMode>clampToGround</altitudeMode><coordinates>29.585371529683471,-27.485097516328096,1682.9300000000001</coordinates></Point></Placemark><Placemark><TimeSpan><begin>2022-10-29T11:24:25Z</begin><end>2022-10-29T11:24:26Z</end></TimeSpan><styleUrl>#point</styleUrl><Point><altitudeMode>clampToGround</altitudeMode><coordinates>29.585492815822363,-27.485031047835946,1682.4400000000001</coordinates></Point></Placemark><Placemark><TimeSpan><begin>2022-10-29T11:24:26Z</begin><end>2022-10-29T11:24:27Z</end></TimeSpan><styleUrl>#point</styleUrl><Point><altitudeMode>clampToGround</altitudeMode><coordinates>29.585618544369936,-27.484952174127102,1682.4400000000001</coordinates></Point></Placemark><Placemark><TimeSpan><begin>2022-10-29T11:24:27Z</begin><end>2022-10-29T11:24:28Z</end></TimeSpan><styleUrl>#point</styleUrl><Point><altitudeMode>clampToGround</altitudeMode><coordinates>29.585744943469763,-27.484860476106405,1682.4400000000001</coordinates></Point></Placemark><Placemark><TimeSpan><begin>2022-10-29T11:24:28Z</begin><end>2022-10-29T11:24:29Z</end></TimeSpan><styleUrl>#point</styleUrl><Point><altitudeMode>clampToGround</altitudeMode><coordinates>29.585870252922177,-27.484752265736461,1682.9300000000001</coordinates></Point></Placemark><Placemark><TimeSpan><begin>2022-10-29T11:24:29Z</begin><end>2022-10-29T11:24:30Z</end></TimeSpan><styleUrl>#point</styleUrl><Point><altitudeMode>clampToGround</altitudeMode><coordinates>29.585994053632021,-27.48463005758822,1683.4100000000001</coordinates></Point></Placemark><Placemark><TimeSpan><begin>2022-10-29T11:24:30Z</begin><end>2022-10-29T11:24:40Z</end></TimeSpan><styleUrl>#point</styleUrl><Point><altitudeMode>clampToGround</altitudeMode><coordinates>29.58731722086668,-27.483221730217338,1687.73</coordinates></Point></Placemark><Placemark><TimeSpan><begin>2022-10-29T11:24:40Z</begin><end>2022-10-29T11:24:48Z</end></TimeSpan><styleUrl>#point</styleUrl><Point><altitudeMode>clampToGround</altitudeMode><coordinates>29.588368060067296,-27.482177093625069,1686.77</coordinates></Point></Placemark><Placemark><TimeSpan><begin>2022-10-29T11:24:48Z</begin><end>2022-10-29T11:25:01Z</end></TimeSpan><styleUrl>#point</styleUrl><Point><altitudeMode>clampToGround</altitudeMode><coordinates>29.589994736015797,-27.480543712154031,1687.25</coordinates></Point></Placemark><Placemark><TimeSpan><begin>2022-10-29T11:25:01Z</begin><end>2022-10-29T11:25:10Z</end></TimeSpan><styleUrl>#point</styleUrl><Point><altitudeMode>clampToGround</altitudeMode><coordinates>29.591202903538942,-27.479342250153422,1687.73</coordinates></Point></Placemark><Placemark><TimeSpan><begin>2022-10-29T11:25:10Z</begin><end>2022-10-29T11:25:23Z</end></TimeSpan><styleUrl>#point</styleUrl><Point><altitudeMode>clampToGround</altitudeMode><coordinates>29.592503858730197,-27.47801405377686,1687.73</coordinates></Point></Placemark><Placemark><TimeSpan><begin>2022-10-29T11:25:23Z</begin><end>2022-10-29T11:25:31Z</end></TimeSpan><styleUrl>#point</styleUrl><Point><altitudeMode>clampToGround</altitudeMode><coordinates>29.59308497607708,-27.477451376616955,1686.77</coordinates></Point></Placemark><Placemark><TimeSpan><begin>2022-10-29T11:25:31Z</begin><end>2022-10-29T11:25:41Z</end></TimeSpan><styleUrl>#point</styleUrl><Point><altitudeMode>clampToGround</altitudeMode><coordinates>29.593730131164193,-27.476790379732847,1686.29</coordinates></Point></Placemark><Placemark><TimeSpan><begin>2022-10-29T11:25:41Z</begin><end>2022-10-29T11:25:44Z</end></TimeSpan><styleUrl>#point</styleUrl><Point><altitudeMode>clampToGround</altitudeMode><coordinates>29.593970105051994,-27.476592566817999,1685.8099999999999</coordinates></Point></Placemark><Placemark><TimeSpan><begin>2022-10-29T11:25:44Z</begin><end>2022-10-29T11:25:45Z</end></TimeSpan><styleUrl>#point</styleUrl><Point><altitudeMode>clampToGround</altitudeMode><coordinates>29.594036489725113,-27.476525260135531,1685.8099999999999</coordinates></Point></Placemark><Placemark><TimeSpan><begin>2022-10-29T11:25:45Z</begin><end>2022-10-29T11:25:50Z</end></TimeSpan><styleUrl>#point</styleUrl><Point><altitudeMode>clampToGround</altitudeMode><coordinates>29.594541499391198,-27.475979682058096,1685.8099999999999</coordinates></Point></Placemark><Placemark><TimeSpan><begin>2022-10-29T11:25:50Z</begin><end>2022-10-29T11:26:00Z</end></TimeSpan><styleUrl>#point</styleUrl><Point><altitudeMode>clampToGround</altitudeMode><coordinates>29.595913030207157,-27.474601194262505,1686.29</coordinates></Point></Placemark><Placemark><TimeSpan><begin>2022-10-29T11:26:00Z</begin><end>2022-10-29T11:26:15Z</end></TimeSpan><styleUrl>#point</styleUrl><Point><altitudeMode>clampToGround</altitudeMode><coordinates>29.597965087741613,-27.472555842250586,1684.8499999999999</coordinates></Point></Placemark><Placemark><TimeSpan><begin>2022-10-29T11:26:15Z</begin><end>2022-10-29T11:26:22Z</end></TimeSpan><styleUrl>#point</styleUrl><Point><altitudeMode>clampToGround</altitudeMode><coordinates>29.598810151219368,-27.471714718267322,1685.3299999999999</coordinates></Point></Placemark><Placemark><TimeSpan><begin>2022-10-29T11:26:22Z</begin><end>2022-10-29T11:26:31Z</end></TimeSpan><styleUrl>#point</styleUrl><Point><altitudeMode>clampToGround</altitudeMode><coordinates>29.599665943533182,-27.470853896811604,1685.3299999999999</coordinates></Point></Placemark><Placemark><TimeSpan><begin>2022-10-29T11:26:31Z</begin><end>2022-10-29T11:26:40Z</end></TimeSpan><styleUrl>#point</styleUrl><Point><altitudeMode>clampToGround</altitudeMode><coordinates>29.600501954555511,-27.470036158338189,1686.29</coordinates></Point></Placemark><Placemark><TimeSpan><begin>2022-10-29T11:26:40Z</begin><end>2022-10-29T11:26:47Z</end></TimeSpan><styleUrl>#point</styleUrl><Point><altitudeMode>clampToGround</altitudeMode><coordinates>29.60134282708168,-27.469219928607345,1692.0599999999999</coordinates></Point></Placemark><Placemark><TimeSpan><begin>2022-10-29T11:26:47Z</begin><end>2022-10-29T11:26:56Z</end></TimeSpan><styleUrl>#point</styleUrl><Point><altitudeMode>clampToGround</altitudeMode><coordinates>29.602927006781101,-27.467841440811753,1704.0699999999999</coordinates></Point></Placemark><Placemark><TimeSpan><begin>2022-10-29T11:26:56Z</begin><end>2022-10-29T11:27:11Z</end></TimeSpan><styleUrl>#point</styleUrl><Point><altitudeMode>clampToGround</altitudeMode><coordinates>29.605895625427365,-27.465186221525073,1718.49</coordinates></Point></Placemark><Placemark><TimeSpan><begin>2022-10-29T11:27:11Z</begin><end>2022-10-29T11:27:25Z</end></TimeSpan><styleUrl>#point</styleUrl><Point><altitudeMode>clampToGround</altitudeMode><coordinates>29.608625443652272,-27.462738873437047,1732.4300000000001</coordinates></Point></Placemark><Placemark><TimeSpan><begin>2022-10-29T11:27:25Z</begin><end>2022-10-29T11:27:35Z</end></TimeSpan><styleUrl>#point</styleUrl><Point><altitudeMode>clampToGround</altitudeMode><coordinates>29.61013812571764,-27.461397936567664,1724.26</coordinates></Point></Placemark><Placemark><TimeSpan><begin>2022-10-29T11:27:35Z</begin><end>2022-10-29T11:27:45Z</end></TimeSpan><styleUrl>#point</styleUrl><Point><altitudeMode>clampToGround</altitudeMode><coordinates>29.611687688156962,-27.460042582824826,1719.46</coordinates></Point></Placemark><Placemark><TimeSpan><begin>2022-10-29T11:27:45Z</begin><end>2022-10-29T11:27:58Z</end></TimeSpan><styleUrl>#point</styleUrl><Point><altitudeMode>clampToGround</altitudeMode><coordinates>29.613856421783566,-27.458129413425922,1723.3</coordinates></Point></Placemark><Placemark><TimeSpan><begin>2022-10-29T11:27:58Z</begin><end>2022-10-29T11:28:08Z</end></TimeSpan><styleUrl>#point</styleUrl><Point><altitudeMode>clampToGround</altitudeMode><coordinates>29.615646125748754,-27.456563422456384,1726.6700000000001</coordinates></Point></Placemark><Placemark><TimeSpan><begin>2022-10-29T11:28:08Z</begin><end>2022-10-29T11:28:16Z</end></TimeSpan><styleUrl>#point</styleUrl><Point><altitudeMode>clampToGround</altitudeMode><coordinates>29.616865860298276,-27.455481234937906,1729.55</coordinates></Point></Placemark><Placemark><TimeSpan><begin>2022-10-29T11:28:16Z</begin><end>2022-10-29T11:28:29Z</end></TimeSpan><styleUrl>#point</styleUrl><Point><altitudeMode>clampToGround</altitudeMode><coordinates>29.618629161268473,-27.453915998339653,1731.47</coordinates></Point></Placemark><Placemark><TimeSpan><begin>2022-10-29T11:28:29Z</begin><end>2022-10-29T11:28:35Z</end></TimeSpan><styleUrl>#point</styleUrl><Point><altitudeMode>clampToGround</altitudeMode><coordinates>29.619225449860096,-27.453418113291264,1730.03</coordinates></Point></Placemark><Placemark><TimeSpan><begin>2022-10-29T11:28:35Z</begin><end>2022-10-29T11:28:42Z</end></TimeSpan><styleUrl>#point</styleUrl><Point><altitudeMode>clampToGround</altitudeMode><coordinates>29.619437679648399,-27.453257516026497,1728.5899999999999</coordinates></Point></Placemark><Placemark><TimeSpan><begin>2022-10-29T11:28:42Z</begin><end>2022-10-29T11:29:04Z</end></TimeSpan><styleUrl>#point</styleUrl><Point><altitudeMode>clampToGround</altitudeMode><coordinates>29.619513787329197,-27.453189790248871,1728.1099999999999</coordinates></Point></Placemark><Placemark><TimeSpan><begin>2022-10-29T11:29:04Z</begin><end>2022-10-29T11:29:09Z</end></TimeSpan><styleUrl>#point</styleUrl><Point><altitudeMode>clampToGround</altitudeMode><coordinates>29.619996165856719,-27.452802630141377,1725.7</coordinates></Point></Placemark><Placemark><TimeSpan><begin>2022-10-29T11:29:09Z</begin><end>2022-10-29T11:29:20Z</end></TimeSpan><styleUrl>#point</styleUrl><Point><altitudeMode>clampToGround</altitudeMode><coordinates>29.621594846248627,-27.45158214122057,1718.97</coordinates></Point></Placemark><Placemark><TimeSpan><begin>2022-10-29T11:29:20Z</begin><end>2022-10-29T11:29:34Z</end></TimeSpan><styleUrl>#point</styleUrl><Point><altitudeMode>clampToGround</altitudeMode><coordinates>29.623874975368381,-27.449816996231675,1711.76</coordinates></Point></Placemark><Placemark><TimeSpan><begin>2022-10-29T11:29:34Z</begin><end>2022-10-29T11:29:49Z</end></TimeSpan><styleUrl>#point</styleUrl><Point><altitudeMode>clampToGround</altitudeMode><coordinates>29.626440675929189,-27.447786647826433,1707.4400000000001</coordinates></Point></Placemark><Placemark><TimeSpan><begin>2022-10-29T11:29:49Z</begin><end>2022-10-29T11:29:59Z</end></TimeSpan><styleUrl>#point</styleUrl><Point><altitudeMode>clampToGround</altitudeMode><coordinates>29.62830925360322,-27.446341691538692,1707.4400000000001</coordinates></Point></Placemark><Placemark><TimeSpan><begin>2022-10-29T11:29:59Z</begin><end>2022-10-29T11:30:11Z</end></TimeSpan><styleUrl>#point</styleUrl><Point><altitudeMode>clampToGround</altitudeMode><coordinates>29.630603967234492,-27.444569505751133,1719.46</coordinates></Point></Placemark><Placemark><TimeSpan><begin>2022-10-29T11:30:11Z</begin><end>2022-10-29T11:30:22Z</end></TimeSpan><styleUrl>#point</styleUrl><Point><altitudeMode>clampToGround</altitudeMode><coordinates>29.632462486624718,-27.443116335198283,1724.26</coordinates></Point></Placemark><Placemark><TimeSpan><begin>2022-10-29T11:30:22Z</begin><end>2022-10-29T11:30:36Z</end></TimeSpan><styleUrl>#point</styleUrl><Point><altitudeMode>clampToGround</altitudeMode><coordinates>29.635028354823589,-27.441132506355643,1726.6700000000001</coordinates></Point></Placemark><Placemark><TimeSpan><begin>2022-10-29T11:30:36Z</begin><end>2022-10-29T11:30:51Z</end></TimeSpan><styleUrl>#point</styleUrl><Point><altitudeMode>clampToGround</altitudeMode><coordinates>29.637780971825123,-27.439016159623861,1731.47</coordinates></Point></Placemark><Placemark><TimeSpan><begin>2022-10-29T11:30:51Z</begin><end>2022-10-29T11:31:01Z</end></TimeSpan><styleUrl>#point</styleUrl><Point><altitudeMode>clampToGround</altitudeMode><coordinates>29.639386106282473,-27.437626859173179,1726.1800000000001</coordinates></Point></Placemark><Placemark><TimeSpan><begin>2022-10-29T11:31:01Z</begin><end>2022-10-29T11:31:10Z</end></TimeSpan><styleUrl>#point</styleUrl><Point><altitudeMode>clampToGround</altitudeMode><coordinates>29.640397634357214,-27.436084756627679,1718.01</coordinates></Point></Placemark><Placemark><TimeSpan><begin>2022-10-29T11:31:10Z</begin><end>2022-10-29T11:31:25Z</end></TimeSpan><styleUrl>#point</styleUrl><Point><altitudeMode>clampToGround</altitudeMode><coordinates>29.642106788232923,-27.433180762454867,1735.3199999999999</coordinates></Point></Placemark><Placemark><TimeSpan><begin>2022-10-29T11:31:25Z</begin><end>2022-10-29T11:31:28Z</end></TimeSpan><styleUrl>#point</styleUrl><Point><altitudeMode>clampToGround</altitudeMode><coordinates>29.64238858781755,-27.432737024500966,1739.1600000000001</coordinates></Point></Placemark><Placemark><TimeSpan><begin>2022-10-29T11:31:28Z</begin><end>2022-10-29T11:31:29Z</end></TimeSpan><styleUrl>#point</styleUrl><Point><altitudeMode>clampToGround</altitudeMode><coordinates>29.642505599185824,-27.43260383605957,1740.1199999999999</coordinates></Point></Placemark><Placemark><TimeSpan><begin>2022-10-29T11:31:29Z</begin><end>2022-10-29T11:31:30Z</end></TimeSpan><styleUrl>#point</styleUrl><Point><altitudeMode>clampToGround</altitudeMode><coordinates>29.642637111246586,-27.432475592941046,1741.0799999999999</coordinates></Point></Placemark><Placemark><TimeSpan><begin>2022-10-29T11:31:30Z</begin><end>2022-10-29T11:31:31Z</end></TimeSpan><styleUrl>#point</styleUrl><Point><altitudeMode>clampToGround</altitudeMode><coordinates>29.642783626914024,-27.432354474440217,1742.05</coordinates></Point></Placemark><Placemark><TimeSpan><begin>2022-10-29T11:31:31Z</begin><end>2022-10-29T11:31:32Z</end></TimeSpan><styleUrl>#point</styleUrl><Point><altitudeMode>clampToGround</altitudeMode><coordinates>29.642946571111679,-27.432239223271608,1743.01</coordinates></Point></Placemark><Placemark><TimeSpan><begin>2022-10-29T11:31:32Z</begin><end>2022-10-29T11:31:33Z</end></TimeSpan><styleUrl>#point</styleUrl><Point><altitudeMode>clampToGround</altitudeMode><coordinates>29.64312351308763,-27.432126821950078,1743.97</coordinates></Point></Placemark><Placemark><TimeSpan><begin>2022-10-29T11:31:33Z</begin><end>2022-10-29T11:31:34Z</end></TimeSpan><styleUrl>#point</styleUrl><Point><altitudeMode>clampToGround</altitudeMode><coordinates>29.643312441185117,-27.432019701227546,1744.9300000000001</coordinates></Point></Placemark><Placemark><TimeSpan><begin>2022-10-29T11:31:34Z</begin><end>2022-10-29T11:31:44Z</end></TimeSpan><styleUrl>#point</styleUrl><Point><altitudeMode>clampToGround</altitudeMode><coordinates>29.645508835092187,-27.430964251980186,1759.3499999999999</coordinates></Point></Placemark><Placemark><TimeSpan><begin>2022-10-29T11:31:44Z</begin><end>2022-10-29T11:31:58Z</end></TimeSpan><styleUrl>#point</styleUrl><Point><altitudeMode>clampToGround</altitudeMode><coordinates>29.648746345192194,-27.429450480267406,1778.0999999999999</coordinates></Point></Placemark><Placemark><TimeSpan><begin>2022-10-29T11:31:58Z</begin><end>2022-10-29T11:32:10Z</end></TimeSpan><styleUrl>#point</styleUrl><Point><altitudeMode>clampToGround</altitudeMode><coordinates>29.651272818446159,-27.428229069337249,1788.6700000000001</coordinates></Point></Placemark><Placemark><TimeSpan><begin>2022-10-29T11:32:10Z</begin><end>2022-10-29T11:32:26Z</end></TimeSpan><styleUrl>#point</styleUrl><Point><altitudeMode>clampToGround</altitudeMode><coordinates>29.654142279177904,-27.42677983827889,1780.02</coordinates></Point></Placemark><Placemark><TimeSpan><begin>2022-10-29T11:32:26Z</begin><end>2022-10-29T11:32:38Z</end></TimeSpan><styleUrl>#point</styleUrl><Point><altitudeMode>clampToGround</altitudeMode><coordinates>29.656584430485964,-27.425540573894978,1780.02</coordinates></Point></Placemark><Placemark><TimeSpan><begin>2022-10-29T11:32:38Z</begin><end>2022-10-29T11:32:46Z</end></TimeSpan><styleUrl>#point</styleUrl><Point><altitudeMode>clampToGround</altitudeMode><coordinates>29.658216135576367,-27.424719650298357,1780.02</coordinates></Point></Placemark><Placemark><TimeSpan><begin>2022-10-29T11:32:46Z</begin><end>2022-10-29T11:33:04Z</end></TimeSpan><styleUrl>#point</styleUrl><Point><altitudeMode>clampToGround</altitudeMode><coordinates>29.661677442491055,-27.422958528622985,1784.3399999999999</coordinates></Point></Placemark><Placemark><TimeSpan><begin>2022-10-29T11:33:04Z</begin><end>2022-10-29T11:33:18Z</end></TimeSpan><styleUrl>#point</styleUrl><Point><altitudeMode>clampToGround</altitudeMode><coordinates>29.664590489119291,-27.421499155461788,1787.23</coordinates></Point></Placemark><Placemark><TimeSpan><begin>2022-10-29T11:33:18Z</begin><end>2022-10-29T11:33:31Z</end></TimeSpan><styleUrl>#point</styleUrl><Point><altitudeMode>clampToGround</altitudeMode><coordinates>29.667379651218653,-27.420077417045832,1816.55</coordinates></Point></Placemark><Placemark><TimeSpan><begin>2022-10-29T11:33:31Z</begin><end>2022-10-29T11:33:41Z</end></TimeSpan><styleUrl>#point</styleUrl><Point><altitudeMode>clampToGround</altitudeMode><coordinates>29.669352332130075,-27.419183235615492,1832.4100000000001</coordinates></Point></Placemark><Placemark><TimeSpan><begin>2022-10-29T11:33:41Z</begin><end>2022-10-29T11:33:51Z</end></TimeSpan><styleUrl>#point</styleUrl><Point><altitudeMode>clampToGround</altitudeMode><coordinates>29.671700019389391,-27.418463062494993,1835.29</coordinates></Point></Placemark><Placemark><TimeSpan><begin>2022-10-29T11:33:51Z</begin><end>2022-10-29T11:34:02Z</end></TimeSpan><styleUrl>#point</styleUrl><Point><altitudeMode>clampToGround</altitudeMode><coordinates>29.674131274223328,-27.417725790292025,1838.6600000000001</coordinates></Point></Placemark><Placemark><TimeSpan><begin>2022-10-29T11:34:02Z</begin><end>2022-10-29T11:34:09Z</end></TimeSpan><styleUrl>#point</styleUrl><Point><altitudeMode>clampToGround</altitudeMode><coordinates>29.67536517418921,-27.417126148939133,1843.95</coordinates></Point></Placemark><Placemark><TimeSpan><begin>2022-10-29T11:34:09Z</begin><end>2022-10-29T11:34:17Z</end></TimeSpan><styleUrl>#point</styleUrl><Point><altitudeMode>clampToGround</altitudeMode><coordinates>29.676613574847579,-27.41595477797091,1853.0799999999999</coordinates></Point></Placemark><Placemark><TimeSpan><begin>2022-10-29T11:34:17Z</begin><end>2022-10-29T11:34:27Z</end></TimeSpan><styleUrl>#point</styleUrl><Point><altitudeMode>clampToGround</altitudeMode><coordinates>29.678075714036822,-27.414559191092849,1854.52</coordinates></Point></Placemark><Placemark><TimeSpan><begin>2022-10-29T11:34:27Z</begin><end>2022-10-29T11:34:37Z</end></TimeSpan><styleUrl>#point</styleUrl><Point><altitudeMode>clampToGround</altitudeMode><coordinates>29.679517233744264,-27.413111636415124,1843.47</coordinates></Point></Placemark><Placemark><TimeSpan><begin>2022-10-29T11:34:37Z</begin><end>2022-10-29T11:34:49Z</end></TimeSpan><styleUrl>#point</styleUrl><Point><altitudeMode>clampToGround</altitudeMode><coordinates>29.681611033156514,-27.410986656323075,1839.6199999999999</coordinates></Point></Placemark><Placemark><TimeSpan><begin>2022-10-29T11:34:49Z</begin><end>2022-10-29T11:35:02Z</end></TimeSpan><styleUrl>#point</styleUrl><Point><altitudeMode>clampToGround</altitudeMode><coordinates>29.683923684060574,-27.408680040389299,1839.6199999999999</coordinates></Point></Placemark><Placemark><TimeSpan><begin>2022-10-29T11:35:02Z</begin><end>2022-10-29T11:35:13Z</end></TimeSpan><styleUrl>#point</styleUrl><Point><altitudeMode>clampToGround</altitudeMode><coordinates>29.685781197622418,-27.406822945922613,1829.05</coordinates></Point></Placemark><Placemark><TimeSpan><begin>2022-10-29T11:35:13Z</begin><end>2022-10-29T11:35:28Z</end></TimeSpan><styleUrl>#point</styleUrl><Point><altitudeMode>clampToGround</altitudeMode><coordinates>29.688244638964534,-27.404368557035923,1827.5999999999999</coordinates></Point></Placemark><Placemark><TimeSpan><begin>2022-10-29T11:35:28Z</begin><end>2022-10-29T11:35:37Z</end></TimeSpan><styleUrl>#point</styleUrl><Point><altitudeMode>clampToGround</altitudeMode><coordinates>29.689306207001209,-27.403226941823959,1817.51</coordinates></Point></Placemark><Placemark><TimeSpan><begin>2022-10-29T11:35:37Z</begin><end>2022-10-29T11:35:51Z</end></TimeSpan><styleUrl>#point</styleUrl><Point><altitudeMode>clampToGround</altitudeMode><coordinates>29.690371714532375,-27.401310000568628,1799.24</coordinates></Point></Placemark><Placemark><TimeSpan><begin>2022-10-29T11:35:51Z</begin><end>2022-10-29T11:36:00Z</end></TimeSpan><styleUrl>#point</styleUrl><Point><altitudeMode>clampToGround</altitudeMode><coordinates>29.691197751089931,-27.399821542203426,1791.55</coordinates></Point></Placemark><Placemark><TimeSpan><begin>2022-10-29T11:36:00Z</begin><end>2022-10-29T11:36:11Z</end></TimeSpan><styleUrl>#point</styleUrl><Point><altitudeMode>clampToGround</altitudeMode><coordinates>29.692260827869177,-27.397834612056613,1793.48</coordinates></Point></Placemark><Placemark><TimeSpan><begin>2022-10-29T11:36:11Z</begin><end>2022-10-29T11:36:19Z</end></TimeSpan><styleUrl>#point</styleUrl><Point><altitudeMode>clampToGround</altitudeMode><coordinates>29.692951748147607,-27.396580595523119,1787.23</coordinates></Point></Placemark><Placemark><TimeSpan><begin>2022-10-29T11:36:19Z</begin><end>2022-10-29T11:36:27Z</end></TimeSpan><styleUrl>#point</styleUrl><Point><altitudeMode>clampToGround</altitudeMode><coordinates>29.693454327061772,-27.395273353904486,1786.75</coordinates></Point></Placemark><Placemark><TimeSpan><begin>2022-10-29T11:36:27Z</begin><end>2022-10-29T11:36:34Z</end></TimeSpan><styleUrl>#point</styleUrl><Point><altitudeMode>clampToGround</altitudeMode><coordinates>29.693692624568939,-27.393869804218411,1794.9200000000001</coordinates></Point></Placemark><Placemark><TimeSpan><begin>2022-10-29T11:36:34Z</begin><end>2022-10-29T11:36:43Z</end></TimeSpan><styleUrl>#point</styleUrl><Point><altitudeMode>clampToGround</altitudeMode><coordinates>29.693959169089794,-27.392428871244192,1802.6099999999999</coordinates></Point></Placemark><Placemark><TimeSpan><begin>2022-10-29T11:36:43Z</begin><end>2022-10-29T11:36:51Z</end></TimeSpan><styleUrl>#point</styleUrl><Point><altitudeMode>clampToGround</altitudeMode><coordinates>29.694703314453363,-27.391290105879307,1809.3399999999999</coordinates></Point></Placemark><Placemark><TimeSpan><begin>2022-10-29T11:36:51Z</begin><end>2022-10-29T11:36:58Z</end></TimeSpan><styleUrl>#point</styleUrl><Point><altitudeMode>clampToGround</altitudeMode><coordinates>29.695923384279013,-27.390372203662992,1814.6300000000001</coordinates></Point></Placemark><Placemark><TimeSpan><begin>2022-10-29T11:36:58Z</begin><end>2022-10-29T11:37:08Z</end></TimeSpan><styleUrl>#point</styleUrl><Point><altitudeMode>clampToGround</altitudeMode><coordinates>29.697411758825183,-27.389218602329493,1811.74</coordinates></Point></Placemark><Placemark><TimeSpan><begin>2022-10-29T11:37:08Z</begin><end>2022-10-29T11:37:15Z</end></TimeSpan><styleUrl>#point</styleUrl><Point><altitudeMode>clampToGround</altitudeMode><coordinates>29.697980470955372,-27.388319056481123,1808.8599999999999</coordinates></Point></Placemark><Placemark><TimeSpan><begin>2022-10-29T11:37:15Z</begin><end>2022-10-29T11:37:23Z</end></TimeSpan><styleUrl>#point</styleUrl><Point><altitudeMode>clampToGround</altitudeMode><coordinates>29.698159508407116,-27.387450691312551,1808.8599999999999</coordinates></Point></Placemark><Placemark><TimeSpan><begin>2022-10-29T11:37:23Z</begin><end>2022-10-29T11:37:26Z</end></TimeSpan><styleUrl>#point</styleUrl><Point><altitudeMode>clampToGround</altitudeMode><coordinates>29.69820125028491,-27.387263858690858,1809.3399999999999</coordinates></Point></Placemark></Folder><Placemark><name>[319] Memel to R543 Dirt Road</name><Style><LineStyle><color>ffff4040</color><width>4</width></LineStyle></Style><MultiGeometry><LineString><coordinates>29.546590726822615,-27.631115214899182,1758.3900000000001 29.546645963564515,-27.630982864648104,1758.3900000000001 29.546713521704078,-27.630846993997693,1758.8699999999999 29.546790635213256,-27.630705591291189,1758.8699999999999 29.547901153564453,-27.628863751888275,1755.5 29.549072189256549,-27.626953683793545,1755.02 29.550479175522923,-27.624651594087481,1761.75 29.55141669139266,-27.622951827943325,1777.6099999999999 29.55182321369648,-27.621747432276607,1779.54 29.552573142573237,-27.619739798828959,1768 29.553461037576199,-27.617434523999691,1760.79 29.554128153249621,-27.615716233849525,1757.4300000000001 29.554651686921716,-27.614345792680979,1755.99 29.555431287735701,-27.613042239099741,1749.26 29.556862832978368,-27.61144925840199,1739.1600000000001 29.558194717392325,-27.609958620741963,1732.9100000000001 29.559284616261721,-27.608752297237515,1729.0699999999999 29.561113463714719,-27.606732929125428,1726.1800000000001 29.562516342848539,-27.605190323665738,1724.74 29.563448829576373,-27.604105118662119,1722.8199999999999 29.563950151205063,-27.603069869801402,1720.4200000000001 29.56470150500536,-27.601137757301331,1718.01 29.565537264570594,-27.599024763330817,1714.6500000000001 29.56607504747808,-27.597630685195327,1713.21 29.567039720714092,-27.595175877213478,1712.25 29.567538192495704,-27.593921693041921,1710.8 29.567835414782166,-27.593117784708738,1709.8399999999999 29.568292312324047,-27.591998800635338,1707.9200000000001 29.568645190447569,-27.591044018045068,1706.96 29.569171741604805,-27.589741973206401,1706 29.569406770169735,-27.589121963828802,1706 29.569785380735993,-27.588172629475594,1705.52 29.570531789213419,-27.586275972425938,1705.52 29.571030596271157,-27.584986332803965,1705.52 29.5716293156147,-27.583441380411386,1703.5899999999999 29.57205637358129,-27.582345446571708,1701.6700000000001 29.572381759062409,-27.581551345065236,1701.1900000000001 29.57274092361331,-27.580593544989824,1700.23 29.573242161422968,-27.579317232593894,1700.23 29.573984295129776,-27.577437590807676,1702.1500000000001 29.574765907600522,-27.575274053961039,1700.71 29.575517093762755,-27.572872135788202,1697.8299999999999 29.576070802286267,-27.571062734350562,1695.9000000000001 29.576170714572072,-27.570604328066111,1694.9400000000001 29.576159734278917,-27.570506846532226,1694.9400000000001 29.576131319627166,-27.570418165996671,1694.46 29.576087146997452,-27.570340549573302,1693.98 29.576022019609809,-27.570267375558615,1693.98 29.575935853645205,-27.570199063047767,1693.98 29.575833845883608,-27.570137707516551,1693.98 29.575725132599473,-27.570083057507873,1693.98 29.575293716043234,-27.56985817104578,1693.98 29.57523194141686,-27.569795474410057,1693.98 29.575180476531386,-27.569718109443784,1693.98 29.575137309730053,-27.569624315947294,1694.46 29.575104955583811,-27.569513004273176,1694.46 29.575081821531057,-27.569383755326271,1694.46 29.575066985562444,-27.569231791421771,1694.46 29.575003618374467,-27.567895464599133,1694.46 29.574529035016894,-27.566846888512373,1694.46 29.57351884804666,-27.564980154857039,1701.6700000000001 29.572771098464727,-27.563516590744257,1710.8 29.572529532015324,-27.562312027439475,1714.6500000000001 29.572646878659725,-27.560583427548409,1715.6099999999999 29.572936724871397,-27.558317380025983,1716.0899999999999 29.573630997911096,-27.556251240894198,1716.0899999999999 29.574307501316071,-27.554422561079264,1715.6099999999999 29.57498517818749,-27.552550379186869,1711.28 29.575903415679932,-27.550032623112202,1710.3199999999999 29.576210947707295,-27.54884566180408,1709.3599999999999 29.576035095378757,-27.547541689127684,1707.9200000000001 29.575687749311328,-27.545504048466682,1702.6300000000001 29.575293799862266,-27.543293740600348,1696.8599999999999 29.574932875111699,-27.541557010263205,1693.98 29.574603047221899,-27.540207523852587,1694.9400000000001 29.574121590703726,-27.538172146305442,1706.48 29.573708614334464,-27.536363666877151,1721.3800000000001 29.573474507778883,-27.535142172127962,1737.24 29.573252806439996,-27.533939871937037,1748.78 29.57325104624033,-27.53368548117578,1750.22 29.573269067332149,-27.533558243885636,1751.1800000000001 29.57356620579958,-27.532346472144127,1749.74 29.573951018974185,-27.530860528349876,1739.1600000000001 29.574342370033264,-27.529393695294857,1729.55 29.575055921450257,-27.526682736352086,1716.5699999999999 29.575482308864594,-27.525018844753504,1714.6500000000001 29.575889585539699,-27.523459643125534,1715.6099999999999 29.576310189440846,-27.521827183663845,1719.9400000000001 29.576836740598083,-27.519784681499004,1731.47 29.577134884893894,-27.51865672878921,1736.76 29.577620532363653,-27.516843723133206,1744.9300000000001 29.57771466113627,-27.51642907038331,1746.3699999999999 29.577720360830426,-27.516387915238738,1746.8499999999999 29.577816417440772,-27.516013160347939,1746.3699999999999 29.57809142768383,-27.514860229566693,1742.05 29.578023534268141,-27.51367561519146,1737.72 29.577413918450475,-27.512432746589184,1736.28 29.576526610180736,-27.510626362636685,1732.9100000000001 29.576374813914299,-27.509255167096853,1729.0699999999999 29.576278505846858,-27.507482981309295,1724.74 29.576152022927999,-27.505088858306408,1720.9000000000001 29.576110783964396,-27.503831656649709,1719.9400000000001 29.576446898281574,-27.502696244046092,1718.49 29.577248878777027,-27.500294828787446,1713.6900000000001 29.578184047713876,-27.497441293671727,1709.8399999999999 29.579114774242043,-27.494541322812438,1706.96 29.579795468598604,-27.492502089589834,1706 29.580371137708426,-27.490729736164212,1704.0699999999999 29.580841027200222,-27.489305902272463,1701.6700000000001 29.581447541713715,-27.487459871917963,1698.79 29.581860853359103,-27.486182805150747,1695.9000000000001 29.582032263278961,-27.485769912600517,1693.98 29.58210744895041,-27.485657343640924,1693.5 29.582200236618519,-27.485556844621897,1693.02 29.582310039550066,-27.485465900972486,1692.54 29.582430319860578,-27.485386608168483,1692.54 29.582555713132024,-27.485322235152125,1692.0599999999999 29.582685548812151,-27.485271524637938,1691.5799999999999 29.58282183855772,-27.485234644263983,1691.0999999999999 29.582966091111302,-27.485211510211229,1690.6199999999999 29.583130544051528,-27.485201116651297,1690.1400000000001 29.583287285640836,-27.485203295946121,1689.6500000000001 29.583466993644834,-27.485216120257974,1689.1700000000001 29.583659023046494,-27.485238332301378,1688.6900000000001 29.584663091227412,-27.485306309536099,1684.8499999999999 29.584811367094517,-27.485283762216568,1684.3699999999999 29.584960481151938,-27.485249899327755,1683.8900000000001 29.585107667371631,-27.485205391421914,1683.4100000000001 29.585245884954929,-27.485154261812568,1682.9300000000001 29.585371529683471,-27.485097516328096,1682.9300000000001 29.585492815822363,-27.485031047835946,1682.4400000000001 29.585618544369936,-27.484952174127102,1682.4400000000001 29.585744943469763,-27.484860476106405,1682.4400000000001 29.585870252922177,-27.484752265736461,1682.9300000000001 29.585994053632021,-27.48463005758822,1683.4100000000001 29.58731722086668,-27.483221730217338,1687.73 29.588368060067296,-27.482177093625069,1686.77 29.589994736015797,-27.480543712154031,1687.25 29.591202903538942,-27.479342250153422,1687.73 29.592503858730197,-27.47801405377686,1687.73 29.59308497607708,-27.477451376616955,1686.77 29.593730131164193,-27.476790379732847,1686.29 29.593970105051994,-27.476592566817999,1685.8099999999999 29.594036489725113,-27.476525260135531,1685.8099999999999 29.594541499391198,-27.475979682058096,1685.8099999999999 29.595913030207157,-27.474601194262505,1686.29 29.597965087741613,-27.472555842250586,1684.8499999999999 29.598810151219368,-27.471714718267322,1685.3299999999999 29.599665943533182,-27.470853896811604,1685.3299999999999 29.600501954555511,-27.470036158338189,1686.29 29.60134282708168,-27.469219928607345,1692.0599999999999 29.602927006781101,-27.467841440811753,1704.0699999999999 29.605895625427365,-27.465186221525073,1718.49 29.608625443652272,-27.462738873437047,1732.4300000000001 29.61013812571764,-27.461397936567664,1724.26 29.611687688156962,-27.460042582824826,1719.46 29.613856421783566,-27.458129413425922,1723.3 29.615646125748754,-27.456563422456384,1726.6700000000001 29.616865860298276,-27.455481234937906,1729.55 29.618629161268473,-27.453915998339653,1731.47 29.619225449860096,-27.453418113291264,1730.03 29.619437679648399,-27.453257516026497,1728.5899999999999 29.619513787329197,-27.453189790248871,1728.1099999999999 29.619996165856719,-27.452802630141377,1725.7 29.621594846248627,-27.45158214122057,1718.97 29.623874975368381,-27.449816996231675,1711.76 29.626440675929189,-27.447786647826433,1707.4400000000001 29.62830925360322,-27.446341691538692,1707.4400000000001 29.630603967234492,-27.444569505751133,1719.46 29.632462486624718,-27.443116335198283,1724.26 29.635028354823589,-27.441132506355643,1726.6700000000001 29.637780971825123,-27.439016159623861,1731.47 29.639386106282473,-27.437626859173179,1726.1800000000001 29.640397634357214,-27.436084756627679,1718.01 29.642106788232923,-27.433180762454867,1735.3199999999999 29.64238858781755,-27.432737024500966,1739.1600000000001 29.642505599185824,-27.43260383605957,1740.1199999999999 29.642637111246586,-27.432475592941046,1741.0799999999999 29.642783626914024,-27.432354474440217,1742.05 29.642946571111679,-27.432239223271608,1743.01 29.64312351308763,-27.432126821950078,1743.97 29.643312441185117,-27.432019701227546,1744.9300000000001 29.645508835092187,-27.430964251980186,1759.3499999999999 29.648746345192194,-27.429450480267406,1778.0999999999999 29.651272818446159,-27.428229069337249,1788.6700000000001 29.654142279177904,-27.42677983827889,1780.02 29.656584430485964,-27.425540573894978,1780.02 29.658216135576367,-27.424719650298357,1780.02 29.661677442491055,-27.422958528622985,1784.3399999999999 29.664590489119291,-27.421499155461788,1787.23 29.667379651218653,-27.420077417045832,1816.55 29.669352332130075,-27.419183235615492,1832.4100000000001 29.671700019389391,-27.418463062494993,1835.29 29.674131274223328,-27.417725790292025,1838.6600000000001 29.67536517418921,-27.417126148939133,1843.95 29.676613574847579,-27.41595477797091,1853.0799999999999 29.678075714036822,-27.414559191092849,1854.52 29.679517233744264,-27.413111636415124,1843.47 29.681611033156514,-27.410986656323075,1839.6199999999999 29.683923684060574,-27.408680040389299,1839.6199999999999 29.685781197622418,-27.406822945922613,1829.05 29.688244638964534,-27.404368557035923,1827.5999999999999 29.689306207001209,-27.403226941823959,1817.51 29.690371714532375,-27.401310000568628,1799.24 29.691197751089931,-27.399821542203426,1791.55 29.692260827869177,-27.397834612056613,1793.48 29.692951748147607,-27.396580595523119,1787.23 29.693454327061772,-27.395273353904486,1786.75 29.693692624568939,-27.393869804218411,1794.9200000000001 29.693959169089794,-27.392428871244192,1802.6099999999999 29.694703314453363,-27.391290105879307,1809.3399999999999 29.695923384279013,-27.390372203662992,1814.6300000000001 29.697411758825183,-27.389218602329493,1811.74 29.697980470955372,-27.388319056481123,1808.8599999999999 29.698159508407116,-27.387450691312551,1808.8599999999999 29.69820125028491,-27.387263858690858,1809.3399999999999 </coordinates></LineString></MultiGeometry></Placemark></Folder></Folder></Document></kml>