<?xml version="1.0" encoding="utf-8"?><kml xmlns="http://www.opengis.net/kml/2.2" xmlns:xsi="http://www.w3.org/2001/XMLSchema-instance" xmlns:kmlx="http://www.google.com/kml/ext/2.2" xmlns:atom="http://www.w3.org/2005/Atom" xmlns:gpxx="http://www.garmin.com/xmlschemas/GpxExtensions/v3"><Document><Style id="point"><IconStyle><scale>0.9</scale><Icon><href>http://maps.google.com/mapfiles/kml/shapes/placemark_circle.png</href></Icon></IconStyle></Style><Folder><name>Tracks</name><Folder><name>[322] R59 Tunnel 1</name><Folder><name>Points</name><Style><ListStyle><listItemType>checkHideChildren</listItemType></ListStyle></Style><Placemark><TimeSpan><begin>2022-11-27T07:14:29Z</begin><end>2022-11-27T07:14:29Z</end></TimeSpan><Style><IconStyle><scale>0.9</scale><Icon><href>http://connect.garmin.com/image/main/icons/kml/grn-play.png</href></Icon></IconStyle></Style><Point><altitudeMode>clampToGround</altitudeMode><coordinates>28.096999078989029,-26.261811889708042,1631.49</coordinates></Point></Placemark><Placemark><TimeSpan><begin>2022-11-27T07:14:29Z</begin><end>2022-11-27T07:14:34Z</end></TimeSpan><styleUrl>#point</styleUrl><Point><altitudeMode>clampToGround</altitudeMode><coordinates>28.097618669271469,-26.261528916656971,1631.49</coordinates></Point></Placemark><Placemark><TimeSpan><begin>2022-11-27T07:14:34Z</begin><end>2022-11-27T07:14:35Z</end></TimeSpan><styleUrl>#point</styleUrl><Point><altitudeMode>clampToGround</altitudeMode><coordinates>28.09841369278729,-26.261380724608898,1631.49</coordinates></Point></Placemark></Folder><Placemark><name>[322] R59 Tunnel 1</name><Style><LineStyle><color>ff606060</color><width>4</width></LineStyle></Style><MultiGeometry><LineString><coordinates>28.096999078989029,-26.261811889708042,1631.49 28.097618669271469,-26.261528916656971,1631.49 28.09841369278729,-26.261380724608898,1631.49 </coordinates></LineString></MultiGeometry></Placemark></Folder></Folder></Document></kml>