<?xml version="1.0" encoding="utf-8"?><kml xmlns="http://www.opengis.net/kml/2.2" xmlns:xsi="http://www.w3.org/2001/XMLSchema-instance" xmlns:kmlx="http://www.google.com/kml/ext/2.2" xmlns:atom="http://www.w3.org/2005/Atom" xmlns:gpxx="http://www.garmin.com/xmlschemas/GpxExtensions/v3"><Document><Style id="point"><IconStyle><scale>0.9</scale><Icon><href>http://maps.google.com/mapfiles/kml/shapes/placemark_circle.png</href></Icon></IconStyle></Style><Folder><name>Tracks</name><Folder><name>[334] Caledonspoort</name><Folder><name>Points</name><Style><ListStyle><listItemType>checkHideChildren</listItemType></ListStyle></Style><Placemark><TimeSpan><begin>2022-12-21T13:29:24Z</begin><end>2022-12-21T13:29:24Z</end></TimeSpan><Style><IconStyle><scale>0.9</scale><Icon><href>http://connect.garmin.com/image/main/icons/kml/grn-play.png</href></Icon></IconStyle></Style><Point><altitudeMode>clampToGround</altitudeMode><coordinates>28.235528133809566,-28.692255187779665,1617.0699999999999</coordinates></Point></Placemark><Placemark><TimeSpan><begin>2022-12-21T13:29:24Z</begin><end>2022-12-21T13:29:32Z</end></TimeSpan><styleUrl>#point</styleUrl><Point><altitudeMode>clampToGround</altitudeMode><coordinates>28.235484631732106,-28.691623024642467,1616.1099999999999</coordinates></Point></Placemark><Placemark><TimeSpan><begin>2022-12-21T13:29:32Z</begin><end>2022-12-21T13:29:34Z</end></TimeSpan><styleUrl>#point</styleUrl><Point><altitudeMode>clampToGround</altitudeMode><coordinates>28.235383462160826,-28.691391265019774,1616.1099999999999</coordinates></Point></Placemark><Placemark><TimeSpan><begin>2022-12-21T13:29:34Z</begin><end>2022-12-21T13:29:35Z</end></TimeSpan><styleUrl>#point</styleUrl><Point><altitudeMode>clampToGround</altitudeMode><coordinates>28.235302912071347,-28.691268805414438,1616.1099999999999</coordinates></Point></Placemark><Placemark><TimeSpan><begin>2022-12-21T13:29:35Z</begin><end>2022-12-21T13:29:36Z</end></TimeSpan><styleUrl>#point</styleUrl><Point><altitudeMode>clampToGround</altitudeMode><coordinates>28.235208028927445,-28.691154476255178,1616.1099999999999</coordinates></Point></Placemark><Placemark><TimeSpan><begin>2022-12-21T13:29:36Z</begin><end>2022-12-21T13:29:37Z</end></TimeSpan><styleUrl>#point</styleUrl><Point><altitudeMode>clampToGround</altitudeMode><coordinates>28.235091771930456,-28.691044673323631,1616.1099999999999</coordinates></Point></Placemark><Placemark><TimeSpan><begin>2022-12-21T13:29:37Z</begin><end>2022-12-21T13:29:38Z</end></TimeSpan><styleUrl>#point</styleUrl><Point><altitudeMode>clampToGround</altitudeMode><coordinates>28.234948692843318,-28.690933110192418,1616.5899999999999</coordinates></Point></Placemark><Placemark><TimeSpan><begin>2022-12-21T13:29:38Z</begin><end>2022-12-21T13:29:39Z</end></TimeSpan><styleUrl>#point</styleUrl><Point><altitudeMode>clampToGround</altitudeMode><coordinates>28.234798992052674,-28.690828671678901,1616.5899999999999</coordinates></Point></Placemark><Placemark><TimeSpan><begin>2022-12-21T13:29:39Z</begin><end>2022-12-21T13:29:43Z</end></TimeSpan><styleUrl>#point</styleUrl><Point><altitudeMode>clampToGround</altitudeMode><coordinates>28.234180826693773,-28.690371355041862,1618.04</coordinates></Point></Placemark><Placemark><TimeSpan><begin>2022-12-21T13:29:43Z</begin><end>2022-12-21T13:29:44Z</end></TimeSpan><styleUrl>#point</styleUrl><Point><altitudeMode>clampToGround</altitudeMode><coordinates>28.23403749614954,-28.690221067517996,1618.04</coordinates></Point></Placemark><Placemark><TimeSpan><begin>2022-12-21T13:29:44Z</begin><end>2022-12-21T13:29:45Z</end></TimeSpan><styleUrl>#point</styleUrl><Point><altitudeMode>clampToGround</altitudeMode><coordinates>28.233910677954555,-28.690062565729022,1618.04</coordinates></Point></Placemark><Placemark><TimeSpan><begin>2022-12-21T13:29:45Z</begin><end>2022-12-21T13:29:52Z</end></TimeSpan><styleUrl>#point</styleUrl><Point><altitudeMode>clampToGround</altitudeMode><coordinates>28.233197880908847,-28.688854901120067,1619</coordinates></Point></Placemark><Placemark><TimeSpan><begin>2022-12-21T13:29:52Z</begin><end>2022-12-21T13:29:53Z</end></TimeSpan><styleUrl>#point</styleUrl><Point><altitudeMode>clampToGround</altitudeMode><coordinates>28.233148511499166,-28.68865767493844,1619.48</coordinates></Point></Placemark><Placemark><TimeSpan><begin>2022-12-21T13:29:53Z</begin><end>2022-12-21T13:29:54Z</end></TimeSpan><styleUrl>#point</styleUrl><Point><altitudeMode>clampToGround</altitudeMode><coordinates>28.233115402981639,-28.688443014398217,1619.48</coordinates></Point></Placemark><Placemark><TimeSpan><begin>2022-12-21T13:29:54Z</begin><end>2022-12-21T13:30:03Z</end></TimeSpan><styleUrl>#point</styleUrl><Point><altitudeMode>clampToGround</altitudeMode><coordinates>28.232935359701514,-28.686562199145555,1622.3599999999999</coordinates></Point></Placemark><Placemark><TimeSpan><begin>2022-12-21T13:30:03Z</begin><end>2022-12-21T13:30:09Z</end></TimeSpan><styleUrl>#point</styleUrl><Point><altitudeMode>clampToGround</altitudeMode><coordinates>28.232589773833752,-28.685350678861141,1626.6900000000001</coordinates></Point></Placemark><Placemark><TimeSpan><begin>2022-12-21T13:30:09Z</begin><end>2022-12-21T13:30:10Z</end></TimeSpan><styleUrl>#point</styleUrl><Point><altitudeMode>clampToGround</altitudeMode><coordinates>28.232583235949278,-28.685136856511235,1627.1700000000001</coordinates></Point></Placemark><Placemark><TimeSpan><begin>2022-12-21T13:30:10Z</begin><end>2022-12-21T13:30:11Z</end></TimeSpan><styleUrl>#point</styleUrl><Point><altitudeMode>clampToGround</altitudeMode><coordinates>28.232600251212716,-28.684893948957324,1628.1300000000001</coordinates></Point></Placemark><Placemark><TimeSpan><begin>2022-12-21T13:30:11Z</begin><end>2022-12-21T13:30:15Z</end></TimeSpan><styleUrl>#point</styleUrl><Point><altitudeMode>clampToGround</altitudeMode><coordinates>28.232667809352279,-28.684007814154029,1631.49</coordinates></Point></Placemark><Placemark><TimeSpan><begin>2022-12-21T13:30:15Z</begin><end>2022-12-21T13:30:16Z</end></TimeSpan><styleUrl>#point</styleUrl><Point><altitudeMode>clampToGround</altitudeMode><coordinates>28.232638305053115,-28.683800781145692,1632.46</coordinates></Point></Placemark><Placemark><TimeSpan><begin>2022-12-21T13:30:16Z</begin><end>2022-12-21T13:30:20Z</end></TimeSpan><styleUrl>#point</styleUrl><Point><altitudeMode>clampToGround</altitudeMode><coordinates>28.232495645061135,-28.682914730161428,1635.3399999999999</coordinates></Point></Placemark><Placemark><TimeSpan><begin>2022-12-21T13:30:20Z</begin><end>2022-12-21T13:30:21Z</end></TimeSpan><styleUrl>#point</styleUrl><Point><altitudeMode>clampToGround</altitudeMode><coordinates>28.232507798820734,-28.682685317471623,1636.3</coordinates></Point></Placemark><Placemark><TimeSpan><begin>2022-12-21T13:30:21Z</begin><end>2022-12-21T13:30:22Z</end></TimeSpan><styleUrl>#point</styleUrl><Point><altitudeMode>clampToGround</altitudeMode><coordinates>28.232542164623737,-28.682461017742753,1637.74</coordinates></Point></Placemark><Placemark><TimeSpan><begin>2022-12-21T13:30:22Z</begin><end>2022-12-21T13:30:23Z</end></TimeSpan><styleUrl>#point</styleUrl><Point><altitudeMode>clampToGround</altitudeMode><coordinates>28.232599413022399,-28.68222632445395,1638.22</coordinates></Point></Placemark><Placemark><TimeSpan><begin>2022-12-21T13:30:23Z</begin><end>2022-12-21T13:30:24Z</end></TimeSpan><styleUrl>#point</styleUrl><Point><altitudeMode>clampToGround</altitudeMode><coordinates>28.23267032392323,-28.681972939521074,1639.1900000000001</coordinates></Point></Placemark><Placemark><TimeSpan><begin>2022-12-21T13:30:24Z</begin><end>2022-12-21T13:30:26Z</end></TimeSpan><styleUrl>#point</styleUrl><Point><altitudeMode>clampToGround</altitudeMode><coordinates>28.232752298936248,-28.681498439982533,1640.6300000000001</coordinates></Point></Placemark><Placemark><TimeSpan><begin>2022-12-21T13:30:26Z</begin><end>2022-12-21T13:30:27Z</end></TimeSpan><styleUrl>#point</styleUrl><Point><altitudeMode>clampToGround</altitudeMode><coordinates>28.23275045491755,-28.681259304285049,1641.1099999999999</coordinates></Point></Placemark><Placemark><TimeSpan><begin>2022-12-21T13:30:27Z</begin><end>2022-12-21T13:30:28Z</end></TimeSpan><styleUrl>#point</styleUrl><Point><altitudeMode>clampToGround</altitudeMode><coordinates>28.232718603685498,-28.681027879938483,1641.1099999999999</coordinates></Point></Placemark><Placemark><TimeSpan><begin>2022-12-21T13:30:28Z</begin><end>2022-12-21T13:30:32Z</end></TimeSpan><styleUrl>#point</styleUrl><Point><altitudeMode>clampToGround</altitudeMode><coordinates>28.232538644224405,-28.680003276094794,1642.55</coordinates></Point></Placemark><Placemark><TimeSpan><begin>2022-12-21T13:30:32Z</begin><end>2022-12-21T13:30:33Z</end></TimeSpan><styleUrl>#point</styleUrl><Point><altitudeMode>clampToGround</altitudeMode><coordinates>28.232546858489513,-28.679714351892471,1643.51</coordinates></Point></Placemark><Placemark><TimeSpan><begin>2022-12-21T13:30:33Z</begin><end>2022-12-21T13:30:34Z</end></TimeSpan><styleUrl>#point</styleUrl><Point><altitudeMode>clampToGround</altitudeMode><coordinates>28.232578374445438,-28.679447639733553,1643.99</coordinates></Point></Placemark><Placemark><TimeSpan><begin>2022-12-21T13:30:34Z</begin><end>2022-12-21T13:30:41Z</end></TimeSpan><styleUrl>#point</styleUrl><Point><altitudeMode>clampToGround</altitudeMode><coordinates>28.232812313362956,-28.677805960178375,1650.24</coordinates></Point></Placemark><Placemark><TimeSpan><begin>2022-12-21T13:30:41Z</begin><end>2022-12-21T13:30:47Z</end></TimeSpan><styleUrl>#point</styleUrl><Point><altitudeMode>clampToGround</altitudeMode><coordinates>28.232559096068144,-28.676513638347387,1651.6800000000001</coordinates></Point></Placemark><Placemark><TimeSpan><begin>2022-12-21T13:30:47Z</begin><end>2022-12-21T13:30:56Z</end></TimeSpan><styleUrl>#point</styleUrl><Point><altitudeMode>clampToGround</altitudeMode><coordinates>28.231558967381716,-28.6743716429919,1645.4300000000001</coordinates></Point></Placemark></Folder><Placemark><name>[334] Caledonspoort</name><Style><LineStyle><color>ffff4040</color><width>4</width></LineStyle></Style><MultiGeometry><LineString><coordinates>28.235528133809566,-28.692255187779665,1617.0699999999999 28.235484631732106,-28.691623024642467,1616.1099999999999 28.235383462160826,-28.691391265019774,1616.1099999999999 28.235302912071347,-28.691268805414438,1616.1099999999999 28.235208028927445,-28.691154476255178,1616.1099999999999 28.235091771930456,-28.691044673323631,1616.1099999999999 28.234948692843318,-28.690933110192418,1616.5899999999999 28.234798992052674,-28.690828671678901,1616.5899999999999 28.234180826693773,-28.690371355041862,1618.04 28.23403749614954,-28.690221067517996,1618.04 28.233910677954555,-28.690062565729022,1618.04 28.233197880908847,-28.688854901120067,1619 28.233148511499166,-28.68865767493844,1619.48 28.233115402981639,-28.688443014398217,1619.48 28.232935359701514,-28.686562199145555,1622.3599999999999 28.232589773833752,-28.685350678861141,1626.6900000000001 28.232583235949278,-28.685136856511235,1627.1700000000001 28.232600251212716,-28.684893948957324,1628.1300000000001 28.232667809352279,-28.684007814154029,1631.49 28.232638305053115,-28.683800781145692,1632.46 28.232495645061135,-28.682914730161428,1635.3399999999999 28.232507798820734,-28.682685317471623,1636.3 28.232542164623737,-28.682461017742753,1637.74 28.232599413022399,-28.68222632445395,1638.22 28.23267032392323,-28.681972939521074,1639.1900000000001 28.232752298936248,-28.681498439982533,1640.6300000000001 28.23275045491755,-28.681259304285049,1641.1099999999999 28.232718603685498,-28.681027879938483,1641.1099999999999 28.232538644224405,-28.680003276094794,1642.55 28.232546858489513,-28.679714351892471,1643.51 28.232578374445438,-28.679447639733553,1643.99 28.232812313362956,-28.677805960178375,1650.24 28.232559096068144,-28.676513638347387,1651.6800000000001 28.231558967381716,-28.6743716429919,1645.4300000000001 </coordinates></LineString></MultiGeometry></Placemark></Folder></Folder></Document></kml>