<?xml version="1.0" encoding="utf-8"?><kml xmlns="http://www.opengis.net/kml/2.2" xmlns:xsi="http://www.w3.org/2001/XMLSchema-instance" xmlns:kmlx="http://www.google.com/kml/ext/2.2" xmlns:atom="http://www.w3.org/2005/Atom" xmlns:gpxx="http://www.garmin.com/xmlschemas/GpxExtensions/v3"><Document><Style id="point"><IconStyle><scale>0.9</scale><Icon><href>http://maps.google.com/mapfiles/kml/shapes/placemark_circle.png</href></Icon></IconStyle></Style><Folder><name>Tracks</name><Folder><name>[336] Noupoortsnek Pass</name><Folder><name>Points</name><Style><ListStyle><listItemType>checkHideChildren</listItemType></ListStyle></Style><Placemark><TimeSpan><begin>2022-12-22T07:11:51Z</begin><end>2022-12-22T07:11:51Z</end></TimeSpan><Style><IconStyle><scale>0.9</scale><Icon><href>http://connect.garmin.com/image/main/icons/kml/grn-play.png</href></Icon></IconStyle></Style><Point><altitudeMode>clampToGround</altitudeMode><coordinates>28.427267521619797,-28.511917199939489,1774.25</coordinates></Point></Placemark><Placemark><TimeSpan><begin>2022-12-22T07:11:51Z</begin><end>2022-12-22T07:12:05Z</end></TimeSpan><styleUrl>#point</styleUrl><Point><altitudeMode>clampToGround</altitudeMode><coordinates>28.42500876635313,-28.510851943865418,1783.3800000000001</coordinates></Point></Placemark><Placemark><TimeSpan><begin>2022-12-22T07:12:05Z</begin><end>2022-12-22T07:12:14Z</end></TimeSpan><styleUrl>#point</styleUrl><Point><altitudeMode>clampToGround</altitudeMode><coordinates>28.423800263553858,-28.509764475747943,1786.75</coordinates></Point></Placemark><Placemark><TimeSpan><begin>2022-12-22T07:12:14Z</begin><end>2022-12-22T07:12:20Z</end></TimeSpan><styleUrl>#point</styleUrl><Point><altitudeMode>clampToGround</altitudeMode><coordinates>28.423198945820332,-28.508609952405095,1787.71</coordinates></Point></Placemark><Placemark><TimeSpan><begin>2022-12-22T07:12:20Z</begin><end>2022-12-22T07:12:28Z</end></TimeSpan><styleUrl>#point</styleUrl><Point><altitudeMode>clampToGround</altitudeMode><coordinates>28.422436695545912,-28.506784290075302,1790.1099999999999</coordinates></Point></Placemark><Placemark><TimeSpan><begin>2022-12-22T07:12:28Z</begin><end>2022-12-22T07:12:37Z</end></TimeSpan><styleUrl>#point</styleUrl><Point><altitudeMode>clampToGround</altitudeMode><coordinates>28.421186869964004,-28.50492057390511,1798.76</coordinates></Point></Placemark><Placemark><TimeSpan><begin>2022-12-22T07:12:37Z</begin><end>2022-12-22T07:12:43Z</end></TimeSpan><styleUrl>#point</styleUrl><Point><altitudeMode>clampToGround</altitudeMode><coordinates>28.420862155035138,-28.503488274291158,1807.4200000000001</coordinates></Point></Placemark><Placemark><TimeSpan><begin>2022-12-22T07:12:43Z</begin><end>2022-12-22T07:12:55Z</end></TimeSpan><styleUrl>#point</styleUrl><Point><altitudeMode>clampToGround</altitudeMode><coordinates>28.420952595770359,-28.500524014234543,1827.5999999999999</coordinates></Point></Placemark><Placemark><TimeSpan><begin>2022-12-22T07:12:55Z</begin><end>2022-12-22T07:13:06Z</end></TimeSpan><styleUrl>#point</styleUrl><Point><altitudeMode>clampToGround</altitudeMode><coordinates>28.421291224658489,-28.497854880988598,1836.74</coordinates></Point></Placemark><Placemark><TimeSpan><begin>2022-12-22T07:13:06Z</begin><end>2022-12-22T07:13:12Z</end></TimeSpan><styleUrl>#point</styleUrl><Point><altitudeMode>clampToGround</altitudeMode><coordinates>28.422174006700516,-28.496562978252769,1841.0599999999999</coordinates></Point></Placemark><Placemark><TimeSpan><begin>2022-12-22T07:13:12Z</begin><end>2022-12-22T07:13:20Z</end></TimeSpan><styleUrl>#point</styleUrl><Point><altitudeMode>clampToGround</altitudeMode><coordinates>28.423450235277414,-28.494906043633819,1851.1600000000001</coordinates></Point></Placemark><Placemark><TimeSpan><begin>2022-12-22T07:13:20Z</begin><end>2022-12-22T07:13:27Z</end></TimeSpan><styleUrl>#point</styleUrl><Point><altitudeMode>clampToGround</altitudeMode><coordinates>28.423982989042997,-28.493098402395844,1861.73</coordinates></Point></Placemark><Placemark><TimeSpan><begin>2022-12-22T07:13:27Z</begin><end>2022-12-22T07:13:37Z</end></TimeSpan><styleUrl>#point</styleUrl><Point><altitudeMode>clampToGround</altitudeMode><coordinates>28.424559077247977,-28.490662788972259,1875.6700000000001</coordinates></Point></Placemark><Placemark><TimeSpan><begin>2022-12-22T07:13:37Z</begin><end>2022-12-22T07:13:44Z</end></TimeSpan><styleUrl>#point</styleUrl><Point><altitudeMode>clampToGround</altitudeMode><coordinates>28.424413902685046,-28.488853303715587,1879.03</coordinates></Point></Placemark><Placemark><TimeSpan><begin>2022-12-22T07:13:44Z</begin><end>2022-12-22T07:13:51Z</end></TimeSpan><styleUrl>#point</styleUrl><Point><altitudeMode>clampToGround</altitudeMode><coordinates>28.423672690987587,-28.487056223675609,1873.27</coordinates></Point></Placemark><Placemark><TimeSpan><begin>2022-12-22T07:13:51Z</begin><end>2022-12-22T07:14:12Z</end></TimeSpan><styleUrl>#point</styleUrl><Point><altitudeMode>clampToGround</altitudeMode><coordinates>28.421214027330279,-28.481611423194408,1850.1900000000001</coordinates></Point></Placemark><Placemark><TimeSpan><begin>2022-12-22T07:14:12Z</begin><end>2022-12-22T07:14:35Z</end></TimeSpan><styleUrl>#point</styleUrl><Point><altitudeMode>clampToGround</altitudeMode><coordinates>28.418582109734416,-28.475781390443444,1831.45</coordinates></Point></Placemark><Placemark><TimeSpan><begin>2022-12-22T07:14:35Z</begin><end>2022-12-22T07:14:55Z</end></TimeSpan><styleUrl>#point</styleUrl><Point><altitudeMode>clampToGround</altitudeMode><coordinates>28.416274152696133,-28.47065350972116,1826.6400000000001</coordinates></Point></Placemark><Placemark><TimeSpan><begin>2022-12-22T07:14:55Z</begin><end>2022-12-22T07:15:14Z</end></TimeSpan><styleUrl>#point</styleUrl><Point><altitudeMode>clampToGround</altitudeMode><coordinates>28.414110783487558,-28.465819079428911,1805.49</coordinates></Point></Placemark></Folder><Placemark><name>[336] Noupoortsnek Pass</name><Style><LineStyle><color>ff00ff00</color><width>4</width></LineStyle></Style><MultiGeometry><LineString><coordinates>28.427267521619797,-28.511917199939489,1774.25 28.42500876635313,-28.510851943865418,1783.3800000000001 28.423800263553858,-28.509764475747943,1786.75 28.423198945820332,-28.508609952405095,1787.71 28.422436695545912,-28.506784290075302,1790.1099999999999 28.421186869964004,-28.50492057390511,1798.76 28.420862155035138,-28.503488274291158,1807.4200000000001 28.420952595770359,-28.500524014234543,1827.5999999999999 28.421291224658489,-28.497854880988598,1836.74 28.422174006700516,-28.496562978252769,1841.0599999999999 28.423450235277414,-28.494906043633819,1851.1600000000001 28.423982989042997,-28.493098402395844,1861.73 28.424559077247977,-28.490662788972259,1875.6700000000001 28.424413902685046,-28.488853303715587,1879.03 28.423672690987587,-28.487056223675609,1873.27 28.421214027330279,-28.481611423194408,1850.1900000000001 28.418582109734416,-28.475781390443444,1831.45 28.416274152696133,-28.47065350972116,1826.6400000000001 28.414110783487558,-28.465819079428911,1805.49 </coordinates></LineString></MultiGeometry></Placemark></Folder></Folder></Document></kml>