<?xml version="1.0" encoding="utf-8"?><kml xmlns="http://www.opengis.net/kml/2.2" xmlns:xsi="http://www.w3.org/2001/XMLSchema-instance" xmlns:kmlx="http://www.google.com/kml/ext/2.2" xmlns:atom="http://www.w3.org/2005/Atom" xmlns:gpxx="http://www.garmin.com/xmlschemas/GpxExtensions/v3"><Document><Style id="point"><IconStyle><scale>0.9</scale><Icon><href>http://maps.google.com/mapfiles/kml/shapes/placemark_circle.png</href></Icon></IconStyle></Style><Folder><name>Tracks</name><Folder><name>[422] Bakkers Pass - 360 - 2026-04-27</name><Folder><name>Points</name><Style><ListStyle><listItemType>checkHideChildren</listItemType></ListStyle></Style><Placemark><TimeSpan><begin>2026-04-27T11:41:26Z</begin><end>2026-04-27T11:41:26Z</end></TimeSpan><Style><IconStyle><scale>0.9</scale><Icon><href>http://connect.garmin.com/image/main/icons/kml/grn-play.png</href></Icon></IconStyle></Style><Point><altitudeMode>clampToGround</altitudeMode><coordinates>27.572230836376548,-24.488834431394935,1445</coordinates></Point></Placemark><Placemark><TimeSpan><begin>2026-04-27T11:41:26Z</begin><end>2026-04-27T11:41:31Z</end></TimeSpan><styleUrl>#point</styleUrl><Point><altitudeMode>clampToGround</altitudeMode><coordinates>27.571750804781914,-24.488942390307784,1445.48</coordinates></Point></Placemark><Placemark><TimeSpan><begin>2026-04-27T11:41:31Z</begin><end>2026-04-27T11:41:36Z</end></TimeSpan><styleUrl>#point</styleUrl><Point><altitudeMode>clampToGround</altitudeMode><coordinates>27.571230540052056,-24.489054372534156,1445</coordinates></Point></Placemark><Placemark><TimeSpan><begin>2026-04-27T11:41:36Z</begin><end>2026-04-27T11:41:41Z</end></TimeSpan><styleUrl>#point</styleUrl><Point><altitudeMode>clampToGround</altitudeMode><coordinates>27.570702731609344,-24.489165348932147,1444.04</coordinates></Point></Placemark><Placemark><TimeSpan><begin>2026-04-27T11:41:41Z</begin><end>2026-04-27T11:41:46Z</end></TimeSpan><styleUrl>#point</styleUrl><Point><altitudeMode>clampToGround</altitudeMode><coordinates>27.570191184058785,-24.489265345036983,1443.0799999999999</coordinates></Point></Placemark><Placemark><TimeSpan><begin>2026-04-27T11:41:46Z</begin><end>2026-04-27T11:41:51Z</end></TimeSpan><styleUrl>#point</styleUrl><Point><altitudeMode>clampToGround</altitudeMode><coordinates>27.569696065038443,-24.489366514608264,1442.1099999999999</coordinates></Point></Placemark><Placemark><TimeSpan><begin>2026-04-27T11:41:51Z</begin><end>2026-04-27T11:41:56Z</end></TimeSpan><styleUrl>#point</styleUrl><Point><altitudeMode>clampToGround</altitudeMode><coordinates>27.569218883290887,-24.489466091617942,1440.6700000000001</coordinates></Point></Placemark><Placemark><TimeSpan><begin>2026-04-27T11:41:56Z</begin><end>2026-04-27T11:42:01Z</end></TimeSpan><styleUrl>#point</styleUrl><Point><altitudeMode>clampToGround</altitudeMode><coordinates>27.568773049861193,-24.489562064409256,1439.23</coordinates></Point></Placemark><Placemark><TimeSpan><begin>2026-04-27T11:42:01Z</begin><end>2026-04-27T11:42:06Z</end></TimeSpan><styleUrl>#point</styleUrl><Point><altitudeMode>clampToGround</altitudeMode><coordinates>27.568360073491931,-24.489648900926113,1438.75</coordinates></Point></Placemark><Placemark><TimeSpan><begin>2026-04-27T11:42:06Z</begin><end>2026-04-27T11:42:11Z</end></TimeSpan><styleUrl>#point</styleUrl><Point><altitudeMode>clampToGround</altitudeMode><coordinates>27.56794860586524,-24.489636914804578,1439.23</coordinates></Point></Placemark><Placemark><TimeSpan><begin>2026-04-27T11:42:11Z</begin><end>2026-04-27T11:42:16Z</end></TimeSpan><styleUrl>#point</styleUrl><Point><altitudeMode>clampToGround</altitudeMode><coordinates>27.567621376365423,-24.489417476579547,1439.23</coordinates></Point></Placemark><Placemark><TimeSpan><begin>2026-04-27T11:42:16Z</begin><end>2026-04-27T11:42:21Z</end></TimeSpan><styleUrl>#point</styleUrl><Point><altitudeMode>clampToGround</altitudeMode><coordinates>27.567499754950404,-24.489107681438327,1440.6700000000001</coordinates></Point></Placemark><Placemark><TimeSpan><begin>2026-04-27T11:42:21Z</begin><end>2026-04-27T11:42:26Z</end></TimeSpan><styleUrl>#point</styleUrl><Point><altitudeMode>clampToGround</altitudeMode><coordinates>27.567383078858256,-24.488752959296107,1442.5999999999999</coordinates></Point></Placemark><Placemark><TimeSpan><begin>2026-04-27T11:42:26Z</begin><end>2026-04-27T11:42:31Z</end></TimeSpan><styleUrl>#point</styleUrl><Point><altitudeMode>clampToGround</altitudeMode><coordinates>27.567304205149412,-24.48840569704771,1445</coordinates></Point></Placemark><Placemark><TimeSpan><begin>2026-04-27T11:42:31Z</begin><end>2026-04-27T11:42:36Z</end></TimeSpan><styleUrl>#point</styleUrl><Point><altitudeMode>clampToGround</altitudeMode><coordinates>27.567218374460936,-24.488041503354907,1446.9200000000001</coordinates></Point></Placemark><Placemark><TimeSpan><begin>2026-04-27T11:42:36Z</begin><end>2026-04-27T11:42:41Z</end></TimeSpan><styleUrl>#point</styleUrl><Point><altitudeMode>clampToGround</altitudeMode><coordinates>27.56711452268064,-24.487651325762272,1448.8399999999999</coordinates></Point></Placemark><Placemark><TimeSpan><begin>2026-04-27T11:42:41Z</begin><end>2026-04-27T11:42:46Z</end></TimeSpan><styleUrl>#point</styleUrl><Point><altitudeMode>clampToGround</altitudeMode><coordinates>27.566974377259612,-24.487261148169637,1449.8099999999999</coordinates></Point></Placemark><Placemark><TimeSpan><begin>2026-04-27T11:42:46Z</begin><end>2026-04-27T11:42:51Z</end></TimeSpan><styleUrl>#point</styleUrl><Point><altitudeMode>clampToGround</altitudeMode><coordinates>27.566790813580155,-24.486878765746951,1449.8099999999999</coordinates></Point></Placemark><Placemark><TimeSpan><begin>2026-04-27T11:42:51Z</begin><end>2026-04-27T11:42:56Z</end></TimeSpan><styleUrl>#point</styleUrl><Point><altitudeMode>clampToGround</altitudeMode><coordinates>27.566554360091686,-24.486511386930943,1448.8399999999999</coordinates></Point></Placemark><Placemark><TimeSpan><begin>2026-04-27T11:42:56Z</begin><end>2026-04-27T11:43:01Z</end></TimeSpan><styleUrl>#point</styleUrl><Point><altitudeMode>clampToGround</altitudeMode><coordinates>27.566294688731432,-24.486174266785383,1446.4400000000001</coordinates></Point></Placemark><Placemark><TimeSpan><begin>2026-04-27T11:43:01Z</begin><end>2026-04-27T11:43:06Z</end></TimeSpan><styleUrl>#point</styleUrl><Point><altitudeMode>clampToGround</altitudeMode><coordinates>27.566015990450978,-24.485917864367366,1444.52</coordinates></Point></Placemark><Placemark><TimeSpan><begin>2026-04-27T11:43:06Z</begin><end>2026-04-27T11:43:11Z</end></TimeSpan><styleUrl>#point</styleUrl><Point><altitudeMode>clampToGround</altitudeMode><coordinates>27.565698903053999,-24.48584133759141,1443.0799999999999</coordinates></Point></Placemark><Placemark><TimeSpan><begin>2026-04-27T11:43:11Z</begin><end>2026-04-27T11:43:16Z</end></TimeSpan><styleUrl>#point</styleUrl><Point><altitudeMode>clampToGround</altitudeMode><coordinates>27.565431771799922,-24.486035797744989,1441.6300000000001</coordinates></Point></Placemark><Placemark><TimeSpan><begin>2026-04-27T11:43:16Z</begin><end>2026-04-27T11:43:21Z</end></TimeSpan><styleUrl>#point</styleUrl><Point><altitudeMode>clampToGround</altitudeMode><coordinates>27.565223230049014,-24.486355651170015,1439.23</coordinates></Point></Placemark><Placemark><TimeSpan><begin>2026-04-27T11:43:21Z</begin><end>2026-04-27T11:43:26Z</end></TimeSpan><styleUrl>#point</styleUrl><Point><altitudeMode>clampToGround</altitudeMode><coordinates>27.564982334151864,-24.486556900665164,1435.8699999999999</coordinates></Point></Placemark><Placemark><TimeSpan><begin>2026-04-27T11:43:26Z</begin><end>2026-04-27T11:43:31Z</end></TimeSpan><styleUrl>#point</styleUrl><Point><altitudeMode>clampToGround</altitudeMode><coordinates>27.564658457413316,-24.486715067178011,1432.02</coordinates></Point></Placemark><Placemark><TimeSpan><begin>2026-04-27T11:43:31Z</begin><end>2026-04-27T11:43:36Z</end></TimeSpan><styleUrl>#point</styleUrl><Point><altitudeMode>clampToGround</altitudeMode><coordinates>27.564312117174268,-24.486886477097869,1428.6600000000001</coordinates></Point></Placemark><Placemark><TimeSpan><begin>2026-04-27T11:43:36Z</begin><end>2026-04-27T11:43:41Z</end></TimeSpan><styleUrl>#point</styleUrl><Point><altitudeMode>clampToGround</altitudeMode><coordinates>27.563980026170611,-24.487048918381333,1425.29</coordinates></Point></Placemark><Placemark><TimeSpan><begin>2026-04-27T11:43:41Z</begin><end>2026-04-27T11:43:46Z</end></TimeSpan><styleUrl>#point</styleUrl><Point><altitudeMode>clampToGround</altitudeMode><coordinates>27.563646594062448,-24.487081859260798,1421.9300000000001</coordinates></Point></Placemark><Placemark><TimeSpan><begin>2026-04-27T11:43:46Z</begin><end>2026-04-27T11:43:51Z</end></TimeSpan><styleUrl>#point</styleUrl><Point><altitudeMode>clampToGround</altitudeMode><coordinates>27.563358508050442,-24.486951855942607,1420</coordinates></Point></Placemark><Placemark><TimeSpan><begin>2026-04-27T11:43:51Z</begin><end>2026-04-27T11:43:56Z</end></TimeSpan><styleUrl>#point</styleUrl><Point><altitudeMode>clampToGround</altitudeMode><coordinates>27.563131861388683,-24.486726466566324,1417.1199999999999</coordinates></Point></Placemark><Placemark><TimeSpan><begin>2026-04-27T11:43:56Z</begin><end>2026-04-27T11:44:01Z</end></TimeSpan><styleUrl>#point</styleUrl><Point><altitudeMode>clampToGround</altitudeMode><coordinates>27.562862131744623,-24.486511638388038,1414.24</coordinates></Point></Placemark><Placemark><TimeSpan><begin>2026-04-27T11:44:01Z</begin><end>2026-04-27T11:44:06Z</end></TimeSpan><styleUrl>#point</styleUrl><Point><altitudeMode>clampToGround</altitudeMode><coordinates>27.562567004933953,-24.48637300170958,1412.79</coordinates></Point></Placemark><Placemark><TimeSpan><begin>2026-04-27T11:44:06Z</begin><end>2026-04-27T11:44:11Z</end></TimeSpan><styleUrl>#point</styleUrl><Point><altitudeMode>clampToGround</altitudeMode><coordinates>27.56227707490325,-24.486389346420765,1411.8299999999999</coordinates></Point></Placemark><Placemark><TimeSpan><begin>2026-04-27T11:44:11Z</begin><end>2026-04-27T11:44:16Z</end></TimeSpan><styleUrl>#point</styleUrl><Point><altitudeMode>clampToGround</altitudeMode><coordinates>27.562147406861186,-24.486670391634107,1410.3900000000001</coordinates></Point></Placemark><Placemark><TimeSpan><begin>2026-04-27T11:44:16Z</begin><end>2026-04-27T11:44:21Z</end></TimeSpan><styleUrl>#point</styleUrl><Point><altitudeMode>clampToGround</altitudeMode><coordinates>27.562031149864197,-24.486986808478832,1409.4300000000001</coordinates></Point></Placemark><Placemark><TimeSpan><begin>2026-04-27T11:44:21Z</begin><end>2026-04-27T11:44:26Z</end></TimeSpan><styleUrl>#point</styleUrl><Point><altitudeMode>clampToGround</altitudeMode><coordinates>27.561900978907943,-24.487260058522224,1407.03</coordinates></Point></Placemark><Placemark><TimeSpan><begin>2026-04-27T11:44:26Z</begin><end>2026-04-27T11:44:31Z</end></TimeSpan><styleUrl>#point</styleUrl><Point><altitudeMode>clampToGround</altitudeMode><coordinates>27.561895027756691,-24.48756230995059,1405.0999999999999</coordinates></Point></Placemark><Placemark><TimeSpan><begin>2026-04-27T11:44:31Z</begin><end>2026-04-27T11:44:36Z</end></TimeSpan><styleUrl>#point</styleUrl><Point><altitudeMode>clampToGround</altitudeMode><coordinates>27.561963256448507,-24.487849976867437,1402.7</coordinates></Point></Placemark><Placemark><TimeSpan><begin>2026-04-27T11:44:36Z</begin><end>2026-04-27T11:44:41Z</end></TimeSpan><styleUrl>#point</styleUrl><Point><altitudeMode>clampToGround</altitudeMode><coordinates>27.562041711062193,-24.488098416477442,1401.26</coordinates></Point></Placemark><Placemark><TimeSpan><begin>2026-04-27T11:44:41Z</begin><end>2026-04-27T11:44:46Z</end></TimeSpan><styleUrl>#point</styleUrl><Point><altitudeMode>clampToGround</altitudeMode><coordinates>27.562204906716943,-24.488330846652389,1399.8199999999999</coordinates></Point></Placemark><Placemark><TimeSpan><begin>2026-04-27T11:44:46Z</begin><end>2026-04-27T11:44:51Z</end></TimeSpan><styleUrl>#point</styleUrl><Point><altitudeMode>clampToGround</altitudeMode><coordinates>27.562464075163007,-24.488501837477088,1397.8900000000001</coordinates></Point></Placemark><Placemark><TimeSpan><begin>2026-04-27T11:44:51Z</begin><end>2026-04-27T11:44:56Z</end></TimeSpan><styleUrl>#point</styleUrl><Point><altitudeMode>clampToGround</altitudeMode><coordinates>27.562636407092214,-24.488731501623988,1395.01</coordinates></Point></Placemark><Placemark><TimeSpan><begin>2026-04-27T11:44:56Z</begin><end>2026-04-27T11:45:01Z</end></TimeSpan><styleUrl>#point</styleUrl><Point><altitudeMode>clampToGround</altitudeMode><coordinates>27.562700947746634,-24.489020006731153,1392.1300000000001</coordinates></Point></Placemark><Placemark><TimeSpan><begin>2026-04-27T11:45:01Z</begin><end>2026-04-27T11:45:06Z</end></TimeSpan><styleUrl>#point</styleUrl><Point><altitudeMode>clampToGround</altitudeMode><coordinates>27.562659038230777,-24.489307003095746,1389.72</coordinates></Point></Placemark><Placemark><TimeSpan><begin>2026-04-27T11:45:06Z</begin><end>2026-04-27T11:45:11Z</end></TimeSpan><styleUrl>#point</styleUrl><Point><altitudeMode>clampToGround</altitudeMode><coordinates>27.562456112354994,-24.489536080509424,1387.3199999999999</coordinates></Point></Placemark><Placemark><TimeSpan><begin>2026-04-27T11:45:11Z</begin><end>2026-04-27T11:45:16Z</end></TimeSpan><styleUrl>#point</styleUrl><Point><altitudeMode>clampToGround</altitudeMode><coordinates>27.562237847596407,-24.48976892977953,1383.96</coordinates></Point></Placemark><Placemark><TimeSpan><begin>2026-04-27T11:45:16Z</begin><end>2026-04-27T11:45:21Z</end></TimeSpan><styleUrl>#point</styleUrl><Point><altitudeMode>clampToGround</altitudeMode><coordinates>27.562099294736981,-24.489967580884695,1381.55</coordinates></Point></Placemark><Placemark><TimeSpan><begin>2026-04-27T11:45:21Z</begin><end>2026-04-27T11:45:26Z</end></TimeSpan><styleUrl>#point</styleUrl><Point><altitudeMode>clampToGround</altitudeMode><coordinates>27.562035927549005,-24.490223228931427,1378.6700000000001</coordinates></Point></Placemark><Placemark><TimeSpan><begin>2026-04-27T11:45:26Z</begin><end>2026-04-27T11:45:31Z</end></TimeSpan><styleUrl>#point</styleUrl><Point><altitudeMode>clampToGround</altitudeMode><coordinates>27.562056547030807,-24.490521540865302,1375.3</coordinates></Point></Placemark><Placemark><TimeSpan><begin>2026-04-27T11:45:31Z</begin><end>2026-04-27T11:45:36Z</end></TimeSpan><styleUrl>#point</styleUrl><Point><altitudeMode>clampToGround</altitudeMode><coordinates>27.56205185316503,-24.490789929404855,1371.9400000000001</coordinates></Point></Placemark><Placemark><TimeSpan><begin>2026-04-27T11:45:36Z</begin><end>2026-04-27T11:45:41Z</end></TimeSpan><styleUrl>#point</styleUrl><Point><altitudeMode>clampToGround</altitudeMode><coordinates>27.561901565641165,-24.490985479205847,1369.54</coordinates></Point></Placemark><Placemark><TimeSpan><begin>2026-04-27T11:45:41Z</begin><end>2026-04-27T11:45:46Z</end></TimeSpan><styleUrl>#point</styleUrl><Point><altitudeMode>clampToGround</altitudeMode><coordinates>27.561646588146687,-24.491164935752749,1366.6500000000001</coordinates></Point></Placemark><Placemark><TimeSpan><begin>2026-04-27T11:45:46Z</begin><end>2026-04-27T11:45:51Z</end></TimeSpan><styleUrl>#point</styleUrl><Point><altitudeMode>clampToGround</altitudeMode><coordinates>27.561359591782093,-24.49136333540082,1363.29</coordinates></Point></Placemark><Placemark><TimeSpan><begin>2026-04-27T11:45:51Z</begin><end>2026-04-27T11:45:56Z</end></TimeSpan><styleUrl>#point</styleUrl><Point><altitudeMode>clampToGround</altitudeMode><coordinates>27.561075780540705,-24.49149769730866,1359.9200000000001</coordinates></Point></Placemark><Placemark><TimeSpan><begin>2026-04-27T11:45:56Z</begin><end>2026-04-27T11:46:01Z</end></TimeSpan><styleUrl>#point</styleUrl><Point><altitudeMode>clampToGround</altitudeMode><coordinates>27.560745282098651,-24.491554778069258,1357.04</coordinates></Point></Placemark><Placemark><TimeSpan><begin>2026-04-27T11:46:01Z</begin><end>2026-04-27T11:46:06Z</end></TimeSpan><styleUrl>#point</styleUrl><Point><altitudeMode>clampToGround</altitudeMode><coordinates>27.560402043163776,-24.491542540490627,1354.6300000000001</coordinates></Point></Placemark><Placemark><TimeSpan><begin>2026-04-27T11:46:06Z</begin><end>2026-04-27T11:46:11Z</end></TimeSpan><styleUrl>#point</styleUrl><Point><altitudeMode>clampToGround</altitudeMode><coordinates>27.560082944110036,-24.491487722843885,1351.75</coordinates></Point></Placemark><Placemark><TimeSpan><begin>2026-04-27T11:46:11Z</begin><end>2026-04-27T11:46:16Z</end></TimeSpan><styleUrl>#point</styleUrl><Point><altitudeMode>clampToGround</altitudeMode><coordinates>27.559788236394525,-24.491391079500318,1349.3499999999999</coordinates></Point></Placemark><Placemark><TimeSpan><begin>2026-04-27T11:46:16Z</begin><end>2026-04-27T11:46:21Z</end></TimeSpan><styleUrl>#point</styleUrl><Point><altitudeMode>clampToGround</altitudeMode><coordinates>27.559584220871329,-24.491189578548074,1346.46</coordinates></Point></Placemark><Placemark><TimeSpan><begin>2026-04-27T11:46:21Z</begin><end>2026-04-27T11:46:26Z</end></TimeSpan><styleUrl>#point</styleUrl><Point><altitudeMode>clampToGround</altitudeMode><coordinates>27.559485901147127,-24.491011379286647,1344.54</coordinates></Point></Placemark><Placemark><TimeSpan><begin>2026-04-27T11:46:26Z</begin><end>2026-04-27T11:46:31Z</end></TimeSpan><styleUrl>#point</styleUrl><Point><altitudeMode>clampToGround</altitudeMode><coordinates>27.559330835938454,-24.490817002952099,1343.5799999999999</coordinates></Point></Placemark><Placemark><TimeSpan><begin>2026-04-27T11:46:31Z</begin><end>2026-04-27T11:46:36Z</end></TimeSpan><styleUrl>#point</styleUrl><Point><altitudeMode>clampToGround</altitudeMode><coordinates>27.559062112122774,-24.490794707089663,1343.0999999999999</coordinates></Point></Placemark><Placemark><TimeSpan><begin>2026-04-27T11:46:36Z</begin><end>2026-04-27T11:46:41Z</end></TimeSpan><styleUrl>#point</styleUrl><Point><altitudeMode>clampToGround</altitudeMode><coordinates>27.558858348056674,-24.490997297689319,1343.5799999999999</coordinates></Point></Placemark><Placemark><TimeSpan><begin>2026-04-27T11:46:41Z</begin><end>2026-04-27T11:46:46Z</end></TimeSpan><styleUrl>#point</styleUrl><Point><altitudeMode>clampToGround</altitudeMode><coordinates>27.558750389143825,-24.49127146974206,1343.0999999999999</coordinates></Point></Placemark><Placemark><TimeSpan><begin>2026-04-27T11:46:46Z</begin><end>2026-04-27T11:46:51Z</end></TimeSpan><styleUrl>#point</styleUrl><Point><altitudeMode>clampToGround</altitudeMode><coordinates>27.558673778548837,-24.491499876603484,1342.1400000000001</coordinates></Point></Placemark><Placemark><TimeSpan><begin>2026-04-27T11:46:51Z</begin><end>2026-04-27T11:46:56Z</end></TimeSpan><styleUrl>#point</styleUrl><Point><altitudeMode>clampToGround</altitudeMode><coordinates>27.558641340583563,-24.491750244051218,1340.7</coordinates></Point></Placemark><Placemark><TimeSpan><begin>2026-04-27T11:46:56Z</begin><end>2026-04-27T11:47:01Z</end></TimeSpan><styleUrl>#point</styleUrl><Point><altitudeMode>clampToGround</altitudeMode><coordinates>27.558714933693409,-24.492032798007131,1337.8099999999999</coordinates></Point></Placemark><Placemark><TimeSpan><begin>2026-04-27T11:47:01Z</begin><end>2026-04-27T11:47:06Z</end></TimeSpan><styleUrl>#point</styleUrl><Point><altitudeMode>clampToGround</altitudeMode><coordinates>27.558842841535807,-24.492285260930657,1335.4100000000001</coordinates></Point></Placemark><Placemark><TimeSpan><begin>2026-04-27T11:47:06Z</begin><end>2026-04-27T11:47:11Z</end></TimeSpan><styleUrl>#point</styleUrl><Point><altitudeMode>clampToGround</altitudeMode><coordinates>27.558912998065352,-24.492548201233149,1332.52</coordinates></Point></Placemark><Placemark><TimeSpan><begin>2026-04-27T11:47:11Z</begin><end>2026-04-27T11:47:16Z</end></TimeSpan><styleUrl>#point</styleUrl><Point><altitudeMode>clampToGround</altitudeMode><coordinates>27.558947028592229,-24.492845674976707,1328.6800000000001</coordinates></Point></Placemark><Placemark><TimeSpan><begin>2026-04-27T11:47:16Z</begin><end>2026-04-27T11:47:21Z</end></TimeSpan><styleUrl>#point</styleUrl><Point><altitudeMode>clampToGround</altitudeMode><coordinates>27.558957589790225,-24.493160583078861,1325.3099999999999</coordinates></Point></Placemark><Placemark><TimeSpan><begin>2026-04-27T11:47:21Z</begin><end>2026-04-27T11:47:26Z</end></TimeSpan><styleUrl>#point</styleUrl><Point><altitudeMode>clampToGround</altitudeMode><coordinates>27.558940825983882,-24.49348445981741,1322.4300000000001</coordinates></Point></Placemark><Placemark><TimeSpan><begin>2026-04-27T11:47:26Z</begin><end>2026-04-27T11:47:31Z</end></TimeSpan><styleUrl>#point</styleUrl><Point><altitudeMode>clampToGround</altitudeMode><coordinates>27.558901095762849,-24.49380992911756,1319.55</coordinates></Point></Placemark><Placemark><TimeSpan><begin>2026-04-27T11:47:31Z</begin><end>2026-04-27T11:47:36Z</end></TimeSpan><styleUrl>#point</styleUrl><Point><altitudeMode>clampToGround</altitudeMode><coordinates>27.558936299756169,-24.494105139747262,1316.1800000000001</coordinates></Point></Placemark><Placemark><TimeSpan><begin>2026-04-27T11:47:36Z</begin><end>2026-04-27T11:47:41Z</end></TimeSpan><styleUrl>#point</styleUrl><Point><altitudeMode>clampToGround</altitudeMode><coordinates>27.559131430462003,-24.494376545771956,1313.78</coordinates></Point></Placemark><Placemark><TimeSpan><begin>2026-04-27T11:47:41Z</begin><end>2026-04-27T11:47:46Z</end></TimeSpan><styleUrl>#point</styleUrl><Point><altitudeMode>clampToGround</altitudeMode><coordinates>27.559360507875681,-24.494603024795651,1311.3800000000001</coordinates></Point></Placemark><Placemark><TimeSpan><begin>2026-04-27T11:47:46Z</begin><end>2026-04-27T11:47:51Z</end></TimeSpan><styleUrl>#point</styleUrl><Point><altitudeMode>clampToGround</altitudeMode><coordinates>27.559622693806887,-24.494815254583955,1308.01</coordinates></Point></Placemark><Placemark><TimeSpan><begin>2026-04-27T11:47:51Z</begin><end>2026-04-27T11:47:56Z</end></TimeSpan><styleUrl>#point</styleUrl><Point><altitudeMode>clampToGround</altitudeMode><coordinates>27.559890663251281,-24.495074339210987,1303.6900000000001</coordinates></Point></Placemark><Placemark><TimeSpan><begin>2026-04-27T11:47:56Z</begin><end>2026-04-27T11:48:01Z</end></TimeSpan><styleUrl>#point</styleUrl><Point><altitudeMode>clampToGround</altitudeMode><coordinates>27.560026030987501,-24.495393102988601,1299.8399999999999</coordinates></Point></Placemark><Placemark><TimeSpan><begin>2026-04-27T11:48:01Z</begin><end>2026-04-27T11:48:06Z</end></TimeSpan><styleUrl>#point</styleUrl><Point><altitudeMode>clampToGround</altitudeMode><coordinates>27.56005042232573,-24.495753021910787,1296.48</coordinates></Point></Placemark><Placemark><TimeSpan><begin>2026-04-27T11:48:06Z</begin><end>2026-04-27T11:48:11Z</end></TimeSpan><styleUrl>#point</styleUrl><Point><altitudeMode>clampToGround</altitudeMode><coordinates>27.559976661577821,-24.496087543666363,1293.5899999999999</coordinates></Point></Placemark><Placemark><TimeSpan><begin>2026-04-27T11:48:11Z</begin><end>2026-04-27T11:48:16Z</end></TimeSpan><styleUrl>#point</styleUrl><Point><altitudeMode>clampToGround</altitudeMode><coordinates>27.559853028506041,-24.496424412354827,1288.78</coordinates></Point></Placemark><Placemark><TimeSpan><begin>2026-04-27T11:48:16Z</begin><end>2026-04-27T11:48:21Z</end></TimeSpan><styleUrl>#point</styleUrl><Point><altitudeMode>clampToGround</altitudeMode><coordinates>27.559745656326413,-24.496769746765494,1284.9400000000001</coordinates></Point></Placemark><Placemark><TimeSpan><begin>2026-04-27T11:48:21Z</begin><end>2026-04-27T11:48:26Z</end></TimeSpan><styleUrl>#point</styleUrl><Point><altitudeMode>clampToGround</altitudeMode><coordinates>27.55965219810605,-24.497094377875328,1281.0899999999999</coordinates></Point></Placemark><Placemark><TimeSpan><begin>2026-04-27T11:48:26Z</begin><end>2026-04-27T11:48:31Z</end></TimeSpan><styleUrl>#point</styleUrl><Point><altitudeMode>clampToGround</altitudeMode><coordinates>27.559547927230597,-24.497463349252939,1277.25</coordinates></Point></Placemark><Placemark><TimeSpan><begin>2026-04-27T11:48:31Z</begin><end>2026-04-27T11:48:36Z</end></TimeSpan><styleUrl>#point</styleUrl><Point><altitudeMode>clampToGround</altitudeMode><coordinates>27.559461677446961,-24.497813545167446,1272.9200000000001</coordinates></Point></Placemark><Placemark><TimeSpan><begin>2026-04-27T11:48:36Z</begin><end>2026-04-27T11:48:41Z</end></TimeSpan><styleUrl>#point</styleUrl><Point><altitudeMode>clampToGround</altitudeMode><coordinates>27.559365956112742,-24.498127195984125,1268.5999999999999</coordinates></Point></Placemark><Placemark><TimeSpan><begin>2026-04-27T11:48:41Z</begin><end>2026-04-27T11:48:46Z</end></TimeSpan><styleUrl>#point</styleUrl><Point><altitudeMode>clampToGround</altitudeMode><coordinates>27.559268558397889,-24.498412432149053,1263.79</coordinates></Point></Placemark><Placemark><TimeSpan><begin>2026-04-27T11:48:46Z</begin><end>2026-04-27T11:48:51Z</end></TimeSpan><styleUrl>#point</styleUrl><Point><altitudeMode>clampToGround</altitudeMode><coordinates>27.559139477089047,-24.498662799596786,1259.46</coordinates></Point></Placemark><Placemark><TimeSpan><begin>2026-04-27T11:48:51Z</begin><end>2026-04-27T11:48:56Z</end></TimeSpan><styleUrl>#point</styleUrl><Point><altitudeMode>clampToGround</altitudeMode><coordinates>27.558984411880374,-24.498939905315638,1255.1400000000001</coordinates></Point></Placemark><Placemark><TimeSpan><begin>2026-04-27T11:48:56Z</begin><end>2026-04-27T11:49:01Z</end></TimeSpan><styleUrl>#point</styleUrl><Point><altitudeMode>clampToGround</altitudeMode><coordinates>27.558837309479713,-24.499255567789078,1250.3299999999999</coordinates></Point></Placemark><Placemark><TimeSpan><begin>2026-04-27T11:49:01Z</begin><end>2026-04-27T11:49:06Z</end></TimeSpan><styleUrl>#point</styleUrl><Point><altitudeMode>clampToGround</altitudeMode><coordinates>27.55868760868907,-24.499555137008429,1245.53</coordinates></Point></Placemark><Placemark><TimeSpan><begin>2026-04-27T11:49:06Z</begin><end>2026-04-27T11:49:11Z</end></TimeSpan><styleUrl>#point</styleUrl><Point><altitudeMode>clampToGround</altitudeMode><coordinates>27.558563556522131,-24.499736353754997,1240.72</coordinates></Point></Placemark><Placemark><TimeSpan><begin>2026-04-27T11:49:11Z</begin><end>2026-04-27T11:49:16Z</end></TimeSpan><styleUrl>#point</styleUrl><Point><altitudeMode>clampToGround</altitudeMode><coordinates>27.558423830196261,-24.499912708997726,1237.3499999999999</coordinates></Point></Placemark><Placemark><TimeSpan><begin>2026-04-27T11:49:16Z</begin><end>2026-04-27T11:49:21Z</end></TimeSpan><styleUrl>#point</styleUrl><Point><altitudeMode>clampToGround</altitudeMode><coordinates>27.558223670348525,-24.500140445306897,1233.51</coordinates></Point></Placemark><Placemark><TimeSpan><begin>2026-04-27T11:49:21Z</begin><end>2026-04-27T11:49:26Z</end></TimeSpan><styleUrl>#point</styleUrl><Point><altitudeMode>clampToGround</altitudeMode><coordinates>27.55802359431982,-24.500356866046786,1229.1800000000001</coordinates></Point></Placemark><Placemark><TimeSpan><begin>2026-04-27T11:49:26Z</begin><end>2026-04-27T11:49:31Z</end></TimeSpan><styleUrl>#point</styleUrl><Point><altitudeMode>clampToGround</altitudeMode><coordinates>27.557879677042365,-24.500504974275827,1225.8199999999999</coordinates></Point></Placemark><Placemark><TimeSpan><begin>2026-04-27T11:49:31Z</begin><end>2026-04-27T11:49:36Z</end></TimeSpan><styleUrl>#point</styleUrl><Point><altitudeMode>clampToGround</altitudeMode><coordinates>27.557755457237363,-24.50061603449285,1223.4200000000001</coordinates></Point></Placemark><Placemark><TimeSpan><begin>2026-04-27T11:49:36Z</begin><end>2026-04-27T11:49:41Z</end></TimeSpan><styleUrl>#point</styleUrl><Point><altitudeMode>clampToGround</altitudeMode><coordinates>27.557596201077104,-24.50069080106914,1220.53</coordinates></Point></Placemark><Placemark><TimeSpan><begin>2026-04-27T11:49:41Z</begin><end>2026-04-27T11:49:46Z</end></TimeSpan><styleUrl>#point</styleUrl><Point><altitudeMode>clampToGround</altitudeMode><coordinates>27.557396125048399,-24.500729022547603,1217.1700000000001</coordinates></Point></Placemark><Placemark><TimeSpan><begin>2026-04-27T11:49:46Z</begin><end>2026-04-27T11:49:51Z</end></TimeSpan><styleUrl>#point</styleUrl><Point><altitudeMode>clampToGround</altitudeMode><coordinates>27.557168724015355,-24.500764310359955,1212.8399999999999</coordinates></Point></Placemark><Placemark><TimeSpan><begin>2026-04-27T11:49:51Z</begin><end>2026-04-27T11:49:56Z</end></TimeSpan><styleUrl>#point</styleUrl><Point><altitudeMode>clampToGround</altitudeMode><coordinates>27.55696864798665,-24.500792557373643,1209</coordinates></Point></Placemark><Placemark><TimeSpan><begin>2026-04-27T11:49:56Z</begin><end>2026-04-27T11:50:01Z</end></TimeSpan><styleUrl>#point</styleUrl><Point><altitudeMode>clampToGround</altitudeMode><coordinates>27.556762956082821,-24.500815691426396,1206.1099999999999</coordinates></Point></Placemark><Placemark><TimeSpan><begin>2026-04-27T11:50:01Z</begin><end>2026-04-27T11:50:06Z</end></TimeSpan><styleUrl>#point</styleUrl><Point><altitudeMode>clampToGround</altitudeMode><coordinates>27.556487862020731,-24.500841591507196,1203.71</coordinates></Point></Placemark><Placemark><TimeSpan><begin>2026-04-27T11:50:06Z</begin><end>2026-04-27T11:50:11Z</end></TimeSpan><styleUrl>#point</styleUrl><Point><altitudeMode>clampToGround</altitudeMode><coordinates>27.556151999160647,-24.500936223194003,1199.8599999999999</coordinates></Point></Placemark><Placemark><TimeSpan><begin>2026-04-27T11:50:11Z</begin><end>2026-04-27T11:50:16Z</end></TimeSpan><styleUrl>#point</styleUrl><Point><altitudeMode>clampToGround</altitudeMode><coordinates>27.555789649486542,-24.501091875135899,1196.02</coordinates></Point></Placemark><Placemark><TimeSpan><begin>2026-04-27T11:50:16Z</begin><end>2026-04-27T11:50:21Z</end></TimeSpan><styleUrl>#point</styleUrl><Point><altitudeMode>clampToGround</altitudeMode><coordinates>27.555378433316946,-24.501201175153255,1191.6900000000001</coordinates></Point></Placemark><Placemark><TimeSpan><begin>2026-04-27T11:50:21Z</begin><end>2026-04-27T11:50:26Z</end></TimeSpan><styleUrl>#point</styleUrl><Point><altitudeMode>clampToGround</altitudeMode><coordinates>27.554963948205113,-24.501227913424373,1188.3299999999999</coordinates></Point></Placemark><Placemark><TimeSpan><begin>2026-04-27T11:50:26Z</begin><end>2026-04-27T11:50:31Z</end></TimeSpan><styleUrl>#point</styleUrl><Point><altitudeMode>clampToGround</altitudeMode><coordinates>27.554552061483264,-24.501166976988316,1184.48</coordinates></Point></Placemark><Placemark><TimeSpan><begin>2026-04-27T11:50:31Z</begin><end>2026-04-27T11:50:36Z</end></TimeSpan><styleUrl>#point</styleUrl><Point><altitudeMode>clampToGround</altitudeMode><coordinates>27.554112263023853,-24.501087097451091,1181.1199999999999</coordinates></Point></Placemark><Placemark><TimeSpan><begin>2026-04-27T11:50:36Z</begin><end>2026-04-27T11:50:41Z</end></TimeSpan><styleUrl>#point</styleUrl><Point><altitudeMode>clampToGround</altitudeMode><coordinates>27.553650001063943,-24.500995902344584,1177.27</coordinates></Point></Placemark><Placemark><TimeSpan><begin>2026-04-27T11:50:41Z</begin><end>2026-04-27T11:50:46Z</end></TimeSpan><styleUrl>#point</styleUrl><Point><altitudeMode>clampToGround</altitudeMode><coordinates>27.553207939490676,-24.500899175181985,1173.9100000000001</coordinates></Point></Placemark><Placemark><TimeSpan><begin>2026-04-27T11:50:46Z</begin><end>2026-04-27T11:50:51Z</end></TimeSpan><styleUrl>#point</styleUrl><Point><altitudeMode>clampToGround</altitudeMode><coordinates>27.552747437730432,-24.500805549323559,1170.0599999999999</coordinates></Point></Placemark><Placemark><TimeSpan><begin>2026-04-27T11:50:51Z</begin><end>2026-04-27T11:50:56Z</end></TimeSpan><styleUrl>#point</styleUrl><Point><altitudeMode>clampToGround</altitudeMode><coordinates>27.55227436311543,-24.500720892101526,1166.22</coordinates></Point></Placemark><Placemark><TimeSpan><begin>2026-04-27T11:50:56Z</begin><end>2026-04-27T11:51:01Z</end></TimeSpan><styleUrl>#point</styleUrl><Point><altitudeMode>clampToGround</altitudeMode><coordinates>27.55177941173315,-24.500642437487841,1162.8499999999999</coordinates></Point></Placemark><Placemark><TimeSpan><begin>2026-04-27T11:51:01Z</begin><end>2026-04-27T11:51:06Z</end></TimeSpan><styleUrl>#point</styleUrl><Point><altitudeMode>clampToGround</altitudeMode><coordinates>27.551304325461388,-24.500565743073821,1159.01</coordinates></Point></Placemark><Placemark><TimeSpan><begin>2026-04-27T11:51:06Z</begin><end>2026-04-27T11:51:11Z</end></TimeSpan><styleUrl>#point</styleUrl><Point><altitudeMode>clampToGround</altitudeMode><coordinates>27.550878776237369,-24.500483935698867,1155.1600000000001</coordinates></Point></Placemark><Placemark><TimeSpan><begin>2026-04-27T11:51:11Z</begin><end>2026-04-27T11:51:16Z</end></TimeSpan><styleUrl>#point</styleUrl><Point><altitudeMode>clampToGround</altitudeMode><coordinates>27.55049480125308,-24.500385615974665,1151.3199999999999</coordinates></Point></Placemark><Placemark><TimeSpan><begin>2026-04-27T11:51:16Z</begin><end>2026-04-27T11:51:21Z</end></TimeSpan><styleUrl>#point</styleUrl><Point><altitudeMode>clampToGround</altitudeMode><coordinates>27.550107138231397,-24.500270448625088,1146.51</coordinates></Point></Placemark><Placemark><TimeSpan><begin>2026-04-27T11:51:21Z</begin><end>2026-04-27T11:51:26Z</end></TimeSpan><styleUrl>#point</styleUrl><Point><altitudeMode>clampToGround</altitudeMode><coordinates>27.549715284258127,-24.500179588794708,1141.7</coordinates></Point></Placemark><Placemark><TimeSpan><begin>2026-04-27T11:51:26Z</begin><end>2026-04-27T11:51:31Z</end></TimeSpan><styleUrl>#point</styleUrl><Point><altitudeMode>clampToGround</altitudeMode><coordinates>27.549361819401383,-24.500157795846462,1137.8599999999999</coordinates></Point></Placemark><Placemark><TimeSpan><begin>2026-04-27T11:51:31Z</begin><end>2026-04-27T11:51:36Z</end></TimeSpan><styleUrl>#point</styleUrl><Point><altitudeMode>clampToGround</altitudeMode><coordinates>27.54893216304481,-24.500203980132937,1134.49</coordinates></Point></Placemark><Placemark><TimeSpan><begin>2026-04-27T11:51:36Z</begin><end>2026-04-27T11:51:41Z</end></TimeSpan><styleUrl>#point</styleUrl><Point><altitudeMode>clampToGround</altitudeMode><coordinates>27.548415753990412,-24.500305987894535,1132.0899999999999</coordinates></Point></Placemark><Placemark><TimeSpan><begin>2026-04-27T11:51:41Z</begin><end>2026-04-27T11:51:46Z</end></TimeSpan><styleUrl>#point</styleUrl><Point><altitudeMode>clampToGround</altitudeMode><coordinates>27.547937901690602,-24.500496173277497,1130.6500000000001</coordinates></Point></Placemark></Folder><Placemark><name>[422] Bakkers Pass - 360 - 2026-04-27</name><Style><LineStyle><color>ff0000ff</color><width>4</width></LineStyle></Style><MultiGeometry><LineString><coordinates>27.572230836376548,-24.488834431394935,1445 27.571750804781914,-24.488942390307784,1445.48 27.571230540052056,-24.489054372534156,1445 27.570702731609344,-24.489165348932147,1444.04 27.570191184058785,-24.489265345036983,1443.0799999999999 27.569696065038443,-24.489366514608264,1442.1099999999999 27.569218883290887,-24.489466091617942,1440.6700000000001 27.568773049861193,-24.489562064409256,1439.23 27.568360073491931,-24.489648900926113,1438.75 27.56794860586524,-24.489636914804578,1439.23 27.567621376365423,-24.489417476579547,1439.23 27.567499754950404,-24.489107681438327,1440.6700000000001 27.567383078858256,-24.488752959296107,1442.5999999999999 27.567304205149412,-24.48840569704771,1445 27.567218374460936,-24.488041503354907,1446.9200000000001 27.56711452268064,-24.487651325762272,1448.8399999999999 27.566974377259612,-24.487261148169637,1449.8099999999999 27.566790813580155,-24.486878765746951,1449.8099999999999 27.566554360091686,-24.486511386930943,1448.8399999999999 27.566294688731432,-24.486174266785383,1446.4400000000001 27.566015990450978,-24.485917864367366,1444.52 27.565698903053999,-24.48584133759141,1443.0799999999999 27.565431771799922,-24.486035797744989,1441.6300000000001 27.565223230049014,-24.486355651170015,1439.23 27.564982334151864,-24.486556900665164,1435.8699999999999 27.564658457413316,-24.486715067178011,1432.02 27.564312117174268,-24.486886477097869,1428.6600000000001 27.563980026170611,-24.487048918381333,1425.29 27.563646594062448,-24.487081859260798,1421.9300000000001 27.563358508050442,-24.486951855942607,1420 27.563131861388683,-24.486726466566324,1417.1199999999999 27.562862131744623,-24.486511638388038,1414.24 27.562567004933953,-24.48637300170958,1412.79 27.56227707490325,-24.486389346420765,1411.8299999999999 27.562147406861186,-24.486670391634107,1410.3900000000001 27.562031149864197,-24.486986808478832,1409.4300000000001 27.561900978907943,-24.487260058522224,1407.03 27.561895027756691,-24.48756230995059,1405.0999999999999 27.561963256448507,-24.487849976867437,1402.7 27.562041711062193,-24.488098416477442,1401.26 27.562204906716943,-24.488330846652389,1399.8199999999999 27.562464075163007,-24.488501837477088,1397.8900000000001 27.562636407092214,-24.488731501623988,1395.01 27.562700947746634,-24.489020006731153,1392.1300000000001 27.562659038230777,-24.489307003095746,1389.72 27.562456112354994,-24.489536080509424,1387.3199999999999 27.562237847596407,-24.48976892977953,1383.96 27.562099294736981,-24.489967580884695,1381.55 27.562035927549005,-24.490223228931427,1378.6700000000001 27.562056547030807,-24.490521540865302,1375.3 27.56205185316503,-24.490789929404855,1371.9400000000001 27.561901565641165,-24.490985479205847,1369.54 27.561646588146687,-24.491164935752749,1366.6500000000001 27.561359591782093,-24.49136333540082,1363.29 27.561075780540705,-24.49149769730866,1359.9200000000001 27.560745282098651,-24.491554778069258,1357.04 27.560402043163776,-24.491542540490627,1354.6300000000001 27.560082944110036,-24.491487722843885,1351.75 27.559788236394525,-24.491391079500318,1349.3499999999999 27.559584220871329,-24.491189578548074,1346.46 27.559485901147127,-24.491011379286647,1344.54 27.559330835938454,-24.490817002952099,1343.5799999999999 27.559062112122774,-24.490794707089663,1343.0999999999999 27.558858348056674,-24.490997297689319,1343.5799999999999 27.558750389143825,-24.49127146974206,1343.0999999999999 27.558673778548837,-24.491499876603484,1342.1400000000001 27.558641340583563,-24.491750244051218,1340.7 27.558714933693409,-24.492032798007131,1337.8099999999999 27.558842841535807,-24.492285260930657,1335.4100000000001 27.558912998065352,-24.492548201233149,1332.52 27.558947028592229,-24.492845674976707,1328.6800000000001 27.558957589790225,-24.493160583078861,1325.3099999999999 27.558940825983882,-24.49348445981741,1322.4300000000001 27.558901095762849,-24.49380992911756,1319.55 27.558936299756169,-24.494105139747262,1316.1800000000001 27.559131430462003,-24.494376545771956,1313.78 27.559360507875681,-24.494603024795651,1311.3800000000001 27.559622693806887,-24.494815254583955,1308.01 27.559890663251281,-24.495074339210987,1303.6900000000001 27.560026030987501,-24.495393102988601,1299.8399999999999 27.56005042232573,-24.495753021910787,1296.48 27.559976661577821,-24.496087543666363,1293.5899999999999 27.559853028506041,-24.496424412354827,1288.78 27.559745656326413,-24.496769746765494,1284.9400000000001 27.55965219810605,-24.497094377875328,1281.0899999999999 27.559547927230597,-24.497463349252939,1277.25 27.559461677446961,-24.497813545167446,1272.9200000000001 27.559365956112742,-24.498127195984125,1268.5999999999999 27.559268558397889,-24.498412432149053,1263.79 27.559139477089047,-24.498662799596786,1259.46 27.558984411880374,-24.498939905315638,1255.1400000000001 27.558837309479713,-24.499255567789078,1250.3299999999999 27.55868760868907,-24.499555137008429,1245.53 27.558563556522131,-24.499736353754997,1240.72 27.558423830196261,-24.499912708997726,1237.3499999999999 27.558223670348525,-24.500140445306897,1233.51 27.55802359431982,-24.500356866046786,1229.1800000000001 27.557879677042365,-24.500504974275827,1225.8199999999999 27.557755457237363,-24.50061603449285,1223.4200000000001 27.557596201077104,-24.50069080106914,1220.53 27.557396125048399,-24.500729022547603,1217.1700000000001 27.557168724015355,-24.500764310359955,1212.8399999999999 27.55696864798665,-24.500792557373643,1209 27.556762956082821,-24.500815691426396,1206.1099999999999 27.556487862020731,-24.500841591507196,1203.71 27.556151999160647,-24.500936223194003,1199.8599999999999 27.555789649486542,-24.501091875135899,1196.02 27.555378433316946,-24.501201175153255,1191.6900000000001 27.554963948205113,-24.501227913424373,1188.3299999999999 27.554552061483264,-24.501166976988316,1184.48 27.554112263023853,-24.501087097451091,1181.1199999999999 27.553650001063943,-24.500995902344584,1177.27 27.553207939490676,-24.500899175181985,1173.9100000000001 27.552747437730432,-24.500805549323559,1170.0599999999999 27.55227436311543,-24.500720892101526,1166.22 27.55177941173315,-24.500642437487841,1162.8499999999999 27.551304325461388,-24.500565743073821,1159.01 27.550878776237369,-24.500483935698867,1155.1600000000001 27.55049480125308,-24.500385615974665,1151.3199999999999 27.550107138231397,-24.500270448625088,1146.51 27.549715284258127,-24.500179588794708,1141.7 27.549361819401383,-24.500157795846462,1137.8599999999999 27.54893216304481,-24.500203980132937,1134.49 27.548415753990412,-24.500305987894535,1132.0899999999999 27.547937901690602,-24.500496173277497,1130.6500000000001 </coordinates></LineString></MultiGeometry></Placemark></Folder></Folder></Document></kml>