<?xml version="1.0" encoding="utf-8"?><gpx creator="Garmin Desktop App" version="1.1" xsi:schemaLocation="http://www.topografix.com/GPX/1/1 http://www.topografix.com/GPX/1/1/gpx.xsd http://www.garmin.com/xmlschemas/WaypointExtension/v1 http://www8.garmin.com/xmlschemas/WaypointExtensionv1.xsd http://www.garmin.com/xmlschemas/TrackPointExtension/v1 http://www.garmin.com/xmlschemas/TrackPointExtensionv1.xsd http://www.garmin.com/xmlschemas/GpxExtensions/v3 http://www8.garmin.com/xmlschemas/GpxExtensionsv3.xsd http://www.garmin.com/xmlschemas/ActivityExtension/v1 http://www8.garmin.com/xmlschemas/ActivityExtensionv1.xsd http://www.garmin.com/xmlschemas/AdventuresExtensions/v1 http://www8.garmin.com/xmlschemas/AdventuresExtensionv1.xsd http://www.garmin.com/xmlschemas/PressureExtension/v1 http://www.garmin.com/xmlschemas/PressureExtensionv1.xsd http://www.garmin.com/xmlschemas/TripExtensions/v1 http://www.garmin.com/xmlschemas/TripExtensionsv1.xsd http://www.garmin.com/xmlschemas/TripMetaDataExtensions/v1 http://www.garmin.com/xmlschemas/TripMetaDataExtensionsv1.xsd http://www.garmin.com/xmlschemas/ViaPointTransportationModeExtensions/v1 http://www.garmin.com/xmlschemas/ViaPointTransportationModeExtensionsv1.xsd http://www.garmin.com/xmlschemas/CreationTimeExtension/v1 http://www.garmin.com/xmlschemas/CreationTimeExtensionsv1.xsd http://www.garmin.com/xmlschemas/AccelerationExtension/v1 http://www.garmin.com/xmlschemas/AccelerationExtensionv1.xsd http://www.garmin.com/xmlschemas/PowerExtension/v1 http://www.garmin.com/xmlschemas/PowerExtensionv1.xsd http://www.garmin.com/xmlschemas/VideoExtension/v1 http://www.garmin.com/xmlschemas/VideoExtensionv1.xsd" xmlns="http://www.topografix.com/GPX/1/1" xmlns:xsi="http://www.w3.org/2001/XMLSchema-instance" xmlns:wptx1="http://www.garmin.com/xmlschemas/WaypointExtension/v1" xmlns:gpxtrx="http://www.garmin.com/xmlschemas/GpxExtensions/v3" xmlns:gpxtpx="http://www.garmin.com/xmlschemas/TrackPointExtension/v1" xmlns:gpxx="http://www.garmin.com/xmlschemas/GpxExtensions/v3" xmlns:trp="http://www.garmin.com/xmlschemas/TripExtensions/v1" xmlns:adv="http://www.garmin.com/xmlschemas/AdventuresExtensions/v1" xmlns:prs="http://www.garmin.com/xmlschemas/PressureExtension/v1" xmlns:tmd="http://www.garmin.com/xmlschemas/TripMetaDataExtensions/v1" xmlns:vptm="http://www.garmin.com/xmlschemas/ViaPointTransportationModeExtensions/v1" xmlns:ctx="http://www.garmin.com/xmlschemas/CreationTimeExtension/v1" xmlns:gpxacc="http://www.garmin.com/xmlschemas/AccelerationExtension/v1" xmlns:gpxpx="http://www.garmin.com/xmlschemas/PowerExtension/v1" xmlns:vidx1="http://www.garmin.com/xmlschemas/VideoExtension/v1">

  <metadata>
    <link href="http://www.garmin.com">
      <text>Garmin International</text>
    </link>
    <time>2022-07-02T14:21:05Z</time>
    <bounds maxlat="-25.674907509237528" maxlon="28.123510284349322" minlat="-25.69446936249733" minlon="28.117637252435088" />
  </metadata>

  <trk>
    <name>[44] Theo Martins Poort</name>
    <extensions>
      <gpxx:TrackExtension>
        <gpxx:DisplayColor>Blue</gpxx:DisplayColor>
      </gpxx:TrackExtension>
    </extensions>
    <trkseg>
      <trkpt lat="-25.674907509237528" lon="28.117637252435088">
        <ele>1309.9300000000001</ele>
        <time>2016-03-28T11:13:37Z</time>
      </trkpt>
      <trkpt lat="-25.674980264157057" lon="28.117667846381664">
        <ele>1309.45</ele>
        <time>2016-03-28T11:13:38Z</time>
      </trkpt>
      <trkpt lat="-25.675072129815817" lon="28.117685280740261">
        <ele>1309.45</ele>
        <time>2016-03-28T11:13:39Z</time>
      </trkpt>
      <trkpt lat="-25.675185872241855" lon="28.117688214406371">
        <ele>1308.97</ele>
        <time>2016-03-28T11:13:40Z</time>
      </trkpt>
      <trkpt lat="-25.675300871953368" lon="28.117682849988341">
        <ele>1308.49</ele>
        <time>2016-03-28T11:13:41Z</time>
      </trkpt>
      <trkpt lat="-25.67638180218637" lon="28.117662817239761">
        <ele>1308.49</ele>
        <time>2016-03-28T11:13:47Z</time>
      </trkpt>
      <trkpt lat="-25.678587835282087" lon="28.117809752002358">
        <ele>1320.51</ele>
        <time>2016-03-28T11:13:57Z</time>
      </trkpt>
      <trkpt lat="-25.680778278037906" lon="28.118529673665762">
        <ele>1333.49</ele>
        <time>2016-03-28T11:14:06Z</time>
      </trkpt>
      <trkpt lat="-25.682338988408446" lon="28.119214475154877">
        <ele>1343.0999999999999</ele>
        <time>2016-03-28T11:14:13Z</time>
      </trkpt>
      <trkpt lat="-25.684239417314529" lon="28.120221057906747">
        <ele>1353.6700000000001</ele>
        <time>2016-03-28T11:14:21Z</time>
      </trkpt>
      <trkpt lat="-25.687782028689981" lon="28.121906574815512">
        <ele>1361.8399999999999</ele>
        <time>2016-03-28T11:14:35Z</time>
      </trkpt>
      <trkpt lat="-25.690752407535911" lon="28.122819280251861">
        <ele>1350.79</ele>
        <time>2016-03-28T11:14:46Z</time>
      </trkpt>
      <trkpt lat="-25.69446936249733" lon="28.123510284349322">
        <ele>1329.6400000000001</ele>
        <time>2016-03-28T11:14:59Z</time>
      </trkpt>
    </trkseg>
  </trk>

</gpx>