<?xml version="1.0" encoding="utf-8"?><gpx creator="Garmin Desktop App" version="1.1" xsi:schemaLocation="http://www.topografix.com/GPX/1/1 http://www.topografix.com/GPX/1/1/gpx.xsd http://www.garmin.com/xmlschemas/WaypointExtension/v1 http://www8.garmin.com/xmlschemas/WaypointExtensionv1.xsd http://www.garmin.com/xmlschemas/TrackPointExtension/v1 http://www.garmin.com/xmlschemas/TrackPointExtensionv1.xsd http://www.garmin.com/xmlschemas/GpxExtensions/v3 http://www8.garmin.com/xmlschemas/GpxExtensionsv3.xsd http://www.garmin.com/xmlschemas/ActivityExtension/v1 http://www8.garmin.com/xmlschemas/ActivityExtensionv1.xsd http://www.garmin.com/xmlschemas/AdventuresExtensions/v1 http://www8.garmin.com/xmlschemas/AdventuresExtensionv1.xsd http://www.garmin.com/xmlschemas/PressureExtension/v1 http://www.garmin.com/xmlschemas/PressureExtensionv1.xsd http://www.garmin.com/xmlschemas/TripExtensions/v1 http://www.garmin.com/xmlschemas/TripExtensionsv1.xsd http://www.garmin.com/xmlschemas/TripMetaDataExtensions/v1 http://www.garmin.com/xmlschemas/TripMetaDataExtensionsv1.xsd http://www.garmin.com/xmlschemas/ViaPointTransportationModeExtensions/v1 http://www.garmin.com/xmlschemas/ViaPointTransportationModeExtensionsv1.xsd http://www.garmin.com/xmlschemas/CreationTimeExtension/v1 http://www.garmin.com/xmlschemas/CreationTimeExtensionsv1.xsd http://www.garmin.com/xmlschemas/AccelerationExtension/v1 http://www.garmin.com/xmlschemas/AccelerationExtensionv1.xsd http://www.garmin.com/xmlschemas/PowerExtension/v1 http://www.garmin.com/xmlschemas/PowerExtensionv1.xsd http://www.garmin.com/xmlschemas/VideoExtension/v1 http://www.garmin.com/xmlschemas/VideoExtensionv1.xsd" xmlns="http://www.topografix.com/GPX/1/1" xmlns:xsi="http://www.w3.org/2001/XMLSchema-instance" xmlns:wptx1="http://www.garmin.com/xmlschemas/WaypointExtension/v1" xmlns:gpxtrx="http://www.garmin.com/xmlschemas/GpxExtensions/v3" xmlns:gpxtpx="http://www.garmin.com/xmlschemas/TrackPointExtension/v1" xmlns:gpxx="http://www.garmin.com/xmlschemas/GpxExtensions/v3" xmlns:trp="http://www.garmin.com/xmlschemas/TripExtensions/v1" xmlns:adv="http://www.garmin.com/xmlschemas/AdventuresExtensions/v1" xmlns:prs="http://www.garmin.com/xmlschemas/PressureExtension/v1" xmlns:tmd="http://www.garmin.com/xmlschemas/TripMetaDataExtensions/v1" xmlns:vptm="http://www.garmin.com/xmlschemas/ViaPointTransportationModeExtensions/v1" xmlns:ctx="http://www.garmin.com/xmlschemas/CreationTimeExtension/v1" xmlns:gpxacc="http://www.garmin.com/xmlschemas/AccelerationExtension/v1" xmlns:gpxpx="http://www.garmin.com/xmlschemas/PowerExtension/v1" xmlns:vidx1="http://www.garmin.com/xmlschemas/VideoExtension/v1">

  <metadata>
    <link href="http://www.garmin.com">
      <text>Garmin International</text>
    </link>
    <time>2022-07-02T14:21:58Z</time>
    <bounds maxlat="-25.135665563866496" maxlon="30.363554880023003" minlat="-25.148013280704618" minlon="30.288698617368937" />
  </metadata>

  <trk>
    <name>[49] Jaap se Hoogte</name>
    <extensions>
      <gpxx:TrackExtension>
        <gpxx:DisplayColor>Blue</gpxx:DisplayColor>
      </gpxx:TrackExtension>
    </extensions>
    <trkseg>
      <trkpt lat="-25.144238490611315" lon="30.288698617368937">
        <ele>1849.23</ele>
        <time>2016-07-14T09:09:43Z</time>
      </trkpt>
      <trkpt lat="-25.145850414410233" lon="30.291626919060946">
        <ele>1865.0899999999999</ele>
        <time>2016-07-14T09:09:57Z</time>
      </trkpt>
      <trkpt lat="-25.147533752024174" lon="30.29461313970387">
        <ele>1885.28</ele>
        <time>2016-07-14T09:10:11Z</time>
      </trkpt>
      <trkpt lat="-25.147851426154375" lon="30.295219151303172">
        <ele>1885.76</ele>
        <time>2016-07-14T09:10:14Z</time>
      </trkpt>
      <trkpt lat="-25.147925270721316" lon="30.295433308929205">
        <ele>1885.76</ele>
        <time>2016-07-14T09:10:15Z</time>
      </trkpt>
      <trkpt lat="-25.147970532998443" lon="30.295629780739546">
        <ele>1885.28</ele>
        <time>2016-07-14T09:10:16Z</time>
      </trkpt>
      <trkpt lat="-25.148000372573733" lon="30.295839663594961">
        <ele>1884.3199999999999</ele>
        <time>2016-07-14T09:10:17Z</time>
      </trkpt>
      <trkpt lat="-25.148013280704618" lon="30.296051809564233">
        <ele>1883.8399999999999</ele>
        <time>2016-07-14T09:10:18Z</time>
      </trkpt>
      <trkpt lat="-25.148008000105619" lon="30.296275606378913">
        <ele>1882.8800000000001</ele>
        <time>2016-07-14T09:10:19Z</time>
      </trkpt>
      <trkpt lat="-25.147985452786088" lon="30.296483477577567">
        <ele>1881.9200000000001</ele>
        <time>2016-07-14T09:10:20Z</time>
      </trkpt>
      <trkpt lat="-25.147944716736674" lon="30.296707358211279">
        <ele>1880.48</ele>
        <time>2016-07-14T09:10:21Z</time>
      </trkpt>
      <trkpt lat="-25.147889647632837" lon="30.29691313393414">
        <ele>1879.51</ele>
        <time>2016-07-14T09:10:22Z</time>
      </trkpt>
      <trkpt lat="-25.147812031209469" lon="30.297119412571192">
        <ele>1878.0699999999999</ele>
        <time>2016-07-14T09:10:23Z</time>
      </trkpt>
      <trkpt lat="-25.147709352895617" lon="30.297320997342467">
        <ele>1876.1500000000001</ele>
        <time>2016-07-14T09:10:24Z</time>
      </trkpt>
      <trkpt lat="-25.147603657096624" lon="30.297483606263995">
        <ele>1874.71</ele>
        <time>2016-07-14T09:10:25Z</time>
      </trkpt>
      <trkpt lat="-25.147479269653559" lon="30.297641018405557">
        <ele>1873.27</ele>
        <time>2016-07-14T09:10:26Z</time>
      </trkpt>
      <trkpt lat="-25.147334011271596" lon="30.297794491052628">
        <ele>1871.8199999999999</ele>
        <time>2016-07-14T09:10:27Z</time>
      </trkpt>
      <trkpt lat="-25.147185567766428" lon="30.297928685322404">
        <ele>1870.3800000000001</ele>
        <time>2016-07-14T09:10:28Z</time>
      </trkpt>
      <trkpt lat="-25.147029496729374" lon="30.298043685033917">
        <ele>1868.9400000000001</ele>
        <time>2016-07-14T09:10:29Z</time>
      </trkpt>
      <trkpt lat="-25.146857080981135" lon="30.298144603148103">
        <ele>1867.5</ele>
        <time>2016-07-14T09:10:30Z</time>
      </trkpt>
      <trkpt lat="-25.146651389077306" lon="30.29823780991137">
        <ele>1865.5799999999999</ele>
        <time>2016-07-14T09:10:31Z</time>
      </trkpt>
      <trkpt lat="-25.146477045491338" lon="30.298305535688996">
        <ele>1863.6500000000001</ele>
        <time>2016-07-14T09:10:32Z</time>
      </trkpt>
      <trkpt lat="-25.145736504346132" lon="30.298639554530382">
        <ele>1856.9200000000001</ele>
        <time>2016-07-14T09:10:36Z</time>
      </trkpt>
      <trkpt lat="-25.145556293427944" lon="30.29876846820116">
        <ele>1855.48</ele>
        <time>2016-07-14T09:10:37Z</time>
      </trkpt>
      <trkpt lat="-25.145377926528454" lon="30.298930993303657">
        <ele>1853.5599999999999</ele>
        <time>2016-07-14T09:10:38Z</time>
      </trkpt>
      <trkpt lat="-25.14523115940392" lon="30.299095446243882">
        <ele>1852.1199999999999</ele>
        <time>2016-07-14T09:10:39Z</time>
      </trkpt>
      <trkpt lat="-25.145092438906431" lon="30.299285799264908">
        <ele>1850.1900000000001</ele>
        <time>2016-07-14T09:10:40Z</time>
      </trkpt>
      <trkpt lat="-25.144967045634985" lon="30.299501046538353">
        <ele>1848.27</ele>
        <time>2016-07-14T09:10:41Z</time>
      </trkpt>
      <trkpt lat="-25.144873587414622" lon="30.299705900251865">
        <ele>1846.8299999999999</ele>
        <time>2016-07-14T09:10:42Z</time>
      </trkpt>
      <trkpt lat="-25.14479722827673" lon="30.299926092848182">
        <ele>1845.3900000000001</ele>
        <time>2016-07-14T09:10:43Z</time>
      </trkpt>
      <trkpt lat="-25.144744254648685" lon="30.300148045644164">
        <ele>1843.47</ele>
        <time>2016-07-14T09:10:44Z</time>
      </trkpt>
      <trkpt lat="-25.144714498892426" lon="30.300376368686557">
        <ele>1842.02</ele>
        <time>2016-07-14T09:10:45Z</time>
      </trkpt>
      <trkpt lat="-25.144706536084414" lon="30.300602093338966">
        <ele>1840.0999999999999</ele>
        <time>2016-07-14T09:10:46Z</time>
      </trkpt>
      <trkpt lat="-25.144715839996934" lon="30.300806695595384">
        <ele>1838.6600000000001</ele>
        <time>2016-07-14T09:10:47Z</time>
      </trkpt>
      <trkpt lat="-25.144743081182241" lon="30.301026552915573">
        <ele>1836.74</ele>
        <time>2016-07-14T09:10:48Z</time>
      </trkpt>
      <trkpt lat="-25.144788008183241" lon="30.301249092444777">
        <ele>1835.29</ele>
        <time>2016-07-14T09:10:49Z</time>
      </trkpt>
      <trkpt lat="-25.144847854971886" lon="30.301475906744599">
        <ele>1833.3699999999999</ele>
        <time>2016-07-14T09:10:50Z</time>
      </trkpt>
      <trkpt lat="-25.144921280443668" lon="30.301714204251766">
        <ele>1831.45</ele>
        <time>2016-07-14T09:10:51Z</time>
      </trkpt>
      <trkpt lat="-25.145722758024931" lon="30.304308570921421">
        <ele>1815.1099999999999</ele>
        <time>2016-07-14T09:11:02Z</time>
      </trkpt>
      <trkpt lat="-25.14601151458919" lon="30.305999955162406">
        <ele>1807.4200000000001</ele>
        <time>2016-07-14T09:11:10Z</time>
      </trkpt>
      <trkpt lat="-25.145805571228266" lon="30.307672899216413">
        <ele>1796.8399999999999</ele>
        <time>2016-07-14T09:11:17Z</time>
      </trkpt>
      <trkpt lat="-25.145028317347169" lon="30.310706980526447">
        <ele>1775.21</ele>
        <time>2016-07-14T09:11:29Z</time>
      </trkpt>
      <trkpt lat="-25.144062554463744" lon="30.314463917165995">
        <ele>1758.3900000000001</ele>
        <time>2016-07-14T09:11:44Z</time>
      </trkpt>
      <trkpt lat="-25.143204499036074" lon="30.317159369587898">
        <ele>1744.9300000000001</ele>
        <time>2016-07-14T09:11:56Z</time>
      </trkpt>
      <trkpt lat="-25.142161287367344" lon="30.318454373627901">
        <ele>1733.3900000000001</ele>
        <time>2016-07-14T09:12:03Z</time>
      </trkpt>
      <trkpt lat="-25.140889249742031" lon="30.319478809833527">
        <ele>1720.9000000000001</ele>
        <time>2016-07-14T09:12:10Z</time>
      </trkpt>
      <trkpt lat="-25.138943055644631" lon="30.320356814190745">
        <ele>1705.04</ele>
        <time>2016-07-14T09:12:19Z</time>
      </trkpt>
      <trkpt lat="-25.137937562540174" lon="30.321257784962654">
        <ele>1694.9400000000001</ele>
        <time>2016-07-14T09:12:25Z</time>
      </trkpt>
      <trkpt lat="-25.137322330847383" lon="30.322464527562261">
        <ele>1684.3699999999999</ele>
        <time>2016-07-14T09:12:31Z</time>
      </trkpt>
      <trkpt lat="-25.137169864028692" lon="30.323868747800589">
        <ele>1673.79</ele>
        <time>2016-07-14T09:12:38Z</time>
      </trkpt>
      <trkpt lat="-25.137511091306806" lon="30.325259808450937">
        <ele>1664.6600000000001</ele>
        <time>2016-07-14T09:12:45Z</time>
      </trkpt>
      <trkpt lat="-25.13822179287672" lon="30.327338268980384">
        <ele>1658.8900000000001</ele>
        <time>2016-07-14T09:12:56Z</time>
      </trkpt>
      <trkpt lat="-25.139105664566159" lon="30.329158063977957">
        <ele>1657.9300000000001</ele>
        <time>2016-07-14T09:13:05Z</time>
      </trkpt>
      <trkpt lat="-25.141155542805791" lon="30.332256183028221">
        <ele>1654.5699999999999</ele>
        <time>2016-07-14T09:13:20Z</time>
      </trkpt>
      <trkpt lat="-25.142398411408067" lon="30.334571683779359">
        <ele>1643.99</ele>
        <time>2016-07-14T09:13:30Z</time>
      </trkpt>
      <trkpt lat="-25.143214724957943" lon="30.33659708686173">
        <ele>1632.9400000000001</ele>
        <time>2016-07-14T09:13:39Z</time>
      </trkpt>
      <trkpt lat="-25.143988542258739" lon="30.338962879031897">
        <ele>1621.8800000000001</ele>
        <time>2016-07-14T09:13:50Z</time>
      </trkpt>
      <trkpt lat="-25.143855437636375" lon="30.340423006564379">
        <ele>1616.1099999999999</ele>
        <time>2016-07-14T09:13:57Z</time>
      </trkpt>
      <trkpt lat="-25.143170300871134" lon="30.342666506767273">
        <ele>1606.98</ele>
        <time>2016-07-14T09:14:09Z</time>
      </trkpt>
      <trkpt lat="-25.142496228218079" lon="30.344842029735446">
        <ele>1598.3299999999999</ele>
        <time>2016-07-14T09:14:22Z</time>
      </trkpt>
      <trkpt lat="-25.141960876062512" lon="30.346587644889951">
        <ele>1589.6800000000001</ele>
        <time>2016-07-14T09:14:33Z</time>
      </trkpt>
      <trkpt lat="-25.141382608562708" lon="30.348413642495871">
        <ele>1582.47</ele>
        <time>2016-07-14T09:14:44Z</time>
      </trkpt>
      <trkpt lat="-25.14052027836442" lon="30.350756468251348">
        <ele>1574.78</ele>
        <time>2016-07-14T09:14:55Z</time>
      </trkpt>
      <trkpt lat="-25.139080937951803" lon="30.354552716016769">
        <ele>1564.6800000000001</ele>
        <time>2016-07-14T09:15:10Z</time>
      </trkpt>
      <trkpt lat="-25.137357953935862" lon="30.359088834375143">
        <ele>1557.47</ele>
        <time>2016-07-14T09:15:28Z</time>
      </trkpt>
      <trkpt lat="-25.135665563866496" lon="30.363554880023003">
        <ele>1549.3</ele>
        <time>2016-07-14T09:15:46Z</time>
      </trkpt>
    </trkseg>
  </trk>

</gpx>