<?xml version="1.0" encoding="utf-8"?><gpx creator="Garmin Desktop App" version="1.1" xsi:schemaLocation="http://www.topografix.com/GPX/1/1 http://www.topografix.com/GPX/1/1/gpx.xsd http://www.garmin.com/xmlschemas/WaypointExtension/v1 http://www8.garmin.com/xmlschemas/WaypointExtensionv1.xsd http://www.garmin.com/xmlschemas/TrackPointExtension/v1 http://www.garmin.com/xmlschemas/TrackPointExtensionv1.xsd http://www.garmin.com/xmlschemas/GpxExtensions/v3 http://www8.garmin.com/xmlschemas/GpxExtensionsv3.xsd http://www.garmin.com/xmlschemas/ActivityExtension/v1 http://www8.garmin.com/xmlschemas/ActivityExtensionv1.xsd http://www.garmin.com/xmlschemas/AdventuresExtensions/v1 http://www8.garmin.com/xmlschemas/AdventuresExtensionv1.xsd http://www.garmin.com/xmlschemas/PressureExtension/v1 http://www.garmin.com/xmlschemas/PressureExtensionv1.xsd http://www.garmin.com/xmlschemas/TripExtensions/v1 http://www.garmin.com/xmlschemas/TripExtensionsv1.xsd http://www.garmin.com/xmlschemas/TripMetaDataExtensions/v1 http://www.garmin.com/xmlschemas/TripMetaDataExtensionsv1.xsd http://www.garmin.com/xmlschemas/ViaPointTransportationModeExtensions/v1 http://www.garmin.com/xmlschemas/ViaPointTransportationModeExtensionsv1.xsd http://www.garmin.com/xmlschemas/CreationTimeExtension/v1 http://www.garmin.com/xmlschemas/CreationTimeExtensionsv1.xsd http://www.garmin.com/xmlschemas/AccelerationExtension/v1 http://www.garmin.com/xmlschemas/AccelerationExtensionv1.xsd http://www.garmin.com/xmlschemas/PowerExtension/v1 http://www.garmin.com/xmlschemas/PowerExtensionv1.xsd http://www.garmin.com/xmlschemas/VideoExtension/v1 http://www.garmin.com/xmlschemas/VideoExtensionv1.xsd" xmlns="http://www.topografix.com/GPX/1/1" xmlns:xsi="http://www.w3.org/2001/XMLSchema-instance" xmlns:wptx1="http://www.garmin.com/xmlschemas/WaypointExtension/v1" xmlns:gpxtrx="http://www.garmin.com/xmlschemas/GpxExtensions/v3" xmlns:gpxtpx="http://www.garmin.com/xmlschemas/TrackPointExtension/v1" xmlns:gpxx="http://www.garmin.com/xmlschemas/GpxExtensions/v3" xmlns:trp="http://www.garmin.com/xmlschemas/TripExtensions/v1" xmlns:adv="http://www.garmin.com/xmlschemas/AdventuresExtensions/v1" xmlns:prs="http://www.garmin.com/xmlschemas/PressureExtension/v1" xmlns:tmd="http://www.garmin.com/xmlschemas/TripMetaDataExtensions/v1" xmlns:vptm="http://www.garmin.com/xmlschemas/ViaPointTransportationModeExtensions/v1" xmlns:ctx="http://www.garmin.com/xmlschemas/CreationTimeExtension/v1" xmlns:gpxacc="http://www.garmin.com/xmlschemas/AccelerationExtension/v1" xmlns:gpxpx="http://www.garmin.com/xmlschemas/PowerExtension/v1" xmlns:vidx1="http://www.garmin.com/xmlschemas/VideoExtension/v1">

  <metadata>
    <link href="http://www.garmin.com">
      <text>Garmin International</text>
    </link>
    <time>2022-07-02T18:58:16Z</time>
    <bounds maxlat="-28.562223874032497" maxlon="28.403700208291411" minlat="-28.644898105412722" minlon="28.337994804605842" />
  </metadata>

  <trk>
    <name>[54] Surrender Hill Pass</name>
    <extensions>
      <gpxx:TrackExtension>
        <gpxx:DisplayColor>Blue</gpxx:DisplayColor>
      </gpxx:TrackExtension>
    </extensions>
    <trkseg>
      <trkpt lat="-28.562223874032497" lon="28.401500713080168">
        <ele>1698.79</ele>
        <time>2016-11-08T04:55:14Z</time>
      </trkpt>
      <trkpt lat="-28.563766730949283" lon="28.400284079834819">
        <ele>1699.27</ele>
        <time>2016-11-08T04:55:22Z</time>
      </trkpt>
      <trkpt lat="-28.565341271460056" lon="28.399760294705629">
        <ele>1700.71</ele>
        <time>2016-11-08T04:55:29Z</time>
      </trkpt>
      <trkpt lat="-28.567235581576824" lon="28.399710673838854">
        <ele>1705.04</ele>
        <time>2016-11-08T04:55:37Z</time>
      </trkpt>
      <trkpt lat="-28.571099303662777" lon="28.399710087105632">
        <ele>1729.0699999999999</ele>
        <time>2016-11-08T04:55:52Z</time>
      </trkpt>
      <trkpt lat="-28.575049107894301" lon="28.39922284707427">
        <ele>1753.5799999999999</ele>
        <time>2016-11-08T04:56:08Z</time>
      </trkpt>
      <trkpt lat="-28.57642600312829" lon="28.398526730015874">
        <ele>1759.8299999999999</ele>
        <time>2016-11-08T04:56:14Z</time>
      </trkpt>
      <trkpt lat="-28.577557476237416" lon="28.39792943559587">
        <ele>1764.1600000000001</ele>
        <time>2016-11-08T04:56:19Z</time>
      </trkpt>
      <trkpt lat="-28.577785044908524" lon="28.397867493331432">
        <ele>1765.1199999999999</ele>
        <time>2016-11-08T04:56:20Z</time>
      </trkpt>
      <trkpt lat="-28.578003728762269" lon="28.397823991253972">
        <ele>1766.0799999999999</ele>
        <time>2016-11-08T04:56:21Z</time>
      </trkpt>
      <trkpt lat="-28.579410212114453" lon="28.397901691496372">
        <ele>1774.25</ele>
        <time>2016-11-08T04:56:27Z</time>
      </trkpt>
      <trkpt lat="-28.580713095143437" lon="28.398563945665956">
        <ele>1781.9400000000001</ele>
        <time>2016-11-08T04:56:33Z</time>
      </trkpt>
      <trkpt lat="-28.582433899864554" lon="28.399344133213162">
        <ele>1788.6700000000001</ele>
        <time>2016-11-08T04:56:41Z</time>
      </trkpt>
      <trkpt lat="-28.583849268034101" lon="28.399240951985121">
        <ele>1790.5899999999999</ele>
        <time>2016-11-08T04:56:47Z</time>
      </trkpt>
      <trkpt lat="-28.586449502035975" lon="28.398728230968118">
        <ele>1802.1300000000001</ele>
        <time>2016-11-08T04:56:57Z</time>
      </trkpt>
      <trkpt lat="-28.588230740278959" lon="28.399039702489972">
        <ele>1815.1099999999999</ele>
        <time>2016-11-08T04:57:04Z</time>
      </trkpt>
      <trkpt lat="-28.590143071487546" lon="28.400041088461876">
        <ele>1830.01</ele>
        <time>2016-11-08T04:57:12Z</time>
      </trkpt>
      <trkpt lat="-28.591991700232029" lon="28.400747431442142">
        <ele>1839.1400000000001</ele>
        <time>2016-11-08T04:57:20Z</time>
      </trkpt>
      <trkpt lat="-28.593707727268338" lon="28.400754807516932">
        <ele>1841.54</ele>
        <time>2016-11-08T04:57:27Z</time>
      </trkpt>
      <trkpt lat="-28.596236798912287" lon="28.400727901607752">
        <ele>1844.9100000000001</ele>
        <time>2016-11-08T04:57:37Z</time>
      </trkpt>
      <trkpt lat="-28.597964979708195" lon="28.401463162153959">
        <ele>1854.04</ele>
        <time>2016-11-08T04:57:44Z</time>
      </trkpt>
      <trkpt lat="-28.599706571549177" lon="28.402818683534861">
        <ele>1868.46</ele>
        <time>2016-11-08T04:57:52Z</time>
      </trkpt>
      <trkpt lat="-28.601333918049932" lon="28.403562409803271">
        <ele>1875.6700000000001</ele>
        <time>2016-11-08T04:57:59Z</time>
      </trkpt>
      <trkpt lat="-28.603078443557024" lon="28.403700208291411">
        <ele>1877.1099999999999</ele>
        <time>2016-11-08T04:58:06Z</time>
      </trkpt>
      <trkpt lat="-28.604831350967288" lon="28.403188325464725">
        <ele>1879.51</ele>
        <time>2016-11-08T04:58:13Z</time>
      </trkpt>
      <trkpt lat="-28.606191566213965" lon="28.402232704684138">
        <ele>1885.28</ele>
        <time>2016-11-08T04:58:19Z</time>
      </trkpt>
      <trkpt lat="-28.607380706816912" lon="28.400649949908257">
        <ele>1892.49</ele>
        <time>2016-11-08T04:58:26Z</time>
      </trkpt>
      <trkpt lat="-28.607970708981156" lon="28.399049928411841">
        <ele>1897.3</ele>
        <time>2016-11-08T04:58:32Z</time>
      </trkpt>
      <trkpt lat="-28.608157373964787" lon="28.397038690745831">
        <ele>1900.1800000000001</ele>
        <time>2016-11-08T04:58:39Z</time>
      </trkpt>
      <trkpt lat="-28.607873227447271" lon="28.393069440498948">
        <ele>1904.03</ele>
        <time>2016-11-08T04:58:52Z</time>
      </trkpt>
      <trkpt lat="-28.607919663190842" lon="28.390811439603567">
        <ele>1904.99</ele>
        <time>2016-11-08T04:59:00Z</time>
      </trkpt>
      <trkpt lat="-28.608536319807172" lon="28.388901287689805">
        <ele>1898.26</ele>
        <time>2016-11-08T04:59:07Z</time>
      </trkpt>
      <trkpt lat="-28.609401416033506" lon="28.386441702023149">
        <ele>1880</ele>
        <time>2016-11-08T04:59:16Z</time>
      </trkpt>
      <trkpt lat="-28.610034584999084" lon="28.382861958816648">
        <ele>1854.52</ele>
        <time>2016-11-08T04:59:28Z</time>
      </trkpt>
      <trkpt lat="-28.610827345401049" lon="28.380487784743309">
        <ele>1838.1800000000001</ele>
        <time>2016-11-08T04:59:36Z</time>
      </trkpt>
      <trkpt lat="-28.612237935885787" lon="28.377200905233622">
        <ele>1841.0599999999999</ele>
        <time>2016-11-08T04:59:48Z</time>
      </trkpt>
      <trkpt lat="-28.612702880054712" lon="28.37661350145936">
        <ele>1844.4300000000001</ele>
        <time>2016-11-08T04:59:51Z</time>
      </trkpt>
      <trkpt lat="-28.612930029630661" lon="28.376417281106114">
        <ele>1846.3499999999999</ele>
        <time>2016-11-08T04:59:52Z</time>
      </trkpt>
      <trkpt lat="-28.613109402358532" lon="28.376291636377573">
        <ele>1847.3099999999999</ele>
        <time>2016-11-08T04:59:53Z</time>
      </trkpt>
      <trkpt lat="-28.613309310749173" lon="28.37617521174252">
        <ele>1848.27</ele>
        <time>2016-11-08T04:59:54Z</time>
      </trkpt>
      <trkpt lat="-28.613528832793236" lon="28.376072784885764">
        <ele>1849.23</ele>
        <time>2016-11-08T04:59:55Z</time>
      </trkpt>
      <trkpt lat="-28.613755730912089" lon="28.375988295301795">
        <ele>1850.1900000000001</ele>
        <time>2016-11-08T04:59:56Z</time>
      </trkpt>
      <trkpt lat="-28.613998051732779" lon="28.375924844294786">
        <ele>1851.1600000000001</ele>
        <time>2016-11-08T04:59:57Z</time>
      </trkpt>
      <trkpt lat="-28.614231403917074" lon="28.375888969749212">
        <ele>1852.1199999999999</ele>
        <time>2016-11-08T04:59:58Z</time>
      </trkpt>
      <trkpt lat="-28.614466348662972" lon="28.375877654179931">
        <ele>1852.5999999999999</ele>
        <time>2016-11-08T04:59:59Z</time>
      </trkpt>
      <trkpt lat="-28.614716632291675" lon="28.375893076881766">
        <ele>1853.5599999999999</ele>
        <time>2016-11-08T05:00:00Z</time>
      </trkpt>
      <trkpt lat="-28.6149519123137" lon="28.375933980569243">
        <ele>1854.04</ele>
        <time>2016-11-08T05:00:01Z</time>
      </trkpt>
      <trkpt lat="-28.615185264497995" lon="28.375997431576252">
        <ele>1854.52</ele>
        <time>2016-11-08T05:00:02Z</time>
      </trkpt>
      <trkpt lat="-28.615428926423192" lon="28.376089967787266">
        <ele>1855.48</ele>
        <time>2016-11-08T05:00:03Z</time>
      </trkpt>
      <trkpt lat="-28.615655908361077" lon="28.376203207299113">
        <ele>1855.96</ele>
        <time>2016-11-08T05:00:04Z</time>
      </trkpt>
      <trkpt lat="-28.615877190604806" lon="28.376338658854365">
        <ele>1856.9200000000001</ele>
        <time>2016-11-08T05:00:05Z</time>
      </trkpt>
      <trkpt lat="-28.616094533354044" lon="28.376489449292421">
        <ele>1857.4000000000001</ele>
        <time>2016-11-08T05:00:06Z</time>
      </trkpt>
      <trkpt lat="-28.618026645854115" lon="28.377711279317737">
        <ele>1870.8599999999999</ele>
        <time>2016-11-08T05:00:15Z</time>
      </trkpt>
      <trkpt lat="-28.619033982977271" lon="28.377815634012222">
        <ele>1877.5899999999999</ele>
        <time>2016-11-08T05:00:20Z</time>
      </trkpt>
      <trkpt lat="-28.620228739455342" lon="28.377362927421927">
        <ele>1885.76</ele>
        <time>2016-11-08T05:00:26Z</time>
      </trkpt>
      <trkpt lat="-28.620415069162846" lon="28.377223620191216">
        <ele>1887.21</ele>
        <time>2016-11-08T05:00:27Z</time>
      </trkpt>
      <trkpt lat="-28.620602488517761" lon="28.377055479213595">
        <ele>1888.1700000000001</ele>
        <time>2016-11-08T05:00:28Z</time>
      </trkpt>
      <trkpt lat="-28.62077004276216" lon="28.376876777037978">
        <ele>1889.1300000000001</ele>
        <time>2016-11-08T05:00:29Z</time>
      </trkpt>
      <trkpt lat="-28.620925527065992" lon="28.376681981608272">
        <ele>1890.0899999999999</ele>
        <time>2016-11-08T05:00:30Z</time>
      </trkpt>
      <trkpt lat="-28.621080592274666" lon="28.376464135944843">
        <ele>1891.05</ele>
        <time>2016-11-08T05:00:31Z</time>
      </trkpt>
      <trkpt lat="-28.62295713275671" lon="28.373747058212757">
        <ele>1895.3800000000001</ele>
        <time>2016-11-08T05:00:43Z</time>
      </trkpt>
      <trkpt lat="-28.624639129266143" lon="28.372217696160078">
        <ele>1895.3800000000001</ele>
        <time>2016-11-08T05:00:51Z</time>
      </trkpt>
      <trkpt lat="-28.626458421349525" lon="28.371215639635921">
        <ele>1887.21</ele>
        <time>2016-11-08T05:00:59Z</time>
      </trkpt>
      <trkpt lat="-28.628362957388163" lon="28.370720185339451">
        <ele>1872.79</ele>
        <time>2016-11-08T05:01:07Z</time>
      </trkpt>
      <trkpt lat="-28.630676027387381" lon="28.370627481490374">
        <ele>1855.48</ele>
        <time>2016-11-08T05:01:16Z</time>
      </trkpt>
      <trkpt lat="-28.633724525570869" lon="28.370433608070016">
        <ele>1835.77</ele>
        <time>2016-11-08T05:01:28Z</time>
      </trkpt>
      <trkpt lat="-28.635014919564128" lon="28.369648056104779">
        <ele>1831.45</ele>
        <time>2016-11-08T05:01:34Z</time>
      </trkpt>
      <trkpt lat="-28.635537866503" lon="28.369041373953223">
        <ele>1829.05</ele>
        <time>2016-11-08T05:01:37Z</time>
      </trkpt>
      <trkpt lat="-28.63568153232336" lon="28.368815397843719">
        <ele>1828.5599999999999</ele>
        <time>2016-11-08T05:01:38Z</time>
      </trkpt>
      <trkpt lat="-28.635809440165758" lon="28.36858581751585">
        <ele>1827.5999999999999</ele>
        <time>2016-11-08T05:01:39Z</time>
      </trkpt>
      <trkpt lat="-28.635928463190794" lon="28.368337629362941">
        <ele>1827.1199999999999</ele>
        <time>2016-11-08T05:01:40Z</time>
      </trkpt>
      <trkpt lat="-28.636034578084946" lon="28.368067983537912">
        <ele>1826.1600000000001</ele>
        <time>2016-11-08T05:01:41Z</time>
      </trkpt>
      <trkpt lat="-28.636116972193122" lon="28.367812586948276">
        <ele>1825.6800000000001</ele>
        <time>2016-11-08T05:01:42Z</time>
      </trkpt>
      <trkpt lat="-28.636189391836524" lon="28.367538414895535">
        <ele>1825.2</ele>
        <time>2016-11-08T05:01:43Z</time>
      </trkpt>
      <trkpt lat="-28.636250831186771" lon="28.367248065769672">
        <ele>1824.72</ele>
        <time>2016-11-08T05:01:44Z</time>
      </trkpt>
      <trkpt lat="-28.636296764016151" lon="28.366980263963342">
        <ele>1824.24</ele>
        <time>2016-11-08T05:01:45Z</time>
      </trkpt>
      <trkpt lat="-28.636828679591417" lon="28.36305309087038">
        <ele>1813.1800000000001</ele>
        <time>2016-11-08T05:01:59Z</time>
      </trkpt>
      <trkpt lat="-28.637225227430463" lon="28.358732974156737">
        <ele>1787.71</ele>
        <time>2016-11-08T05:02:13Z</time>
      </trkpt>
      <trkpt lat="-28.637662930414081" lon="28.35541826672852">
        <ele>1767.52</ele>
        <time>2016-11-08T05:02:24Z</time>
      </trkpt>
      <trkpt lat="-28.63868803717196" lon="28.35288810543716">
        <ele>1751.6600000000001</ele>
        <time>2016-11-08T05:02:33Z</time>
      </trkpt>
      <trkpt lat="-28.640518309548497" lon="28.348482074216008">
        <ele>1737.72</ele>
        <time>2016-11-08T05:02:48Z</time>
      </trkpt>
      <trkpt lat="-28.642472550272942" lon="28.343788124620914">
        <ele>1739.1600000000001</ele>
        <time>2016-11-08T05:03:04Z</time>
      </trkpt>
      <trkpt lat="-28.644898105412722" lon="28.337994804605842">
        <ele>1740.1199999999999</ele>
        <time>2016-11-08T05:03:24Z</time>
      </trkpt>
    </trkseg>
  </trk>

</gpx>