<?xml version="1.0" encoding="utf-8"?><gpx creator="Garmin Desktop App" version="1.1" xsi:schemaLocation="http://www.topografix.com/GPX/1/1 http://www.topografix.com/GPX/1/1/gpx.xsd http://www.garmin.com/xmlschemas/WaypointExtension/v1 http://www8.garmin.com/xmlschemas/WaypointExtensionv1.xsd http://www.garmin.com/xmlschemas/TrackPointExtension/v1 http://www.garmin.com/xmlschemas/TrackPointExtensionv1.xsd http://www.garmin.com/xmlschemas/GpxExtensions/v3 http://www8.garmin.com/xmlschemas/GpxExtensionsv3.xsd http://www.garmin.com/xmlschemas/ActivityExtension/v1 http://www8.garmin.com/xmlschemas/ActivityExtensionv1.xsd http://www.garmin.com/xmlschemas/AdventuresExtensions/v1 http://www8.garmin.com/xmlschemas/AdventuresExtensionv1.xsd http://www.garmin.com/xmlschemas/PressureExtension/v1 http://www.garmin.com/xmlschemas/PressureExtensionv1.xsd http://www.garmin.com/xmlschemas/TripExtensions/v1 http://www.garmin.com/xmlschemas/TripExtensionsv1.xsd http://www.garmin.com/xmlschemas/TripMetaDataExtensions/v1 http://www.garmin.com/xmlschemas/TripMetaDataExtensionsv1.xsd http://www.garmin.com/xmlschemas/ViaPointTransportationModeExtensions/v1 http://www.garmin.com/xmlschemas/ViaPointTransportationModeExtensionsv1.xsd http://www.garmin.com/xmlschemas/CreationTimeExtension/v1 http://www.garmin.com/xmlschemas/CreationTimeExtensionsv1.xsd http://www.garmin.com/xmlschemas/AccelerationExtension/v1 http://www.garmin.com/xmlschemas/AccelerationExtensionv1.xsd http://www.garmin.com/xmlschemas/PowerExtension/v1 http://www.garmin.com/xmlschemas/PowerExtensionv1.xsd http://www.garmin.com/xmlschemas/VideoExtension/v1 http://www.garmin.com/xmlschemas/VideoExtensionv1.xsd" xmlns="http://www.topografix.com/GPX/1/1" xmlns:xsi="http://www.w3.org/2001/XMLSchema-instance" xmlns:wptx1="http://www.garmin.com/xmlschemas/WaypointExtension/v1" xmlns:gpxtrx="http://www.garmin.com/xmlschemas/GpxExtensions/v3" xmlns:gpxtpx="http://www.garmin.com/xmlschemas/TrackPointExtension/v1" xmlns:gpxx="http://www.garmin.com/xmlschemas/GpxExtensions/v3" xmlns:trp="http://www.garmin.com/xmlschemas/TripExtensions/v1" xmlns:adv="http://www.garmin.com/xmlschemas/AdventuresExtensions/v1" xmlns:prs="http://www.garmin.com/xmlschemas/PressureExtension/v1" xmlns:tmd="http://www.garmin.com/xmlschemas/TripMetaDataExtensions/v1" xmlns:vptm="http://www.garmin.com/xmlschemas/ViaPointTransportationModeExtensions/v1" xmlns:ctx="http://www.garmin.com/xmlschemas/CreationTimeExtension/v1" xmlns:gpxacc="http://www.garmin.com/xmlschemas/AccelerationExtension/v1" xmlns:gpxpx="http://www.garmin.com/xmlschemas/PowerExtension/v1" xmlns:vidx1="http://www.garmin.com/xmlschemas/VideoExtension/v1">

  <metadata>
    <link href="http://www.garmin.com">
      <text>Garmin International</text>
    </link>
    <time>2022-07-02T19:03:07Z</time>
    <bounds maxlat="-25.725360196083784" maxlon="27.857756679877639" minlat="-25.729060051962733" minlon="27.84436491318047" />
  </metadata>

  <trk>
    <name>[83] Hartebeespoort dam Tunnel</name>
    <extensions>
      <gpxx:TrackExtension>
        <gpxx:DisplayColor>Blue</gpxx:DisplayColor>
      </gpxx:TrackExtension>
    </extensions>
    <trkseg>
      <trkpt lat="-25.728944381698966" lon="27.857756679877639">
        <ele>1174.8699999999999</ele>
        <time>2018-08-25T10:34:23Z</time>
      </trkpt>
      <trkpt lat="-25.72899735532701" lon="27.856928966939449">
        <ele>1174.8699999999999</ele>
        <time>2018-08-25T10:34:29Z</time>
      </trkpt>
      <trkpt lat="-25.729060051962733" lon="27.856324464082718">
        <ele>1174.8699999999999</ele>
        <time>2018-08-25T10:34:33Z</time>
      </trkpt>
      <trkpt lat="-25.729053178802133" lon="27.85619119182229">
        <ele>1174.8699999999999</ele>
        <time>2018-08-25T10:34:34Z</time>
      </trkpt>
      <trkpt lat="-25.729039600118995" lon="27.856065379455686">
        <ele>1174.8699999999999</ele>
        <time>2018-08-25T10:34:35Z</time>
      </trkpt>
      <trkpt lat="-25.72897095233202" lon="27.855704203248024">
        <ele>1174.8699999999999</ele>
        <time>2018-08-25T10:34:38Z</time>
      </trkpt>
      <trkpt lat="-25.728930216282606" lon="27.855592053383589">
        <ele>1174.8699999999999</ele>
        <time>2018-08-25T10:34:39Z</time>
      </trkpt>
      <trkpt lat="-25.728828124701977" lon="27.855292819440365">
        <ele>1174.3900000000001</ele>
        <time>2018-08-25T10:34:42Z</time>
      </trkpt>
      <trkpt lat="-25.728816138580441" lon="27.85519533790648">
        <ele>1174.3900000000001</ele>
        <time>2018-08-25T10:34:43Z</time>
      </trkpt>
      <trkpt lat="-25.728817898780107" lon="27.855091150850058">
        <ele>1173.9100000000001</ele>
        <time>2018-08-25T10:34:44Z</time>
      </trkpt>
      <trkpt lat="-25.728833572939038" lon="27.854983443394303">
        <ele>1174.3900000000001</ele>
        <time>2018-08-25T10:34:45Z</time>
      </trkpt>
      <trkpt lat="-25.728858802467585" lon="27.854874897748232">
        <ele>1174.3900000000001</ele>
        <time>2018-08-25T10:34:46Z</time>
      </trkpt>
      <trkpt lat="-25.728890653699636" lon="27.85476341843605">
        <ele>1174.3900000000001</ele>
        <time>2018-08-25T10:34:47Z</time>
      </trkpt>
      <trkpt lat="-25.728947063907981" lon="27.854528892785311">
        <ele>1174.3900000000001</ele>
        <time>2018-08-25T10:34:49Z</time>
      </trkpt>
      <trkpt lat="-25.728959636762738" lon="27.854408696293831">
        <ele>1174.3900000000001</ele>
        <time>2018-08-25T10:34:50Z</time>
      </trkpt>
      <trkpt lat="-25.728960307314992" lon="27.854282548651099">
        <ele>1174.3900000000001</ele>
        <time>2018-08-25T10:34:51Z</time>
      </trkpt>
      <trkpt lat="-25.728795686736703" lon="27.853217795491219">
        <ele>1174.8699999999999</ele>
        <time>2018-08-25T10:34:59Z</time>
      </trkpt>
      <trkpt lat="-25.728738019242883" lon="27.853098688647151">
        <ele>1174.3900000000001</ele>
        <time>2018-08-25T10:35:00Z</time>
      </trkpt>
      <trkpt lat="-25.728666018694639" lon="27.852986371144652">
        <ele>1174.3900000000001</ele>
        <time>2018-08-25T10:35:01Z</time>
      </trkpt>
      <trkpt lat="-25.728585217148066" lon="27.852888470515609">
        <ele>1174.3900000000001</ele>
        <time>2018-08-25T10:35:02Z</time>
      </trkpt>
      <trkpt lat="-25.728495614603162" lon="27.852794090285897">
        <ele>1174.3900000000001</ele>
        <time>2018-08-25T10:35:03Z</time>
      </trkpt>
      <trkpt lat="-25.728243570774794" lon="27.852491671219468">
        <ele>1173.9100000000001</ele>
        <time>2018-08-25T10:35:06Z</time>
      </trkpt>
      <trkpt lat="-25.728177353739738" lon="27.852381700649858">
        <ele>1173.9100000000001</ele>
        <time>2018-08-25T10:35:07Z</time>
      </trkpt>
      <trkpt lat="-25.728122033178806" lon="27.852267287671566">
        <ele>1173.4300000000001</ele>
        <time>2018-08-25T10:35:08Z</time>
      </trkpt>
      <trkpt lat="-25.728075681254268" lon="27.852146420627832">
        <ele>1173.4300000000001</ele>
        <time>2018-08-25T10:35:09Z</time>
      </trkpt>
      <trkpt lat="-25.728036370128393" lon="27.852022368460894">
        <ele>1173.4300000000001</ele>
        <time>2018-08-25T10:35:10Z</time>
      </trkpt>
      <trkpt lat="-25.728005273267627" lon="27.851894292980433">
        <ele>1173.4300000000001</ele>
        <time>2018-08-25T10:35:11Z</time>
      </trkpt>
      <trkpt lat="-25.727977612987161" lon="27.851761104539037">
        <ele>1172.95</ele>
        <time>2018-08-25T10:35:12Z</time>
      </trkpt>
      <trkpt lat="-25.727942660450935" lon="27.851639399304986">
        <ele>1172.95</ele>
        <time>2018-08-25T10:35:13Z</time>
      </trkpt>
      <trkpt lat="-25.727888513356447" lon="27.851529428735375">
        <ele>1172.95</ele>
        <time>2018-08-25T10:35:14Z</time>
      </trkpt>
      <trkpt lat="-25.727814082056284" lon="27.85143387503922">
        <ele>1172.95</ele>
        <time>2018-08-25T10:35:15Z</time>
      </trkpt>
      <trkpt lat="-25.727721126750112" lon="27.851354582235217">
        <ele>1172.95</ele>
        <time>2018-08-25T10:35:16Z</time>
      </trkpt>
      <trkpt lat="-25.727616855874658" lon="27.851291717961431">
        <ele>1172.95</ele>
        <time>2018-08-25T10:35:17Z</time>
      </trkpt>
      <trkpt lat="-25.727506298571825" lon="27.851232457906008">
        <ele>1172.95</ele>
        <time>2018-08-25T10:35:18Z</time>
      </trkpt>
      <trkpt lat="-25.727008664980531" lon="27.85091444849968">
        <ele>1172.47</ele>
        <time>2018-08-25T10:35:23Z</time>
      </trkpt>
      <trkpt lat="-25.726929204538465" lon="27.850824175402522">
        <ele>1172.47</ele>
        <time>2018-08-25T10:35:24Z</time>
      </trkpt>
      <trkpt lat="-25.726864244788885" lon="27.850719820708036">
        <ele>1172.47</ele>
        <time>2018-08-25T10:35:25Z</time>
      </trkpt>
      <trkpt lat="-25.726813115179539" lon="27.850609850138426">
        <ele>1171.98</ele>
        <time>2018-08-25T10:35:26Z</time>
      </trkpt>
      <trkpt lat="-25.726771121844649" lon="27.850499292835593">
        <ele>1171.98</ele>
        <time>2018-08-25T10:35:27Z</time>
      </trkpt>
      <trkpt lat="-25.72673499584198" lon="27.850386388599873">
        <ele>1171.98</ele>
        <time>2018-08-25T10:35:28Z</time>
      </trkpt>
      <trkpt lat="-25.726566268131137" lon="27.849859921261668">
        <ele>1170.54</ele>
        <time>2018-08-25T10:35:36Z</time>
      </trkpt>
      <trkpt lat="-25.726499045267701" lon="27.849756153300405">
        <ele>1170.0599999999999</ele>
        <time>2018-08-25T10:35:48Z</time>
      </trkpt>
      <trkpt lat="-25.726494435220957" lon="27.849753303453326">
        <ele>1170.0599999999999</ele>
        <time>2018-08-25T10:35:53Z</time>
      </trkpt>
      <trkpt lat="-25.726486472412944" lon="27.84973980858922">
        <ele>1170.0599999999999</ele>
        <time>2018-08-25T10:35:54Z</time>
      </trkpt>
      <trkpt lat="-25.726474402472377" lon="27.849729498848319">
        <ele>1169.5799999999999</ele>
        <time>2018-08-25T10:36:07Z</time>
      </trkpt>
      <trkpt lat="-25.726475659757853" lon="27.849726397544146">
        <ele>1168.6199999999999</ele>
        <time>2018-08-25T10:36:44Z</time>
      </trkpt>
      <trkpt lat="-25.726473731920123" lon="27.84972757101059">
        <ele>1170.0599999999999</ele>
        <time>2018-08-25T10:37:24Z</time>
      </trkpt>
      <trkpt lat="-25.726483790203929" lon="27.849713824689388">
        <ele>1172.47</ele>
        <time>2018-08-25T10:37:59Z</time>
      </trkpt>
      <trkpt lat="-25.726356636732817" lon="27.849631262943149">
        <ele>1171.5</ele>
        <time>2018-08-25T10:38:11Z</time>
      </trkpt>
      <trkpt lat="-25.726278685033321" lon="27.8496113140136">
        <ele>1171.02</ele>
        <time>2018-08-25T10:38:26Z</time>
      </trkpt>
      <trkpt lat="-25.726012978702784" lon="27.849421044811606">
        <ele>1170.0599999999999</ele>
        <time>2018-08-25T10:38:37Z</time>
      </trkpt>
      <trkpt lat="-25.726029071956873" lon="27.849403526633978">
        <ele>1170.0599999999999</ele>
        <time>2018-08-25T10:39:01Z</time>
      </trkpt>
      <trkpt lat="-25.726016666740179" lon="27.849403358995914">
        <ele>1171.98</ele>
        <time>2018-08-25T10:39:48Z</time>
      </trkpt>
      <trkpt lat="-25.726019432768226" lon="27.849402101710439">
        <ele>1171.02</ele>
        <time>2018-08-25T10:40:26Z</time>
      </trkpt>
      <trkpt lat="-25.726014571264386" lon="27.849417356774211">
        <ele>1170.54</ele>
        <time>2018-08-25T10:41:07Z</time>
      </trkpt>
      <trkpt lat="-25.72585741057992" lon="27.849318953230977">
        <ele>1169.5799999999999</ele>
        <time>2018-08-25T10:41:28Z</time>
      </trkpt>
      <trkpt lat="-25.72579387575388" lon="27.8492746129632">
        <ele>1169.5799999999999</ele>
        <time>2018-08-25T10:41:29Z</time>
      </trkpt>
      <trkpt lat="-25.725696897134185" lon="27.849277798086405">
        <ele>1169.5799999999999</ele>
        <time>2018-08-25T10:41:30Z</time>
      </trkpt>
      <trkpt lat="-25.725564798340201" lon="27.849333537742496">
        <ele>1167.6600000000001</ele>
        <time>2018-08-25T10:41:43Z</time>
      </trkpt>
      <trkpt lat="-25.725392382591963" lon="27.849254412576556">
        <ele>1167.6600000000001</ele>
        <time>2018-08-25T10:41:44Z</time>
      </trkpt>
      <trkpt lat="-25.725360196083784" lon="27.849024077877402">
        <ele>1168.1400000000001</ele>
        <time>2018-08-25T10:41:45Z</time>
      </trkpt>
      <trkpt lat="-25.72547628544271" lon="27.848793910816312">
        <ele>1168.6199999999999</ele>
        <time>2018-08-25T10:41:46Z</time>
      </trkpt>
      <trkpt lat="-25.725532192736864" lon="27.848609006032348">
        <ele>1168.6199999999999</ele>
        <time>2018-08-25T10:41:47Z</time>
      </trkpt>
      <trkpt lat="-25.725574353709817" lon="27.848484618589282">
        <ele>1168.6199999999999</ele>
        <time>2018-08-25T10:41:48Z</time>
      </trkpt>
      <trkpt lat="-25.725593967363238" lon="27.848371798172593">
        <ele>1168.6199999999999</ele>
        <time>2018-08-25T10:41:49Z</time>
      </trkpt>
      <trkpt lat="-25.725596565753222" lon="27.848265264183283">
        <ele>1168.6199999999999</ele>
        <time>2018-08-25T10:41:50Z</time>
      </trkpt>
      <trkpt lat="-25.725585669279099" lon="27.848159819841385">
        <ele>1168.6199999999999</ele>
        <time>2018-08-25T10:41:51Z</time>
      </trkpt>
      <trkpt lat="-25.725561361759901" lon="27.848065355792642">
        <ele>1169.0999999999999</ele>
        <time>2018-08-25T10:41:52Z</time>
      </trkpt>
      <trkpt lat="-25.725537976250052" lon="27.847981536760926">
        <ele>1169.0999999999999</ele>
        <time>2018-08-25T10:41:53Z</time>
      </trkpt>
      <trkpt lat="-25.725521296262741" lon="27.847909368574619">
        <ele>1169.0999999999999</ele>
        <time>2018-08-25T10:41:54Z</time>
      </trkpt>
      <trkpt lat="-25.725514926016331" lon="27.847845582291484">
        <ele>1169.0999999999999</ele>
        <time>2018-08-25T10:41:55Z</time>
      </trkpt>
      <trkpt lat="-25.725520541891456" lon="27.847786406055093">
        <ele>1169.0999999999999</ele>
        <time>2018-08-25T10:41:56Z</time>
      </trkpt>
      <trkpt lat="-25.725537305697799" lon="27.847726810723543">
        <ele>1169.0999999999999</ele>
        <time>2018-08-25T10:41:57Z</time>
      </trkpt>
      <trkpt lat="-25.725563373416662" lon="27.847662270069122">
        <ele>1169.0999999999999</ele>
        <time>2018-08-25T10:41:58Z</time>
      </trkpt>
      <trkpt lat="-25.725597739219666" lon="27.847587000578642">
        <ele>1169.0999999999999</ele>
        <time>2018-08-25T10:41:59Z</time>
      </trkpt>
      <trkpt lat="-25.725853722542524" lon="27.846920806914568">
        <ele>1169.5799999999999</ele>
        <time>2018-08-25T10:42:06Z</time>
      </trkpt>
      <trkpt lat="-25.725857242941856" lon="27.846814356744289">
        <ele>1169.5799999999999</ele>
        <time>2018-08-25T10:42:07Z</time>
      </trkpt>
      <trkpt lat="-25.725836958736181" lon="27.846697177737951">
        <ele>1169.5799999999999</ele>
        <time>2018-08-25T10:42:08Z</time>
      </trkpt>
      <trkpt lat="-25.725747691467404" lon="27.846313454210758">
        <ele>1170.0599999999999</ele>
        <time>2018-08-25T10:42:11Z</time>
      </trkpt>
      <trkpt lat="-25.725734867155552" lon="27.846167609095573">
        <ele>1170.0599999999999</ele>
        <time>2018-08-25T10:42:12Z</time>
      </trkpt>
      <trkpt lat="-25.725695891305804" lon="27.84436491318047">
        <ele>1171.5</ele>
        <time>2018-08-25T10:42:23Z</time>
      </trkpt>
    </trkseg>
  </trk>

</gpx>