<?xml version="1.0" encoding="utf-8"?><gpx creator="Garmin Desktop App" version="1.1" xsi:schemaLocation="http://www.topografix.com/GPX/1/1 http://www.topografix.com/GPX/1/1/gpx.xsd http://www.garmin.com/xmlschemas/WaypointExtension/v1 http://www8.garmin.com/xmlschemas/WaypointExtensionv1.xsd http://www.garmin.com/xmlschemas/TrackPointExtension/v1 http://www.garmin.com/xmlschemas/TrackPointExtensionv1.xsd http://www.garmin.com/xmlschemas/GpxExtensions/v3 http://www8.garmin.com/xmlschemas/GpxExtensionsv3.xsd http://www.garmin.com/xmlschemas/ActivityExtension/v1 http://www8.garmin.com/xmlschemas/ActivityExtensionv1.xsd http://www.garmin.com/xmlschemas/AdventuresExtensions/v1 http://www8.garmin.com/xmlschemas/AdventuresExtensionv1.xsd http://www.garmin.com/xmlschemas/PressureExtension/v1 http://www.garmin.com/xmlschemas/PressureExtensionv1.xsd http://www.garmin.com/xmlschemas/TripExtensions/v1 http://www.garmin.com/xmlschemas/TripExtensionsv1.xsd http://www.garmin.com/xmlschemas/TripMetaDataExtensions/v1 http://www.garmin.com/xmlschemas/TripMetaDataExtensionsv1.xsd http://www.garmin.com/xmlschemas/ViaPointTransportationModeExtensions/v1 http://www.garmin.com/xmlschemas/ViaPointTransportationModeExtensionsv1.xsd http://www.garmin.com/xmlschemas/CreationTimeExtension/v1 http://www.garmin.com/xmlschemas/CreationTimeExtensionsv1.xsd http://www.garmin.com/xmlschemas/AccelerationExtension/v1 http://www.garmin.com/xmlschemas/AccelerationExtensionv1.xsd http://www.garmin.com/xmlschemas/PowerExtension/v1 http://www.garmin.com/xmlschemas/PowerExtensionv1.xsd http://www.garmin.com/xmlschemas/VideoExtension/v1 http://www.garmin.com/xmlschemas/VideoExtensionv1.xsd" xmlns="http://www.topografix.com/GPX/1/1" xmlns:xsi="http://www.w3.org/2001/XMLSchema-instance" xmlns:wptx1="http://www.garmin.com/xmlschemas/WaypointExtension/v1" xmlns:gpxtrx="http://www.garmin.com/xmlschemas/GpxExtensions/v3" xmlns:gpxtpx="http://www.garmin.com/xmlschemas/TrackPointExtension/v1" xmlns:gpxx="http://www.garmin.com/xmlschemas/GpxExtensions/v3" xmlns:trp="http://www.garmin.com/xmlschemas/TripExtensions/v1" xmlns:adv="http://www.garmin.com/xmlschemas/AdventuresExtensions/v1" xmlns:prs="http://www.garmin.com/xmlschemas/PressureExtension/v1" xmlns:tmd="http://www.garmin.com/xmlschemas/TripMetaDataExtensions/v1" xmlns:vptm="http://www.garmin.com/xmlschemas/ViaPointTransportationModeExtensions/v1" xmlns:ctx="http://www.garmin.com/xmlschemas/CreationTimeExtension/v1" xmlns:gpxacc="http://www.garmin.com/xmlschemas/AccelerationExtension/v1" xmlns:gpxpx="http://www.garmin.com/xmlschemas/PowerExtension/v1" xmlns:vidx1="http://www.garmin.com/xmlschemas/VideoExtension/v1">

  <metadata>
    <link href="http://www.garmin.com">
      <text>Garmin International</text>
    </link>
    <time>2023-01-21T09:55:53Z</time>
    <bounds maxlat="-33.178573977202177" maxlon="23.48181095905602" minlat="-33.228211021050811" minlon="23.427976006641984" />
  </metadata>

  <trk>
    <name>[103] Perdepoort Pass</name>
    <extensions>
      <gpxx:TrackExtension>
        <gpxx:DisplayColor>Blue</gpxx:DisplayColor>
      </gpxx:TrackExtension>
    </extensions>
    <trkseg>
      <trkpt lat="-33.178573977202177" lon="23.429545015096664">
        <ele>811.97000000000003</ele>
        <time>2020-02-24T06:35:27Z</time>
      </trkpt>
      <trkpt lat="-33.18251296877861" lon="23.429424986243248">
        <ele>819.17999999999995</ele>
        <time>2020-02-24T06:35:41Z</time>
      </trkpt>
      <trkpt lat="-33.184630991891026" lon="23.429604023694992">
        <ele>824.47000000000003</ele>
        <time>2020-02-24T06:35:49Z</time>
      </trkpt>
      <trkpt lat="-33.186153983697295" lon="23.430454032495618">
        <ele>826.87</ele>
        <time>2020-02-24T06:35:55Z</time>
      </trkpt>
      <trkpt lat="-33.18805399350822" lon="23.431136989966035">
        <ele>834.08000000000004</ele>
        <time>2020-02-24T06:36:02Z</time>
      </trkpt>
      <trkpt lat="-33.1900529935956" lon="23.431203039363027">
        <ele>843.69000000000005</ele>
        <time>2020-02-24T06:36:09Z</time>
      </trkpt>
      <trkpt lat="-33.192059034481645" lon="23.430637009441853">
        <ele>853.78999999999996</ele>
        <time>2020-02-24T06:36:16Z</time>
      </trkpt>
      <trkpt lat="-33.193874973803759" lon="23.429465973749757">
        <ele>864.84000000000003</ele>
        <time>2020-02-24T06:36:23Z</time>
      </trkpt>
      <trkpt lat="-33.195946980267763" lon="23.428165018558502">
        <ele>877.82000000000005</ele>
        <time>2020-02-24T06:36:31Z</time>
      </trkpt>
      <trkpt lat="-33.197631994262338" lon="23.427976006641984">
        <ele>882.63</ele>
        <time>2020-02-24T06:36:37Z</time>
      </trkpt>
      <trkpt lat="-33.199218017980456" lon="23.428466012701392">
        <ele>890.79999999999995</ele>
        <time>2020-02-24T06:36:43Z</time>
      </trkpt>
      <trkpt lat="-33.20062299259007" lon="23.42960000038147">
        <ele>894.15999999999997</ele>
        <time>2020-02-24T06:36:49Z</time>
      </trkpt>
      <trkpt lat="-33.201638963073492" lon="23.431221982464194">
        <ele>890.79999999999995</ele>
        <time>2020-02-24T06:36:55Z</time>
      </trkpt>
      <trkpt lat="-33.20212796330452" lon="23.433106988668442">
        <ele>884.54999999999995</ele>
        <time>2020-02-24T06:37:01Z</time>
      </trkpt>
      <trkpt lat="-33.202377995476127" lon="23.436536025255919">
        <ele>877.34000000000003</ele>
        <time>2020-02-24T06:37:11Z</time>
      </trkpt>
      <trkpt lat="-33.202952994033694" lon="23.441548990085721">
        <ele>863.39999999999998</ele>
        <time>2020-02-24T06:37:26Z</time>
      </trkpt>
      <trkpt lat="-33.203783975914121" lon="23.443261999636889">
        <ele>859.55999999999995</ele>
        <time>2020-02-24T06:37:32Z</time>
      </trkpt>
      <trkpt lat="-33.205042015761137" lon="23.444605031982064">
        <ele>855.23000000000002</ele>
        <time>2020-02-24T06:37:38Z</time>
      </trkpt>
      <trkpt lat="-33.206586968153715" lon="23.445443976670504">
        <ele>851.38</ele>
        <time>2020-02-24T06:37:44Z</time>
      </trkpt>
      <trkpt lat="-33.2079519610852" lon="23.44618602655828">
        <ele>847.53999999999996</ele>
        <time>2020-02-24T06:37:50Z</time>
      </trkpt>
      <trkpt lat="-33.209012020379305" lon="23.44754297286272">
        <ele>840.80999999999995</ele>
        <time>2020-02-24T06:37:56Z</time>
      </trkpt>
      <trkpt lat="-33.209594981744885" lon="23.449199991300702">
        <ele>836.96000000000004</ele>
        <time>2020-02-24T06:38:01Z</time>
      </trkpt>
      <trkpt lat="-33.211534973233938" lon="23.456568019464612">
        <ele>824.47000000000003</ele>
        <time>2020-02-24T06:38:21Z</time>
      </trkpt>
      <trkpt lat="-33.213765984401107" lon="23.465047990903258">
        <ele>817.74000000000001</ele>
        <time>2020-02-24T06:38:44Z</time>
      </trkpt>
      <trkpt lat="-33.214440979063511" lon="23.467003991827369">
        <ele>820.13999999999999</ele>
        <time>2020-02-24T06:38:50Z</time>
      </trkpt>
      <trkpt lat="-33.215353013947606" lon="23.468165975064039">
        <ele>823.99000000000001</ele>
        <time>2020-02-24T06:38:55Z</time>
      </trkpt>
      <trkpt lat="-33.216724963858724" lon="23.469001986086369">
        <ele>832.63999999999999</ele>
        <time>2020-02-24T06:39:01Z</time>
      </trkpt>
      <trkpt lat="-33.217250006273389" lon="23.46915696747601">
        <ele>835.03999999999996</ele>
        <time>2020-02-24T06:39:03Z</time>
      </trkpt>
      <trkpt lat="-33.21927297860384" lon="23.469679998233914">
        <ele>846.58000000000004</ele>
        <time>2020-02-24T06:39:10Z</time>
      </trkpt>
      <trkpt lat="-33.220692034810781" lon="23.470754977315664">
        <ele>854.26999999999998</ele>
        <time>2020-02-24T06:39:16Z</time>
      </trkpt>
      <trkpt lat="-33.221714962273836" lon="23.472191970795393">
        <ele>853.78999999999996</ele>
        <time>2020-02-24T06:39:22Z</time>
      </trkpt>
      <trkpt lat="-33.222298007458448" lon="23.473985027521849">
        <ele>848.5</ele>
        <time>2020-02-24T06:39:28Z</time>
      </trkpt>
      <trkpt lat="-33.222448965534568" lon="23.475882019847631">
        <ele>837.92999999999995</ele>
        <time>2020-02-24T06:39:33Z</time>
      </trkpt>
      <trkpt lat="-33.222530018538237" lon="23.478319980204105">
        <ele>829.75999999999999</ele>
        <time>2020-02-24T06:39:40Z</time>
      </trkpt>
      <trkpt lat="-33.223124966025352" lon="23.479943973943591">
        <ele>820.62</ele>
        <time>2020-02-24T06:39:46Z</time>
      </trkpt>
      <trkpt lat="-33.224265994504094" lon="23.481125989928842">
        <ele>810.52999999999997</ele>
        <time>2020-02-24T06:39:52Z</time>
      </trkpt>
      <trkpt lat="-33.22576199658215" lon="23.481649020686746">
        <ele>804.75999999999999</ele>
        <time>2020-02-24T06:39:58Z</time>
      </trkpt>
      <trkpt lat="-33.228211021050811" lon="23.48181095905602">
        <ele>809.09000000000003</ele>
        <time>2020-02-24T06:40:06Z</time>
      </trkpt>
    </trkseg>
  </trk>

</gpx>