<?xml version="1.0" encoding="utf-8"?><gpx creator="Garmin Desktop App" version="1.1" xsi:schemaLocation="http://www.topografix.com/GPX/1/1 http://www.topografix.com/GPX/1/1/gpx.xsd http://www.garmin.com/xmlschemas/WaypointExtension/v1 http://www8.garmin.com/xmlschemas/WaypointExtensionv1.xsd http://www.garmin.com/xmlschemas/TrackPointExtension/v1 http://www.garmin.com/xmlschemas/TrackPointExtensionv1.xsd http://www.garmin.com/xmlschemas/GpxExtensions/v3 http://www8.garmin.com/xmlschemas/GpxExtensionsv3.xsd http://www.garmin.com/xmlschemas/ActivityExtension/v1 http://www8.garmin.com/xmlschemas/ActivityExtensionv1.xsd http://www.garmin.com/xmlschemas/AdventuresExtensions/v1 http://www8.garmin.com/xmlschemas/AdventuresExtensionv1.xsd http://www.garmin.com/xmlschemas/PressureExtension/v1 http://www.garmin.com/xmlschemas/PressureExtensionv1.xsd http://www.garmin.com/xmlschemas/TripExtensions/v1 http://www.garmin.com/xmlschemas/TripExtensionsv1.xsd http://www.garmin.com/xmlschemas/TripMetaDataExtensions/v1 http://www.garmin.com/xmlschemas/TripMetaDataExtensionsv1.xsd http://www.garmin.com/xmlschemas/ViaPointTransportationModeExtensions/v1 http://www.garmin.com/xmlschemas/ViaPointTransportationModeExtensionsv1.xsd http://www.garmin.com/xmlschemas/CreationTimeExtension/v1 http://www.garmin.com/xmlschemas/CreationTimeExtensionsv1.xsd http://www.garmin.com/xmlschemas/AccelerationExtension/v1 http://www.garmin.com/xmlschemas/AccelerationExtensionv1.xsd http://www.garmin.com/xmlschemas/PowerExtension/v1 http://www.garmin.com/xmlschemas/PowerExtensionv1.xsd http://www.garmin.com/xmlschemas/VideoExtension/v1 http://www.garmin.com/xmlschemas/VideoExtensionv1.xsd" xmlns="http://www.topografix.com/GPX/1/1" xmlns:xsi="http://www.w3.org/2001/XMLSchema-instance" xmlns:wptx1="http://www.garmin.com/xmlschemas/WaypointExtension/v1" xmlns:gpxtrx="http://www.garmin.com/xmlschemas/GpxExtensions/v3" xmlns:gpxtpx="http://www.garmin.com/xmlschemas/TrackPointExtension/v1" xmlns:gpxx="http://www.garmin.com/xmlschemas/GpxExtensions/v3" xmlns:trp="http://www.garmin.com/xmlschemas/TripExtensions/v1" xmlns:adv="http://www.garmin.com/xmlschemas/AdventuresExtensions/v1" xmlns:prs="http://www.garmin.com/xmlschemas/PressureExtension/v1" xmlns:tmd="http://www.garmin.com/xmlschemas/TripMetaDataExtensions/v1" xmlns:vptm="http://www.garmin.com/xmlschemas/ViaPointTransportationModeExtensions/v1" xmlns:ctx="http://www.garmin.com/xmlschemas/CreationTimeExtension/v1" xmlns:gpxacc="http://www.garmin.com/xmlschemas/AccelerationExtension/v1" xmlns:gpxpx="http://www.garmin.com/xmlschemas/PowerExtension/v1" xmlns:vidx1="http://www.garmin.com/xmlschemas/VideoExtension/v1">

  <metadata>
    <link href="http://www.garmin.com">
      <text>Garmin International</text>
    </link>
    <time>2023-01-21T11:39:50Z</time>
    <bounds maxlat="-33.59549998305738" maxlon="19.869175991043448" minlat="-33.630452016368508" minlon="19.81739804148674" />
  </metadata>

  <trk>
    <name>[140] Rooihoogte Pass</name>
    <extensions>
      <gpxx:TrackExtension>
        <gpxx:DisplayColor>Blue</gpxx:DisplayColor>
      </gpxx:TrackExtension>
    </extensions>
    <trkseg>
      <trkpt lat="-33.630452016368508" lon="19.826242960989475">
        <ele>864.36000000000001</ele>
        <time>2020-03-10T08:01:51Z</time>
      </trkpt>
      <trkpt lat="-33.630332993343472" lon="19.826435996219516">
        <ele>863.88</ele>
        <time>2020-03-10T08:01:52Z</time>
      </trkpt>
      <trkpt lat="-33.630189998075366" lon="19.82659600675106">
        <ele>863.39999999999998</ele>
        <time>2020-03-10T08:01:53Z</time>
      </trkpt>
      <trkpt lat="-33.63002403639257" lon="19.826716035604477">
        <ele>862.44000000000005</ele>
        <time>2020-03-10T08:01:54Z</time>
      </trkpt>
      <trkpt lat="-33.629851033911109" lon="19.826799016445875">
        <ele>862.44000000000005</ele>
        <time>2020-03-10T08:01:55Z</time>
      </trkpt>
      <trkpt lat="-33.629671996459365" lon="19.826843021437526">
        <ele>862.44000000000005</ele>
        <time>2020-03-10T08:01:56Z</time>
      </trkpt>
      <trkpt lat="-33.629484996199608" lon="19.826838998124003">
        <ele>862.44000000000005</ele>
        <time>2020-03-10T08:01:57Z</time>
      </trkpt>
      <trkpt lat="-33.629292966797948" lon="19.826801028102636">
        <ele>863.88</ele>
        <time>2020-03-10T08:01:58Z</time>
      </trkpt>
      <trkpt lat="-33.62910102121532" lon="19.826731039211154">
        <ele>864.84000000000003</ele>
        <time>2020-03-10T08:01:59Z</time>
      </trkpt>
      <trkpt lat="-33.628903040662408" lon="19.826647974550724">
        <ele>866.28999999999996</ele>
        <time>2020-03-10T08:02:00Z</time>
      </trkpt>
      <trkpt lat="-33.628517976030707" lon="19.82652903534472">
        <ele>868.21000000000004</ele>
        <time>2020-03-10T08:02:02Z</time>
      </trkpt>
      <trkpt lat="-33.628347991034389" lon="19.826530963182449">
        <ele>868.69000000000005</ele>
        <time>2020-03-10T08:02:03Z</time>
      </trkpt>
      <trkpt lat="-33.628197032958269" lon="19.826567005366087">
        <ele>869.16999999999996</ele>
        <time>2020-03-10T08:02:04Z</time>
      </trkpt>
      <trkpt lat="-33.628066023811698" lon="19.826641017571092">
        <ele>869.16999999999996</ele>
        <time>2020-03-10T08:02:05Z</time>
      </trkpt>
      <trkpt lat="-33.627954041585326" lon="19.826756017282605">
        <ele>870.13</ele>
        <time>2020-03-10T08:02:06Z</time>
      </trkpt>
      <trkpt lat="-33.627862008288503" lon="19.826893983408809">
        <ele>870.13</ele>
        <time>2020-03-10T08:02:07Z</time>
      </trkpt>
      <trkpt lat="-33.62779101356864" lon="19.827054999768734">
        <ele>870.61000000000001</ele>
        <time>2020-03-10T08:02:08Z</time>
      </trkpt>
      <trkpt lat="-33.627743991091847" lon="19.827225990593433">
        <ele>871.09000000000003</ele>
        <time>2020-03-10T08:02:09Z</time>
      </trkpt>
      <trkpt lat="-33.627734016627073" lon="19.827410979196429">
        <ele>872.52999999999997</ele>
        <time>2020-03-10T08:02:10Z</time>
      </trkpt>
      <trkpt lat="-33.627756983041763" lon="19.827602002769709">
        <ele>873.00999999999999</ele>
        <time>2020-03-10T08:02:11Z</time>
      </trkpt>
      <trkpt lat="-33.627808028832078" lon="19.827786991372705">
        <ele>873.5</ele>
        <time>2020-03-10T08:02:12Z</time>
      </trkpt>
      <trkpt lat="-33.627891009673476" lon="19.827967034652829">
        <ele>873.98000000000002</ele>
        <time>2020-03-10T08:02:13Z</time>
      </trkpt>
      <trkpt lat="-33.627998968586326" lon="19.828134002164006">
        <ele>876.38</ele>
        <time>2020-03-10T08:02:14Z</time>
      </trkpt>
      <trkpt lat="-33.628104999661446" lon="19.828299041837454">
        <ele>878.77999999999997</ele>
        <time>2020-03-10T08:02:15Z</time>
      </trkpt>
      <trkpt lat="-33.628189992159605" lon="19.828470032662153">
        <ele>879.25999999999999</ele>
        <time>2020-03-10T08:02:16Z</time>
      </trkpt>
      <trkpt lat="-33.628250006586313" lon="19.82865602709353">
        <ele>881.19000000000005</ele>
        <time>2020-03-10T08:02:17Z</time>
      </trkpt>
      <trkpt lat="-33.628268027678132" lon="19.828853001818061">
        <ele>883.11000000000001</ele>
        <time>2020-03-10T08:02:18Z</time>
      </trkpt>
      <trkpt lat="-33.628255035728216" lon="19.829057017341256">
        <ele>884.07000000000005</ele>
        <time>2020-03-10T08:02:19Z</time>
      </trkpt>
      <trkpt lat="-33.628210024908185" lon="19.829270001500845">
        <ele>885.02999999999997</ele>
        <time>2020-03-10T08:02:20Z</time>
      </trkpt>
      <trkpt lat="-33.628149004653096" lon="19.829480974003673">
        <ele>886.47000000000003</ele>
        <time>2020-03-10T08:02:21Z</time>
      </trkpt>
      <trkpt lat="-33.628097036853433" lon="19.829695969820023">
        <ele>888.39999999999998</ele>
        <time>2020-03-10T08:02:22Z</time>
      </trkpt>
      <trkpt lat="-33.628067029640079" lon="19.829921023920178">
        <ele>890.32000000000005</ele>
        <time>2020-03-10T08:02:23Z</time>
      </trkpt>
      <trkpt lat="-33.628066023811698" lon="19.830145994201303">
        <ele>891.27999999999997</ele>
        <time>2020-03-10T08:02:24Z</time>
      </trkpt>
      <trkpt lat="-33.628085972741246" lon="19.830383034422994">
        <ele>892.72000000000003</ele>
        <time>2020-03-10T08:02:25Z</time>
      </trkpt>
      <trkpt lat="-33.628117991611362" lon="19.830618984997272">
        <ele>894.63999999999999</ele>
        <time>2020-03-10T08:02:26Z</time>
      </trkpt>
      <trkpt lat="-33.628539014607668" lon="19.833338996395469">
        <ele>914.35000000000002</ele>
        <time>2020-03-10T08:02:37Z</time>
      </trkpt>
      <trkpt lat="-33.628541026264429" lon="19.833560027182102">
        <ele>915.78999999999996</ele>
        <time>2020-03-10T08:02:38Z</time>
      </trkpt>
      <trkpt lat="-33.628512024879456" lon="19.83377099968493">
        <ele>917.24000000000001</ele>
        <time>2020-03-10T08:02:39Z</time>
      </trkpt>
      <trkpt lat="-33.628449998795986" lon="19.83396696858108">
        <ele>919.15999999999997</ele>
        <time>2020-03-10T08:02:40Z</time>
      </trkpt>
      <trkpt lat="-33.628362994641066" lon="19.834146006032825">
        <ele>920.60000000000002</ele>
        <time>2020-03-10T08:02:41Z</time>
      </trkpt>
      <trkpt lat="-33.628245983272791" lon="19.834304004907608">
        <ele>922.51999999999998</ele>
        <time>2020-03-10T08:02:42Z</time>
      </trkpt>
      <trkpt lat="-33.628106005489826" lon="19.834429984912276">
        <ele>923.96000000000004</ele>
        <time>2020-03-10T08:02:43Z</time>
      </trkpt>
      <trkpt lat="-33.627953035756946" lon="19.834524029865861">
        <ele>925.40999999999997</ele>
        <time>2020-03-10T08:02:44Z</time>
      </trkpt>
      <trkpt lat="-33.627778021618724" lon="19.834579015150666">
        <ele>926.85000000000002</ele>
        <time>2020-03-10T08:02:45Z</time>
      </trkpt>
      <trkpt lat="-33.627594038844109" lon="19.834592007100582">
        <ele>927.80999999999995</ele>
        <time>2020-03-10T08:02:46Z</time>
      </trkpt>
      <trkpt lat="-33.627396980300546" lon="19.834557976573706">
        <ele>929.25</ele>
        <time>2020-03-10T08:02:47Z</time>
      </trkpt>
      <trkpt lat="-33.627206040546298" lon="19.834492010995746">
        <ele>930.69000000000005</ele>
        <time>2020-03-10T08:02:48Z</time>
      </trkpt>
      <trkpt lat="-33.627004958689213" lon="19.834392014890909">
        <ele>931.64999999999998</ele>
        <time>2020-03-10T08:02:49Z</time>
      </trkpt>
      <trkpt lat="-33.62680203281343" lon="19.834289001300931">
        <ele>933.10000000000002</ele>
        <time>2020-03-10T08:02:50Z</time>
      </trkpt>
      <trkpt lat="-33.625798970460892" lon="19.833822967484593">
        <ele>938.38</ele>
        <time>2020-03-10T08:02:55Z</time>
      </trkpt>
      <trkpt lat="-33.625614987686276" lon="19.833798995241523">
        <ele>938.38</ele>
        <time>2020-03-10T08:02:56Z</time>
      </trkpt>
      <trkpt lat="-33.625446008518338" lon="19.833820033818483">
        <ele>938.38</ele>
        <time>2020-03-10T08:02:57Z</time>
      </trkpt>
      <trkpt lat="-33.625283986330032" lon="19.833864960819483">
        <ele>938.38</ele>
        <time>2020-03-10T08:02:58Z</time>
      </trkpt>
      <trkpt lat="-33.62512799911201" lon="19.833947019651532">
        <ele>939.35000000000002</ele>
        <time>2020-03-10T08:02:59Z</time>
      </trkpt>
      <trkpt lat="-33.624988021329045" lon="19.83404902741313">
        <ele>939.83000000000004</ele>
        <time>2020-03-10T08:03:00Z</time>
      </trkpt>
      <trkpt lat="-33.624861035495996" lon="19.834169978275895">
        <ele>940.78999999999996</ele>
        <time>2020-03-10T08:03:01Z</time>
      </trkpt>
      <trkpt lat="-33.624733965843916" lon="19.834301993250847">
        <ele>942.23000000000002</ele>
        <time>2020-03-10T08:03:02Z</time>
      </trkpt>
      <trkpt lat="-33.624457027763128" lon="19.834543978795409">
        <ele>945.11000000000001</ele>
        <time>2020-03-10T08:03:04Z</time>
      </trkpt>
      <trkpt lat="-33.624300034716725" lon="19.834641041234136">
        <ele>947.51999999999998</ele>
        <time>2020-03-10T08:03:05Z</time>
      </trkpt>
      <trkpt lat="-33.624129965901375" lon="19.83469401486218">
        <ele>949.91999999999996</ele>
        <time>2020-03-10T08:03:06Z</time>
      </trkpt>
      <trkpt lat="-33.623956041410565" lon="19.834707006812096">
        <ele>951.36000000000001</ele>
        <time>2020-03-10T08:03:07Z</time>
      </trkpt>
      <trkpt lat="-33.623772980645299" lon="19.834684962406754">
        <ele>952.32000000000005</ele>
        <time>2020-03-10T08:03:08Z</time>
      </trkpt>
      <trkpt lat="-33.623586986213923" lon="19.83463198877871">
        <ele>954.73000000000002</ele>
        <time>2020-03-10T08:03:09Z</time>
      </trkpt>
      <trkpt lat="-33.623394034802914" lon="19.834554037079215">
        <ele>955.69000000000005</ele>
        <time>2020-03-10T08:03:10Z</time>
      </trkpt>
      <trkpt lat="-33.623196976259351" lon="19.834467032924294">
        <ele>957.13</ele>
        <time>2020-03-10T08:03:11Z</time>
      </trkpt>
      <trkpt lat="-33.620863035321236" lon="19.833391970023513">
        <ele>980.20000000000005</ele>
        <time>2020-03-10T08:03:22Z</time>
      </trkpt>
      <trkpt lat="-33.620660025626421" lon="19.833229025825858">
        <ele>982.60000000000002</ele>
        <time>2020-03-10T08:03:23Z</time>
      </trkpt>
      <trkpt lat="-33.620461039245129" lon="19.833046970888972">
        <ele>984.52999999999997</ele>
        <time>2020-03-10T08:03:24Z</time>
      </trkpt>
      <trkpt lat="-33.618917008861899" lon="19.831348964944482">
        <ele>1003.27</ele>
        <time>2020-03-10T08:03:32Z</time>
      </trkpt>
      <trkpt lat="-33.617877988144755" lon="19.830539021641016">
        <ele>1010</ele>
        <time>2020-03-10T08:03:38Z</time>
      </trkpt>
      <trkpt lat="-33.617732981219888" lon="19.830390997231007">
        <ele>1010.48</ele>
        <time>2020-03-10T08:03:39Z</time>
      </trkpt>
      <trkpt lat="-33.617610018700361" lon="19.830211959779263">
        <ele>1010.96</ele>
        <time>2020-03-10T08:03:40Z</time>
      </trkpt>
      <trkpt lat="-33.617502981796861" lon="19.830010961741209">
        <ele>1011.9299999999999</ele>
        <time>2020-03-10T08:03:41Z</time>
      </trkpt>
      <trkpt lat="-33.617418995127082" lon="19.82979403808713">
        <ele>1012.89</ele>
        <time>2020-03-10T08:03:42Z</time>
      </trkpt>
      <trkpt lat="-33.617339031770825" lon="19.829552974551916">
        <ele>1014.8099999999999</ele>
        <time>2020-03-10T08:03:43Z</time>
      </trkpt>
      <trkpt lat="-33.616612991318107" lon="19.828003998845816">
        <ele>1029.23</ele>
        <time>2020-03-10T08:03:49Z</time>
      </trkpt>
      <trkpt lat="-33.615355035290122" lon="19.82554298825562">
        <ele>1046.05</ele>
        <time>2020-03-10T08:03:57Z</time>
      </trkpt>
      <trkpt lat="-33.613967997953296" lon="19.82348196208477">
        <ele>1065.28</ele>
        <time>2020-03-10T08:04:04Z</time>
      </trkpt>
      <trkpt lat="-33.613072978332639" lon="19.82191001996398">
        <ele>1073.45</ele>
        <time>2020-03-10T08:04:10Z</time>
      </trkpt>
      <trkpt lat="-33.612635023891926" lon="19.819975979626179">
        <ele>1079.22</ele>
        <time>2020-03-10T08:04:16Z</time>
      </trkpt>
      <trkpt lat="-33.612341992557049" lon="19.818491963669658">
        <ele>1087.8699999999999</ele>
        <time>2020-03-10T08:04:21Z</time>
      </trkpt>
      <trkpt lat="-33.612251970916986" lon="19.818265987560153">
        <ele>1088.3499999999999</ele>
        <time>2020-03-10T08:04:22Z</time>
      </trkpt>
      <trkpt lat="-33.612137977033854" lon="19.818061972036958">
        <ele>1091.23</ele>
        <time>2020-03-10T08:04:23Z</time>
      </trkpt>
      <trkpt lat="-33.612016020342708" lon="19.817883018404245">
        <ele>1091.71</ele>
        <time>2020-03-10T08:04:24Z</time>
      </trkpt>
      <trkpt lat="-33.611881993710995" lon="19.817731976509094">
        <ele>1092.2</ele>
        <time>2020-03-10T08:04:25Z</time>
      </trkpt>
      <trkpt lat="-33.611727012321353" lon="19.817607002332807">
        <ele>1093.6400000000001</ele>
        <time>2020-03-10T08:04:26Z</time>
      </trkpt>
      <trkpt lat="-33.611564990133047" lon="19.817510023713112">
        <ele>1094.1199999999999</ele>
        <time>2020-03-10T08:04:27Z</time>
      </trkpt>
      <trkpt lat="-33.611395005136728" lon="19.81744397431612">
        <ele>1093.6400000000001</ele>
        <time>2020-03-10T08:04:28Z</time>
      </trkpt>
      <trkpt lat="-33.611216973513365" lon="19.817408015951514">
        <ele>1094.5999999999999</ele>
        <time>2020-03-10T08:04:29Z</time>
      </trkpt>
      <trkpt lat="-33.611039025709033" lon="19.81739804148674">
        <ele>1094.5999999999999</ele>
        <time>2020-03-10T08:04:30Z</time>
      </trkpt>
      <trkpt lat="-33.610858982428908" lon="19.817412039265037">
        <ele>1096.04</ele>
        <time>2020-03-10T08:04:31Z</time>
      </trkpt>
      <trkpt lat="-33.610674999654293" lon="19.81746300123632">
        <ele>1097.48</ele>
        <time>2020-03-10T08:04:32Z</time>
      </trkpt>
      <trkpt lat="-33.610495962202549" lon="19.817536007612944">
        <ele>1098.4400000000001</ele>
        <time>2020-03-10T08:04:33Z</time>
      </trkpt>
      <trkpt lat="-33.61032203771174" lon="19.817628962919116">
        <ele>1099.4000000000001</ele>
        <time>2020-03-10T08:04:34Z</time>
      </trkpt>
      <trkpt lat="-33.610172001644969" lon="19.817740023136139">
        <ele>1100.8499999999999</ele>
        <time>2020-03-10T08:04:35Z</time>
      </trkpt>
      <trkpt lat="-33.610032023862004" lon="19.817877989262342">
        <ele>1101.3299999999999</ele>
        <time>2020-03-10T08:04:36Z</time>
      </trkpt>
      <trkpt lat="-33.609906965866685" lon="19.818034982308745">
        <ele>1101.8099999999999</ele>
        <time>2020-03-10T08:04:37Z</time>
      </trkpt>
      <trkpt lat="-33.609800012782216" lon="19.818218965083361">
        <ele>1102.77</ele>
        <time>2020-03-10T08:04:38Z</time>
      </trkpt>
      <trkpt lat="-33.609709991142154" lon="19.818424992263317">
        <ele>1104.21</ele>
        <time>2020-03-10T08:04:39Z</time>
      </trkpt>
      <trkpt lat="-33.609644025564194" lon="19.818638982251287">
        <ele>1106.1300000000001</ele>
        <time>2020-03-10T08:04:40Z</time>
      </trkpt>
      <trkpt lat="-33.609600020572543" lon="19.818868981674314">
        <ele>1106.6099999999999</ele>
        <time>2020-03-10T08:04:41Z</time>
      </trkpt>
      <trkpt lat="-33.609583005309105" lon="19.819100992754102">
        <ele>1107.0999999999999</ele>
        <time>2020-03-10T08:04:42Z</time>
      </trkpt>
      <trkpt lat="-33.609581999480724" lon="19.819334009662271">
        <ele>1109.02</ele>
        <time>2020-03-10T08:04:43Z</time>
      </trkpt>
      <trkpt lat="-33.609606977552176" lon="19.81956803239882">
        <ele>1109.98</ele>
        <time>2020-03-10T08:04:44Z</time>
      </trkpt>
      <trkpt lat="-33.609652994200587" lon="19.819798031821847">
        <ele>1110.9400000000001</ele>
        <time>2020-03-10T08:04:45Z</time>
      </trkpt>
      <trkpt lat="-33.60972298309207" lon="19.82002199627459">
        <ele>1112.3800000000001</ele>
        <time>2020-03-10T08:04:46Z</time>
      </trkpt>
      <trkpt lat="-33.609805963933468" lon="19.820247972384095">
        <ele>1113.3399999999999</ele>
        <time>2020-03-10T08:04:47Z</time>
      </trkpt>
      <trkpt lat="-33.610589001327753" lon="19.822316961362958">
        <ele>1127.28</ele>
        <time>2020-03-10T08:04:55Z</time>
      </trkpt>
      <trkpt lat="-33.611317975446582" lon="19.824716029688716">
        <ele>1141.7</ele>
        <time>2020-03-10T08:05:03Z</time>
      </trkpt>
      <trkpt lat="-33.611899008974433" lon="19.828574974089861">
        <ele>1162.8499999999999</ele>
        <time>2020-03-10T08:05:15Z</time>
      </trkpt>
      <trkpt lat="-33.612085003405809" lon="19.830588977783918">
        <ele>1174.8699999999999</ele>
        <time>2020-03-10T08:05:22Z</time>
      </trkpt>
      <trkpt lat="-33.611642019823194" lon="19.8322459962219">
        <ele>1179.6700000000001</ele>
        <time>2020-03-10T08:05:28Z</time>
      </trkpt>
      <trkpt lat="-33.610653039067984" lon="19.833889016881585">
        <ele>1189.29</ele>
        <time>2020-03-10T08:05:34Z</time>
      </trkpt>
      <trkpt lat="-33.60961502417922" lon="19.835809981450438">
        <ele>1197.46</ele>
        <time>2020-03-10T08:05:41Z</time>
      </trkpt>
      <trkpt lat="-33.609178997576237" lon="19.837714014574885">
        <ele>1200.8199999999999</ele>
        <time>2020-03-10T08:05:47Z</time>
      </trkpt>
      <trkpt lat="-33.609137004241347" lon="19.84049404039979">
        <ele>1200.3399999999999</ele>
        <time>2020-03-10T08:05:55Z</time>
      </trkpt>
      <trkpt lat="-33.609114959836006" lon="19.844102030619979">
        <ele>1199.8599999999999</ele>
        <time>2020-03-10T08:06:04Z</time>
      </trkpt>
      <trkpt lat="-33.609105991199613" lon="19.846520964056253">
        <ele>1198.9000000000001</ele>
        <time>2020-03-10T08:06:11Z</time>
      </trkpt>
      <trkpt lat="-33.609042959287763" lon="19.84767397865653">
        <ele>1199.8599999999999</ele>
        <time>2020-03-10T08:06:15Z</time>
      </trkpt>
      <trkpt lat="-33.608965007588267" lon="19.847918981686234">
        <ele>1200.3399999999999</ele>
        <time>2020-03-10T08:06:16Z</time>
      </trkpt>
      <trkpt lat="-33.608867023140192" lon="19.848140012472868">
        <ele>1201.3</ele>
        <time>2020-03-10T08:06:17Z</time>
      </trkpt>
      <trkpt lat="-33.608732996508479" lon="19.848340004682541">
        <ele>1202.27</ele>
        <time>2020-03-10T08:06:18Z</time>
      </trkpt>
      <trkpt lat="-33.608572985976934" lon="19.848512001335621">
        <ele>1202.27</ele>
        <time>2020-03-10T08:06:19Z</time>
      </trkpt>
      <trkpt lat="-33.608384979888797" lon="19.848652984946966">
        <ele>1203.71</ele>
        <time>2020-03-10T08:06:20Z</time>
      </trkpt>
      <trkpt lat="-33.608182976022363" lon="19.848761027678847">
        <ele>1205.1500000000001</ele>
        <time>2020-03-10T08:06:21Z</time>
      </trkpt>
      <trkpt lat="-33.607966974377632" lon="19.848829004913568">
        <ele>1207.55</ele>
        <time>2020-03-10T08:06:22Z</time>
      </trkpt>
      <trkpt lat="-33.607735969126225" lon="19.848862029612064">
        <ele>1209.96</ele>
        <time>2020-03-10T08:06:23Z</time>
      </trkpt>
      <trkpt lat="-33.607503036037087" lon="19.8488740157336">
        <ele>1211.8800000000001</ele>
        <time>2020-03-10T08:06:24Z</time>
      </trkpt>
      <trkpt lat="-33.606165032833815" lon="19.849171992391348">
        <ele>1223.4200000000001</ele>
        <time>2020-03-10T08:06:30Z</time>
      </trkpt>
      <trkpt lat="-33.605070021003485" lon="19.850096013396978">
        <ele>1233.51</ele>
        <time>2020-03-10T08:06:36Z</time>
      </trkpt>
      <trkpt lat="-33.60437398776412" lon="19.851524038240314">
        <ele>1238.8</ele>
        <time>2020-03-10T08:06:42Z</time>
      </trkpt>
      <trkpt lat="-33.604195034131408" lon="19.853179967030883">
        <ele>1241.2</ele>
        <time>2020-03-10T08:06:48Z</time>
      </trkpt>
      <trkpt lat="-33.604220012202859" lon="19.856250006705523">
        <ele>1233.51</ele>
        <time>2020-03-10T08:06:57Z</time>
      </trkpt>
      <trkpt lat="-33.604216994717717" lon="19.858761979267001">
        <ele>1224.3800000000001</ele>
        <time>2020-03-10T08:07:05Z</time>
      </trkpt>
      <trkpt lat="-33.604173995554447" lon="19.859319040551782">
        <ele>1221.49</ele>
        <time>2020-03-10T08:07:07Z</time>
      </trkpt>
      <trkpt lat="-33.604122027754784" lon="19.859584998339415">
        <ele>1220.05</ele>
        <time>2020-03-10T08:07:08Z</time>
      </trkpt>
      <trkpt lat="-33.604042986407876" lon="19.85983301885426">
        <ele>1218.6099999999999</ele>
        <time>2020-03-10T08:07:09Z</time>
      </trkpt>
      <trkpt lat="-33.603945001959801" lon="19.860065029934049">
        <ele>1217.6500000000001</ele>
        <time>2020-03-10T08:07:10Z</time>
      </trkpt>
      <trkpt lat="-33.603827990591526" lon="19.860279019922018">
        <ele>1216.21</ele>
        <time>2020-03-10T08:07:11Z</time>
      </trkpt>
      <trkpt lat="-33.603693963959813" lon="19.860472977161407">
        <ele>1214.76</ele>
        <time>2020-03-10T08:07:12Z</time>
      </trkpt>
      <trkpt lat="-33.603542000055313" lon="19.860642040148377">
        <ele>1213.3199999999999</ele>
        <time>2020-03-10T08:07:13Z</time>
      </trkpt>
      <trkpt lat="-33.603374026715755" lon="19.860785035416484">
        <ele>1211.8800000000001</ele>
        <time>2020-03-10T08:07:14Z</time>
      </trkpt>
      <trkpt lat="-33.603194989264011" lon="19.86090799793601">
        <ele>1210.4400000000001</ele>
        <time>2020-03-10T08:07:15Z</time>
      </trkpt>
      <trkpt lat="-33.603014023974538" lon="19.861019980162382">
        <ele>1209.48</ele>
        <time>2020-03-10T08:07:16Z</time>
      </trkpt>
      <trkpt lat="-33.602194022387266" lon="19.861657004803419">
        <ele>1205.1500000000001</ele>
        <time>2020-03-10T08:07:21Z</time>
      </trkpt>
      <trkpt lat="-33.602065024897456" lon="19.861821038648486">
        <ele>1203.71</ele>
        <time>2020-03-10T08:07:22Z</time>
      </trkpt>
      <trkpt lat="-33.601948013529181" lon="19.861996974796057">
        <ele>1202.75</ele>
        <time>2020-03-10T08:07:23Z</time>
      </trkpt>
      <trkpt lat="-33.6018399707973" lon="19.862183975055814">
        <ele>1200.8199999999999</ele>
        <time>2020-03-10T08:07:24Z</time>
      </trkpt>
      <trkpt lat="-33.601739974692464" lon="19.862382961437106">
        <ele>1199.3800000000001</ele>
        <time>2020-03-10T08:07:25Z</time>
      </trkpt>
      <trkpt lat="-33.601648025214672" lon="19.862598041072488">
        <ele>1197.46</ele>
        <time>2020-03-10T08:07:26Z</time>
      </trkpt>
      <trkpt lat="-33.601565966382623" lon="19.862824017181993">
        <ele>1196.02</ele>
        <time>2020-03-10T08:07:27Z</time>
      </trkpt>
      <trkpt lat="-33.601122982800007" lon="19.864520011469722">
        <ele>1182.5599999999999</ele>
        <time>2020-03-10T08:07:34Z</time>
      </trkpt>
      <trkpt lat="-33.601026004180312" lon="19.864753028377891">
        <ele>1181.5999999999999</ele>
        <time>2020-03-10T08:07:35Z</time>
      </trkpt>
      <trkpt lat="-33.600905975326896" lon="19.864986967295408">
        <ele>1179.6700000000001</ele>
        <time>2020-03-10T08:07:36Z</time>
      </trkpt>
      <trkpt lat="-33.600773038342595" lon="19.865212021395564">
        <ele>1177.27</ele>
        <time>2020-03-10T08:07:37Z</time>
      </trkpt>
      <trkpt lat="-33.600625013932586" lon="19.865430034697056">
        <ele>1175.3499999999999</ele>
        <time>2020-03-10T08:07:38Z</time>
      </trkpt>
      <trkpt lat="-33.600459974259138" lon="19.865626003593206">
        <ele>1173.9100000000001</ele>
        <time>2020-03-10T08:07:39Z</time>
      </trkpt>
      <trkpt lat="-33.600281020626426" lon="19.865802023559809">
        <ele>1172.47</ele>
        <time>2020-03-10T08:07:40Z</time>
      </trkpt>
      <trkpt lat="-33.600091002881527" lon="19.865960022434592">
        <ele>1171.98</ele>
        <time>2020-03-10T08:07:41Z</time>
      </trkpt>
      <trkpt lat="-33.598366007208824" lon="19.867183025926352">
        <ele>1164.29</ele>
        <time>2020-03-10T08:07:49Z</time>
      </trkpt>
      <trkpt lat="-33.59549998305738" lon="19.869175991043448">
        <ele>1145.55</ele>
        <time>2020-03-10T08:08:00Z</time>
      </trkpt>
    </trkseg>
  </trk>

</gpx>