<?xml version="1.0" encoding="utf-8"?><gpx creator="Garmin Desktop App" version="1.1" xsi:schemaLocation="http://www.topografix.com/GPX/1/1 http://www.topografix.com/GPX/1/1/gpx.xsd http://www.garmin.com/xmlschemas/WaypointExtension/v1 http://www8.garmin.com/xmlschemas/WaypointExtensionv1.xsd http://www.garmin.com/xmlschemas/TrackPointExtension/v1 http://www.garmin.com/xmlschemas/TrackPointExtensionv1.xsd http://www.garmin.com/xmlschemas/GpxExtensions/v3 http://www8.garmin.com/xmlschemas/GpxExtensionsv3.xsd http://www.garmin.com/xmlschemas/ActivityExtension/v1 http://www8.garmin.com/xmlschemas/ActivityExtensionv1.xsd http://www.garmin.com/xmlschemas/AdventuresExtensions/v1 http://www8.garmin.com/xmlschemas/AdventuresExtensionv1.xsd http://www.garmin.com/xmlschemas/PressureExtension/v1 http://www.garmin.com/xmlschemas/PressureExtensionv1.xsd http://www.garmin.com/xmlschemas/TripExtensions/v1 http://www.garmin.com/xmlschemas/TripExtensionsv1.xsd http://www.garmin.com/xmlschemas/TripMetaDataExtensions/v1 http://www.garmin.com/xmlschemas/TripMetaDataExtensionsv1.xsd http://www.garmin.com/xmlschemas/ViaPointTransportationModeExtensions/v1 http://www.garmin.com/xmlschemas/ViaPointTransportationModeExtensionsv1.xsd http://www.garmin.com/xmlschemas/CreationTimeExtension/v1 http://www.garmin.com/xmlschemas/CreationTimeExtensionsv1.xsd http://www.garmin.com/xmlschemas/AccelerationExtension/v1 http://www.garmin.com/xmlschemas/AccelerationExtensionv1.xsd http://www.garmin.com/xmlschemas/PowerExtension/v1 http://www.garmin.com/xmlschemas/PowerExtensionv1.xsd http://www.garmin.com/xmlschemas/VideoExtension/v1 http://www.garmin.com/xmlschemas/VideoExtensionv1.xsd" xmlns="http://www.topografix.com/GPX/1/1" xmlns:xsi="http://www.w3.org/2001/XMLSchema-instance" xmlns:wptx1="http://www.garmin.com/xmlschemas/WaypointExtension/v1" xmlns:gpxtrx="http://www.garmin.com/xmlschemas/GpxExtensions/v3" xmlns:gpxtpx="http://www.garmin.com/xmlschemas/TrackPointExtension/v1" xmlns:gpxx="http://www.garmin.com/xmlschemas/GpxExtensions/v3" xmlns:trp="http://www.garmin.com/xmlschemas/TripExtensions/v1" xmlns:adv="http://www.garmin.com/xmlschemas/AdventuresExtensions/v1" xmlns:prs="http://www.garmin.com/xmlschemas/PressureExtension/v1" xmlns:tmd="http://www.garmin.com/xmlschemas/TripMetaDataExtensions/v1" xmlns:vptm="http://www.garmin.com/xmlschemas/ViaPointTransportationModeExtensions/v1" xmlns:ctx="http://www.garmin.com/xmlschemas/CreationTimeExtension/v1" xmlns:gpxacc="http://www.garmin.com/xmlschemas/AccelerationExtension/v1" xmlns:gpxpx="http://www.garmin.com/xmlschemas/PowerExtension/v1" xmlns:vidx1="http://www.garmin.com/xmlschemas/VideoExtension/v1">

  <metadata>
    <link href="http://www.garmin.com">
      <text>Garmin International</text>
    </link>
    <time>2023-01-21T13:45:39Z</time>
    <bounds maxlat="-33.522269641980529" maxlon="19.554843390360475" minlat="-33.5824438277632" minlon="19.508599005639553" />
  </metadata>

  <trk>
    <name>[178] Hex River Poort</name>
    <extensions>
      <gpxx:TrackExtension>
        <gpxx:DisplayColor>Blue</gpxx:DisplayColor>
      </gpxx:TrackExtension>
    </extensions>
    <trkseg>
      <trkpt lat="-33.5824438277632" lon="19.509106781333685">
        <ele>299.58999999999997</ele>
        <time>2020-03-21T08:28:37Z</time>
      </trkpt>
      <trkpt lat="-33.578596031293273" lon="19.50889396481216">
        <ele>302.94999999999999</ele>
        <time>2020-03-21T08:28:48Z</time>
      </trkpt>
      <trkpt lat="-33.571764025837183" lon="19.508599005639553">
        <ele>309.68000000000001</ele>
        <time>2020-03-21T08:29:13Z</time>
      </trkpt>
      <trkpt lat="-33.569662012159824" lon="19.508625995367765">
        <ele>313.52999999999997</ele>
        <time>2020-03-21T08:29:21Z</time>
      </trkpt>
      <trkpt lat="-33.5694370418787" lon="19.508710987865925">
        <ele>314.97000000000003</ele>
        <time>2020-03-21T08:29:22Z</time>
      </trkpt>
      <trkpt lat="-33.569218022748828" lon="19.508820958435535">
        <ele>315.93000000000001</ele>
        <time>2020-03-21T08:29:23Z</time>
      </trkpt>
      <trkpt lat="-33.569005960598588" lon="19.508950961753726">
        <ele>316.88999999999999</ele>
        <time>2020-03-21T08:29:24Z</time>
      </trkpt>
      <trkpt lat="-33.568805968388915" lon="19.50910896062851">
        <ele>317.37</ele>
        <time>2020-03-21T08:29:25Z</time>
      </trkpt>
      <trkpt lat="-33.5686219856143" lon="19.509292021393776">
        <ele>317.37</ele>
        <time>2020-03-21T08:29:26Z</time>
      </trkpt>
      <trkpt lat="-33.568452000617981" lon="19.509495031088591">
        <ele>317.85000000000002</ele>
        <time>2020-03-21T08:29:27Z</time>
      </trkpt>
      <trkpt lat="-33.568288972601295" lon="19.509710026904941">
        <ele>318.32999999999998</ele>
        <time>2020-03-21T08:29:28Z</time>
      </trkpt>
      <trkpt lat="-33.567799972370267" lon="19.510357026010752">
        <ele>319.77999999999997</ele>
        <time>2020-03-21T08:29:31Z</time>
      </trkpt>
      <trkpt lat="-33.567621018737555" lon="19.510536985471845">
        <ele>319.77999999999997</ele>
        <time>2020-03-21T08:29:32Z</time>
      </trkpt>
      <trkpt lat="-33.567428989335895" lon="19.510687021538615">
        <ele>320.74000000000001</ele>
        <time>2020-03-21T08:29:33Z</time>
      </trkpt>
      <trkpt lat="-33.56722698546946" lon="19.510824987664819">
        <ele>321.69999999999999</ele>
        <time>2020-03-21T08:29:34Z</time>
      </trkpt>
      <trkpt lat="-33.567019030451775" lon="19.510944010689855">
        <ele>320.74000000000001</ele>
        <time>2020-03-21T08:29:35Z</time>
      </trkpt>
      <trkpt lat="-33.566799005493522" lon="19.511038977652788">
        <ele>320.74000000000001</ele>
        <time>2020-03-21T08:29:36Z</time>
      </trkpt>
      <trkpt lat="-33.566571017727256" lon="19.511108966544271">
        <ele>320.25999999999999</ele>
        <time>2020-03-21T08:29:37Z</time>
      </trkpt>
      <trkpt lat="-33.566335989162326" lon="19.51114903204143">
        <ele>320.74000000000001</ele>
        <time>2020-03-21T08:29:38Z</time>
      </trkpt>
      <trkpt lat="-33.566092997789383" lon="19.51115095987916">
        <ele>320.74000000000001</ele>
        <time>2020-03-21T08:29:39Z</time>
      </trkpt>
      <trkpt lat="-33.565844977274537" lon="19.511133022606373">
        <ele>321.22000000000003</ele>
        <time>2020-03-21T08:29:40Z</time>
      </trkpt>
      <trkpt lat="-33.565588993951678" lon="19.511083988472819">
        <ele>321.22000000000003</ele>
        <time>2020-03-21T08:29:41Z</time>
      </trkpt>
      <trkpt lat="-33.565337033942342" lon="19.511001007631421">
        <ele>320.74000000000001</ele>
        <time>2020-03-21T08:29:42Z</time>
      </trkpt>
      <trkpt lat="-33.565080966800451" lon="19.510906962677836">
        <ele>320.74000000000001</ele>
        <time>2020-03-21T08:29:43Z</time>
      </trkpt>
      <trkpt lat="-33.564830012619495" lon="19.510805038735271">
        <ele>321.69999999999999</ele>
        <time>2020-03-21T08:29:44Z</time>
      </trkpt>
      <trkpt lat="-33.563296040520072" lon="19.510559029877186">
        <ele>323.62</ele>
        <time>2020-03-21T08:29:50Z</time>
      </trkpt>
      <trkpt lat="-33.561044996604323" lon="19.510917020961642">
        <ele>328.91000000000003</ele>
        <time>2020-03-21T08:29:59Z</time>
      </trkpt>
      <trkpt lat="-33.559370040893555" lon="19.5117930136621">
        <ele>331.31</ele>
        <time>2020-03-21T08:30:06Z</time>
      </trkpt>
      <trkpt lat="-33.557198960334063" lon="19.513167981058359">
        <ele>329.87</ele>
        <time>2020-03-21T08:30:15Z</time>
      </trkpt>
      <trkpt lat="-33.555798009037971" lon="19.514776971191168">
        <ele>330.82999999999998</ele>
        <time>2020-03-21T08:30:22Z</time>
      </trkpt>
      <trkpt lat="-33.553262986242771" lon="19.518359983339906">
        <ele>343.32999999999998</ele>
        <time>2020-03-21T08:30:35Z</time>
      </trkpt>
      <trkpt lat="-33.551848037168384" lon="19.520837003365159">
        <ele>354.38</ele>
        <time>2020-03-21T08:30:43Z</time>
      </trkpt>
      <trkpt lat="-33.551249988377094" lon="19.522345997393131">
        <ele>364</ele>
        <time>2020-03-21T08:30:49Z</time>
      </trkpt>
      <trkpt lat="-33.5509820189327" lon="19.524439964443445">
        <ele>364.48000000000002</ele>
        <time>2020-03-21T08:30:57Z</time>
      </trkpt>
      <trkpt lat="-33.550496036186814" lon="19.526625964790583">
        <ele>353.89999999999998</ele>
        <time>2020-03-21T08:31:05Z</time>
      </trkpt>
      <trkpt lat="-33.549416027963161" lon="19.528064969927073">
        <ele>344.76999999999998</ele>
        <time>2020-03-21T08:31:11Z</time>
      </trkpt>
      <trkpt lat="-33.547349972650409" lon="19.529416970908642">
        <ele>339.95999999999998</ele>
        <time>2020-03-21T08:31:19Z</time>
      </trkpt>
      <trkpt lat="-33.544988036155701" lon="19.531333995983005">
        <ele>347.17000000000002</ele>
        <time>2020-03-21T08:31:29Z</time>
      </trkpt>
      <trkpt lat="-33.543752962723374" lon="19.533296031877398">
        <ele>346.69</ele>
        <time>2020-03-21T08:31:36Z</time>
      </trkpt>
      <trkpt lat="-33.54223801754415" lon="19.535455964505672">
        <ele>349.57999999999998</ele>
        <time>2020-03-21T08:31:44Z</time>
      </trkpt>
      <trkpt lat="-33.540198029950261" lon="19.536973005160689">
        <ele>351.98000000000002</ele>
        <time>2020-03-21T08:31:52Z</time>
      </trkpt>
      <trkpt lat="-33.538551991805434" lon="19.537622015923262">
        <ele>351.01999999999998</ele>
        <time>2020-03-21T08:31:58Z</time>
      </trkpt>
      <trkpt lat="-33.536864966154099" lon="19.537568958476186">
        <ele>354.38</ele>
        <time>2020-03-21T08:32:04Z</time>
      </trkpt>
      <trkpt lat="-33.535248013213277" lon="19.537933990359306">
        <ele>353.89999999999998</ele>
        <time>2020-03-21T08:32:10Z</time>
      </trkpt>
      <trkpt lat="-33.533758968114853" lon="19.539023973047733">
        <ele>349.10000000000002</ele>
        <time>2020-03-21T08:32:16Z</time>
      </trkpt>
      <trkpt lat="-33.53125998750329" lon="19.541280968114734">
        <ele>361.58999999999997</ele>
        <time>2020-03-21T08:32:26Z</time>
      </trkpt>
      <trkpt lat="-33.529634987935424" lon="19.542815024033189">
        <ele>377.44999999999999</ele>
        <time>2020-03-21T08:32:34Z</time>
      </trkpt>
      <trkpt lat="-33.528810041025281" lon="19.543608035892248">
        <ele>386.11000000000001</ele>
        <time>2020-03-21T08:32:39Z</time>
      </trkpt>
      <trkpt lat="-33.527750987559557" lon="19.545061038807034">
        <ele>395.72000000000003</ele>
        <time>2020-03-21T08:32:48Z</time>
      </trkpt>
      <trkpt lat="-33.527351003140211" lon="19.546314971521497">
        <ele>397.16000000000003</ele>
        <time>2020-03-21T08:32:57Z</time>
      </trkpt>
      <trkpt lat="-33.526986977085471" lon="19.548338027670979">
        <ele>392.36000000000001</ele>
        <time>2020-03-21T08:33:09Z</time>
      </trkpt>
      <trkpt lat="-33.526409966871142" lon="19.54977803863585">
        <ele>386.11000000000001</ele>
        <time>2020-03-21T08:33:17Z</time>
      </trkpt>
      <trkpt lat="-33.525484018027782" lon="19.550871960818768">
        <ele>384.18000000000001</ele>
        <time>2020-03-21T08:33:24Z</time>
      </trkpt>
      <trkpt lat="-33.523541009053588" lon="19.552927035838366">
        <ele>380.81999999999999</ele>
        <time>2020-03-21T08:33:37Z</time>
      </trkpt>
      <trkpt lat="-33.522269641980529" lon="19.554843390360475">
        <ele>376.49000000000001</ele>
        <time>2020-03-21T08:33:53Z</time>
      </trkpt>
    </trkseg>
  </trk>

</gpx>