<?xml version="1.0" encoding="utf-8"?><gpx creator="Garmin Desktop App" version="1.1" xsi:schemaLocation="http://www.topografix.com/GPX/1/1 http://www.topografix.com/GPX/1/1/gpx.xsd http://www.garmin.com/xmlschemas/WaypointExtension/v1 http://www8.garmin.com/xmlschemas/WaypointExtensionv1.xsd http://www.garmin.com/xmlschemas/TrackPointExtension/v1 http://www.garmin.com/xmlschemas/TrackPointExtensionv1.xsd http://www.garmin.com/xmlschemas/GpxExtensions/v3 http://www8.garmin.com/xmlschemas/GpxExtensionsv3.xsd http://www.garmin.com/xmlschemas/ActivityExtension/v1 http://www8.garmin.com/xmlschemas/ActivityExtensionv1.xsd http://www.garmin.com/xmlschemas/AdventuresExtensions/v1 http://www8.garmin.com/xmlschemas/AdventuresExtensionv1.xsd http://www.garmin.com/xmlschemas/PressureExtension/v1 http://www.garmin.com/xmlschemas/PressureExtensionv1.xsd http://www.garmin.com/xmlschemas/TripExtensions/v1 http://www.garmin.com/xmlschemas/TripExtensionsv1.xsd http://www.garmin.com/xmlschemas/TripMetaDataExtensions/v1 http://www.garmin.com/xmlschemas/TripMetaDataExtensionsv1.xsd http://www.garmin.com/xmlschemas/ViaPointTransportationModeExtensions/v1 http://www.garmin.com/xmlschemas/ViaPointTransportationModeExtensionsv1.xsd http://www.garmin.com/xmlschemas/CreationTimeExtension/v1 http://www.garmin.com/xmlschemas/CreationTimeExtensionsv1.xsd http://www.garmin.com/xmlschemas/AccelerationExtension/v1 http://www.garmin.com/xmlschemas/AccelerationExtensionv1.xsd http://www.garmin.com/xmlschemas/PowerExtension/v1 http://www.garmin.com/xmlschemas/PowerExtensionv1.xsd http://www.garmin.com/xmlschemas/VideoExtension/v1 http://www.garmin.com/xmlschemas/VideoExtensionv1.xsd" xmlns="http://www.topografix.com/GPX/1/1" xmlns:xsi="http://www.w3.org/2001/XMLSchema-instance" xmlns:wptx1="http://www.garmin.com/xmlschemas/WaypointExtension/v1" xmlns:gpxtrx="http://www.garmin.com/xmlschemas/GpxExtensions/v3" xmlns:gpxtpx="http://www.garmin.com/xmlschemas/TrackPointExtension/v1" xmlns:gpxx="http://www.garmin.com/xmlschemas/GpxExtensions/v3" xmlns:trp="http://www.garmin.com/xmlschemas/TripExtensions/v1" xmlns:adv="http://www.garmin.com/xmlschemas/AdventuresExtensions/v1" xmlns:prs="http://www.garmin.com/xmlschemas/PressureExtension/v1" xmlns:tmd="http://www.garmin.com/xmlschemas/TripMetaDataExtensions/v1" xmlns:vptm="http://www.garmin.com/xmlschemas/ViaPointTransportationModeExtensions/v1" xmlns:ctx="http://www.garmin.com/xmlschemas/CreationTimeExtension/v1" xmlns:gpxacc="http://www.garmin.com/xmlschemas/AccelerationExtension/v1" xmlns:gpxpx="http://www.garmin.com/xmlschemas/PowerExtension/v1" xmlns:vidx1="http://www.garmin.com/xmlschemas/VideoExtension/v1">

  <metadata>
    <link href="http://www.garmin.com">
      <text>Garmin International</text>
    </link>
    <time>2023-01-21T13:47:16Z</time>
    <bounds maxlat="-32.218292020261288" maxlon="24.504355033859611" minlat="-32.264373963698745" minlon="24.488623961806297" />
  </metadata>

  <trk>
    <name>[185] Camdeboo Pass (Up)</name>
    <extensions>
      <gpxx:TrackExtension>
        <gpxx:DisplayColor>Blue</gpxx:DisplayColor>
      </gpxx:TrackExtension>
    </extensions>
    <trkseg>
      <trkpt lat="-32.218310041353106" lon="24.492415012791753">
        <ele>811.49000000000001</ele>
        <time>2020-03-23T06:13:53Z</time>
      </trkpt>
      <trkpt lat="-32.218292020261288" lon="24.492077976465225">
        <ele>811.00999999999999</ele>
        <time>2020-03-23T06:13:56Z</time>
      </trkpt>
      <trkpt lat="-32.218304006382823" lon="24.491970017552376">
        <ele>810.52999999999997</ele>
        <time>2020-03-23T06:13:57Z</time>
      </trkpt>
      <trkpt lat="-32.218326972797513" lon="24.491863986477256">
        <ele>810.52999999999997</ele>
        <time>2020-03-23T06:13:58Z</time>
      </trkpt>
      <trkpt lat="-32.218366032466292" lon="24.491763990372419">
        <ele>810.52999999999997</ele>
        <time>2020-03-23T06:13:59Z</time>
      </trkpt>
      <trkpt lat="-32.218415988609195" lon="24.491666005924344">
        <ele>810.52999999999997</ele>
        <time>2020-03-23T06:14:00Z</time>
      </trkpt>
      <trkpt lat="-32.218474997207522" lon="24.49157003313303">
        <ele>810.52999999999997</ele>
        <time>2020-03-23T06:14:01Z</time>
      </trkpt>
      <trkpt lat="-32.218543980270624" lon="24.491482023149729">
        <ele>811.00999999999999</ele>
        <time>2020-03-23T06:14:02Z</time>
      </trkpt>
      <trkpt lat="-32.21862000413239" lon="24.491401975974441">
        <ele>811.00999999999999</ele>
        <time>2020-03-23T06:14:03Z</time>
      </trkpt>
      <trkpt lat="-32.218703990802169" lon="24.491330981254578">
        <ele>811.49000000000001</ele>
        <time>2020-03-23T06:14:04Z</time>
      </trkpt>
      <trkpt lat="-32.218798035755754" lon="24.491274990141392">
        <ele>811.49000000000001</ele>
        <time>2020-03-23T06:14:05Z</time>
      </trkpt>
      <trkpt lat="-32.21889803186059" lon="24.491234002634883">
        <ele>811.97000000000003</ele>
        <time>2020-03-23T06:14:06Z</time>
      </trkpt>
      <trkpt lat="-32.219005990773439" lon="24.491211036220193">
        <ele>811.97000000000003</ele>
        <time>2020-03-23T06:14:07Z</time>
      </trkpt>
      <trkpt lat="-32.219110010191798" lon="24.491200977936387">
        <ele>812.45000000000005</ele>
        <time>2020-03-23T06:14:08Z</time>
      </trkpt>
      <trkpt lat="-32.219216963276267" lon="24.491195026785135">
        <ele>812.45000000000005</ele>
        <time>2020-03-23T06:14:09Z</time>
      </trkpt>
      <trkpt lat="-32.220443990081549" lon="24.491383032873273">
        <ele>814.85000000000002</ele>
        <time>2020-03-23T06:14:21Z</time>
      </trkpt>
      <trkpt lat="-32.221836978569627" lon="24.49172199703753">
        <ele>817.25999999999999</ele>
        <time>2020-03-23T06:14:35Z</time>
      </trkpt>
      <trkpt lat="-32.221923982724547" lon="24.491775976493955">
        <ele>817.74000000000001</ele>
        <time>2020-03-23T06:14:36Z</time>
      </trkpt>
      <trkpt lat="-32.22201501019299" lon="24.491846971213818">
        <ele>818.70000000000005</ele>
        <time>2020-03-23T06:14:37Z</time>
      </trkpt>
      <trkpt lat="-32.222096985206008" lon="24.491920983418822">
        <ele>820.13999999999999</ele>
        <time>2020-03-23T06:14:38Z</time>
      </trkpt>
      <trkpt lat="-32.222174014896154" lon="24.491994995623827">
        <ele>820.62</ele>
        <time>2020-03-23T06:14:39Z</time>
      </trkpt>
      <trkpt lat="-32.223835978657007" lon="24.493765002116561">
        <ele>831.67999999999995</ele>
        <time>2020-03-23T06:15:01Z</time>
      </trkpt>
      <trkpt lat="-32.224714988842607" lon="24.495062017813325">
        <ele>838.88999999999999</ele>
        <time>2020-03-23T06:15:15Z</time>
      </trkpt>
      <trkpt lat="-32.225703969597816" lon="24.495886964723468">
        <ele>846.10000000000002</ele>
        <time>2020-03-23T06:15:27Z</time>
      </trkpt>
      <trkpt lat="-32.226481977850199" lon="24.496141020208597">
        <ele>849.46000000000004</ele>
        <time>2020-03-23T06:15:35Z</time>
      </trkpt>
      <trkpt lat="-32.226582979783416" lon="24.496143031865358">
        <ele>849.46000000000004</ele>
        <time>2020-03-23T06:15:36Z</time>
      </trkpt>
      <trkpt lat="-32.226683981716633" lon="24.496131967753172">
        <ele>849.94000000000005</ele>
        <time>2020-03-23T06:15:37Z</time>
      </trkpt>
      <trkpt lat="-32.226786995306611" lon="24.496112018823624">
        <ele>849.94000000000005</ele>
        <time>2020-03-23T06:15:38Z</time>
      </trkpt>
      <trkpt lat="-32.226885985583067" lon="24.496085029095411">
        <ele>850.41999999999996</ele>
        <time>2020-03-23T06:15:39Z</time>
      </trkpt>
      <trkpt lat="-32.227355958893895" lon="24.495934993028641">
        <ele>854.26999999999998</ele>
        <time>2020-03-23T06:15:44Z</time>
      </trkpt>
      <trkpt lat="-32.22745000384748" lon="24.495922001078725">
        <ele>855.23000000000002</ele>
        <time>2020-03-23T06:15:45Z</time>
      </trkpt>
      <trkpt lat="-32.227545976638794" lon="24.495922001078725">
        <ele>856.66999999999996</ele>
        <time>2020-03-23T06:15:46Z</time>
      </trkpt>
      <trkpt lat="-32.227846970781684" lon="24.495924012735486">
        <ele>858.11000000000001</ele>
        <time>2020-03-23T06:15:49Z</time>
      </trkpt>
      <trkpt lat="-32.22794596105814" lon="24.495904985815287">
        <ele>859.08000000000004</ele>
        <time>2020-03-23T06:15:50Z</time>
      </trkpt>
      <trkpt lat="-32.228044029325247" lon="24.495873972773552">
        <ele>860.03999999999996</ele>
        <time>2020-03-23T06:15:51Z</time>
      </trkpt>
      <trkpt lat="-32.228532023727894" lon="24.495741035789251">
        <ele>864.36000000000001</ele>
        <time>2020-03-23T06:15:56Z</time>
      </trkpt>
      <trkpt lat="-32.228621961548924" lon="24.495698036625981">
        <ele>865.32000000000005</ele>
        <time>2020-03-23T06:15:57Z</time>
      </trkpt>
      <trkpt lat="-32.228702008724213" lon="24.495635004714131">
        <ele>865.32000000000005</ele>
        <time>2020-03-23T06:15:58Z</time>
      </trkpt>
      <trkpt lat="-32.228769985958934" lon="24.495555963367224">
        <ele>866.28999999999996</ele>
        <time>2020-03-23T06:15:59Z</time>
      </trkpt>
      <trkpt lat="-32.228836035355926" lon="24.49545999057591">
        <ele>866.76999999999998</ele>
        <time>2020-03-23T06:16:00Z</time>
      </trkpt>
      <trkpt lat="-32.228903006762266" lon="24.495368963107467">
        <ele>867.25</ele>
        <time>2020-03-23T06:16:01Z</time>
      </trkpt>
      <trkpt lat="-32.229355964809656" lon="24.4949010014534">
        <ele>870.61000000000001</ele>
        <time>2020-03-23T06:16:07Z</time>
      </trkpt>
      <trkpt lat="-32.229443974792957" lon="24.494848027825356">
        <ele>871.09000000000003</ele>
        <time>2020-03-23T06:16:08Z</time>
      </trkpt>
      <trkpt lat="-32.229538019746542" lon="24.494799999520183">
        <ele>872.04999999999995</ele>
        <time>2020-03-23T06:16:09Z</time>
      </trkpt>
      <trkpt lat="-32.229818981140852" lon="24.494660021737218">
        <ele>874.46000000000004</ele>
        <time>2020-03-23T06:16:12Z</time>
      </trkpt>
      <trkpt lat="-32.229901039972901" lon="24.494593972340226">
        <ele>875.89999999999998</ele>
        <time>2020-03-23T06:16:13Z</time>
      </trkpt>
      <trkpt lat="-32.229973962530494" lon="24.494524989277124">
        <ele>875.89999999999998</ele>
        <time>2020-03-23T06:16:14Z</time>
      </trkpt>
      <trkpt lat="-32.230038000270724" lon="24.494452988728881">
        <ele>876.38</ele>
        <time>2020-03-23T06:16:15Z</time>
      </trkpt>
      <trkpt lat="-32.23009399138391" lon="24.494372019544244">
        <ele>877.82000000000005</ele>
        <time>2020-03-23T06:16:16Z</time>
      </trkpt>
      <trkpt lat="-32.230146965011954" lon="24.494288032874465">
        <ele>878.77999999999997</ele>
        <time>2020-03-23T06:16:17Z</time>
      </trkpt>
      <trkpt lat="-32.230236986652017" lon="24.494110001251101">
        <ele>881.66999999999996</ele>
        <time>2020-03-23T06:16:19Z</time>
      </trkpt>
      <trkpt lat="-32.23026498220861" lon="24.493996007367969">
        <ele>882.63</ele>
        <time>2020-03-23T06:16:20Z</time>
      </trkpt>
      <trkpt lat="-32.230404959991574" lon="24.493412040174007">
        <ele>884.07000000000005</ele>
        <time>2020-03-23T06:16:25Z</time>
      </trkpt>
      <trkpt lat="-32.230446031317115" lon="24.493343979120255">
        <ele>885.02999999999997</ele>
        <time>2020-03-23T06:16:26Z</time>
      </trkpt>
      <trkpt lat="-32.230495987460017" lon="24.493305003270507">
        <ele>885.02999999999997</ele>
        <time>2020-03-23T06:16:27Z</time>
      </trkpt>
      <trkpt lat="-32.230559019371867" lon="24.493300979956985">
        <ele>885.50999999999999</ele>
        <time>2020-03-23T06:16:28Z</time>
      </trkpt>
      <trkpt lat="-32.230618027970195" lon="24.493311960250139">
        <ele>885.99000000000001</ele>
        <time>2020-03-23T06:16:29Z</time>
      </trkpt>
      <trkpt lat="-32.230677036568522" lon="24.493351019918919">
        <ele>886.47000000000003</ele>
        <time>2020-03-23T06:16:30Z</time>
      </trkpt>
      <trkpt lat="-32.230736967176199" lon="24.493401981890202">
        <ele>886.47000000000003</ele>
        <time>2020-03-23T06:16:31Z</time>
      </trkpt>
      <trkpt lat="-32.230797987431288" lon="24.493464007973671">
        <ele>885.99000000000001</ele>
        <time>2020-03-23T06:16:32Z</time>
      </trkpt>
      <trkpt lat="-32.230922039598227" lon="24.493574984371662">
        <ele>886.95000000000005</ele>
        <time>2020-03-23T06:16:34Z</time>
      </trkpt>
      <trkpt lat="-32.230992028489709" lon="24.493615971878171">
        <ele>886.95000000000005</ele>
        <time>2020-03-23T06:16:35Z</time>
      </trkpt>
      <trkpt lat="-32.231068974360824" lon="24.493639022111893">
        <ele>887.42999999999995</ele>
        <time>2020-03-23T06:16:36Z</time>
      </trkpt>
      <trkpt lat="-32.231152961030602" lon="24.493644973263144">
        <ele>887.42999999999995</ele>
        <time>2020-03-23T06:16:37Z</time>
      </trkpt>
      <trkpt lat="-32.231238959357142" lon="24.493637010455132">
        <ele>887.90999999999997</ele>
        <time>2020-03-23T06:16:38Z</time>
      </trkpt>
      <trkpt lat="-32.231326969340444" lon="24.493616977706552">
        <ele>889.36000000000001</ele>
        <time>2020-03-23T06:16:39Z</time>
      </trkpt>
      <trkpt lat="-32.23151296377182" lon="24.493593005463481">
        <ele>890.32000000000005</ele>
        <time>2020-03-23T06:16:41Z</time>
      </trkpt>
      <trkpt lat="-32.231609020382166" lon="24.493597028777003">
        <ele>890.32000000000005</ele>
        <time>2020-03-23T06:16:42Z</time>
      </trkpt>
      <trkpt lat="-32.231709016487002" lon="24.49361203238368">
        <ele>890.32000000000005</ele>
        <time>2020-03-23T06:16:43Z</time>
      </trkpt>
      <trkpt lat="-32.232014033943415" lon="24.49365402571857">
        <ele>890.32000000000005</ele>
        <time>2020-03-23T06:16:46Z</time>
      </trkpt>
      <trkpt lat="-32.232116963714361" lon="24.493641033768654">
        <ele>890.79999999999995</ele>
        <time>2020-03-23T06:16:47Z</time>
      </trkpt>
      <trkpt lat="-32.232221988961101" lon="24.493617983534932">
        <ele>890.79999999999995</ele>
        <time>2020-03-23T06:16:48Z</time>
      </trkpt>
      <trkpt lat="-32.232325002551079" lon="24.493582025170326">
        <ele>891.27999999999997</ele>
        <time>2020-03-23T06:16:49Z</time>
      </trkpt>
      <trkpt lat="-32.232427010312676" lon="24.493545982986689">
        <ele>891.27999999999997</ele>
        <time>2020-03-23T06:16:50Z</time>
      </trkpt>
      <trkpt lat="-32.232625996693969" lon="24.493498038500547">
        <ele>891.75999999999999</ele>
        <time>2020-03-23T06:16:52Z</time>
      </trkpt>
      <trkpt lat="-32.232728004455566" lon="24.493487980216742">
        <ele>892.24000000000001</ele>
        <time>2020-03-23T06:16:53Z</time>
      </trkpt>
      <trkpt lat="-32.232830012217164" lon="24.493484040722251">
        <ele>892.24000000000001</ele>
        <time>2020-03-23T06:16:54Z</time>
      </trkpt>
      <trkpt lat="-32.232933025807142" lon="24.493494015187025">
        <ele>892.24000000000001</ele>
        <time>2020-03-23T06:16:55Z</time>
      </trkpt>
      <trkpt lat="-32.233038973063231" lon="24.493507007136941">
        <ele>892.24000000000001</ele>
        <time>2020-03-23T06:16:56Z</time>
      </trkpt>
      <trkpt lat="-32.233352959156036" lon="24.49352502822876">
        <ele>893.67999999999995</ele>
        <time>2020-03-23T06:16:59Z</time>
      </trkpt>
      <trkpt lat="-32.233457984402776" lon="24.493503989651799">
        <ele>894.15999999999997</ele>
        <time>2020-03-23T06:17:00Z</time>
      </trkpt>
      <trkpt lat="-32.233558986335993" lon="24.493465013802052">
        <ele>894.63999999999999</ele>
        <time>2020-03-23T06:17:01Z</time>
      </trkpt>
      <trkpt lat="-32.233654037117958" lon="24.493412040174007">
        <ele>895.61000000000001</ele>
        <time>2020-03-23T06:17:02Z</time>
      </trkpt>
      <trkpt lat="-32.233750009909272" lon="24.493351019918919">
        <ele>895.61000000000001</ele>
        <time>2020-03-23T06:17:03Z</time>
      </trkpt>
      <trkpt lat="-32.23473496735096" lon="24.492981964722276">
        <ele>906.17999999999995</ele>
        <time>2020-03-23T06:17:13Z</time>
      </trkpt>
      <trkpt lat="-32.236093003302813" lon="24.492664961144328">
        <ele>911.95000000000005</ele>
        <time>2020-03-23T06:17:26Z</time>
      </trkpt>
      <trkpt lat="-32.237008977681398" lon="24.49210898950696">
        <ele>916.75</ele>
        <time>2020-03-23T06:17:36Z</time>
      </trkpt>
      <trkpt lat="-32.238518977537751" lon="24.491025041788816">
        <ele>934.53999999999996</ele>
        <time>2020-03-23T06:17:53Z</time>
      </trkpt>
      <trkpt lat="-32.2396320104599" lon="24.490099009126425">
        <ele>950.39999999999998</ele>
        <time>2020-03-23T06:18:07Z</time>
      </trkpt>
      <trkpt lat="-32.239880030974746" lon="24.489893987774849">
        <ele>954.25</ele>
        <time>2020-03-23T06:18:10Z</time>
      </trkpt>
      <trkpt lat="-32.239968962967396" lon="24.489845037460327">
        <ele>955.69000000000005</ele>
        <time>2020-03-23T06:18:11Z</time>
      </trkpt>
      <trkpt lat="-32.240053033456206" lon="24.489802960306406">
        <ele>957.13</ele>
        <time>2020-03-23T06:18:12Z</time>
      </trkpt>
      <trkpt lat="-32.24014900624752" lon="24.489786028862">
        <ele>959.04999999999995</ele>
        <time>2020-03-23T06:18:13Z</time>
      </trkpt>
      <trkpt lat="-32.240250008180737" lon="24.489782005548477">
        <ele>960.49000000000001</ele>
        <time>2020-03-23T06:18:14Z</time>
      </trkpt>
      <trkpt lat="-32.240615962073207" lon="24.489753004163504">
        <ele>967.70000000000005</ele>
        <time>2020-03-23T06:18:18Z</time>
      </trkpt>
      <trkpt lat="-32.240703972056508" lon="24.489730037748814">
        <ele>969.63</ele>
        <time>2020-03-23T06:18:19Z</time>
      </trkpt>
      <trkpt lat="-32.240791982039809" lon="24.489693995565176">
        <ele>971.54999999999995</ele>
        <time>2020-03-23T06:18:20Z</time>
      </trkpt>
      <trkpt lat="-32.240885021165013" lon="24.489641021937132">
        <ele>971.07000000000005</ele>
        <time>2020-03-23T06:18:21Z</time>
      </trkpt>
      <trkpt lat="-32.24096498452127" lon="24.489586036652327">
        <ele>972.50999999999999</ele>
        <time>2020-03-23T06:18:22Z</time>
      </trkpt>
      <trkpt lat="-32.241032961755991" lon="24.489527028053999">
        <ele>974.90999999999997</ele>
        <time>2020-03-23T06:18:23Z</time>
      </trkpt>
      <trkpt lat="-32.241693958640099" lon="24.488890003412962">
        <ele>983.57000000000005</ele>
        <time>2020-03-23T06:18:32Z</time>
      </trkpt>
      <trkpt lat="-32.24178297445178" lon="24.488839963451028">
        <ele>985.49000000000001</ele>
        <time>2020-03-23T06:18:33Z</time>
      </trkpt>
      <trkpt lat="-32.241877019405365" lon="24.488809034228325">
        <ele>987.40999999999997</ele>
        <time>2020-03-23T06:18:34Z</time>
      </trkpt>
      <trkpt lat="-32.241977015510201" lon="24.488786989822984">
        <ele>989.80999999999995</ele>
        <time>2020-03-23T06:18:35Z</time>
      </trkpt>
      <trkpt lat="-32.242071982473135" lon="24.488762011751533">
        <ele>992.70000000000005</ele>
        <time>2020-03-23T06:18:36Z</time>
      </trkpt>
      <trkpt lat="-32.24274798296392" lon="24.488623961806297">
        <ele>1003.27</ele>
        <time>2020-03-23T06:18:43Z</time>
      </trkpt>
      <trkpt lat="-32.242840016260743" lon="24.488623961806297">
        <ele>1003.75</ele>
        <time>2020-03-23T06:18:44Z</time>
      </trkpt>
      <trkpt lat="-32.242932971566916" lon="24.488650029525161">
        <ele>1004.72</ele>
        <time>2020-03-23T06:18:45Z</time>
      </trkpt>
      <trkpt lat="-32.243017964065075" lon="24.488695040345192">
        <ele>1006.64</ele>
        <time>2020-03-23T06:18:46Z</time>
      </trkpt>
      <trkpt lat="-32.243111003190279" lon="24.488753965124488">
        <ele>1008.5599999999999</ele>
        <time>2020-03-23T06:18:47Z</time>
      </trkpt>
      <trkpt lat="-32.244175001978874" lon="24.489189991727471">
        <ele>1022.02</ele>
        <time>2020-03-23T06:18:58Z</time>
      </trkpt>
      <trkpt lat="-32.244730973616242" lon="24.489350002259016">
        <ele>1028.27</ele>
        <time>2020-03-23T06:19:04Z</time>
      </trkpt>
      <trkpt lat="-32.244835998862982" lon="24.489340027794242">
        <ele>1029.71</ele>
        <time>2020-03-23T06:19:05Z</time>
      </trkpt>
      <trkpt lat="-32.244948986917734" lon="24.48931697756052">
        <ele>1029.71</ele>
        <time>2020-03-23T06:19:06Z</time>
      </trkpt>
      <trkpt lat="-32.245049988850951" lon="24.489285964518785">
        <ele>1031.1500000000001</ele>
        <time>2020-03-23T06:19:07Z</time>
      </trkpt>
      <trkpt lat="-32.245145961642265" lon="24.489252017810941">
        <ele>1032.1099999999999</ele>
        <time>2020-03-23T06:19:08Z</time>
      </trkpt>
      <trkpt lat="-32.245548963546753" lon="24.48912201449275">
        <ele>1036.9200000000001</ele>
        <time>2020-03-23T06:19:12Z</time>
      </trkpt>
      <trkpt lat="-32.245644014328718" lon="24.489117991179228">
        <ele>1036.9200000000001</ele>
        <time>2020-03-23T06:19:13Z</time>
      </trkpt>
      <trkpt lat="-32.245738981291652" lon="24.489126959815621">
        <ele>1038.3599999999999</ele>
        <time>2020-03-23T06:19:14Z</time>
      </trkpt>
      <trkpt lat="-32.245825985446572" lon="24.489152021706104">
        <ele>1039.8</ele>
        <time>2020-03-23T06:19:15Z</time>
      </trkpt>
      <trkpt lat="-32.245915001258254" lon="24.489188985899091">
        <ele>1040.28</ele>
        <time>2020-03-23T06:19:16Z</time>
      </trkpt>
      <trkpt lat="-32.246000999584794" lon="24.489232990890741">
        <ele>1041.25</ele>
        <time>2020-03-23T06:19:17Z</time>
      </trkpt>
      <trkpt lat="-32.246086997911334" lon="24.489286970347166">
        <ele>1041.25</ele>
        <time>2020-03-23T06:19:18Z</time>
      </trkpt>
      <trkpt lat="-32.246169978752732" lon="24.489348996430635">
        <ele>1042.21</ele>
        <time>2020-03-23T06:19:19Z</time>
      </trkpt>
      <trkpt lat="-32.246244996786118" lon="24.489424014464021">
        <ele>1047.49</ele>
        <time>2020-03-23T06:19:20Z</time>
      </trkpt>
      <trkpt lat="-32.246316997334361" lon="24.489502971991897">
        <ele>1049.9000000000001</ele>
        <time>2020-03-23T06:19:21Z</time>
      </trkpt>
      <trkpt lat="-32.247179998084903" lon="24.490440990775824">
        <ele>1071.05</ele>
        <time>2020-03-23T06:19:33Z</time>
      </trkpt>
      <trkpt lat="-32.247273037210107" lon="24.490503016859293">
        <ele>1072.49</ele>
        <time>2020-03-23T06:19:34Z</time>
      </trkpt>
      <trkpt lat="-32.247677966952324" lon="24.490761011838913">
        <ele>1081.1400000000001</ele>
        <time>2020-03-23T06:19:39Z</time>
      </trkpt>
      <trkpt lat="-32.247748961672187" lon="24.490824965760112">
        <ele>1082.5799999999999</ele>
        <time>2020-03-23T06:19:40Z</time>
      </trkpt>
      <trkpt lat="-32.247815011069179" lon="24.490895038470626">
        <ele>1084.02</ele>
        <time>2020-03-23T06:19:41Z</time>
      </trkpt>
      <trkpt lat="-32.248584972694516" lon="24.492042018100619">
        <ele>1101.3299999999999</ele>
        <time>2020-03-23T06:19:54Z</time>
      </trkpt>
      <trkpt lat="-32.248867023736238" lon="24.492816003039479">
        <ele>1114.3099999999999</ele>
        <time>2020-03-23T06:20:01Z</time>
      </trkpt>
      <trkpt lat="-32.248888984322548" lon="24.492932008579373">
        <ele>1116.23</ele>
        <time>2020-03-23T06:20:02Z</time>
      </trkpt>
      <trkpt lat="-32.248902982100844" lon="24.493050025776029">
        <ele>1118.1500000000001</ele>
        <time>2020-03-23T06:20:03Z</time>
      </trkpt>
      <trkpt lat="-32.248919997364283" lon="24.493703981861472">
        <ele>1128.24</ele>
        <time>2020-03-23T06:20:09Z</time>
      </trkpt>
      <trkpt lat="-32.248933995142579" lon="24.493782017379999">
        <ele>1129.6900000000001</ele>
        <time>2020-03-23T06:20:10Z</time>
      </trkpt>
      <trkpt lat="-32.24895796738565" lon="24.49384898878634">
        <ele>1130.1700000000001</ele>
        <time>2020-03-23T06:20:11Z</time>
      </trkpt>
      <trkpt lat="-32.248994009569287" lon="24.493911014869809">
        <ele>1130.1700000000001</ele>
        <time>2020-03-23T06:20:12Z</time>
      </trkpt>
      <trkpt lat="-32.24904396571219" lon="24.493962982669473">
        <ele>1130.1700000000001</ele>
        <time>2020-03-23T06:20:13Z</time>
      </trkpt>
      <trkpt lat="-32.249104985967278" lon="24.494015034288168">
        <ele>1131.1300000000001</ele>
        <time>2020-03-23T06:20:14Z</time>
      </trkpt>
      <trkpt lat="-32.249172041192651" lon="24.494067002087831">
        <ele>1132.0899999999999</ele>
        <time>2020-03-23T06:20:15Z</time>
      </trkpt>
      <trkpt lat="-32.250090027227998" lon="24.494784995913506">
        <ele>1143.6300000000001</ele>
        <time>2020-03-23T06:20:26Z</time>
      </trkpt>
      <trkpt lat="-32.250455981120467" lon="24.495075009763241">
        <ele>1147.47</ele>
        <time>2020-03-23T06:20:30Z</time>
      </trkpt>
      <trkpt lat="-32.251319987699389" lon="24.49565595947206">
        <ele>1157.5599999999999</ele>
        <time>2020-03-23T06:20:39Z</time>
      </trkpt>
      <trkpt lat="-32.25254500284791" lon="24.49657796882093">
        <ele>1168.6199999999999</ele>
        <time>2020-03-23T06:20:52Z</time>
      </trkpt>
      <trkpt lat="-32.252625972032547" lon="24.496648963540792">
        <ele>1170.0599999999999</ele>
        <time>2020-03-23T06:20:53Z</time>
      </trkpt>
      <trkpt lat="-32.252685986459255" lon="24.496734961867332">
        <ele>1171.5</ele>
        <time>2020-03-23T06:20:54Z</time>
      </trkpt>
      <trkpt lat="-32.252733008936048" lon="24.49683403596282">
        <ele>1172.47</ele>
        <time>2020-03-23T06:20:55Z</time>
      </trkpt>
      <trkpt lat="-32.252770978957415" lon="24.49694300070405">
        <ele>1174.3900000000001</ele>
        <time>2020-03-23T06:20:56Z</time>
      </trkpt>
      <trkpt lat="-32.252809032797813" lon="24.497055988758802">
        <ele>1176.79</ele>
        <time>2020-03-23T06:20:57Z</time>
      </trkpt>
      <trkpt lat="-32.252830993384123" lon="24.497168976813555">
        <ele>1178.23</ele>
        <time>2020-03-23T06:20:58Z</time>
      </trkpt>
      <trkpt lat="-32.252814983949065" lon="24.497294034808874">
        <ele>1180.6400000000001</ele>
        <time>2020-03-23T06:20:59Z</time>
      </trkpt>
      <trkpt lat="-32.25280299782753" lon="24.49741599150002">
        <ele>1182.5599999999999</ele>
        <time>2020-03-23T06:21:00Z</time>
      </trkpt>
      <trkpt lat="-32.252681963145733" lon="24.498172961175442">
        <ele>1194.5799999999999</ele>
        <time>2020-03-23T06:21:07Z</time>
      </trkpt>
      <trkpt lat="-32.252681963145733" lon="24.498272035270929">
        <ele>1194.0899999999999</ele>
        <time>2020-03-23T06:21:08Z</time>
      </trkpt>
      <trkpt lat="-32.252679029479623" lon="24.498378988355398">
        <ele>1195.54</ele>
        <time>2020-03-23T06:21:09Z</time>
      </trkpt>
      <trkpt lat="-32.252682968974113" lon="24.498487031087279">
        <ele>1196.98</ele>
        <time>2020-03-23T06:21:10Z</time>
      </trkpt>
      <trkpt lat="-32.252698978409171" lon="24.498602030798793">
        <ele>1197.9400000000001</ele>
        <time>2020-03-23T06:21:11Z</time>
      </trkpt>
      <trkpt lat="-32.25275999866426" lon="24.498924985527992">
        <ele>1198.4200000000001</ele>
        <time>2020-03-23T06:21:14Z</time>
      </trkpt>
      <trkpt lat="-32.252786988392472" lon="24.499023975804448">
        <ele>1200.8199999999999</ele>
        <time>2020-03-23T06:21:15Z</time>
      </trkpt>
      <trkpt lat="-32.252830993384123" lon="24.499106034636497">
        <ele>1200.3399999999999</ele>
        <time>2020-03-23T06:21:16Z</time>
      </trkpt>
      <trkpt lat="-32.25288899615407" lon="24.499168982729316">
        <ele>1200.8199999999999</ele>
        <time>2020-03-23T06:21:17Z</time>
      </trkpt>
      <trkpt lat="-32.252957979217172" lon="24.499216005206108">
        <ele>1202.27</ele>
        <time>2020-03-23T06:21:18Z</time>
      </trkpt>
      <trkpt lat="-32.253029979765415" lon="24.499228997156024">
        <ele>1203.71</ele>
        <time>2020-03-23T06:21:19Z</time>
      </trkpt>
      <trkpt lat="-32.25310399197042" lon="24.499218016862869">
        <ele>1205.1500000000001</ele>
        <time>2020-03-23T06:21:20Z</time>
      </trkpt>
      <trkpt lat="-32.253174986690283" lon="24.499185997992754">
        <ele>1206.1099999999999</ele>
        <time>2020-03-23T06:21:21Z</time>
      </trkpt>
      <trkpt lat="-32.253247993066907" lon="24.499146016314626">
        <ele>1207.0699999999999</ele>
        <time>2020-03-23T06:21:22Z</time>
      </trkpt>
      <trkpt lat="-32.253470029681921" lon="24.499054988846183">
        <ele>1209.48</ele>
        <time>2020-03-23T06:21:25Z</time>
      </trkpt>
      <trkpt lat="-32.253540018573403" lon="24.499053983017802">
        <ele>1210.9200000000001</ele>
        <time>2020-03-23T06:21:26Z</time>
      </trkpt>
      <trkpt lat="-32.253615958616138" lon="24.49907099828124">
        <ele>1211.4000000000001</ele>
        <time>2020-03-23T06:21:27Z</time>
      </trkpt>
      <trkpt lat="-32.253696005791426" lon="24.499103017151356">
        <ele>1211.8800000000001</ele>
        <time>2020-03-23T06:21:28Z</time>
      </trkpt>
      <trkpt lat="-32.253777980804443" lon="24.499140987172723">
        <ele>1211.8800000000001</ele>
        <time>2020-03-23T06:21:29Z</time>
      </trkpt>
      <trkpt lat="-32.254833010956645" lon="24.499510964378715">
        <ele>1215.72</ele>
        <time>2020-03-23T06:21:39Z</time>
      </trkpt>
      <trkpt lat="-32.257378008216619" lon="24.500367008149624">
        <ele>1229.1800000000001</ele>
        <time>2020-03-23T06:22:00Z</time>
      </trkpt>
      <trkpt lat="-32.258534962311387" lon="24.500968996435404">
        <ele>1245.53</ele>
        <time>2020-03-23T06:22:11Z</time>
      </trkpt>
      <trkpt lat="-32.260188041254878" lon="24.502351004630327">
        <ele>1264.75</ele>
        <time>2020-03-23T06:22:29Z</time>
      </trkpt>
      <trkpt lat="-32.261667028069496" lon="24.503251975402236">
        <ele>1280.1300000000001</ele>
        <time>2020-03-23T06:22:44Z</time>
      </trkpt>
      <trkpt lat="-32.262541009113193" lon="24.503700993955135">
        <ele>1283.98</ele>
        <time>2020-03-23T06:22:53Z</time>
      </trkpt>
      <trkpt lat="-32.262590965256095" lon="24.503765031695366">
        <ele>1283.02</ele>
        <time>2020-03-23T06:22:54Z</time>
      </trkpt>
      <trkpt lat="-32.262633964419365" lon="24.503827979788184">
        <ele>1282.54</ele>
        <time>2020-03-23T06:22:55Z</time>
      </trkpt>
      <trkpt lat="-32.262672018259764" lon="24.503898974508047">
        <ele>1282.0599999999999</ele>
        <time>2020-03-23T06:22:56Z</time>
      </trkpt>
      <trkpt lat="-32.262706970795989" lon="24.503976004198194">
        <ele>1281.5699999999999</ele>
        <time>2020-03-23T06:22:57Z</time>
      </trkpt>
      <trkpt lat="-32.262735972180963" lon="24.504056973382831">
        <ele>1281.5699999999999</ele>
        <time>2020-03-23T06:22:58Z</time>
      </trkpt>
      <trkpt lat="-32.26283797994256" lon="24.504355033859611">
        <ele>1283.02</ele>
        <time>2020-03-23T06:23:03Z</time>
      </trkpt>
      <trkpt lat="-32.262924984097481" lon="24.504245985299349">
        <ele>1283.98</ele>
        <time>2020-03-23T06:23:09Z</time>
      </trkpt>
      <trkpt lat="-32.262861030176282" lon="24.503632010892034">
        <ele>1288.78</ele>
        <time>2020-03-23T06:23:17Z</time>
      </trkpt>
      <trkpt lat="-32.262808978557587" lon="24.502601036801934">
        <ele>1299.3599999999999</ele>
        <time>2020-03-23T06:23:27Z</time>
      </trkpt>
      <trkpt lat="-32.262773020192981" lon="24.502502968534827">
        <ele>1300.8</ele>
        <time>2020-03-23T06:23:28Z</time>
      </trkpt>
      <trkpt lat="-32.262732032686472" lon="24.502411019057035">
        <ele>1301.76</ele>
        <time>2020-03-23T06:23:29Z</time>
      </trkpt>
      <trkpt lat="-32.262675035744905" lon="24.502325020730495">
        <ele>1303.6900000000001</ele>
        <time>2020-03-23T06:23:30Z</time>
      </trkpt>
      <trkpt lat="-32.262605968862772" lon="24.502242039889097">
        <ele>1305.6099999999999</ele>
        <time>2020-03-23T06:23:31Z</time>
      </trkpt>
      <trkpt lat="-32.262531034648418" lon="24.50216400437057">
        <ele>1307.53</ele>
        <time>2020-03-23T06:23:32Z</time>
      </trkpt>
      <trkpt lat="-32.262445036321878" lon="24.502084041014314">
        <ele>1307.05</ele>
        <time>2020-03-23T06:23:33Z</time>
      </trkpt>
      <trkpt lat="-32.262207996100187" lon="24.501845994964242">
        <ele>1310.4100000000001</ele>
        <time>2020-03-23T06:23:36Z</time>
      </trkpt>
      <trkpt lat="-32.262139013037086" lon="24.50175303965807">
        <ele>1311.3800000000001</ele>
        <time>2020-03-23T06:23:37Z</time>
      </trkpt>
      <trkpt lat="-32.261790996417403" lon="24.501138981431723">
        <ele>1317.6199999999999</ele>
        <time>2020-03-23T06:23:43Z</time>
      </trkpt>
      <trkpt lat="-32.261743973940611" lon="24.501030016690493">
        <ele>1317.1400000000001</ele>
        <time>2020-03-23T06:23:44Z</time>
      </trkpt>
      <trkpt lat="-32.261683037504554" lon="24.500783002004027">
        <ele>1318.0999999999999</ele>
        <time>2020-03-23T06:23:46Z</time>
      </trkpt>
      <trkpt lat="-32.26165696978569" lon="24.500647969543934">
        <ele>1318.5899999999999</ele>
        <time>2020-03-23T06:23:47Z</time>
      </trkpt>
      <trkpt lat="-32.261670967563987" lon="24.499117014929652">
        <ele>1329.1600000000001</ele>
        <time>2020-03-23T06:23:58Z</time>
      </trkpt>
      <trkpt lat="-32.261878000572324" lon="24.49782301671803">
        <ele>1340.7</ele>
        <time>2020-03-23T06:24:08Z</time>
      </trkpt>
      <trkpt lat="-32.261918988078833" lon="24.497712962329388">
        <ele>1341.6600000000001</ele>
        <time>2020-03-23T06:24:09Z</time>
      </trkpt>
      <trkpt lat="-32.261969028040767" lon="24.497597962617874">
        <ele>1341.6600000000001</ele>
        <time>2020-03-23T06:24:10Z</time>
      </trkpt>
      <trkpt lat="-32.262026024982333" lon="24.497480029240251">
        <ele>1342.6199999999999</ele>
        <time>2020-03-23T06:24:11Z</time>
      </trkpt>
      <trkpt lat="-32.262090984731913" lon="24.497371986508369">
        <ele>1342.6199999999999</ele>
        <time>2020-03-23T06:24:12Z</time>
      </trkpt>
      <trkpt lat="-32.262159967795014" lon="24.497278025373816">
        <ele>1342.6199999999999</ele>
        <time>2020-03-23T06:24:13Z</time>
      </trkpt>
      <trkpt lat="-32.26223599165678" lon="24.49720099568367">
        <ele>1343.0999999999999</ele>
        <time>2020-03-23T06:24:14Z</time>
      </trkpt>
      <trkpt lat="-32.26232198998332" lon="24.497151039540768">
        <ele>1344.54</ele>
        <time>2020-03-23T06:24:15Z</time>
      </trkpt>
      <trkpt lat="-32.26240698248148" lon="24.497120026499033">
        <ele>1345.5</ele>
        <time>2020-03-23T06:24:16Z</time>
      </trkpt>
      <trkpt lat="-32.262497004121542" lon="24.497108962386847">
        <ele>1346.46</ele>
        <time>2020-03-23T06:24:17Z</time>
      </trkpt>
      <trkpt lat="-32.262586019933224" lon="24.497110974043608">
        <ele>1345.5</ele>
        <time>2020-03-23T06:24:18Z</time>
      </trkpt>
      <trkpt lat="-32.262829011306167" lon="24.497036039829254">
        <ele>1344.54</ele>
        <time>2020-03-23T06:24:21Z</time>
      </trkpt>
      <trkpt lat="-32.262908974662423" lon="24.496988011524081">
        <ele>1345.02</ele>
        <time>2020-03-23T06:24:22Z</time>
      </trkpt>
      <trkpt lat="-32.262982986867428" lon="24.496925985440612">
        <ele>1345.02</ele>
        <time>2020-03-23T06:24:23Z</time>
      </trkpt>
      <trkpt lat="-32.263049958273768" lon="24.496852979063988">
        <ele>1345.02</ele>
        <time>2020-03-23T06:24:24Z</time>
      </trkpt>
      <trkpt lat="-32.263103015720844" lon="24.496765974909067">
        <ele>1343.0999999999999</ele>
        <time>2020-03-23T06:24:25Z</time>
      </trkpt>
      <trkpt lat="-32.263146014884114" lon="24.496671007946134">
        <ele>1342.6199999999999</ele>
        <time>2020-03-23T06:24:26Z</time>
      </trkpt>
      <trkpt lat="-32.263175016269088" lon="24.496564976871014">
        <ele>1342.1400000000001</ele>
        <time>2020-03-23T06:24:27Z</time>
      </trkpt>
      <trkpt lat="-32.263196976855397" lon="24.496454000473022">
        <ele>1341.6600000000001</ele>
        <time>2020-03-23T06:24:28Z</time>
      </trkpt>
      <trkpt lat="-32.263213992118835" lon="24.496334977447987">
        <ele>1340.7</ele>
        <time>2020-03-23T06:24:29Z</time>
      </trkpt>
      <trkpt lat="-32.263298984616995" lon="24.494809973984957">
        <ele>1338.77</ele>
        <time>2020-03-23T06:24:42Z</time>
      </trkpt>
      <trkpt lat="-32.263345001265407" lon="24.494591960683465">
        <ele>1338.29</ele>
        <time>2020-03-23T06:24:44Z</time>
      </trkpt>
      <trkpt lat="-32.263385988771915" lon="24.494485007598996">
        <ele>1337.8099999999999</ele>
        <time>2020-03-23T06:24:45Z</time>
      </trkpt>
      <trkpt lat="-32.26343703456223" lon="24.494378976523876">
        <ele>1337.3299999999999</ele>
        <time>2020-03-23T06:24:46Z</time>
      </trkpt>
      <trkpt lat="-32.263599978759885" lon="24.494088040664792">
        <ele>1336.3699999999999</ele>
        <time>2020-03-23T06:24:49Z</time>
      </trkpt>
      <trkpt lat="-32.263639038428664" lon="24.493986032903194">
        <ele>1336.3699999999999</ele>
        <time>2020-03-23T06:24:50Z</time>
      </trkpt>
      <trkpt lat="-32.263662004843354" lon="24.493886958807707">
        <ele>1336.3699999999999</ele>
        <time>2020-03-23T06:24:51Z</time>
      </trkpt>
      <trkpt lat="-32.263679020106792" lon="24.493787968531251">
        <ele>1336.8499999999999</ele>
        <time>2020-03-23T06:24:52Z</time>
      </trkpt>
      <trkpt lat="-32.263687988743186" lon="24.49369803071022">
        <ele>1336.8499999999999</ele>
        <time>2020-03-23T06:24:53Z</time>
      </trkpt>
      <trkpt lat="-32.263706009835005" lon="24.493554029613733">
        <ele>1338.29</ele>
        <time>2020-03-23T06:24:55Z</time>
      </trkpt>
      <trkpt lat="-32.263724030926824" lon="24.493493009358644">
        <ele>1338.77</ele>
        <time>2020-03-23T06:24:56Z</time>
      </trkpt>
      <trkpt lat="-32.263746997341514" lon="24.4934400357306">
        <ele>1336.8499999999999</ele>
        <time>2020-03-23T06:24:57Z</time>
      </trkpt>
      <trkpt lat="-32.263787984848022" lon="24.493397958576679">
        <ele>1336.8499999999999</ele>
        <time>2020-03-23T06:24:58Z</time>
      </trkpt>
      <trkpt lat="-32.263841964304447" lon="24.493379015475512">
        <ele>1338.29</ele>
        <time>2020-03-23T06:24:59Z</time>
      </trkpt>
      <trkpt lat="-32.263907007873058" lon="24.493368035182357">
        <ele>1337.8099999999999</ele>
        <time>2020-03-23T06:25:00Z</time>
      </trkpt>
      <trkpt lat="-32.263981020078063" lon="24.493362000212073">
        <ele>1337.8099999999999</ele>
        <time>2020-03-23T06:25:01Z</time>
      </trkpt>
      <trkpt lat="-32.264373963698745" lon="24.493274996057153">
        <ele>1339.25</ele>
        <time>2020-03-23T06:25:09Z</time>
      </trkpt>
    </trkseg>
  </trk>

</gpx>