<?xml version="1.0" encoding="utf-8"?><gpx creator="Garmin Desktop App" version="1.1" xsi:schemaLocation="http://www.topografix.com/GPX/1/1 http://www.topografix.com/GPX/1/1/gpx.xsd http://www.garmin.com/xmlschemas/WaypointExtension/v1 http://www8.garmin.com/xmlschemas/WaypointExtensionv1.xsd http://www.garmin.com/xmlschemas/TrackPointExtension/v1 http://www.garmin.com/xmlschemas/TrackPointExtensionv1.xsd http://www.garmin.com/xmlschemas/GpxExtensions/v3 http://www8.garmin.com/xmlschemas/GpxExtensionsv3.xsd http://www.garmin.com/xmlschemas/ActivityExtension/v1 http://www8.garmin.com/xmlschemas/ActivityExtensionv1.xsd http://www.garmin.com/xmlschemas/AdventuresExtensions/v1 http://www8.garmin.com/xmlschemas/AdventuresExtensionv1.xsd http://www.garmin.com/xmlschemas/PressureExtension/v1 http://www.garmin.com/xmlschemas/PressureExtensionv1.xsd http://www.garmin.com/xmlschemas/TripExtensions/v1 http://www.garmin.com/xmlschemas/TripExtensionsv1.xsd http://www.garmin.com/xmlschemas/TripMetaDataExtensions/v1 http://www.garmin.com/xmlschemas/TripMetaDataExtensionsv1.xsd http://www.garmin.com/xmlschemas/ViaPointTransportationModeExtensions/v1 http://www.garmin.com/xmlschemas/ViaPointTransportationModeExtensionsv1.xsd http://www.garmin.com/xmlschemas/CreationTimeExtension/v1 http://www.garmin.com/xmlschemas/CreationTimeExtensionsv1.xsd http://www.garmin.com/xmlschemas/AccelerationExtension/v1 http://www.garmin.com/xmlschemas/AccelerationExtensionv1.xsd http://www.garmin.com/xmlschemas/PowerExtension/v1 http://www.garmin.com/xmlschemas/PowerExtensionv1.xsd http://www.garmin.com/xmlschemas/VideoExtension/v1 http://www.garmin.com/xmlschemas/VideoExtensionv1.xsd" xmlns="http://www.topografix.com/GPX/1/1" xmlns:xsi="http://www.w3.org/2001/XMLSchema-instance" xmlns:wptx1="http://www.garmin.com/xmlschemas/WaypointExtension/v1" xmlns:gpxtrx="http://www.garmin.com/xmlschemas/GpxExtensions/v3" xmlns:gpxtpx="http://www.garmin.com/xmlschemas/TrackPointExtension/v1" xmlns:gpxx="http://www.garmin.com/xmlschemas/GpxExtensions/v3" xmlns:trp="http://www.garmin.com/xmlschemas/TripExtensions/v1" xmlns:adv="http://www.garmin.com/xmlschemas/AdventuresExtensions/v1" xmlns:prs="http://www.garmin.com/xmlschemas/PressureExtension/v1" xmlns:tmd="http://www.garmin.com/xmlschemas/TripMetaDataExtensions/v1" xmlns:vptm="http://www.garmin.com/xmlschemas/ViaPointTransportationModeExtensions/v1" xmlns:ctx="http://www.garmin.com/xmlschemas/CreationTimeExtension/v1" xmlns:gpxacc="http://www.garmin.com/xmlschemas/AccelerationExtension/v1" xmlns:gpxpx="http://www.garmin.com/xmlschemas/PowerExtension/v1" xmlns:vidx1="http://www.garmin.com/xmlschemas/VideoExtension/v1">

  <metadata>
    <link href="http://www.garmin.com">
      <text>Garmin International</text>
    </link>
    <time>2022-07-02T19:24:39Z</time>
    <bounds maxlat="-32.449502376839519" maxlon="28.007644973695278" minlat="-32.558516319841146" minlon="27.963546523824334" />
  </metadata>

  <trk>
    <name>[236] Great Kei River Pass</name>
    <extensions>
      <gpxx:TrackExtension>
        <gpxx:DisplayColor>Red</gpxx:DisplayColor>
      </gpxx:TrackExtension>
    </extensions>
    <trkseg>
      <trkpt lat="-32.449502376839519" lon="27.99778500571847">
        <ele>596.63999999999999</ele>
        <time>2022-01-23T10:01:10Z</time>
      </trkpt>
      <trkpt lat="-32.451793486252427" lon="27.99788860604167">
        <ele>597.12</ele>
        <time>2022-01-23T10:01:20Z</time>
      </trkpt>
      <trkpt lat="-32.452439228072762" lon="27.99801760353148">
        <ele>595.66999999999996</ele>
        <time>2022-01-23T10:01:23Z</time>
      </trkpt>
      <trkpt lat="-32.452639890834689" lon="27.998098488897085">
        <ele>594.71000000000004</ele>
        <time>2022-01-23T10:01:24Z</time>
      </trkpt>
      <trkpt lat="-32.452833680436015" lon="27.998202340677381">
        <ele>594.23000000000002</ele>
        <time>2022-01-23T10:01:25Z</time>
      </trkpt>
      <trkpt lat="-32.453019004315138" lon="27.99832790158689">
        <ele>593.26999999999998</ele>
        <time>2022-01-23T10:01:26Z</time>
      </trkpt>
      <trkpt lat="-32.453193515539169" lon="27.998475506901741">
        <ele>592.30999999999995</ele>
        <time>2022-01-23T10:01:27Z</time>
      </trkpt>
      <trkpt lat="-32.453354448080063" lon="27.998647000640631">
        <ele>591.35000000000002</ele>
        <time>2022-01-23T10:01:28Z</time>
      </trkpt>
      <trkpt lat="-32.453499790281057" lon="27.99884045496583">
        <ele>590.38999999999999</ele>
        <time>2022-01-23T10:01:29Z</time>
      </trkpt>
      <trkpt lat="-32.453628117218614" lon="27.999054193496704">
        <ele>589.42999999999995</ele>
        <time>2022-01-23T10:01:30Z</time>
      </trkpt>
      <trkpt lat="-32.453739596530795" lon="27.999286539852619">
        <ele>587.98000000000002</ele>
        <time>2022-01-23T10:01:31Z</time>
      </trkpt>
      <trkpt lat="-32.45383171364665" lon="27.999534225091338">
        <ele>587.01999999999998</ele>
        <time>2022-01-23T10:01:32Z</time>
      </trkpt>
      <trkpt lat="-32.453903378918767" lon="27.999795991927385">
        <ele>585.58000000000004</ele>
        <time>2022-01-23T10:01:33Z</time>
      </trkpt>
      <trkpt lat="-32.45395727455616" lon="28.000072594732046">
        <ele>583.65999999999997</ele>
        <time>2022-01-23T10:01:34Z</time>
      </trkpt>
      <trkpt lat="-32.454000944271684" lon="28.000358669087291">
        <ele>582.22000000000003</ele>
        <time>2022-01-23T10:01:35Z</time>
      </trkpt>
      <trkpt lat="-32.454584073275328" lon="28.004003958776593">
        <ele>563.47000000000003</ele>
        <time>2022-01-23T10:01:48Z</time>
      </trkpt>
      <trkpt lat="-32.455196622759104" lon="28.005895838141441">
        <ele>553.38</ele>
        <time>2022-01-23T10:01:56Z</time>
      </trkpt>
      <trkpt lat="-32.455443553626537" lon="28.006938043981791">
        <ele>548.57000000000005</ele>
        <time>2022-01-23T10:02:01Z</time>
      </trkpt>
      <trkpt lat="-32.455512285232544" lon="28.007098892703652">
        <ele>547.61000000000001</ele>
        <time>2022-01-23T10:02:02Z</time>
      </trkpt>
      <trkpt lat="-32.455596188083291" lon="28.007239541038871">
        <ele>547.13</ele>
        <time>2022-01-23T10:02:03Z</time>
      </trkpt>
      <trkpt lat="-32.455697692930698" lon="28.007356803864241">
        <ele>546.64999999999998</ele>
        <time>2022-01-23T10:02:04Z</time>
      </trkpt>
      <trkpt lat="-32.455816967412829" lon="28.007459063082933">
        <ele>545.69000000000005</ele>
        <time>2022-01-23T10:02:05Z</time>
      </trkpt>
      <trkpt lat="-32.455952754244208" lon="28.007546318694949">
        <ele>545.20000000000005</ele>
        <time>2022-01-23T10:02:06Z</time>
      </trkpt>
      <trkpt lat="-32.456106310710311" lon="28.007612032815814">
        <ele>544.72000000000003</ele>
        <time>2022-01-23T10:02:07Z</time>
      </trkpt>
      <trkpt lat="-32.45626556687057" lon="28.007644973695278">
        <ele>543.75999999999999</ele>
        <time>2022-01-23T10:02:08Z</time>
      </trkpt>
      <trkpt lat="-32.456432450562716" lon="28.007643884047866">
        <ele>542.79999999999995</ele>
        <time>2022-01-23T10:02:09Z</time>
      </trkpt>
      <trkpt lat="-32.456600926816463" lon="28.007607338950038">
        <ele>541.84000000000003</ele>
        <time>2022-01-23T10:02:10Z</time>
      </trkpt>
      <trkpt lat="-32.45675515383482" lon="28.007540535181761">
        <ele>541.36000000000001</ele>
        <time>2022-01-23T10:02:11Z</time>
      </trkpt>
      <trkpt lat="-32.456897227093577" lon="28.007444646209478">
        <ele>540.39999999999998</ele>
        <time>2022-01-23T10:02:12Z</time>
      </trkpt>
      <trkpt lat="-32.457022368907928" lon="28.007321935147047">
        <ele>539.91999999999996</ele>
        <time>2022-01-23T10:02:13Z</time>
      </trkpt>
      <trkpt lat="-32.457123789936304" lon="28.007183885201812">
        <ele>538.96000000000004</ele>
        <time>2022-01-23T10:02:14Z</time>
      </trkpt>
      <trkpt lat="-32.457206770777702" lon="28.007026975974441">
        <ele>537.99000000000001</ele>
        <time>2022-01-23T10:02:15Z</time>
      </trkpt>
      <trkpt lat="-32.45726921595633" lon="28.006856152787805">
        <ele>537.02999999999997</ele>
        <time>2022-01-23T10:02:16Z</time>
      </trkpt>
      <trkpt lat="-32.457308191806078" lon="28.0066854134202">
        <ele>536.07000000000005</ele>
        <time>2022-01-23T10:02:17Z</time>
      </trkpt>
      <trkpt lat="-32.457329733297229" lon="28.006503945216537">
        <ele>535.59000000000003</ele>
        <time>2022-01-23T10:02:18Z</time>
      </trkpt>
      <trkpt lat="-32.457343898713589" lon="28.00630328245461">
        <ele>534.63</ele>
        <time>2022-01-23T10:02:19Z</time>
      </trkpt>
      <trkpt lat="-32.457498293370008" lon="28.004699405282736">
        <ele>526.46000000000004</ele>
        <time>2022-01-23T10:02:25Z</time>
      </trkpt>
      <trkpt lat="-32.457772381603718" lon="28.001321833580732">
        <ele>509.16000000000003</ele>
        <time>2022-01-23T10:02:35Z</time>
      </trkpt>
      <trkpt lat="-32.457975223660469" lon="27.997369347140193">
        <ele>486.56</ele>
        <time>2022-01-23T10:02:46Z</time>
      </trkpt>
      <trkpt lat="-32.458140766248107" lon="27.994210124015808">
        <ele>474.55000000000001</ele>
        <time>2022-01-23T10:02:56Z</time>
      </trkpt>
      <trkpt lat="-32.458193991333246" lon="27.993960343301296">
        <ele>473.11000000000001</ele>
        <time>2022-01-23T10:02:57Z</time>
      </trkpt>
      <trkpt lat="-32.458269009366632" lon="27.993723219260573">
        <ele>472.13999999999999</ele>
        <time>2022-01-23T10:02:58Z</time>
      </trkpt>
      <trkpt lat="-32.458370849490166" lon="27.993498081341386">
        <ele>471.18000000000001</ele>
        <time>2022-01-23T10:02:59Z</time>
      </trkpt>
      <trkpt lat="-32.458491548895836" lon="27.993297753855586">
        <ele>470.22000000000003</ele>
        <time>2022-01-23T10:03:00Z</time>
      </trkpt>
      <trkpt lat="-32.458639573305845" lon="27.993111927062273">
        <ele>469.25999999999999</ele>
        <time>2022-01-23T10:03:01Z</time>
      </trkpt>
      <trkpt lat="-32.458812324330211" lon="27.992947055026889">
        <ele>467.81999999999999</ele>
        <time>2022-01-23T10:03:02Z</time>
      </trkpt>
      <trkpt lat="-32.459008544683456" lon="27.992803305387497">
        <ele>466.86000000000001</ele>
        <time>2022-01-23T10:03:03Z</time>
      </trkpt>
      <trkpt lat="-32.459222450852394" lon="27.992673385888338">
        <ele>465.89999999999998</ele>
        <time>2022-01-23T10:03:04Z</time>
      </trkpt>
      <trkpt lat="-32.460490046069026" lon="27.991785490885377">
        <ele>460.61000000000001</ele>
        <time>2022-01-23T10:03:10Z</time>
      </trkpt>
      <trkpt lat="-32.460697162896395" lon="27.991699827834964">
        <ele>459.64999999999998</ele>
        <time>2022-01-23T10:03:11Z</time>
      </trkpt>
      <trkpt lat="-32.460909895598888" lon="27.991655822843313">
        <ele>458.69</ele>
        <time>2022-01-23T10:03:12Z</time>
      </trkpt>
      <trkpt lat="-32.461115000769496" lon="27.991653559729457">
        <ele>457.72000000000003</ele>
        <time>2022-01-23T10:03:13Z</time>
      </trkpt>
      <trkpt lat="-32.461323123425245" lon="27.991687841713428">
        <ele>456.27999999999997</ele>
        <time>2022-01-23T10:03:14Z</time>
      </trkpt>
      <trkpt lat="-32.461524708196521" lon="27.991749532520771">
        <ele>455.31999999999999</ele>
        <time>2022-01-23T10:03:15Z</time>
      </trkpt>
      <trkpt lat="-32.461719755083323" lon="27.991818599402905">
        <ele>454.36000000000001</ele>
        <time>2022-01-23T10:03:16Z</time>
      </trkpt>
      <trkpt lat="-32.461913041770458" lon="27.991870315745473">
        <ele>453.88</ele>
        <time>2022-01-23T10:03:17Z</time>
      </trkpt>
      <trkpt lat="-32.462104484438896" lon="27.991885570809245">
        <ele>452.92000000000002</ele>
        <time>2022-01-23T10:03:18Z</time>
      </trkpt>
      <trkpt lat="-32.462295340374112" lon="27.991860676556826">
        <ele>452.44</ele>
        <time>2022-01-23T10:03:19Z</time>
      </trkpt>
      <trkpt lat="-32.462484603747725" lon="27.991800410673022">
        <ele>451.95999999999998</ele>
        <time>2022-01-23T10:03:20Z</time>
      </trkpt>
      <trkpt lat="-32.462666742503643" lon="27.991708545014262">
        <ele>451</ele>
        <time>2022-01-23T10:03:21Z</time>
      </trkpt>
      <trkpt lat="-32.46283714659512" lon="27.991594551131129">
        <ele>450.51999999999998</ele>
        <time>2022-01-23T10:03:22Z</time>
      </trkpt>
      <trkpt lat="-32.462999420240521" lon="27.991473097354174">
        <ele>450.02999999999997</ele>
        <time>2022-01-23T10:03:23Z</time>
      </trkpt>
      <trkpt lat="-32.463330086320639" lon="27.991255084052682">
        <ele>447.63</ele>
        <time>2022-01-23T10:03:25Z</time>
      </trkpt>
      <trkpt lat="-32.463501580059528" lon="27.991182748228312">
        <ele>447.14999999999998</ele>
        <time>2022-01-23T10:03:26Z</time>
      </trkpt>
      <trkpt lat="-32.463685981929302" lon="27.991139246150851">
        <ele>446.19</ele>
        <time>2022-01-23T10:03:27Z</time>
      </trkpt>
      <trkpt lat="-32.463878262788057" lon="27.991128014400601">
        <ele>445.23000000000002</ele>
        <time>2022-01-23T10:03:28Z</time>
      </trkpt>
      <trkpt lat="-32.464077500626445" lon="27.99114896915853">
        <ele>443.79000000000002</ele>
        <time>2022-01-23T10:03:29Z</time>
      </trkpt>
      <trkpt lat="-32.464284533634782" lon="27.991198338568211">
        <ele>442.81999999999999</ele>
        <time>2022-01-23T10:03:30Z</time>
      </trkpt>
      <trkpt lat="-32.464498188346624" lon="27.991266651079059">
        <ele>441.86000000000001</ele>
        <time>2022-01-23T10:03:31Z</time>
      </trkpt>
      <trkpt lat="-32.465869383886456" lon="27.9917670506984">
        <ele>432.73000000000002</ele>
        <time>2022-01-23T10:03:37Z</time>
      </trkpt>
      <trkpt lat="-32.466072645038366" lon="27.991895712912083">
        <ele>430.81</ele>
        <time>2022-01-23T10:03:38Z</time>
      </trkpt>
      <trkpt lat="-32.466256376355886" lon="27.992055136710405">
        <ele>429.37</ele>
        <time>2022-01-23T10:03:39Z</time>
      </trkpt>
      <trkpt lat="-32.466403478756547" lon="27.99223174341023">
        <ele>427.44</ele>
        <time>2022-01-23T10:03:40Z</time>
      </trkpt>
      <trkpt lat="-32.466530464589596" lon="27.992432825267315">
        <ele>426</ele>
        <time>2022-01-23T10:03:41Z</time>
      </trkpt>
      <trkpt lat="-32.466644123196602" lon="27.992624770849943">
        <ele>424.56</ele>
        <time>2022-01-23T10:03:42Z</time>
      </trkpt>
      <trkpt lat="-32.46677253395319" lon="27.992800790816545">
        <ele>423.12</ele>
        <time>2022-01-23T10:03:43Z</time>
      </trkpt>
      <trkpt lat="-32.466921312734485" lon="27.992954263463616">
        <ele>421.68000000000001</ele>
        <time>2022-01-23T10:03:44Z</time>
      </trkpt>
      <trkpt lat="-32.46709062717855" lon="27.993087535724044">
        <ele>420.23000000000002</ele>
        <time>2022-01-23T10:03:45Z</time>
      </trkpt>
      <trkpt lat="-32.46728072874248" lon="27.993198344483972">
        <ele>419.26999999999998</ele>
        <time>2022-01-23T10:03:46Z</time>
      </trkpt>
      <trkpt lat="-32.467488599941134" lon="27.993285683915019">
        <ele>417.82999999999998</ele>
        <time>2022-01-23T10:03:47Z</time>
      </trkpt>
      <trkpt lat="-32.467712564393878" lon="27.993351565673947">
        <ele>416.38999999999999</ele>
        <time>2022-01-23T10:03:48Z</time>
      </trkpt>
      <trkpt lat="-32.467950694262981" lon="27.99340152181685">
        <ele>414.94999999999999</ele>
        <time>2022-01-23T10:03:49Z</time>
      </trkpt>
      <trkpt lat="-32.47064589522779" lon="27.993868812918663">
        <ele>398.12</ele>
        <time>2022-01-23T10:03:59Z</time>
      </trkpt>
      <trkpt lat="-32.474428815767169" lon="27.99453416839242">
        <ele>393.31999999999999</ele>
        <time>2022-01-23T10:04:13Z</time>
      </trkpt>
      <trkpt lat="-32.477248487994075" lon="27.994908420369029">
        <ele>383.69999999999999</ele>
        <time>2022-01-23T10:04:24Z</time>
      </trkpt>
      <trkpt lat="-32.478625467047095" lon="27.994453869760036">
        <ele>376.49000000000001</ele>
        <time>2022-01-23T10:04:30Z</time>
      </trkpt>
      <trkpt lat="-32.47924916446209" lon="27.994167963042855">
        <ele>372.17000000000002</ele>
        <time>2022-01-23T10:04:33Z</time>
      </trkpt>
      <trkpt lat="-32.479456113651395" lon="27.994115659967065">
        <ele>370.73000000000002</ele>
        <time>2022-01-23T10:04:34Z</time>
      </trkpt>
      <trkpt lat="-32.479665242135525" lon="27.994092609733343">
        <ele>369.75999999999999</ele>
        <time>2022-01-23T10:04:35Z</time>
      </trkpt>
      <trkpt lat="-32.479875292629004" lon="27.994102416560054">
        <ele>368.31999999999999</ele>
        <time>2022-01-23T10:04:36Z</time>
      </trkpt>
      <trkpt lat="-32.480082660913467" lon="27.99414524808526">
        <ele>367.36000000000001</ele>
        <time>2022-01-23T10:04:37Z</time>
      </trkpt>
      <trkpt lat="-32.480284916236997" lon="27.994218422099948">
        <ele>366.39999999999998</ele>
        <time>2022-01-23T10:04:38Z</time>
      </trkpt>
      <trkpt lat="-32.480482310056686" lon="27.994311964139342">
        <ele>365.44</ele>
        <time>2022-01-23T10:04:39Z</time>
      </trkpt>
      <trkpt lat="-32.480676351115108" lon="27.994414558634162">
        <ele>364.48000000000002</ele>
        <time>2022-01-23T10:04:40Z</time>
      </trkpt>
      <trkpt lat="-32.481978395953774" lon="27.995081255212426">
        <ele>359.19</ele>
        <time>2022-01-23T10:04:47Z</time>
      </trkpt>
      <trkpt lat="-32.482163300737739" lon="27.995125344023108">
        <ele>358.23000000000002</ele>
        <time>2022-01-23T10:04:48Z</time>
      </trkpt>
      <trkpt lat="-32.482353234663606" lon="27.995139928534627">
        <ele>357.75</ele>
        <time>2022-01-23T10:04:49Z</time>
      </trkpt>
      <trkpt lat="-32.4825469404459" lon="27.995123164728284">
        <ele>356.79000000000002</ele>
        <time>2022-01-23T10:04:50Z</time>
      </trkpt>
      <trkpt lat="-32.482739388942719" lon="27.995073795318604">
        <ele>355.82999999999998</ele>
        <time>2022-01-23T10:04:51Z</time>
      </trkpt>
      <trkpt lat="-32.482923371717334" lon="27.994992574676871">
        <ele>355.33999999999997</ele>
        <time>2022-01-23T10:04:52Z</time>
      </trkpt>
      <trkpt lat="-32.483093272894621" lon="27.994881682097912">
        <ele>354.86000000000001</ele>
        <time>2022-01-23T10:04:53Z</time>
      </trkpt>
      <trkpt lat="-32.483250433579087" lon="27.994745224714279">
        <ele>354.38</ele>
        <time>2022-01-23T10:04:54Z</time>
      </trkpt>
      <trkpt lat="-32.483394183218479" lon="27.994580268859863">
        <ele>353.42000000000002</ele>
        <time>2022-01-23T10:04:55Z</time>
      </trkpt>
      <trkpt lat="-32.483526365831494" lon="27.994392933323979">
        <ele>352.45999999999998</ele>
        <time>2022-01-23T10:04:56Z</time>
      </trkpt>
      <trkpt lat="-32.483647735789418" lon="27.994192438200116">
        <ele>351.5</ele>
        <time>2022-01-23T10:04:57Z</time>
      </trkpt>
      <trkpt lat="-32.48375971801579" lon="27.993988925591111">
        <ele>350.06</ele>
        <time>2022-01-23T10:04:58Z</time>
      </trkpt>
      <trkpt lat="-32.48446287587285" lon="27.992762150242925">
        <ele>340.44</ele>
        <time>2022-01-23T10:05:05Z</time>
      </trkpt>
      <trkpt lat="-32.484572343528271" lon="27.992644552141428">
        <ele>339</ele>
        <time>2022-01-23T10:05:06Z</time>
      </trkpt>
      <trkpt lat="-32.484701005741954" lon="27.992558805271983">
        <ele>338.04000000000002</ele>
        <time>2022-01-23T10:05:07Z</time>
      </trkpt>
      <trkpt lat="-32.484837546944618" lon="27.992505077272654">
        <ele>337.56</ele>
        <time>2022-01-23T10:05:08Z</time>
      </trkpt>
      <trkpt lat="-32.484982721507549" lon="27.992482110857964">
        <ele>337.07999999999998</ele>
        <time>2022-01-23T10:05:09Z</time>
      </trkpt>
      <trkpt lat="-32.485130997374654" lon="27.992492923513055">
        <ele>336.12</ele>
        <time>2022-01-23T10:05:10Z</time>
      </trkpt>
      <trkpt lat="-32.485278351232409" lon="27.992535838857293">
        <ele>335.63999999999999</ele>
        <time>2022-01-23T10:05:11Z</time>
      </trkpt>
      <trkpt lat="-32.485424028709531" lon="27.992615466937423">
        <ele>335.16000000000003</ele>
        <time>2022-01-23T10:05:12Z</time>
      </trkpt>
      <trkpt lat="-32.485552188009024" lon="27.992726778611541">
        <ele>334.68000000000001</ele>
        <time>2022-01-23T10:05:13Z</time>
      </trkpt>
      <trkpt lat="-32.485662158578634" lon="27.992867762222886">
        <ele>334.19999999999999</ele>
        <time>2022-01-23T10:05:14Z</time>
      </trkpt>
      <trkpt lat="-32.485751593485475" lon="27.993038836866617">
        <ele>333.70999999999998</ele>
        <time>2022-01-23T10:05:15Z</time>
      </trkpt>
      <trkpt lat="-32.485815631225705" lon="27.993228519335389">
        <ele>333.23000000000002</ele>
        <time>2022-01-23T10:05:16Z</time>
      </trkpt>
      <trkpt lat="-32.485863910987973" lon="27.993430523201823">
        <ele>333.23000000000002</ele>
        <time>2022-01-23T10:05:17Z</time>
      </trkpt>
      <trkpt lat="-32.486081086099148" lon="27.99421414732933">
        <ele>332.26999999999998</ele>
        <time>2022-01-23T10:05:21Z</time>
      </trkpt>
      <trkpt lat="-32.486164988949895" lon="27.994392933323979">
        <ele>331.79000000000002</ele>
        <time>2022-01-23T10:05:22Z</time>
      </trkpt>
      <trkpt lat="-32.486263643950224" lon="27.994553111493587">
        <ele>331.79000000000002</ele>
        <time>2022-01-23T10:05:23Z</time>
      </trkpt>
      <trkpt lat="-32.486382834613323" lon="27.994690909981728">
        <ele>331.31</ele>
        <time>2022-01-23T10:05:24Z</time>
      </trkpt>
      <trkpt lat="-32.486522309482098" lon="27.994802640751004">
        <ele>330.82999999999998</ele>
        <time>2022-01-23T10:05:25Z</time>
      </trkpt>
      <trkpt lat="-32.486676620319486" lon="27.994886040687561">
        <ele>330.35000000000002</ele>
        <time>2022-01-23T10:05:26Z</time>
      </trkpt>
      <trkpt lat="-32.486841157078743" lon="27.994938930496573">
        <ele>329.87</ele>
        <time>2022-01-23T10:05:27Z</time>
      </trkpt>
      <trkpt lat="-32.487011980265379" lon="27.994962316006422">
        <ele>329.38999999999999</ele>
        <time>2022-01-23T10:05:28Z</time>
      </trkpt>
      <trkpt lat="-32.487193867564201" lon="27.994951754808426">
        <ele>328.43000000000001</ele>
        <time>2022-01-23T10:05:29Z</time>
      </trkpt>
      <trkpt lat="-32.487374665215611" lon="27.994910012930632">
        <ele>327.47000000000003</ele>
        <time>2022-01-23T10:05:30Z</time>
      </trkpt>
      <trkpt lat="-32.48755780979991" lon="27.994842454791069">
        <ele>326.5</ele>
        <time>2022-01-23T10:05:31Z</time>
      </trkpt>
      <trkpt lat="-32.487744390964508" lon="27.994760312139988">
        <ele>325.06</ele>
        <time>2022-01-23T10:05:32Z</time>
      </trkpt>
      <trkpt lat="-32.488278485834599" lon="27.994485720992088">
        <ele>321.69999999999999</ele>
        <time>2022-01-23T10:05:35Z</time>
      </trkpt>
      <trkpt lat="-32.488434640690684" lon="27.994366530328989">
        <ele>320.74000000000001</ele>
        <time>2022-01-23T10:05:36Z</time>
      </trkpt>
      <trkpt lat="-32.488576294854283" lon="27.994221607223153">
        <ele>319.77999999999997</ele>
        <time>2022-01-23T10:05:37Z</time>
      </trkpt>
      <trkpt lat="-32.488695066422224" lon="27.994056986644864">
        <ele>318.81</ele>
        <time>2022-01-23T10:05:38Z</time>
      </trkpt>
      <trkpt lat="-32.488794224336743" lon="27.993870824575424">
        <ele>317.85000000000002</ele>
        <time>2022-01-23T10:05:39Z</time>
      </trkpt>
      <trkpt lat="-32.488878294825554" lon="27.993668569251895">
        <ele>316.88999999999999</ele>
        <time>2022-01-23T10:05:40Z</time>
      </trkpt>
      <trkpt lat="-32.488952809944749" lon="27.993470504879951">
        <ele>315.44999999999999</ele>
        <time>2022-01-23T10:05:41Z</time>
      </trkpt>
      <trkpt lat="-32.489112485200167" lon="27.993096755817533">
        <ele>313.05000000000001</ele>
        <time>2022-01-23T10:05:43Z</time>
      </trkpt>
      <trkpt lat="-32.489210721105337" lon="27.992936661466956">
        <ele>311.60000000000002</ele>
        <time>2022-01-23T10:05:44Z</time>
      </trkpt>
      <trkpt lat="-32.489329325035214" lon="27.992804311215878">
        <ele>310.63999999999999</ele>
        <time>2022-01-23T10:05:45Z</time>
      </trkpt>
      <trkpt lat="-32.489460585638881" lon="27.992708338424563">
        <ele>309.19999999999999</ele>
        <time>2022-01-23T10:05:46Z</time>
      </trkpt>
      <trkpt lat="-32.489603664726019" lon="27.992647401988506">
        <ele>308.24000000000001</ele>
        <time>2022-01-23T10:05:47Z</time>
      </trkpt>
      <trkpt lat="-32.48975956812501" lon="27.992621082812548">
        <ele>307.27999999999997</ele>
        <time>2022-01-23T10:05:48Z</time>
      </trkpt>
      <trkpt lat="-32.489925194531679" lon="27.992630554363132">
        <ele>306.80000000000001</ele>
        <time>2022-01-23T10:05:49Z</time>
      </trkpt>
      <trkpt lat="-32.490095179527998" lon="27.992681097239256">
        <ele>305.83999999999997</ele>
        <time>2022-01-23T10:05:50Z</time>
      </trkpt>
      <trkpt lat="-32.490267930552363" lon="27.992768855765462">
        <ele>304.88</ele>
        <time>2022-01-23T10:05:51Z</time>
      </trkpt>
      <trkpt lat="-32.490435233339667" lon="27.99286650493741">
        <ele>304.38999999999999</ele>
        <time>2022-01-23T10:05:52Z</time>
      </trkpt>
      <trkpt lat="-32.490604547783732" lon="27.99295200034976">
        <ele>303.91000000000003</ele>
        <time>2022-01-23T10:05:53Z</time>
      </trkpt>
      <trkpt lat="-32.490774784237146" lon="27.993012769147754">
        <ele>302.94999999999999</ele>
        <time>2022-01-23T10:05:54Z</time>
      </trkpt>
      <trkpt lat="-32.490948038175702" lon="27.99304629676044">
        <ele>301.99000000000001</ele>
        <time>2022-01-23T10:05:55Z</time>
      </trkpt>
      <trkpt lat="-32.491131350398064" lon="27.993053002282977">
        <ele>301.02999999999997</ele>
        <time>2022-01-23T10:05:56Z</time>
      </trkpt>
      <trkpt lat="-32.491316674277186" lon="27.993038250133395">
        <ele>300.06999999999999</ele>
        <time>2022-01-23T10:05:57Z</time>
      </trkpt>
      <trkpt lat="-32.49151230789721" lon="27.993006566539407">
        <ele>299.11000000000001</ele>
        <time>2022-01-23T10:05:58Z</time>
      </trkpt>
      <trkpt lat="-32.493087016046047" lon="27.992653017863631">
        <ele>288.52999999999997</ele>
        <time>2022-01-23T10:06:06Z</time>
      </trkpt>
      <trkpt lat="-32.493262365460396" lon="27.992552183568478">
        <ele>287.08999999999997</ele>
        <time>2022-01-23T10:06:07Z</time>
      </trkpt>
      <trkpt lat="-32.493426986038685" lon="27.992429388687015">
        <ele>286.13</ele>
        <time>2022-01-23T10:06:08Z</time>
      </trkpt>
      <trkpt lat="-32.493592277169228" lon="27.99228304065764">
        <ele>284.69</ele>
        <time>2022-01-23T10:06:09Z</time>
      </trkpt>
      <trkpt lat="-32.493752539157867" lon="27.992122359573841">
        <ele>283.25</ele>
        <time>2022-01-23T10:06:10Z</time>
      </trkpt>
      <trkpt lat="-32.494646888226271" lon="27.99098183400929">
        <ele>275.06999999999999</ele>
        <time>2022-01-23T10:06:17Z</time>
      </trkpt>
      <trkpt lat="-32.494735065847635" lon="27.990768346935511">
        <ele>274.11000000000001</ele>
        <time>2022-01-23T10:06:18Z</time>
      </trkpt>
      <trkpt lat="-32.494805725291371" lon="27.990541197359562">
        <ele>272.67000000000002</ele>
        <time>2022-01-23T10:06:19Z</time>
      </trkpt>
      <trkpt lat="-32.495175870135427" lon="27.989116190001369">
        <ele>265.94</ele>
        <time>2022-01-23T10:06:25Z</time>
      </trkpt>
      <trkpt lat="-32.4952791351825" lon="27.988904882222414">
        <ele>264.98000000000002</ele>
        <time>2022-01-23T10:06:26Z</time>
      </trkpt>
      <trkpt lat="-32.495400924235582" lon="27.988709080964327">
        <ele>263.54000000000002</ele>
        <time>2022-01-23T10:06:27Z</time>
      </trkpt>
      <trkpt lat="-32.495792275294662" lon="27.988142967224121">
        <ele>260.64999999999998</ele>
        <time>2022-01-23T10:06:30Z</time>
      </trkpt>
      <trkpt lat="-32.49590115621686" lon="27.987934341654181">
        <ele>259.20999999999998</ele>
        <time>2022-01-23T10:06:31Z</time>
      </trkpt>
      <trkpt lat="-32.496206844225526" lon="27.987315757200122">
        <ele>254.88999999999999</ele>
        <time>2022-01-23T10:06:34Z</time>
      </trkpt>
      <trkpt lat="-32.496330393478274" lon="27.987138396129012">
        <ele>253.44</ele>
        <time>2022-01-23T10:06:35Z</time>
      </trkpt>
      <trkpt lat="-32.496468778699636" lon="27.98697654157877">
        <ele>252</ele>
        <time>2022-01-23T10:06:36Z</time>
      </trkpt>
      <trkpt lat="-32.49662040732801" lon="27.986826170235872">
        <ele>250.56</ele>
        <time>2022-01-23T10:06:37Z</time>
      </trkpt>
      <trkpt lat="-32.496772957965732" lon="27.986673368141055">
        <ele>249.12</ele>
        <time>2022-01-23T10:06:38Z</time>
      </trkpt>
      <trkpt lat="-32.496913857758045" lon="27.986503718420863">
        <ele>247.68000000000001</ele>
        <time>2022-01-23T10:06:39Z</time>
      </trkpt>
      <trkpt lat="-32.497034976258874" lon="27.986311437562108">
        <ele>246.22999999999999</ele>
        <time>2022-01-23T10:06:40Z</time>
      </trkpt>
      <trkpt lat="-32.497137319296598" lon="27.986101638525724">
        <ele>245.27000000000001</ele>
        <time>2022-01-23T10:06:41Z</time>
      </trkpt>
      <trkpt lat="-32.497226670384407" lon="27.98588253557682">
        <ele>243.83000000000001</ele>
        <time>2022-01-23T10:06:42Z</time>
      </trkpt>
      <trkpt lat="-32.497310237959027" lon="27.985662594437599">
        <ele>242.38999999999999</ele>
        <time>2022-01-23T10:06:43Z</time>
      </trkpt>
      <trkpt lat="-32.497505368664861" lon="27.985247606411576">
        <ele>239.99000000000001</ele>
        <time>2022-01-23T10:06:45Z</time>
      </trkpt>
      <trkpt lat="-32.497626319527626" lon="27.985064294189215">
        <ele>238.53999999999999</ele>
        <time>2022-01-23T10:06:46Z</time>
      </trkpt>
      <trkpt lat="-32.497757580131292" lon="27.984899254515767">
        <ele>237.58000000000001</ele>
        <time>2022-01-23T10:06:47Z</time>
      </trkpt>
      <trkpt lat="-32.498153122141957" lon="27.984480829909444">
        <ele>234.69999999999999</ele>
        <time>2022-01-23T10:06:50Z</time>
      </trkpt>
      <trkpt lat="-32.498295530676842" lon="27.984386114403605">
        <ele>233.74000000000001</ele>
        <time>2022-01-23T10:06:51Z</time>
      </trkpt>
      <trkpt lat="-32.498447997495532" lon="27.98432576470077">
        <ele>232.78</ele>
        <time>2022-01-23T10:06:52Z</time>
      </trkpt>
      <trkpt lat="-32.498609432950616" lon="27.984293578192592">
        <ele>231.81</ele>
        <time>2022-01-23T10:06:53Z</time>
      </trkpt>
      <trkpt lat="-32.498780591413379" lon="27.984289471060038">
        <ele>230.84999999999999</ele>
        <time>2022-01-23T10:06:54Z</time>
      </trkpt>
      <trkpt lat="-32.498958455398679" lon="27.984310006722808">
        <ele>230.37</ele>
        <time>2022-01-23T10:06:55Z</time>
      </trkpt>
      <trkpt lat="-32.499144366011024" lon="27.984352167695761">
        <ele>229.41</ele>
        <time>2022-01-23T10:06:56Z</time>
      </trkpt>
      <trkpt lat="-32.499334551393986" lon="27.984405476599932">
        <ele>228.44999999999999</ele>
        <time>2022-01-23T10:06:57Z</time>
      </trkpt>
      <trkpt lat="-32.500741370022297" lon="27.98482465557754">
        <ele>219.31999999999999</ele>
        <time>2022-01-23T10:07:04Z</time>
      </trkpt>
      <trkpt lat="-32.500919904559851" lon="27.984930099919438">
        <ele>217.88</ele>
        <time>2022-01-23T10:07:05Z</time>
      </trkpt>
      <trkpt lat="-32.501081675291061" lon="27.98505968414247">
        <ele>216.91</ele>
        <time>2022-01-23T10:07:06Z</time>
      </trkpt>
      <trkpt lat="-32.501528263092041" lon="27.985448939725757">
        <ele>213.55000000000001</ele>
        <time>2022-01-23T10:07:09Z</time>
      </trkpt>
      <trkpt lat="-32.501694895327091" lon="27.985534099861979">
        <ele>212.11000000000001</ele>
        <time>2022-01-23T10:07:10Z</time>
      </trkpt>
      <trkpt lat="-32.501873429864645" lon="27.985588498413563">
        <ele>211.15000000000001</ele>
        <time>2022-01-23T10:07:11Z</time>
      </trkpt>
      <trkpt lat="-32.5020622741431" lon="27.985619595274329">
        <ele>209.69999999999999</ele>
        <time>2022-01-23T10:07:12Z</time>
      </trkpt>
      <trkpt lat="-32.50225187279284" lon="27.985634012147784">
        <ele>208.74000000000001</ele>
        <time>2022-01-23T10:07:13Z</time>
      </trkpt>
      <trkpt lat="-32.502785883843899" lon="27.985603669658303">
        <ele>206.34</ele>
        <time>2022-01-23T10:07:16Z</time>
      </trkpt>
      <trkpt lat="-32.502952180802822" lon="27.985545750707388">
        <ele>205.86000000000001</ele>
        <time>2022-01-23T10:07:17Z</time>
      </trkpt>
      <trkpt lat="-32.503108168020844" lon="27.985462015494704">
        <ele>205.38</ele>
        <time>2022-01-23T10:07:18Z</time>
      </trkpt>
      <trkpt lat="-32.503255354240537" lon="27.985354056581855">
        <ele>204.41999999999999</ele>
        <time>2022-01-23T10:07:19Z</time>
      </trkpt>
      <trkpt lat="-32.503388458862901" lon="27.985225897282362">
        <ele>203.94</ele>
        <time>2022-01-23T10:07:20Z</time>
      </trkpt>
      <trkpt lat="-32.503507649526" lon="27.985083488747478">
        <ele>202.97999999999999</ele>
        <time>2022-01-23T10:07:21Z</time>
      </trkpt>
      <trkpt lat="-32.503614686429501" lon="27.984929429367185">
        <ele>202.00999999999999</ele>
        <time>2022-01-23T10:07:22Z</time>
      </trkpt>
      <trkpt lat="-32.50370504334569" lon="27.984764724969864">
        <ele>200.56999999999999</ele>
        <time>2022-01-23T10:07:23Z</time>
      </trkpt>
      <trkpt lat="-32.503778217360377" lon="27.984586022794247">
        <ele>199.61000000000001</ele>
        <time>2022-01-23T10:07:24Z</time>
      </trkpt>
      <trkpt lat="-32.503828592598438" lon="27.984393574297428">
        <ele>198.16999999999999</ele>
        <time>2022-01-23T10:07:25Z</time>
      </trkpt>
      <trkpt lat="-32.503860862925649" lon="27.98419282771647">
        <ele>196.72999999999999</ele>
        <time>2022-01-23T10:07:26Z</time>
      </trkpt>
      <trkpt lat="-32.50387804582715" lon="27.983981855213642">
        <ele>194.80000000000001</ele>
        <time>2022-01-23T10:07:27Z</time>
      </trkpt>
      <trkpt lat="-32.503887098282576" lon="27.983762416988611">
        <ele>193.36000000000001</ele>
        <time>2022-01-23T10:07:28Z</time>
      </trkpt>
      <trkpt lat="-32.503930013626814" lon="27.982254344969988">
        <ele>182.78999999999999</ele>
        <time>2022-01-23T10:07:35Z</time>
      </trkpt>
      <trkpt lat="-32.503972677513957" lon="27.982055274769664">
        <ele>181.34999999999999</ele>
        <time>2022-01-23T10:07:36Z</time>
      </trkpt>
      <trkpt lat="-32.504034284502268" lon="27.981866346672177">
        <ele>179.41999999999999</ele>
        <time>2022-01-23T10:07:37Z</time>
      </trkpt>
      <trkpt lat="-32.504112739115953" lon="27.981692841276526">
        <ele>177.97999999999999</ele>
        <time>2022-01-23T10:07:38Z</time>
      </trkpt>
      <trkpt lat="-32.504205107688904" lon="27.98153760842979">
        <ele>176.53999999999999</ele>
        <time>2022-01-23T10:07:39Z</time>
      </trkpt>
      <trkpt lat="-32.50431046821177" lon="27.981399642303586">
        <ele>175.09999999999999</ele>
        <time>2022-01-23T10:07:40Z</time>
      </trkpt>
      <trkpt lat="-32.504429826512933" lon="27.981276512145996">
        <ele>173.66</ele>
        <time>2022-01-23T10:07:41Z</time>
      </trkpt>
      <trkpt lat="-32.504564523696899" lon="27.981164362281561">
        <ele>172.21000000000001</ele>
        <time>2022-01-23T10:07:42Z</time>
      </trkpt>
      <trkpt lat="-32.504707854241133" lon="27.981058666482568">
        <ele>170.28999999999999</ele>
        <time>2022-01-23T10:07:43Z</time>
      </trkpt>
      <trkpt lat="-32.505799094215035" lon="27.980314018204808">
        <ele>162.59999999999999</ele>
        <time>2022-01-23T10:07:51Z</time>
      </trkpt>
      <trkpt lat="-32.505886349827051" lon="27.980283172801137">
        <ele>162.12</ele>
        <time>2022-01-23T10:07:52Z</time>
      </trkpt>
      <trkpt lat="-32.506136717274785" lon="27.9802315402776">
        <ele>161.63999999999999</ele>
        <time>2022-01-23T10:07:58Z</time>
      </trkpt>
      <trkpt lat="-32.506161611527205" lon="27.980236066505313">
        <ele>163.08000000000001</ele>
        <time>2022-01-23T10:08:10Z</time>
      </trkpt>
      <trkpt lat="-32.506163539364934" lon="27.980227768421173">
        <ele>164.52000000000001</ele>
        <time>2022-01-23T10:08:38Z</time>
      </trkpt>
      <trkpt lat="-32.506310557946563" lon="27.98022567294538">
        <ele>164.52000000000001</ele>
        <time>2022-01-23T10:09:03Z</time>
      </trkpt>
      <trkpt lat="-32.506960993632674" lon="27.980222655460238">
        <ele>164.52000000000001</ele>
        <time>2022-01-23T10:09:08Z</time>
      </trkpt>
      <trkpt lat="-32.508384492248297" lon="27.980215782299638">
        <ele>165</ele>
        <time>2022-01-23T10:09:15Z</time>
      </trkpt>
      <trkpt lat="-32.511082543060184" lon="27.98024763353169">
        <ele>171.72999999999999</ele>
        <time>2022-01-23T10:09:26Z</time>
      </trkpt>
      <trkpt lat="-32.513064946979284" lon="27.9802315402776">
        <ele>188.08000000000001</ele>
        <time>2022-01-23T10:09:35Z</time>
      </trkpt>
      <trkpt lat="-32.513522850349545" lon="27.980131460353732">
        <ele>193.36000000000001</ele>
        <time>2022-01-23T10:09:40Z</time>
      </trkpt>
      <trkpt lat="-32.513541877269745" lon="27.98012844286859">
        <ele>193.36000000000001</ele>
        <time>2022-01-23T10:09:47Z</time>
      </trkpt>
      <trkpt lat="-32.513543972745538" lon="27.980131879448891">
        <ele>191.44</ele>
        <time>2022-01-23T10:10:26Z</time>
      </trkpt>
      <trkpt lat="-32.513732314109802" lon="27.980033056810498">
        <ele>192.40000000000001</ele>
        <time>2022-01-23T10:10:40Z</time>
      </trkpt>
      <trkpt lat="-32.514414852485061" lon="27.979685794562101">
        <ele>196.72999999999999</ele>
        <time>2022-01-23T10:10:46Z</time>
      </trkpt>
      <trkpt lat="-32.515638694167137" lon="27.979037538170815">
        <ele>204.90000000000001</ele>
        <time>2022-01-23T10:10:53Z</time>
      </trkpt>
      <trkpt lat="-32.515825526788831" lon="27.978970566764474">
        <ele>206.34</ele>
        <time>2022-01-23T10:10:54Z</time>
      </trkpt>
      <trkpt lat="-32.516019064933062" lon="27.978939888998866">
        <ele>207.78</ele>
        <time>2022-01-23T10:10:55Z</time>
      </trkpt>
      <trkpt lat="-32.516205394640565" lon="27.978949444368482">
        <ele>209.69999999999999</ele>
        <time>2022-01-23T10:10:56Z</time>
      </trkpt>
      <trkpt lat="-32.516389545053244" lon="27.978995209559798">
        <ele>211.63</ele>
        <time>2022-01-23T10:10:57Z</time>
      </trkpt>
      <trkpt lat="-32.516570091247559" lon="27.979085566475987">
        <ele>213.06999999999999</ele>
        <time>2022-01-23T10:10:58Z</time>
      </trkpt>
      <trkpt lat="-32.516725827008486" lon="27.979210373014212">
        <ele>214.99000000000001</ele>
        <time>2022-01-23T10:10:59Z</time>
      </trkpt>
      <trkpt lat="-32.516863960772753" lon="27.979366946965456">
        <ele>216.43000000000001</ele>
        <time>2022-01-23T10:11:00Z</time>
      </trkpt>
      <trkpt lat="-32.516978625208139" lon="27.979553444311023">
        <ele>218.36000000000001</ele>
        <time>2022-01-23T10:11:01Z</time>
      </trkpt>
      <trkpt lat="-32.517067557200789" lon="27.979776989668608">
        <ele>220.28</ele>
        <time>2022-01-23T10:11:02Z</time>
      </trkpt>
      <trkpt lat="-32.51712329685688" lon="27.980009252205491">
        <ele>222.19999999999999</ele>
        <time>2022-01-23T10:11:03Z</time>
      </trkpt>
      <trkpt lat="-32.517158752307296" lon="27.980250902473927">
        <ele>224.12</ele>
        <time>2022-01-23T10:11:04Z</time>
      </trkpt>
      <trkpt lat="-32.517188927158713" lon="27.980493642389774">
        <ele>226.53</ele>
        <time>2022-01-23T10:11:05Z</time>
      </trkpt>
      <trkpt lat="-32.517235614359379" lon="27.980733951553702">
        <ele>228.44999999999999</ele>
        <time>2022-01-23T10:11:06Z</time>
      </trkpt>
      <trkpt lat="-32.517302501946688" lon="27.980945259332657">
        <ele>230.84999999999999</ele>
        <time>2022-01-23T10:11:07Z</time>
      </trkpt>
      <trkpt lat="-32.517395792528987" lon="27.981142736971378">
        <ele>232.30000000000001</ele>
        <time>2022-01-23T10:11:08Z</time>
      </trkpt>
      <trkpt lat="-32.51751808449626" lon="27.981327222660184">
        <ele>234.22</ele>
        <time>2022-01-23T10:11:09Z</time>
      </trkpt>
      <trkpt lat="-32.517657391726971" lon="27.981483209878206">
        <ele>236.13999999999999</ele>
        <time>2022-01-23T10:11:10Z</time>
      </trkpt>
      <trkpt lat="-32.517827041447163" lon="27.981621343642473">
        <ele>237.58000000000001</ele>
        <time>2022-01-23T10:11:11Z</time>
      </trkpt>
      <trkpt lat="-32.518002390861511" lon="27.981720333918929">
        <ele>239.50999999999999</ele>
        <time>2022-01-23T10:11:12Z</time>
      </trkpt>
      <trkpt lat="-32.518186708912253" lon="27.981782024726272">
        <ele>240.94999999999999</ele>
        <time>2022-01-23T10:11:13Z</time>
      </trkpt>
      <trkpt lat="-32.518391897901893" lon="27.981809852644801">
        <ele>242.87</ele>
        <time>2022-01-23T10:11:14Z</time>
      </trkpt>
      <trkpt lat="-32.518589375540614" lon="27.981805829331279">
        <ele>244.31</ele>
        <time>2022-01-23T10:11:15Z</time>
      </trkpt>
      <trkpt lat="-32.518786685541272" lon="27.981769535690546">
        <ele>245.75</ele>
        <time>2022-01-23T10:11:16Z</time>
      </trkpt>
      <trkpt lat="-32.518978882580996" lon="27.981695020571351">
        <ele>247.68000000000001</ele>
        <time>2022-01-23T10:11:17Z</time>
      </trkpt>
      <trkpt lat="-32.519170744344592" lon="27.981575829908252">
        <ele>249.12</ele>
        <time>2022-01-23T10:11:18Z</time>
      </trkpt>
      <trkpt lat="-32.519345674663782" lon="27.981423446908593">
        <ele>251.03999999999999</ele>
        <time>2022-01-23T10:11:19Z</time>
      </trkpt>
      <trkpt lat="-32.519519096240401" lon="27.981233429163694">
        <ele>252.47999999999999</ele>
        <time>2022-01-23T10:11:20Z</time>
      </trkpt>
      <trkpt lat="-32.519681621342897" lon="27.98103335313499">
        <ele>254.41</ele>
        <time>2022-01-23T10:11:21Z</time>
      </trkpt>
      <trkpt lat="-32.521222466602921" lon="27.979067293927073">
        <ele>268.82999999999998</ele>
        <time>2022-01-23T10:11:30Z</time>
      </trkpt>
      <trkpt lat="-32.521932413801551" lon="27.977326707914472">
        <ele>280.36000000000001</ele>
        <time>2022-01-23T10:11:36Z</time>
      </trkpt>
      <trkpt lat="-32.52289054915309" lon="27.97530222684145">
        <ele>293.33999999999997</ele>
        <time>2022-01-23T10:11:43Z</time>
      </trkpt>
      <trkpt lat="-32.523987572640181" lon="27.974280472844839">
        <ele>302.94999999999999</ele>
        <time>2022-01-23T10:11:48Z</time>
      </trkpt>
      <trkpt lat="-32.52603393048048" lon="27.973149754106998">
        <ele>317.37</ele>
        <time>2022-01-23T10:11:56Z</time>
      </trkpt>
      <trkpt lat="-32.52767133526504" lon="27.971801357343793">
        <ele>329.38999999999999</ele>
        <time>2022-01-23T10:12:03Z</time>
      </trkpt>
      <trkpt lat="-32.527916757389903" lon="27.971676299348474">
        <ele>330.82999999999998</ele>
        <time>2022-01-23T10:12:04Z</time>
      </trkpt>
      <trkpt lat="-32.528168130666018" lon="27.971581583842635">
        <ele>332.75</ele>
        <time>2022-01-23T10:12:05Z</time>
      </trkpt>
      <trkpt lat="-32.528437189757824" lon="27.971516456454992">
        <ele>334.68000000000001</ele>
        <time>2022-01-23T10:12:06Z</time>
      </trkpt>
      <trkpt lat="-32.52869987860322" lon="27.971484353765845">
        <ele>336.60000000000002</ele>
        <time>2022-01-23T10:12:07Z</time>
      </trkpt>
      <trkpt lat="-32.528966004028916" lon="27.97147530131042">
        <ele>338.51999999999998</ele>
        <time>2022-01-23T10:12:08Z</time>
      </trkpt>
      <trkpt lat="-32.529248222708702" lon="27.971482509747148">
        <ele>340.92000000000002</ele>
        <time>2022-01-23T10:12:09Z</time>
      </trkpt>
      <trkpt lat="-32.531135408207774" lon="27.971344627439976">
        <ele>354.86000000000001</ele>
        <time>2022-01-23T10:12:16Z</time>
      </trkpt>
      <trkpt lat="-32.532348856329918" lon="27.970591513440013">
        <ele>364.95999999999998</ele>
        <time>2022-01-23T10:12:21Z</time>
      </trkpt>
      <trkpt lat="-32.534396136179566" lon="27.968611791729927">
        <ele>383.22000000000003</ele>
        <time>2022-01-23T10:12:31Z</time>
      </trkpt>
      <trkpt lat="-32.535208761692047" lon="27.967817103490233">
        <ele>391.38999999999999</ele>
        <time>2022-01-23T10:12:37Z</time>
      </trkpt>
      <trkpt lat="-32.536298325285316" lon="27.967081256210804">
        <ele>399.56999999999999</ele>
        <time>2022-01-23T10:12:44Z</time>
      </trkpt>
      <trkpt lat="-32.537727272138" lon="27.966529810801148">
        <ele>410.13999999999999</ele>
        <time>2022-01-23T10:12:51Z</time>
      </trkpt>
      <trkpt lat="-32.537907734513283" lon="27.966409781947732">
        <ele>411.57999999999998</ele>
        <time>2022-01-23T10:12:52Z</time>
      </trkpt>
      <trkpt lat="-32.538071516901255" lon="27.966265026479959">
        <ele>413.5</ele>
        <time>2022-01-23T10:12:53Z</time>
      </trkpt>
      <trkpt lat="-32.538220630958676" lon="27.966083474457264">
        <ele>414.94999999999999</ele>
        <time>2022-01-23T10:12:54Z</time>
      </trkpt>
      <trkpt lat="-32.538340659812093" lon="27.965885074809194">
        <ele>416.38999999999999</ele>
        <time>2022-01-23T10:12:55Z</time>
      </trkpt>
      <trkpt lat="-32.538438979536295" lon="27.965665720403194">
        <ele>417.82999999999998</ele>
        <time>2022-01-23T10:12:56Z</time>
      </trkpt>
      <trkpt lat="-32.538524474948645" lon="27.965416610240936">
        <ele>419.75</ele>
        <time>2022-01-23T10:12:57Z</time>
      </trkpt>
      <trkpt lat="-32.538598151877522" lon="27.965169092640281">
        <ele>421.68000000000001</ele>
        <time>2022-01-23T10:12:58Z</time>
      </trkpt>
      <trkpt lat="-32.538767466321588" lon="27.964675733819604">
        <ele>425.04000000000002</ele>
        <time>2022-01-23T10:13:00Z</time>
      </trkpt>
      <trkpt lat="-32.538877855986357" lon="27.964456547051668">
        <ele>426.48000000000002</ele>
        <time>2022-01-23T10:13:01Z</time>
      </trkpt>
      <trkpt lat="-32.539009703323245" lon="27.964257476851344">
        <ele>428.39999999999998</ele>
        <time>2022-01-23T10:13:02Z</time>
      </trkpt>
      <trkpt lat="-32.539172479882836" lon="27.964080199599266">
        <ele>429.85000000000002</ele>
        <time>2022-01-23T10:13:03Z</time>
      </trkpt>
      <trkpt lat="-32.539351601153612" lon="27.963942401111126">
        <ele>431.29000000000002</ele>
        <time>2022-01-23T10:13:04Z</time>
      </trkpt>
      <trkpt lat="-32.539560897275805" lon="27.963836789131165">
        <ele>432.73000000000002</ele>
        <time>2022-01-23T10:13:05Z</time>
      </trkpt>
      <trkpt lat="-32.539778156206012" lon="27.963778115808964">
        <ele>434.17000000000002</ele>
        <time>2022-01-23T10:13:06Z</time>
      </trkpt>
      <trkpt lat="-32.540019890293479" lon="27.963757747784257">
        <ele>436.10000000000002</ele>
        <time>2022-01-23T10:13:07Z</time>
      </trkpt>
      <trkpt lat="-32.54025642760098" lon="27.963769063353539">
        <ele>437.54000000000002</ele>
        <time>2022-01-23T10:13:08Z</time>
      </trkpt>
      <trkpt lat="-32.540518781170249" lon="27.963796555995941">
        <ele>439.45999999999998</ele>
        <time>2022-01-23T10:13:09Z</time>
      </trkpt>
      <trkpt lat="-32.543360749259591" lon="27.963961847126484">
        <ele>463.49000000000001</ele>
        <time>2022-01-23T10:13:20Z</time>
      </trkpt>
      <trkpt lat="-32.546583758667111" lon="27.963910801336169">
        <ele>489.93000000000001</ele>
        <time>2022-01-23T10:13:32Z</time>
      </trkpt>
      <trkpt lat="-32.548169698566198" lon="27.963546523824334">
        <ele>502.91000000000003</ele>
        <time>2022-01-23T10:13:38Z</time>
      </trkpt>
      <trkpt lat="-32.548425849527121" lon="27.963547445833683">
        <ele>504.82999999999998</ele>
        <time>2022-01-23T10:13:39Z</time>
      </trkpt>
      <trkpt lat="-32.548693735152483" lon="27.963571334257722">
        <ele>507.23000000000002</ele>
        <time>2022-01-23T10:13:40Z</time>
      </trkpt>
      <trkpt lat="-32.548947120085359" lon="27.963615674525499">
        <ele>509.16000000000003</ele>
        <time>2022-01-23T10:13:41Z</time>
      </trkpt>
      <trkpt lat="-32.549196230247617" lon="27.963678706437349">
        <ele>511.07999999999998</ele>
        <time>2022-01-23T10:13:42Z</time>
      </trkpt>
      <trkpt lat="-32.549452297389507" lon="27.96376814134419">
        <ele>513</ele>
        <time>2022-01-23T10:13:43Z</time>
      </trkpt>
      <trkpt lat="-32.549687409773469" lon="27.963875764980912">
        <ele>515.39999999999998</ele>
        <time>2022-01-23T10:13:44Z</time>
      </trkpt>
      <trkpt lat="-32.549929898232222" lon="27.964011216536164">
        <ele>517.33000000000004</ele>
        <time>2022-01-23T10:13:45Z</time>
      </trkpt>
      <trkpt lat="-32.550152353942394" lon="27.964160414412618">
        <ele>519.25</ele>
        <time>2022-01-23T10:13:46Z</time>
      </trkpt>
      <trkpt lat="-32.550365924835205" lon="27.964329142123461">
        <ele>521.64999999999998</ele>
        <time>2022-01-23T10:13:47Z</time>
      </trkpt>
      <trkpt lat="-32.550570107996464" lon="27.964516645297408">
        <ele>523.58000000000004</ele>
        <time>2022-01-23T10:13:48Z</time>
      </trkpt>
      <trkpt lat="-32.550771441310644" lon="27.964731054380536">
        <ele>525.98000000000002</ele>
        <time>2022-01-23T10:13:49Z</time>
      </trkpt>
      <trkpt lat="-32.550954250618815" lon="27.964956108480692">
        <ele>527.89999999999998</ele>
        <time>2022-01-23T10:13:50Z</time>
      </trkpt>
      <trkpt lat="-32.55113085731864" lon="27.965207230299711">
        <ele>529.82000000000005</ele>
        <time>2022-01-23T10:13:51Z</time>
      </trkpt>
      <trkpt lat="-32.551281312480569" lon="27.965461201965809">
        <ele>532.23000000000002</ele>
        <time>2022-01-23T10:13:52Z</time>
      </trkpt>
      <trkpt lat="-32.551413327455521" lon="27.96573000960052">
        <ele>534.14999999999998</ele>
        <time>2022-01-23T10:13:53Z</time>
      </trkpt>
      <trkpt lat="-32.551534362137318" lon="27.966027399525046">
        <ele>536.07000000000005</ele>
        <time>2022-01-23T10:13:54Z</time>
      </trkpt>
      <trkpt lat="-32.551635783165693" lon="27.966317497193813">
        <ele>538.48000000000002</ele>
        <time>2022-01-23T10:13:55Z</time>
      </trkpt>
      <trkpt lat="-32.552509345114231" lon="27.968895267695189">
        <ele>556.25999999999999</ele>
        <time>2022-01-23T10:14:04Z</time>
      </trkpt>
      <trkpt lat="-32.55255083553493" lon="27.969197100028396">
        <ele>557.70000000000005</ele>
        <time>2022-01-23T10:14:05Z</time>
      </trkpt>
      <trkpt lat="-32.55256743170321" lon="27.969490047544241">
        <ele>559.13999999999999</ele>
        <time>2022-01-23T10:14:06Z</time>
      </trkpt>
      <trkpt lat="-32.55256743170321" lon="27.969788359478116">
        <ele>560.59000000000003</ele>
        <time>2022-01-23T10:14:07Z</time>
      </trkpt>
      <trkpt lat="-32.552560223266482" lon="27.970105698332191">
        <ele>562.02999999999997</ele>
        <time>2022-01-23T10:14:08Z</time>
      </trkpt>
      <trkpt lat="-32.552591236308217" lon="27.971308082342148">
        <ele>566.83000000000004</ele>
        <time>2022-01-23T10:14:12Z</time>
      </trkpt>
      <trkpt lat="-32.552642449736595" lon="27.971577057614923">
        <ele>568.27999999999997</ele>
        <time>2022-01-23T10:14:13Z</time>
      </trkpt>
      <trkpt lat="-32.552731214091182" lon="27.97187453135848">
        <ele>569.72000000000003</ele>
        <time>2022-01-23T10:14:14Z</time>
      </trkpt>
      <trkpt lat="-32.55283959209919" lon="27.972132191061974">
        <ele>570.67999999999995</ele>
        <time>2022-01-23T10:14:15Z</time>
      </trkpt>
      <trkpt lat="-32.552979486063123" lon="27.972388174384832">
        <ele>572.12</ele>
        <time>2022-01-23T10:14:16Z</time>
      </trkpt>
      <trkpt lat="-32.55313572473824" lon="27.97261574305594">
        <ele>573.55999999999995</ele>
        <time>2022-01-23T10:14:17Z</time>
      </trkpt>
      <trkpt lat="-32.553312247619033" lon="27.972818836569786">
        <ele>574.52999999999997</ele>
        <time>2022-01-23T10:14:18Z</time>
      </trkpt>
      <trkpt lat="-32.553516514599323" lon="27.973001394420862">
        <ele>575.49000000000001</ele>
        <time>2022-01-23T10:14:19Z</time>
      </trkpt>
      <trkpt lat="-32.553729079663754" lon="27.973146652802825">
        <ele>576.45000000000005</ele>
        <time>2022-01-23T10:14:20Z</time>
      </trkpt>
      <trkpt lat="-32.553941980004311" lon="27.973257880657911">
        <ele>576.45000000000005</ele>
        <time>2022-01-23T10:14:21Z</time>
      </trkpt>
      <trkpt lat="-32.554173991084099" lon="27.973348153755069">
        <ele>576.92999999999995</ele>
        <time>2022-01-23T10:14:22Z</time>
      </trkpt>
      <trkpt lat="-32.554434416815639" lon="27.973414873704314">
        <ele>577.40999999999997</ele>
        <time>2022-01-23T10:14:23Z</time>
      </trkpt>
      <trkpt lat="-32.554661147296429" lon="27.973445048555732">
        <ele>577.40999999999997</ele>
        <time>2022-01-23T10:14:24Z</time>
      </trkpt>
      <trkpt lat="-32.554924422875047" lon="27.973445383831859">
        <ele>577.88999999999999</ele>
        <time>2022-01-23T10:14:25Z</time>
      </trkpt>
      <trkpt lat="-32.555160541087389" lon="27.973411437124014">
        <ele>577.88999999999999</ele>
        <time>2022-01-23T10:14:26Z</time>
      </trkpt>
      <trkpt lat="-32.55537997931242" lon="27.973351590335369">
        <ele>577.88999999999999</ele>
        <time>2022-01-23T10:14:27Z</time>
      </trkpt>
      <trkpt lat="-32.555630765855312" lon="27.973249834030867">
        <ele>577.88999999999999</ele>
        <time>2022-01-23T10:14:28Z</time>
      </trkpt>
      <trkpt lat="-32.55583880469203" lon="27.973134163767099">
        <ele>577.88999999999999</ele>
        <time>2022-01-23T10:14:29Z</time>
      </trkpt>
      <trkpt lat="-32.556075928732753" lon="27.972969375550747">
        <ele>578.37</ele>
        <time>2022-01-23T10:14:30Z</time>
      </trkpt>
      <trkpt lat="-32.556283129379153" lon="27.972795451059937">
        <ele>578.37</ele>
        <time>2022-01-23T10:14:31Z</time>
      </trkpt>
      <trkpt lat="-32.556476416066289" lon="27.972614988684654">
        <ele>577.88999999999999</ele>
        <time>2022-01-23T10:14:32Z</time>
      </trkpt>
      <trkpt lat="-32.558516319841146" lon="27.970625376328826">
        <ele>578.85000000000002</ele>
        <time>2022-01-23T10:14:41Z</time>
      </trkpt>
    </trkseg>
  </trk>

</gpx>