<?xml version="1.0" encoding="utf-8"?><gpx creator="Garmin Desktop App" version="1.1" xsi:schemaLocation="http://www.topografix.com/GPX/1/1 http://www.topografix.com/GPX/1/1/gpx.xsd http://www.garmin.com/xmlschemas/WaypointExtension/v1 http://www8.garmin.com/xmlschemas/WaypointExtensionv1.xsd http://www.garmin.com/xmlschemas/TrackPointExtension/v1 http://www.garmin.com/xmlschemas/TrackPointExtensionv1.xsd http://www.garmin.com/xmlschemas/GpxExtensions/v3 http://www8.garmin.com/xmlschemas/GpxExtensionsv3.xsd http://www.garmin.com/xmlschemas/ActivityExtension/v1 http://www8.garmin.com/xmlschemas/ActivityExtensionv1.xsd http://www.garmin.com/xmlschemas/AdventuresExtensions/v1 http://www8.garmin.com/xmlschemas/AdventuresExtensionv1.xsd http://www.garmin.com/xmlschemas/PressureExtension/v1 http://www.garmin.com/xmlschemas/PressureExtensionv1.xsd http://www.garmin.com/xmlschemas/TripExtensions/v1 http://www.garmin.com/xmlschemas/TripExtensionsv1.xsd http://www.garmin.com/xmlschemas/TripMetaDataExtensions/v1 http://www.garmin.com/xmlschemas/TripMetaDataExtensionsv1.xsd http://www.garmin.com/xmlschemas/ViaPointTransportationModeExtensions/v1 http://www.garmin.com/xmlschemas/ViaPointTransportationModeExtensionsv1.xsd http://www.garmin.com/xmlschemas/CreationTimeExtension/v1 http://www.garmin.com/xmlschemas/CreationTimeExtensionsv1.xsd http://www.garmin.com/xmlschemas/AccelerationExtension/v1 http://www.garmin.com/xmlschemas/AccelerationExtensionv1.xsd http://www.garmin.com/xmlschemas/PowerExtension/v1 http://www.garmin.com/xmlschemas/PowerExtensionv1.xsd http://www.garmin.com/xmlschemas/VideoExtension/v1 http://www.garmin.com/xmlschemas/VideoExtensionv1.xsd" xmlns="http://www.topografix.com/GPX/1/1" xmlns:xsi="http://www.w3.org/2001/XMLSchema-instance" xmlns:wptx1="http://www.garmin.com/xmlschemas/WaypointExtension/v1" xmlns:gpxtrx="http://www.garmin.com/xmlschemas/GpxExtensions/v3" xmlns:gpxtpx="http://www.garmin.com/xmlschemas/TrackPointExtension/v1" xmlns:gpxx="http://www.garmin.com/xmlschemas/GpxExtensions/v3" xmlns:trp="http://www.garmin.com/xmlschemas/TripExtensions/v1" xmlns:adv="http://www.garmin.com/xmlschemas/AdventuresExtensions/v1" xmlns:prs="http://www.garmin.com/xmlschemas/PressureExtension/v1" xmlns:tmd="http://www.garmin.com/xmlschemas/TripMetaDataExtensions/v1" xmlns:vptm="http://www.garmin.com/xmlschemas/ViaPointTransportationModeExtensions/v1" xmlns:ctx="http://www.garmin.com/xmlschemas/CreationTimeExtension/v1" xmlns:gpxacc="http://www.garmin.com/xmlschemas/AccelerationExtension/v1" xmlns:gpxpx="http://www.garmin.com/xmlschemas/PowerExtension/v1" xmlns:vidx1="http://www.garmin.com/xmlschemas/VideoExtension/v1">

  <metadata>
    <link href="http://www.garmin.com">
      <text>Garmin International</text>
    </link>
    <time>2022-07-02T19:25:28Z</time>
    <bounds maxlat="-33.692054813727736" maxlon="24.624282214790583" minlat="-33.744188910350204" minlon="24.590881168842316" />
  </metadata>

  <trk>
    <name>[244] Grootrivier Poort</name>
    <extensions>
      <gpxx:TrackExtension>
        <gpxx:DisplayColor>Red</gpxx:DisplayColor>
      </gpxx:TrackExtension>
    </extensions>
    <trkseg>
      <trkpt lat="-33.74416577629745" lon="24.618045575916767">
        <ele>108.29000000000001</ele>
        <time>2022-01-26T04:41:25Z</time>
      </trkpt>
      <trkpt lat="-33.744184216484427" lon="24.617953207343817">
        <ele>109.25</ele>
        <time>2022-01-26T04:41:26Z</time>
      </trkpt>
      <trkpt lat="-33.744188910350204" lon="24.617870058864355">
        <ele>109.73</ele>
        <time>2022-01-26T04:41:27Z</time>
      </trkpt>
      <trkpt lat="-33.744178600609303" lon="24.617791939526796">
        <ele>109.73</ele>
        <time>2022-01-26T04:41:28Z</time>
      </trkpt>
      <trkpt lat="-33.744154125452042" lon="24.617711557075381">
        <ele>109.73</ele>
        <time>2022-01-26T04:41:29Z</time>
      </trkpt>
      <trkpt lat="-33.744115987792611" lon="24.617623966187239">
        <ele>109.73</ele>
        <time>2022-01-26T04:41:30Z</time>
      </trkpt>
      <trkpt lat="-33.743672836571932" lon="24.616911923512816">
        <ele>104.44</ele>
        <time>2022-01-26T04:41:38Z</time>
      </trkpt>
      <trkpt lat="-33.742946293205023" lon="24.616260146722198">
        <ele>101.56</ele>
        <time>2022-01-26T04:41:45Z</time>
      </trkpt>
      <trkpt lat="-33.741663107648492" lon="24.615299664437771">
        <ele>97.709999999999994</ele>
        <time>2022-01-26T04:41:57Z</time>
      </trkpt>
      <trkpt lat="-33.740050010383129" lon="24.614576306194067">
        <ele>94.829999999999998</ele>
        <time>2022-01-26T04:42:12Z</time>
      </trkpt>
      <trkpt lat="-33.739079050719738" lon="24.614535151049495">
        <ele>94.829999999999998</ele>
        <time>2022-01-26T04:42:18Z</time>
      </trkpt>
      <trkpt lat="-33.738015806302428" lon="24.614420402795076">
        <ele>95.310000000000002</ele>
        <time>2022-01-26T04:42:25Z</time>
      </trkpt>
      <trkpt lat="-33.736529275774956" lon="24.614386120811105">
        <ele>96.269999999999996</ele>
        <time>2022-01-26T04:42:35Z</time>
      </trkpt>
      <trkpt lat="-33.735531577840447" lon="24.614511178806424">
        <ele>96.269999999999996</ele>
        <time>2022-01-26T04:42:43Z</time>
      </trkpt>
      <trkpt lat="-33.734547793865204" lon="24.614945026114583">
        <ele>92.900000000000006</ele>
        <time>2022-01-26T04:42:52Z</time>
      </trkpt>
      <trkpt lat="-33.733650678768754" lon="24.615655727684498">
        <ele>91.939999999999998</ele>
        <time>2022-01-26T04:43:01Z</time>
      </trkpt>
      <trkpt lat="-33.732755407691002" lon="24.616285040974617">
        <ele>90.5</ele>
        <time>2022-01-26T04:43:10Z</time>
      </trkpt>
      <trkpt lat="-33.732583662495017" lon="24.616411188617349">
        <ele>90.5</ele>
        <time>2022-01-26T04:43:12Z</time>
      </trkpt>
      <trkpt lat="-33.732509147375822" lon="24.61649090051651">
        <ele>90.5</ele>
        <time>2022-01-26T04:43:13Z</time>
      </trkpt>
      <trkpt lat="-33.732434799894691" lon="24.616584358736873">
        <ele>90.5</ele>
        <time>2022-01-26T04:43:14Z</time>
      </trkpt>
      <trkpt lat="-33.732074461877346" lon="24.617105545476079">
        <ele>92.420000000000002</ele>
        <time>2022-01-26T04:43:19Z</time>
      </trkpt>
      <trkpt lat="-33.731760894879699" lon="24.617450796067715">
        <ele>94.349999999999994</ele>
        <time>2022-01-26T04:43:23Z</time>
      </trkpt>
      <trkpt lat="-33.731687637045979" lon="24.617537800222635">
        <ele>94.829999999999998</ele>
        <time>2022-01-26T04:43:24Z</time>
      </trkpt>
      <trkpt lat="-33.731002165004611" lon="24.618225367739797">
        <ele>96.75</ele>
        <time>2022-01-26T04:43:32Z</time>
      </trkpt>
      <trkpt lat="-33.730901163071394" lon="24.618284627795219">
        <ele>96.75</ele>
        <time>2022-01-26T04:43:33Z</time>
      </trkpt>
      <trkpt lat="-33.730801669880748" lon="24.618329722434282">
        <ele>96.75</ele>
        <time>2022-01-26T04:43:34Z</time>
      </trkpt>
      <trkpt lat="-33.730416772887111" lon="24.618485709652305">
        <ele>96.269999999999996</ele>
        <time>2022-01-26T04:43:38Z</time>
      </trkpt>
      <trkpt lat="-33.729697018861771" lon="24.619167409837246">
        <ele>97.230000000000004</ele>
        <time>2022-01-26T04:43:46Z</time>
      </trkpt>
      <trkpt lat="-33.728966284543276" lon="24.619786497205496">
        <ele>98.670000000000002</ele>
        <time>2022-01-26T04:43:55Z</time>
      </trkpt>
      <trkpt lat="-33.728142511099577" lon="24.620216405019164">
        <ele>98.670000000000002</ele>
        <time>2022-01-26T04:44:02Z</time>
      </trkpt>
      <trkpt lat="-33.727264003828168" lon="24.620377589017153">
        <ele>98.189999999999998</ele>
        <time>2022-01-26T04:44:10Z</time>
      </trkpt>
      <trkpt lat="-33.72708915732801" lon="24.620388653129339">
        <ele>98.670000000000002</ele>
        <time>2022-01-26T04:44:12Z</time>
      </trkpt>
      <trkpt lat="-33.726101852953434" lon="24.620354035869241">
        <ele>98.670000000000002</ele>
        <time>2022-01-26T04:44:22Z</time>
      </trkpt>
      <trkpt lat="-33.725155787542462" lon="24.620241215452552">
        <ele>97.230000000000004</ele>
        <time>2022-01-26T04:44:31Z</time>
      </trkpt>
      <trkpt lat="-33.724049292504787" lon="24.619902251288295">
        <ele>98.670000000000002</ele>
        <time>2022-01-26T04:44:41Z</time>
      </trkpt>
      <trkpt lat="-33.722990071401" lon="24.619848690927029">
        <ele>99.150000000000006</ele>
        <time>2022-01-26T04:44:50Z</time>
      </trkpt>
      <trkpt lat="-33.722885716706514" lon="24.619866628199816">
        <ele>98.670000000000002</ele>
        <time>2022-01-26T04:44:51Z</time>
      </trkpt>
      <trkpt lat="-33.722781110554934" lon="24.619896970689297">
        <ele>98.670000000000002</ele>
        <time>2022-01-26T04:44:52Z</time>
      </trkpt>
      <trkpt lat="-33.722676169127226" lon="24.619938880205154">
        <ele>98.670000000000002</ele>
        <time>2022-01-26T04:44:53Z</time>
      </trkpt>
      <trkpt lat="-33.722570557147264" lon="24.619988584890962">
        <ele>98.670000000000002</ele>
        <time>2022-01-26T04:44:54Z</time>
      </trkpt>
      <trkpt lat="-33.722089435905218" lon="24.620201988145709">
        <ele>99.150000000000006</ele>
        <time>2022-01-26T04:44:59Z</time>
      </trkpt>
      <trkpt lat="-33.722016261890531" lon="24.620263427495956">
        <ele>99.150000000000006</ele>
        <time>2022-01-26T04:45:00Z</time>
      </trkpt>
      <trkpt lat="-33.721948703750968" lon="24.6203388646245">
        <ele>99.150000000000006</ele>
        <time>2022-01-26T04:45:01Z</time>
      </trkpt>
      <trkpt lat="-33.721886426210403" lon="24.620428886264563">
        <ele>99.629999999999995</ele>
        <time>2022-01-26T04:45:02Z</time>
      </trkpt>
      <trkpt lat="-33.721828423440456" lon="24.620528127998114">
        <ele>99.629999999999995</ele>
        <time>2022-01-26T04:45:03Z</time>
      </trkpt>
      <trkpt lat="-33.721762541681528" lon="24.620649414137006">
        <ele>99.629999999999995</ele>
        <time>2022-01-26T04:45:04Z</time>
      </trkpt>
      <trkpt lat="-33.721620887517929" lon="24.62097697891295">
        <ele>99.629999999999995</ele>
        <time>2022-01-26T04:45:07Z</time>
      </trkpt>
      <trkpt lat="-33.721163822337985" lon="24.621983729302883">
        <ele>100.11</ele>
        <time>2022-01-26T04:45:16Z</time>
      </trkpt>
      <trkpt lat="-33.720365529879928" lon="24.623334975913167">
        <ele>103.95999999999999</ele>
        <time>2022-01-26T04:45:30Z</time>
      </trkpt>
      <trkpt lat="-33.720200071111321" lon="24.623520886525512">
        <ele>103.95999999999999</ele>
        <time>2022-01-26T04:45:33Z</time>
      </trkpt>
      <trkpt lat="-33.720138715580106" lon="24.623568411916494">
        <ele>103.48</ele>
        <time>2022-01-26T04:45:34Z</time>
      </trkpt>
      <trkpt lat="-33.720072750002146" lon="24.623606214299798">
        <ele>103</ele>
        <time>2022-01-26T04:45:35Z</time>
      </trkpt>
      <trkpt lat="-33.720002425834537" lon="24.62363513186574">
        <ele>102.52</ele>
        <time>2022-01-26T04:45:36Z</time>
      </trkpt>
      <trkpt lat="-33.719932269304991" lon="24.623660445213318">
        <ele>102.52</ele>
        <time>2022-01-26T04:45:37Z</time>
      </trkpt>
      <trkpt lat="-33.719186615198851" lon="24.623909974470735">
        <ele>101.08</ele>
        <time>2022-01-26T04:45:44Z</time>
      </trkpt>
      <trkpt lat="-33.717848360538483" lon="24.624165119603276">
        <ele>101.56</ele>
        <time>2022-01-26T04:45:56Z</time>
      </trkpt>
      <trkpt lat="-33.716503065079451" lon="24.624282214790583">
        <ele>103.48</ele>
        <time>2022-01-26T04:46:09Z</time>
      </trkpt>
      <trkpt lat="-33.715269835665822" lon="24.624267378821969">
        <ele>104.92</ele>
        <time>2022-01-26T04:46:20Z</time>
      </trkpt>
      <trkpt lat="-33.713988577947021" lon="24.624140141531825">
        <ele>105.88</ele>
        <time>2022-01-26T04:46:32Z</time>
      </trkpt>
      <trkpt lat="-33.713871147483587" lon="24.624140895903111">
        <ele>105.88</ele>
        <time>2022-01-26T04:46:33Z</time>
      </trkpt>
      <trkpt lat="-33.712702794000506" lon="24.624187080189586">
        <ele>105.88</ele>
        <time>2022-01-26T04:46:42Z</time>
      </trkpt>
      <trkpt lat="-33.711767205968499" lon="24.623986585065722">
        <ele>103</ele>
        <time>2022-01-26T04:46:50Z</time>
      </trkpt>
      <trkpt lat="-33.710290566086769" lon="24.623717777431011">
        <ele>100.11</ele>
        <time>2022-01-26T04:47:01Z</time>
      </trkpt>
      <trkpt lat="-33.709257328882813" lon="24.623622726649046">
        <ele>100.11</ele>
        <time>2022-01-26T04:47:08Z</time>
      </trkpt>
      <trkpt lat="-33.70846314355731" lon="24.623417621478438">
        <ele>99.150000000000006</ele>
        <time>2022-01-26T04:47:16Z</time>
      </trkpt>
      <trkpt lat="-33.707474498078227" lon="24.623222909867764">
        <ele>98.189999999999998</ele>
        <time>2022-01-26T04:47:25Z</time>
      </trkpt>
      <trkpt lat="-33.706649802625179" lon="24.623043285682797">
        <ele>99.150000000000006</ele>
        <time>2022-01-26T04:47:33Z</time>
      </trkpt>
      <trkpt lat="-33.706571683287621" lon="24.623013362288475">
        <ele>99.150000000000006</ele>
        <time>2022-01-26T04:47:34Z</time>
      </trkpt>
      <trkpt lat="-33.706490630283952" lon="24.622973129153252">
        <ele>99.150000000000006</ele>
        <time>2022-01-26T04:47:35Z</time>
      </trkpt>
      <trkpt lat="-33.70640940964222" lon="24.622923843562603">
        <ele>99.150000000000006</ele>
        <time>2022-01-26T04:47:36Z</time>
      </trkpt>
      <trkpt lat="-33.706321064382792" lon="24.622865086421371">
        <ele>99.150000000000006</ele>
        <time>2022-01-26T04:47:37Z</time>
      </trkpt>
      <trkpt lat="-33.706167256459594" lon="24.622739609330893">
        <ele>99.629999999999995</ele>
        <time>2022-01-26T04:47:39Z</time>
      </trkpt>
      <trkpt lat="-33.706109588965774" lon="24.622674733400345">
        <ele>99.629999999999995</ele>
        <time>2022-01-26T04:47:40Z</time>
      </trkpt>
      <trkpt lat="-33.706061393022537" lon="24.622610192745924">
        <ele>99.629999999999995</ele>
        <time>2022-01-26T04:47:41Z</time>
      </trkpt>
      <trkpt lat="-33.705682447180152" lon="24.621825227513909">
        <ele>99.150000000000006</ele>
        <time>2022-01-26T04:47:49Z</time>
      </trkpt>
      <trkpt lat="-33.705524867400527" lon="24.621186107397079">
        <ele>99.629999999999995</ele>
        <time>2022-01-26T04:47:54Z</time>
      </trkpt>
      <trkpt lat="-33.705519000068307" lon="24.621060797944665">
        <ele>100.11</ele>
        <time>2022-01-26T04:47:55Z</time>
      </trkpt>
      <trkpt lat="-33.705576751381159" lon="24.620252950116992">
        <ele>100.11</ele>
        <time>2022-01-26T04:48:01Z</time>
      </trkpt>
      <trkpt lat="-33.705610111355782" lon="24.620142141357064">
        <ele>100.11</ele>
        <time>2022-01-26T04:48:02Z</time>
      </trkpt>
      <trkpt lat="-33.705655876547098" lon="24.620031667873263">
        <ele>100.59999999999999</ele>
        <time>2022-01-26T04:48:03Z</time>
      </trkpt>
      <trkpt lat="-33.706168932840228" lon="24.61878695525229">
        <ele>102.52</ele>
        <time>2022-01-26T04:48:13Z</time>
      </trkpt>
      <trkpt lat="-33.706372361630201" lon="24.618439609184861">
        <ele>102.52</ele>
        <time>2022-01-26T04:48:16Z</time>
      </trkpt>
      <trkpt lat="-33.707071496173739" lon="24.617378627881408">
        <ele>103.48</ele>
        <time>2022-01-26T04:48:26Z</time>
      </trkpt>
      <trkpt lat="-33.707569884136319" lon="24.616121845319867">
        <ele>103</ele>
        <time>2022-01-26T04:48:36Z</time>
      </trkpt>
      <trkpt lat="-33.707742551341653" lon="24.61496002972126">
        <ele>101.08</ele>
        <time>2022-01-26T04:48:46Z</time>
      </trkpt>
      <trkpt lat="-33.707712879404426" lon="24.61365832015872">
        <ele>101.08</ele>
        <time>2022-01-26T04:48:55Z</time>
      </trkpt>
      <trkpt lat="-33.707684297114611" lon="24.612103393301368">
        <ele>100.59999999999999</ele>
        <time>2022-01-26T04:49:06Z</time>
      </trkpt>
      <trkpt lat="-33.707516910508275" lon="24.611511882394552">
        <ele>99.629999999999995</ele>
        <time>2022-01-26T04:49:11Z</time>
      </trkpt>
      <trkpt lat="-33.707466535270214" lon="24.611419262364507">
        <ele>99.629999999999995</ele>
        <time>2022-01-26T04:49:12Z</time>
      </trkpt>
      <trkpt lat="-33.70741305872798" lon="24.611333264037967">
        <ele>99.629999999999995</ele>
        <time>2022-01-26T04:49:13Z</time>
      </trkpt>
      <trkpt lat="-33.707351116463542" lon="24.611250786110759">
        <ele>99.150000000000006</ele>
        <time>2022-01-26T04:49:14Z</time>
      </trkpt>
      <trkpt lat="-33.707281798124313" lon="24.611174426972866">
        <ele>99.150000000000006</ele>
        <time>2022-01-26T04:49:15Z</time>
      </trkpt>
      <trkpt lat="-33.707209462299943" lon="24.611107790842652">
        <ele>99.150000000000006</ele>
        <time>2022-01-26T04:49:16Z</time>
      </trkpt>
      <trkpt lat="-33.707131762057543" lon="24.611051799729466">
        <ele>98.670000000000002</ele>
        <time>2022-01-26T04:49:17Z</time>
      </trkpt>
      <trkpt lat="-33.707045596092939" lon="24.61100310087204">
        <ele>98.670000000000002</ele>
        <time>2022-01-26T04:49:18Z</time>
      </trkpt>
      <trkpt lat="-33.706949288025498" lon="24.610963286831975">
        <ele>98.670000000000002</ele>
        <time>2022-01-26T04:49:19Z</time>
      </trkpt>
      <trkpt lat="-33.706839149817824" lon="24.610925484448671">
        <ele>98.670000000000002</ele>
        <time>2022-01-26T04:49:20Z</time>
      </trkpt>
      <trkpt lat="-33.705703988671303" lon="24.610551903024316">
        <ele>99.150000000000006</ele>
        <time>2022-01-26T04:49:28Z</time>
      </trkpt>
      <trkpt lat="-33.704625153914094" lon="24.6100830193609">
        <ele>103.95999999999999</ele>
        <time>2022-01-26T04:49:38Z</time>
      </trkpt>
      <trkpt lat="-33.704184852540493" lon="24.609992410987616">
        <ele>104.92</ele>
        <time>2022-01-26T04:49:42Z</time>
      </trkpt>
      <trkpt lat="-33.703203247860074" lon="24.610273456200957">
        <ele>104.44</ele>
        <time>2022-01-26T04:49:51Z</time>
      </trkpt>
      <trkpt lat="-33.703116662800312" lon="24.610328190028667">
        <ele>104.44</ele>
        <time>2022-01-26T04:49:52Z</time>
      </trkpt>
      <trkpt lat="-33.703037705272436" lon="24.610394658520818">
        <ele>104.44</ele>
        <time>2022-01-26T04:49:53Z</time>
      </trkpt>
      <trkpt lat="-33.702963273972273" lon="24.61047294549644">
        <ele>104.44</ele>
        <time>2022-01-26T04:49:54Z</time>
      </trkpt>
      <trkpt lat="-33.70288741774857" lon="24.610566738992929">
        <ele>104.44</ele>
        <time>2022-01-26T04:49:55Z</time>
      </trkpt>
      <trkpt lat="-33.70281457901001" lon="24.610671680420637">
        <ele>103.95999999999999</ele>
        <time>2022-01-26T04:49:56Z</time>
      </trkpt>
      <trkpt lat="-33.702741740271449" lon="24.610790032893419">
        <ele>103.95999999999999</ele>
        <time>2022-01-26T04:49:57Z</time>
      </trkpt>
      <trkpt lat="-33.702669907361269" lon="24.6109205391258">
        <ele>103.95999999999999</ele>
        <time>2022-01-26T04:49:58Z</time>
      </trkpt>
      <trkpt lat="-33.702072780579329" lon="24.612193079665303">
        <ele>104.44</ele>
        <time>2022-01-26T04:50:06Z</time>
      </trkpt>
      <trkpt lat="-33.701805397868156" lon="24.613151801750064">
        <ele>104.92</ele>
        <time>2022-01-26T04:50:13Z</time>
      </trkpt>
      <trkpt lat="-33.701710850000381" lon="24.614288052543998">
        <ele>104.92</ele>
        <time>2022-01-26T04:50:22Z</time>
      </trkpt>
      <trkpt lat="-33.701665755361319" lon="24.615722699090838">
        <ele>105.40000000000001</ele>
        <time>2022-01-26T04:50:32Z</time>
      </trkpt>
      <trkpt lat="-33.701628288254142" lon="24.615973066538572">
        <ele>105.40000000000001</ele>
        <time>2022-01-26T04:50:34Z</time>
      </trkpt>
      <trkpt lat="-33.701597526669502" lon="24.616091419011354">
        <ele>105.40000000000001</ele>
        <time>2022-01-26T04:50:35Z</time>
      </trkpt>
      <trkpt lat="-33.701557461172342" lon="24.61621580645442">
        <ele>105.40000000000001</ele>
        <time>2022-01-26T04:50:36Z</time>
      </trkpt>
      <trkpt lat="-33.701508929952979" lon="24.616343127563596">
        <ele>104.92</ele>
        <time>2022-01-26T04:50:37Z</time>
      </trkpt>
      <trkpt lat="-33.701451346278191" lon="24.616468604654074">
        <ele>104.92</ele>
        <time>2022-01-26T04:50:38Z</time>
      </trkpt>
      <trkpt lat="-33.701385632157326" lon="24.616587124764919">
        <ele>104.44</ele>
        <time>2022-01-26T04:50:39Z</time>
      </trkpt>
      <trkpt lat="-33.701314050704241" lon="24.616698939353228">
        <ele>103.95999999999999</ele>
        <time>2022-01-26T04:50:40Z</time>
      </trkpt>
      <trkpt lat="-33.700937116518617" lon="24.617275949567556">
        <ele>104.44</ele>
        <time>2022-01-26T04:50:46Z</time>
      </trkpt>
      <trkpt lat="-33.700870564207435" lon="24.617360522970557">
        <ele>104.92</ele>
        <time>2022-01-26T04:50:47Z</time>
      </trkpt>
      <trkpt lat="-33.700796635821462" lon="24.617441324517131">
        <ele>104.92</ele>
        <time>2022-01-26T04:50:48Z</time>
      </trkpt>
      <trkpt lat="-33.700714325532317" lon="24.61751651018858">
        <ele>105.40000000000001</ele>
        <time>2022-01-26T04:50:49Z</time>
      </trkpt>
      <trkpt lat="-33.700626147910953" lon="24.617581469938159">
        <ele>105.40000000000001</ele>
        <time>2022-01-26T04:50:50Z</time>
      </trkpt>
      <trkpt lat="-33.700532102957368" lon="24.617636706680059">
        <ele>105.40000000000001</ele>
        <time>2022-01-26T04:50:51Z</time>
      </trkpt>
      <trkpt lat="-33.700432693585753" lon="24.61768414825201">
        <ele>105.40000000000001</ele>
        <time>2022-01-26T04:50:52Z</time>
      </trkpt>
      <trkpt lat="-33.70032699778676" lon="24.617725973948836">
        <ele>105.40000000000001</ele>
        <time>2022-01-26T04:50:53Z</time>
      </trkpt>
      <trkpt lat="-33.700218535959721" lon="24.617762016132474">
        <ele>105.88</ele>
        <time>2022-01-26T04:50:54Z</time>
      </trkpt>
      <trkpt lat="-33.699793741106987" lon="24.617845751345158">
        <ele>106.36</ele>
        <time>2022-01-26T04:50:58Z</time>
      </trkpt>
      <trkpt lat="-33.699684860184789" lon="24.617840554565191">
        <ele>106.84</ele>
        <time>2022-01-26T04:50:59Z</time>
      </trkpt>
      <trkpt lat="-33.699572877958417" lon="24.617822114378214">
        <ele>106.84</ele>
        <time>2022-01-26T04:51:00Z</time>
      </trkpt>
      <trkpt lat="-33.699459554627538" lon="24.617791939526796">
        <ele>106.84</ele>
        <time>2022-01-26T04:51:01Z</time>
      </trkpt>
      <trkpt lat="-33.699346566572785" lon="24.617745419964194">
        <ele>106.84</ele>
        <time>2022-01-26T04:51:02Z</time>
      </trkpt>
      <trkpt lat="-33.699236428365111" lon="24.617683226242661">
        <ele>106.84</ele>
        <time>2022-01-26T04:51:03Z</time>
      </trkpt>
      <trkpt lat="-33.699129894375801" lon="24.617606280371547">
        <ele>106.84</ele>
        <time>2022-01-26T04:51:04Z</time>
      </trkpt>
      <trkpt lat="-33.699026210233569" lon="24.617517180740833">
        <ele>106.84</ele>
        <time>2022-01-26T04:51:05Z</time>
      </trkpt>
      <trkpt lat="-33.698922023177147" lon="24.617421710863709">
        <ele>106.84</ele>
        <time>2022-01-26T04:51:06Z</time>
      </trkpt>
      <trkpt lat="-33.697914183139801" lon="24.61635310202837">
        <ele>107.31999999999999</ele>
        <time>2022-01-26T04:51:16Z</time>
      </trkpt>
      <trkpt lat="-33.697840590029955" lon="24.616235587745905">
        <ele>106.84</ele>
        <time>2022-01-26T04:51:17Z</time>
      </trkpt>
      <trkpt lat="-33.697775797918439" lon="24.616109943017364">
        <ele>106.84</ele>
        <time>2022-01-26T04:51:18Z</time>
      </trkpt>
      <trkpt lat="-33.697717376053333" lon="24.615971893072128">
        <ele>106.84</ele>
        <time>2022-01-26T04:51:19Z</time>
      </trkpt>
      <trkpt lat="-33.697320744395256" lon="24.614752912893891">
        <ele>107.81</ele>
        <time>2022-01-26T04:51:26Z</time>
      </trkpt>
      <trkpt lat="-33.696907181292772" lon="24.613531250506639">
        <ele>106.84</ele>
        <time>2022-01-26T04:51:35Z</time>
      </trkpt>
      <trkpt lat="-33.69662462733686" lon="24.612936973571777">
        <ele>102.52</ele>
        <time>2022-01-26T04:51:41Z</time>
      </trkpt>
      <trkpt lat="-33.696550196036696" lon="24.612853489816189">
        <ele>101.56</ele>
        <time>2022-01-26T04:51:42Z</time>
      </trkpt>
      <trkpt lat="-33.696466963738203" lon="24.612777382135391">
        <ele>101.08</ele>
        <time>2022-01-26T04:51:43Z</time>
      </trkpt>
      <trkpt lat="-33.696374008432031" lon="24.612709488719702">
        <ele>100.59999999999999</ele>
        <time>2022-01-26T04:51:44Z</time>
      </trkpt>
      <trkpt lat="-33.696270911023021" lon="24.612648636102676">
        <ele>100.11</ele>
        <time>2022-01-26T04:51:45Z</time>
      </trkpt>
      <trkpt lat="-33.69615507312119" lon="24.612583927810192">
        <ele>99.629999999999995</ele>
        <time>2022-01-26T04:51:46Z</time>
      </trkpt>
      <trkpt lat="-33.695844188332558" lon="24.612383265048265">
        <ele>99.150000000000006</ele>
        <time>2022-01-26T04:51:49Z</time>
      </trkpt>
      <trkpt lat="-33.695777133107185" lon="24.612318724393845">
        <ele>99.150000000000006</ele>
        <time>2022-01-26T04:51:50Z</time>
      </trkpt>
      <trkpt lat="-33.695704294368625" lon="24.612236497923732">
        <ele>98.670000000000002</ele>
        <time>2022-01-26T04:51:51Z</time>
      </trkpt>
      <trkpt lat="-33.694763844832778" lon="24.610926071181893">
        <ele>99.150000000000006</ele>
        <time>2022-01-26T04:52:04Z</time>
      </trkpt>
      <trkpt lat="-33.694021543487906" lon="24.609564850106835">
        <ele>108.77</ele>
        <time>2022-01-26T04:52:14Z</time>
      </trkpt>
      <trkpt lat="-33.693675538524985" lon="24.608192145824432">
        <ele>115.01000000000001</ele>
        <time>2022-01-26T04:52:23Z</time>
      </trkpt>
      <trkpt lat="-33.693635975942016" lon="24.606712488457561">
        <ele>115.5</ele>
        <time>2022-01-26T04:52:32Z</time>
      </trkpt>
      <trkpt lat="-33.693439504131675" lon="24.60467048920691">
        <ele>110.69</ele>
        <time>2022-01-26T04:52:44Z</time>
      </trkpt>
      <trkpt lat="-33.693246385082603" lon="24.602063968777657">
        <ele>109.73</ele>
        <time>2022-01-26T04:52:59Z</time>
      </trkpt>
      <trkpt lat="-33.693259209394455" lon="24.599399697035551">
        <ele>109.73</ele>
        <time>2022-01-26T04:53:14Z</time>
      </trkpt>
      <trkpt lat="-33.693119315430522" lon="24.596653282642365">
        <ele>110.20999999999999</ele>
        <time>2022-01-26T04:53:30Z</time>
      </trkpt>
      <trkpt lat="-33.693062486127019" lon="24.595253756269813">
        <ele>108.29000000000001</ele>
        <time>2022-01-26T04:53:39Z</time>
      </trkpt>
      <trkpt lat="-33.692746991291642" lon="24.593075970187783">
        <ele>107.31999999999999</ele>
        <time>2022-01-26T04:53:51Z</time>
      </trkpt>
      <trkpt lat="-33.69238237850368" lon="24.591626822948456">
        <ele>106.36</ele>
        <time>2022-01-26T04:54:01Z</time>
      </trkpt>
      <trkpt lat="-33.692054813727736" lon="24.590881168842316">
        <ele>106.84</ele>
        <time>2022-01-26T04:54:10Z</time>
      </trkpt>
    </trkseg>
  </trk>

</gpx>