<?xml version="1.0" encoding="utf-8"?><gpx creator="Garmin Desktop App" version="1.1" xsi:schemaLocation="http://www.topografix.com/GPX/1/1 http://www.topografix.com/GPX/1/1/gpx.xsd http://www.garmin.com/xmlschemas/WaypointExtension/v1 http://www8.garmin.com/xmlschemas/WaypointExtensionv1.xsd http://www.garmin.com/xmlschemas/TrackPointExtension/v1 http://www.garmin.com/xmlschemas/TrackPointExtensionv1.xsd http://www.garmin.com/xmlschemas/GpxExtensions/v3 http://www8.garmin.com/xmlschemas/GpxExtensionsv3.xsd http://www.garmin.com/xmlschemas/ActivityExtension/v1 http://www8.garmin.com/xmlschemas/ActivityExtensionv1.xsd http://www.garmin.com/xmlschemas/AdventuresExtensions/v1 http://www8.garmin.com/xmlschemas/AdventuresExtensionv1.xsd http://www.garmin.com/xmlschemas/PressureExtension/v1 http://www.garmin.com/xmlschemas/PressureExtensionv1.xsd http://www.garmin.com/xmlschemas/TripExtensions/v1 http://www.garmin.com/xmlschemas/TripExtensionsv1.xsd http://www.garmin.com/xmlschemas/TripMetaDataExtensions/v1 http://www.garmin.com/xmlschemas/TripMetaDataExtensionsv1.xsd http://www.garmin.com/xmlschemas/ViaPointTransportationModeExtensions/v1 http://www.garmin.com/xmlschemas/ViaPointTransportationModeExtensionsv1.xsd http://www.garmin.com/xmlschemas/CreationTimeExtension/v1 http://www.garmin.com/xmlschemas/CreationTimeExtensionsv1.xsd http://www.garmin.com/xmlschemas/AccelerationExtension/v1 http://www.garmin.com/xmlschemas/AccelerationExtensionv1.xsd http://www.garmin.com/xmlschemas/PowerExtension/v1 http://www.garmin.com/xmlschemas/PowerExtensionv1.xsd http://www.garmin.com/xmlschemas/VideoExtension/v1 http://www.garmin.com/xmlschemas/VideoExtensionv1.xsd" xmlns="http://www.topografix.com/GPX/1/1" xmlns:xsi="http://www.w3.org/2001/XMLSchema-instance" xmlns:wptx1="http://www.garmin.com/xmlschemas/WaypointExtension/v1" xmlns:gpxtrx="http://www.garmin.com/xmlschemas/GpxExtensions/v3" xmlns:gpxtpx="http://www.garmin.com/xmlschemas/TrackPointExtension/v1" xmlns:gpxx="http://www.garmin.com/xmlschemas/GpxExtensions/v3" xmlns:trp="http://www.garmin.com/xmlschemas/TripExtensions/v1" xmlns:adv="http://www.garmin.com/xmlschemas/AdventuresExtensions/v1" xmlns:prs="http://www.garmin.com/xmlschemas/PressureExtension/v1" xmlns:tmd="http://www.garmin.com/xmlschemas/TripMetaDataExtensions/v1" xmlns:vptm="http://www.garmin.com/xmlschemas/ViaPointTransportationModeExtensions/v1" xmlns:ctx="http://www.garmin.com/xmlschemas/CreationTimeExtension/v1" xmlns:gpxacc="http://www.garmin.com/xmlschemas/AccelerationExtension/v1" xmlns:gpxpx="http://www.garmin.com/xmlschemas/PowerExtension/v1" xmlns:vidx1="http://www.garmin.com/xmlschemas/VideoExtension/v1">

  <metadata>
    <link href="http://www.garmin.com">
      <text>Garmin International</text>
    </link>
    <time>2023-01-21T16:08:04Z</time>
    <bounds maxlat="-27.773025361821055" maxlon="29.650080325081944" minlat="-27.823165990412235" minlon="29.616229925304651" />
  </metadata>

  <trk>
    <name>[278] S17 Dirt Road Section_Old</name>
    <extensions>
      <gpxx:TrackExtension>
        <gpxx:DisplayColor>Blue</gpxx:DisplayColor>
      </gpxx:TrackExtension>
    </extensions>
    <trkseg>
      <trkpt lat="-27.823165990412235" lon="29.650080325081944">
        <ele>1775.21</ele>
        <time>2022-08-07T09:06:26Z</time>
      </trkpt>
      <trkpt lat="-27.823124248534441" lon="29.6500498149544">
        <ele>1774.73</ele>
        <time>2022-08-07T09:06:27Z</time>
      </trkpt>
      <trkpt lat="-27.822638768702745" lon="29.649771954864264">
        <ele>1768</ele>
        <time>2022-08-07T09:06:36Z</time>
      </trkpt>
      <trkpt lat="-27.822579424828291" lon="29.649763572961092">
        <ele>1767.04</ele>
        <time>2022-08-07T09:06:37Z</time>
      </trkpt>
      <trkpt lat="-27.822518739849329" lon="29.649761226028204">
        <ele>1766.5599999999999</ele>
        <time>2022-08-07T09:06:38Z</time>
      </trkpt>
      <trkpt lat="-27.822453947737813" lon="29.649763405323029">
        <ele>1765.5999999999999</ele>
        <time>2022-08-07T09:06:39Z</time>
      </trkpt>
      <trkpt lat="-27.82238488085568" lon="29.649769105017185">
        <ele>1764.6400000000001</ele>
        <time>2022-08-07T09:06:40Z</time>
      </trkpt>
      <trkpt lat="-27.821424985304475" lon="29.650029530748725">
        <ele>1755.5</ele>
        <time>2022-08-07T09:06:53Z</time>
      </trkpt>
      <trkpt lat="-27.821223987266421" lon="29.65005274862051">
        <ele>1755.02</ele>
        <time>2022-08-07T09:06:56Z</time>
      </trkpt>
      <trkpt lat="-27.821158021688461" lon="29.650046797469258">
        <ele>1755.02</ele>
        <time>2022-08-07T09:06:57Z</time>
      </trkpt>
      <trkpt lat="-27.821093816310167" lon="29.650033889338374">
        <ele>1754.54</ele>
        <time>2022-08-07T09:06:58Z</time>
      </trkpt>
      <trkpt lat="-27.821032209321856" lon="29.650015449151397">
        <ele>1754.54</ele>
        <time>2022-08-07T09:06:59Z</time>
      </trkpt>
      <trkpt lat="-27.82097278162837" lon="29.649992315098643">
        <ele>1755.02</ele>
        <time>2022-08-07T09:07:00Z</time>
      </trkpt>
      <trkpt lat="-27.820915533229709" lon="29.649961134418845">
        <ele>1755.02</ele>
        <time>2022-08-07T09:07:01Z</time>
      </trkpt>
      <trkpt lat="-27.820860631763935" lon="29.649923834949732">
        <ele>1755.02</ele>
        <time>2022-08-07T09:07:02Z</time>
      </trkpt>
      <trkpt lat="-27.820810088887811" lon="29.649885026738048">
        <ele>1755.02</ele>
        <time>2022-08-07T09:07:03Z</time>
      </trkpt>
      <trkpt lat="-27.820206675678492" lon="29.649458639323711">
        <ele>1757.4300000000001</ele>
        <time>2022-08-07T09:07:11Z</time>
      </trkpt>
      <trkpt lat="-27.819382483139634" lon="29.648940889164805">
        <ele>1761.27</ele>
        <time>2022-08-07T09:07:19Z</time>
      </trkpt>
      <trkpt lat="-27.818668428808451" lon="29.648461611941457">
        <ele>1770.4100000000001</ele>
        <time>2022-08-07T09:07:27Z</time>
      </trkpt>
      <trkpt lat="-27.818602798506618" lon="29.648389695212245">
        <ele>1771.3699999999999</ele>
        <time>2022-08-07T09:07:28Z</time>
      </trkpt>
      <trkpt lat="-27.818544125184417" lon="29.648315347731113">
        <ele>1772.8099999999999</ele>
        <time>2022-08-07T09:07:29Z</time>
      </trkpt>
      <trkpt lat="-27.818490229547024" lon="29.648237396031618">
        <ele>1773.77</ele>
        <time>2022-08-07T09:07:30Z</time>
      </trkpt>
      <trkpt lat="-27.818442955613136" lon="29.648155337199569">
        <ele>1775.21</ele>
        <time>2022-08-07T09:07:31Z</time>
      </trkpt>
      <trkpt lat="-27.818403141573071" lon="29.648068165406585">
        <ele>1776.1700000000001</ele>
        <time>2022-08-07T09:07:32Z</time>
      </trkpt>
      <trkpt lat="-27.818371877074242" lon="29.647973366081715">
        <ele>1777.6099999999999</ele>
        <time>2022-08-07T09:07:33Z</time>
      </trkpt>
      <trkpt lat="-27.818349245935678" lon="29.647875213995576">
        <ele>1778.5799999999999</ele>
        <time>2022-08-07T09:07:34Z</time>
      </trkpt>
      <trkpt lat="-27.818329716101289" lon="29.647770272567868">
        <ele>1780.02</ele>
        <time>2022-08-07T09:07:35Z</time>
      </trkpt>
      <trkpt lat="-27.818302055820823" lon="29.646595967933536">
        <ele>1791.55</ele>
        <time>2022-08-07T09:07:44Z</time>
      </trkpt>
      <trkpt lat="-27.818530965596437" lon="29.644922269508243">
        <ele>1815.5899999999999</ele>
        <time>2022-08-07T09:07:58Z</time>
      </trkpt>
      <trkpt lat="-27.818574467673898" lon="29.643737906590104">
        <ele>1830.49</ele>
        <time>2022-08-07T09:08:09Z</time>
      </trkpt>
      <trkpt lat="-27.818174650892615" lon="29.642610540613532">
        <ele>1822.3199999999999</ele>
        <time>2022-08-07T09:08:20Z</time>
      </trkpt>
      <trkpt lat="-27.817356493324041" lon="29.641051003709435">
        <ele>1801.1700000000001</ele>
        <time>2022-08-07T09:08:35Z</time>
      </trkpt>
      <trkpt lat="-27.816634643822908" lon="29.639708809554577">
        <ele>1791.0699999999999</ele>
        <time>2022-08-07T09:08:47Z</time>
      </trkpt>
      <trkpt lat="-27.81589200720191" lon="29.638935411348939">
        <ele>1792.03</ele>
        <time>2022-08-07T09:08:55Z</time>
      </trkpt>
      <trkpt lat="-27.814987851306796" lon="29.63800854049623">
        <ele>1791.55</ele>
        <time>2022-08-07T09:09:06Z</time>
      </trkpt>
      <trkpt lat="-27.813991075381637" lon="29.637317536398768">
        <ele>1797.8</ele>
        <time>2022-08-07T09:09:16Z</time>
      </trkpt>
      <trkpt lat="-27.812879467383027" lon="29.636280946433544">
        <ele>1787.71</ele>
        <time>2022-08-07T09:09:28Z</time>
      </trkpt>
      <trkpt lat="-27.811392433941364" lon="29.634486883878708">
        <ele>1771.3699999999999</ele>
        <time>2022-08-07T09:09:46Z</time>
      </trkpt>
      <trkpt lat="-27.810565056279302" lon="29.633494801819324">
        <ele>1761.75</ele>
        <time>2022-08-07T09:09:58Z</time>
      </trkpt>
      <trkpt lat="-27.809273069724441" lon="29.631953705102205">
        <ele>1750.7</ele>
        <time>2022-08-07T09:10:16Z</time>
      </trkpt>
      <trkpt lat="-27.808044366538525" lon="29.630491146817803">
        <ele>1738.6800000000001</ele>
        <time>2022-08-07T09:10:31Z</time>
      </trkpt>
      <trkpt lat="-27.807085309177637" lon="29.629355734214187">
        <ele>1732.9100000000001</ele>
        <time>2022-08-07T09:10:44Z</time>
      </trkpt>
      <trkpt lat="-27.806657664477825" lon="29.628814430907369">
        <ele>1730.99</ele>
        <time>2022-08-07T09:10:51Z</time>
      </trkpt>
      <trkpt lat="-27.806097418069839" lon="29.628164498135448">
        <ele>1729.55</ele>
        <time>2022-08-07T09:10:59Z</time>
      </trkpt>
      <trkpt lat="-27.805586038157344" lon="29.627473745495081">
        <ele>1730.03</ele>
        <time>2022-08-07T09:11:06Z</time>
      </trkpt>
      <trkpt lat="-27.805323852226138" lon="29.627196975052357">
        <ele>1730.03</ele>
        <time>2022-08-07T09:11:10Z</time>
      </trkpt>
      <trkpt lat="-27.8045245539397" lon="29.626496834680438">
        <ele>1732.4300000000001</ele>
        <time>2022-08-07T09:11:20Z</time>
      </trkpt>
      <trkpt lat="-27.803618302568793" lon="29.6255973726511">
        <ele>1746.3699999999999</ele>
        <time>2022-08-07T09:11:30Z</time>
      </trkpt>
      <trkpt lat="-27.802676260471344" lon="29.62506964802742">
        <ele>1754.54</ele>
        <time>2022-08-07T09:11:39Z</time>
      </trkpt>
      <trkpt lat="-27.801692057400942" lon="29.624749878421426">
        <ele>1768</ele>
        <time>2022-08-07T09:11:47Z</time>
      </trkpt>
      <trkpt lat="-27.800538539886475" lon="29.624317539855838">
        <ele>1780.5</ele>
        <time>2022-08-07T09:11:56Z</time>
      </trkpt>
      <trkpt lat="-27.800433682277799" lon="29.624247802421451">
        <ele>1781.9400000000001</ele>
        <time>2022-08-07T09:11:57Z</time>
      </trkpt>
      <trkpt lat="-27.800334608182311" lon="29.624169850721955">
        <ele>1782.9000000000001</ele>
        <time>2022-08-07T09:11:58Z</time>
      </trkpt>
      <trkpt lat="-27.800237378105521" lon="29.624081505462527">
        <ele>1784.3399999999999</ele>
        <time>2022-08-07T09:11:59Z</time>
      </trkpt>
      <trkpt lat="-27.800140902400017" lon="29.623983688652515">
        <ele>1785.79</ele>
        <time>2022-08-07T09:12:00Z</time>
      </trkpt>
      <trkpt lat="-27.79937244951725" lon="29.623047010973096">
        <ele>1795.8800000000001</ele>
        <time>2022-08-07T09:12:08Z</time>
      </trkpt>
      <trkpt lat="-27.798582706600428" lon="29.621695848181844">
        <ele>1795.8800000000001</ele>
        <time>2022-08-07T09:12:20Z</time>
      </trkpt>
      <trkpt lat="-27.797765973955393" lon="29.6209123916924">
        <ele>1789.1500000000001</ele>
        <time>2022-08-07T09:12:30Z</time>
      </trkpt>
      <trkpt lat="-27.796746650710702" lon="29.62043303065002">
        <ele>1780.98</ele>
        <time>2022-08-07T09:12:41Z</time>
      </trkpt>
      <trkpt lat="-27.795627918094397" lon="29.620138658210635">
        <ele>1773.29</ele>
        <time>2022-08-07T09:12:49Z</time>
      </trkpt>
      <trkpt lat="-27.794079445302486" lon="29.619835652410984">
        <ele>1766.5599999999999</ele>
        <time>2022-08-07T09:12:59Z</time>
      </trkpt>
      <trkpt lat="-27.79248034581542" lon="29.61969961412251">
        <ele>1761.75</ele>
        <time>2022-08-07T09:13:10Z</time>
      </trkpt>
      <trkpt lat="-27.791192550212145" lon="29.619905976578593">
        <ele>1755.5</ele>
        <time>2022-08-07T09:13:20Z</time>
      </trkpt>
      <trkpt lat="-27.790338015183806" lon="29.620595974847674">
        <ele>1751.6600000000001</ele>
        <time>2022-08-07T09:13:28Z</time>
      </trkpt>
      <trkpt lat="-27.789537711068988" lon="29.621511027216911">
        <ele>1749.26</ele>
        <time>2022-08-07T09:13:36Z</time>
      </trkpt>
      <trkpt lat="-27.788834888488054" lon="29.622130030766129">
        <ele>1747.3299999999999</ele>
        <time>2022-08-07T09:13:44Z</time>
      </trkpt>
      <trkpt lat="-27.788765989243984" lon="29.622164061293006">
        <ele>1746.8499999999999</ele>
        <time>2022-08-07T09:13:45Z</time>
      </trkpt>
      <trkpt lat="-27.788702622056007" lon="29.622184261679649">
        <ele>1746.8499999999999</ele>
        <time>2022-08-07T09:13:46Z</time>
      </trkpt>
      <trkpt lat="-27.788641350343823" lon="29.622194236144423">
        <ele>1746.3699999999999</ele>
        <time>2022-08-07T09:13:47Z</time>
      </trkpt>
      <trkpt lat="-27.788552166894078" lon="29.62219649925828">
        <ele>1745.4100000000001</ele>
        <time>2022-08-07T09:13:48Z</time>
      </trkpt>
      <trkpt lat="-27.788505395874381" lon="29.622192224487662">
        <ele>1745.4100000000001</ele>
        <time>2022-08-07T09:13:49Z</time>
      </trkpt>
      <trkpt lat="-27.788418056443334" lon="29.622178645804524">
        <ele>1744.45</ele>
        <time>2022-08-07T09:13:50Z</time>
      </trkpt>
      <trkpt lat="-27.788311438634992" lon="29.622155763208866">
        <ele>1743.97</ele>
        <time>2022-08-07T09:13:51Z</time>
      </trkpt>
      <trkpt lat="-27.787366295233369" lon="29.621890475973487">
        <ele>1734.8399999999999</ele>
        <time>2022-08-07T09:13:59Z</time>
      </trkpt>
      <trkpt lat="-27.787114838138223" lon="29.621816296130419">
        <ele>1732.9100000000001</ele>
        <time>2022-08-07T09:14:03Z</time>
      </trkpt>
      <trkpt lat="-27.787068067118526" lon="29.62181487120688">
        <ele>1732.9100000000001</ele>
        <time>2022-08-07T09:14:04Z</time>
      </trkpt>
      <trkpt lat="-27.786811077967286" lon="29.621841106563807">
        <ele>1732.9100000000001</ele>
        <time>2022-08-07T09:14:08Z</time>
      </trkpt>
      <trkpt lat="-27.78672088868916" lon="29.62186474353075">
        <ele>1732.9100000000001</ele>
        <time>2022-08-07T09:14:09Z</time>
      </trkpt>
      <trkpt lat="-27.786625418812037" lon="29.621900534257293">
        <ele>1732.9100000000001</ele>
        <time>2022-08-07T09:14:10Z</time>
      </trkpt>
      <trkpt lat="-27.786524333059788" lon="29.621949484571815">
        <ele>1732.9100000000001</ele>
        <time>2022-08-07T09:14:11Z</time>
      </trkpt>
      <trkpt lat="-27.786414194852114" lon="29.622010672464967">
        <ele>1732.4300000000001</ele>
        <time>2022-08-07T09:14:12Z</time>
      </trkpt>
      <trkpt lat="-27.785394284874201" lon="29.622584832832217">
        <ele>1730.99</ele>
        <time>2022-08-07T09:14:19Z</time>
      </trkpt>
      <trkpt lat="-27.784328693524003" lon="29.622967215254903">
        <ele>1732.9100000000001</ele>
        <time>2022-08-07T09:14:27Z</time>
      </trkpt>
      <trkpt lat="-27.783118933439255" lon="29.622944835573435">
        <ele>1732.4300000000001</ele>
        <time>2022-08-07T09:14:35Z</time>
      </trkpt>
      <trkpt lat="-27.781765758991241" lon="29.622889263555408">
        <ele>1731.95</ele>
        <time>2022-08-07T09:14:43Z</time>
      </trkpt>
      <trkpt lat="-27.780458936467767" lon="29.622840648517013">
        <ele>1735.3199999999999</ele>
        <time>2022-08-07T09:14:50Z</time>
      </trkpt>
      <trkpt lat="-27.77925512753427" lon="29.62246430106461">
        <ele>1738.2</ele>
        <time>2022-08-07T09:14:58Z</time>
      </trkpt>
      <trkpt lat="-27.778087612241507" lon="29.621813027188182">
        <ele>1738.2</ele>
        <time>2022-08-07T09:15:07Z</time>
      </trkpt>
      <trkpt lat="-27.777142049744725" lon="29.62093586102128">
        <ele>1731.47</ele>
        <time>2022-08-07T09:15:16Z</time>
      </trkpt>
      <trkpt lat="-27.775985347107053" lon="29.619499957188964">
        <ele>1731.95</ele>
        <time>2022-08-07T09:15:27Z</time>
      </trkpt>
      <trkpt lat="-27.774958312511444" lon="29.618268487975001">
        <ele>1734.3599999999999</ele>
        <time>2022-08-07T09:15:38Z</time>
      </trkpt>
      <trkpt lat="-27.773768417537212" lon="29.617085298523307">
        <ele>1735.8</ele>
        <time>2022-08-07T09:15:49Z</time>
      </trkpt>
      <trkpt lat="-27.773154443129897" lon="29.616529913619161">
        <ele>1735.8</ele>
        <time>2022-08-07T09:15:57Z</time>
      </trkpt>
      <trkpt lat="-27.773025361821055" lon="29.616229925304651">
        <ele>1734.3599999999999</ele>
        <time>2022-08-07T09:16:04Z</time>
      </trkpt>
    </trkseg>
  </trk>

</gpx>