<?xml version="1.0" encoding="utf-8"?><gpx creator="Garmin Desktop App" version="1.1" xsi:schemaLocation="http://www.topografix.com/GPX/1/1 http://www.topografix.com/GPX/1/1/gpx.xsd http://www.garmin.com/xmlschemas/WaypointExtension/v1 http://www8.garmin.com/xmlschemas/WaypointExtensionv1.xsd http://www.garmin.com/xmlschemas/TrackPointExtension/v1 http://www.garmin.com/xmlschemas/TrackPointExtensionv1.xsd http://www.garmin.com/xmlschemas/GpxExtensions/v3 http://www8.garmin.com/xmlschemas/GpxExtensionsv3.xsd http://www.garmin.com/xmlschemas/ActivityExtension/v1 http://www8.garmin.com/xmlschemas/ActivityExtensionv1.xsd http://www.garmin.com/xmlschemas/AdventuresExtensions/v1 http://www8.garmin.com/xmlschemas/AdventuresExtensionv1.xsd http://www.garmin.com/xmlschemas/PressureExtension/v1 http://www.garmin.com/xmlschemas/PressureExtensionv1.xsd http://www.garmin.com/xmlschemas/TripExtensions/v1 http://www.garmin.com/xmlschemas/TripExtensionsv1.xsd http://www.garmin.com/xmlschemas/TripMetaDataExtensions/v1 http://www.garmin.com/xmlschemas/TripMetaDataExtensionsv1.xsd http://www.garmin.com/xmlschemas/ViaPointTransportationModeExtensions/v1 http://www.garmin.com/xmlschemas/ViaPointTransportationModeExtensionsv1.xsd http://www.garmin.com/xmlschemas/CreationTimeExtension/v1 http://www.garmin.com/xmlschemas/CreationTimeExtensionsv1.xsd http://www.garmin.com/xmlschemas/AccelerationExtension/v1 http://www.garmin.com/xmlschemas/AccelerationExtensionv1.xsd http://www.garmin.com/xmlschemas/PowerExtension/v1 http://www.garmin.com/xmlschemas/PowerExtensionv1.xsd http://www.garmin.com/xmlschemas/VideoExtension/v1 http://www.garmin.com/xmlschemas/VideoExtensionv1.xsd" xmlns="http://www.topografix.com/GPX/1/1" xmlns:xsi="http://www.w3.org/2001/XMLSchema-instance" xmlns:wptx1="http://www.garmin.com/xmlschemas/WaypointExtension/v1" xmlns:gpxtrx="http://www.garmin.com/xmlschemas/GpxExtensions/v3" xmlns:gpxtpx="http://www.garmin.com/xmlschemas/TrackPointExtension/v1" xmlns:gpxx="http://www.garmin.com/xmlschemas/GpxExtensions/v3" xmlns:trp="http://www.garmin.com/xmlschemas/TripExtensions/v1" xmlns:adv="http://www.garmin.com/xmlschemas/AdventuresExtensions/v1" xmlns:prs="http://www.garmin.com/xmlschemas/PressureExtension/v1" xmlns:tmd="http://www.garmin.com/xmlschemas/TripMetaDataExtensions/v1" xmlns:vptm="http://www.garmin.com/xmlschemas/ViaPointTransportationModeExtensions/v1" xmlns:ctx="http://www.garmin.com/xmlschemas/CreationTimeExtension/v1" xmlns:gpxacc="http://www.garmin.com/xmlschemas/AccelerationExtension/v1" xmlns:gpxpx="http://www.garmin.com/xmlschemas/PowerExtension/v1" xmlns:vidx1="http://www.garmin.com/xmlschemas/VideoExtension/v1">

  <metadata>
    <link href="http://www.garmin.com">
      <text>Garmin International</text>
    </link>
    <time>2023-01-21T18:26:55Z</time>
    <bounds maxlat="-29.310872917994857" maxlon="27.554500177502632" minlat="-29.317097906023264" minlon="27.5378358643502" />
  </metadata>

  <trk>
    <name>[326] Lancers Gap - Ascend</name>
    <extensions>
      <gpxx:TrackExtension>
        <gpxx:DisplayColor>Green</gpxx:DisplayColor>
      </gpxx:TrackExtension>
    </extensions>
    <trkseg>
      <trkpt lat="-29.310872917994857" lon="27.5378358643502">
        <ele>1589.2</ele>
        <time>2022-12-19T08:16:19Z</time>
      </trkpt>
      <trkpt lat="-29.311646735295653" lon="27.539047636091709">
        <ele>1597.8499999999999</ele>
        <time>2022-12-19T08:16:30Z</time>
      </trkpt>
      <trkpt lat="-29.312743255868554" lon="27.54071831703186">
        <ele>1610.3499999999999</ele>
        <time>2022-12-19T08:16:45Z</time>
      </trkpt>
      <trkpt lat="-29.313356727361679" lon="27.541267080232501">
        <ele>1617.5599999999999</ele>
        <time>2022-12-19T08:16:53Z</time>
      </trkpt>
      <trkpt lat="-29.314012108370662" lon="27.541715847328305">
        <ele>1625.25</ele>
        <time>2022-12-19T08:17:01Z</time>
      </trkpt>
      <trkpt lat="-29.314310001209378" lon="27.541971663013101">
        <ele>1629.5699999999999</ele>
        <time>2022-12-19T08:17:05Z</time>
      </trkpt>
      <trkpt lat="-29.314362974837422" lon="27.542050704360008">
        <ele>1631.01</ele>
        <time>2022-12-19T08:17:06Z</time>
      </trkpt>
      <trkpt lat="-29.314399436116219" lon="27.542129158973694">
        <ele>1631.98</ele>
        <time>2022-12-19T08:17:07Z</time>
      </trkpt>
      <trkpt lat="-29.314423911273479" lon="27.542217588052154">
        <ele>1632.9400000000001</ele>
        <time>2022-12-19T08:17:08Z</time>
      </trkpt>
      <trkpt lat="-29.314437238499522" lon="27.54231171682477">
        <ele>1633.9000000000001</ele>
        <time>2022-12-19T08:17:09Z</time>
      </trkpt>
      <trkpt lat="-29.314441094174981" lon="27.542415736243129">
        <ele>1635.3399999999999</ele>
        <time>2022-12-19T08:17:10Z</time>
      </trkpt>
      <trkpt lat="-29.314436735585332" lon="27.542527131736279">
        <ele>1636.3</ele>
        <time>2022-12-19T08:17:11Z</time>
      </trkpt>
      <trkpt lat="-29.314426342025399" lon="27.542646154761314">
        <ele>1637.26</ele>
        <time>2022-12-19T08:17:12Z</time>
      </trkpt>
      <trkpt lat="-29.31433598510921" lon="27.544141067191958">
        <ele>1646.4000000000001</ele>
        <time>2022-12-19T08:17:22Z</time>
      </trkpt>
      <trkpt lat="-29.314272534102201" lon="27.545999502763152">
        <ele>1666.5799999999999</ele>
        <time>2022-12-19T08:17:35Z</time>
      </trkpt>
      <trkpt lat="-29.314235989004374" lon="27.546123806387186">
        <ele>1668.51</ele>
        <time>2022-12-19T08:17:36Z</time>
      </trkpt>
      <trkpt lat="-29.314185278490186" lon="27.546238554641604">
        <ele>1670.4300000000001</ele>
        <time>2022-12-19T08:17:37Z</time>
      </trkpt>
      <trkpt lat="-29.31412392295897" lon="27.546336119994521">
        <ele>1671.8699999999999</ele>
        <time>2022-12-19T08:17:38Z</time>
      </trkpt>
      <trkpt lat="-29.314061142504215" lon="27.54641180858016">
        <ele>1673.79</ele>
        <time>2022-12-19T08:17:39Z</time>
      </trkpt>
      <trkpt lat="-29.314009426161647" lon="27.546480456367135">
        <ele>1675.23</ele>
        <time>2022-12-19T08:17:40Z</time>
      </trkpt>
      <trkpt lat="-29.31397539563477" lon="27.546554803848267">
        <ele>1676.6800000000001</ele>
        <time>2022-12-19T08:17:41Z</time>
      </trkpt>
      <trkpt lat="-29.313962403684855" lon="27.546633090823889">
        <ele>1677.6400000000001</ele>
        <time>2022-12-19T08:17:42Z</time>
      </trkpt>
      <trkpt lat="-29.313970953226089" lon="27.546709952875972">
        <ele>1679.0799999999999</ele>
        <time>2022-12-19T08:17:43Z</time>
      </trkpt>
      <trkpt lat="-29.314001630991697" lon="27.546782288700342">
        <ele>1679.5599999999999</ele>
        <time>2022-12-19T08:17:44Z</time>
      </trkpt>
      <trkpt lat="-29.314053431153297" lon="27.546840123832226">
        <ele>1680.52</ele>
        <time>2022-12-19T08:17:45Z</time>
      </trkpt>
      <trkpt lat="-29.314121995121241" lon="27.546874321997166">
        <ele>1681</ele>
        <time>2022-12-19T08:17:46Z</time>
      </trkpt>
      <trkpt lat="-29.314199024811387" lon="27.546878848224878">
        <ele>1681.96</ele>
        <time>2022-12-19T08:17:47Z</time>
      </trkpt>
      <trkpt lat="-29.314276305958629" lon="27.546855797991157">
        <ele>1682.4400000000001</ele>
        <time>2022-12-19T08:17:48Z</time>
      </trkpt>
      <trkpt lat="-29.314348138868809" lon="27.546805422753096">
        <ele>1682.9300000000001</ele>
        <time>2022-12-19T08:17:49Z</time>
      </trkpt>
      <trkpt lat="-29.314409242942929" lon="27.5467274710536">
        <ele>1683.4100000000001</ele>
        <time>2022-12-19T08:17:50Z</time>
      </trkpt>
      <trkpt lat="-29.314456013962626" lon="27.546626636758447">
        <ele>1683.8900000000001</ele>
        <time>2022-12-19T08:17:51Z</time>
      </trkpt>
      <trkpt lat="-29.314501862972975" lon="27.546501662582159">
        <ele>1684.3699999999999</ele>
        <time>2022-12-19T08:17:52Z</time>
      </trkpt>
      <trkpt lat="-29.314643265679479" lon="27.546172756701708">
        <ele>1687.25</ele>
        <time>2022-12-19T08:17:55Z</time>
      </trkpt>
      <trkpt lat="-29.314691461622715" lon="27.546109557151794">
        <ele>1688.21</ele>
        <time>2022-12-19T08:17:56Z</time>
      </trkpt>
      <trkpt lat="-29.31474250741303" lon="27.546074604615569">
        <ele>1688.6900000000001</ele>
        <time>2022-12-19T08:17:57Z</time>
      </trkpt>
      <trkpt lat="-29.314790116623044" lon="27.546075694262981">
        <ele>1689.6500000000001</ele>
        <time>2022-12-19T08:17:58Z</time>
      </trkpt>
      <trkpt lat="-29.314828757196665" lon="27.546106539666653">
        <ele>1690.1400000000001</ele>
        <time>2022-12-19T08:17:59Z</time>
      </trkpt>
      <trkpt lat="-29.314858010038733" lon="27.546160267665982">
        <ele>1691.0999999999999</ele>
        <time>2022-12-19T08:18:00Z</time>
      </trkpt>
      <trkpt lat="-29.314869409427047" lon="27.546230424195528">
        <ele>1691.5799999999999</ele>
        <time>2022-12-19T08:18:01Z</time>
      </trkpt>
      <trkpt lat="-29.314858010038733" lon="27.546306196600199">
        <ele>1692.0599999999999</ele>
        <time>2022-12-19T08:18:02Z</time>
      </trkpt>
      <trkpt lat="-29.314822889864445" lon="27.546381633728743">
        <ele>1693.02</ele>
        <time>2022-12-19T08:18:03Z</time>
      </trkpt>
      <trkpt lat="-29.314774442464113" lon="27.546459501609206">
        <ele>1693.98</ele>
        <time>2022-12-19T08:18:04Z</time>
      </trkpt>
      <trkpt lat="-29.314723396673799" lon="27.546547511592507">
        <ele>1694.9400000000001</ele>
        <time>2022-12-19T08:18:05Z</time>
      </trkpt>
      <trkpt lat="-29.314675955101848" lon="27.546652536839247">
        <ele>1695.9000000000001</ele>
        <time>2022-12-19T08:18:06Z</time>
      </trkpt>
      <trkpt lat="-29.31463454850018" lon="27.546772230416536">
        <ele>1696.8599999999999</ele>
        <time>2022-12-19T08:18:07Z</time>
      </trkpt>
      <trkpt lat="-29.314600182697177" lon="27.546898294240236">
        <ele>1697.8299999999999</ele>
        <time>2022-12-19T08:18:08Z</time>
      </trkpt>
      <trkpt lat="-29.314572019502521" lon="27.547033494338393">
        <ele>1699.27</ele>
        <time>2022-12-19T08:18:09Z</time>
      </trkpt>
      <trkpt lat="-29.314555004239082" lon="27.547177830711007">
        <ele>1700.71</ele>
        <time>2022-12-19T08:18:10Z</time>
      </trkpt>
      <trkpt lat="-29.314548382535577" lon="27.547331219539046">
        <ele>1702.1500000000001</ele>
        <time>2022-12-19T08:18:11Z</time>
      </trkpt>
      <trkpt lat="-29.314548801630735" lon="27.547493493184447">
        <ele>1703.5899999999999</ele>
        <time>2022-12-19T08:18:12Z</time>
      </trkpt>
      <trkpt lat="-29.314693724736571" lon="27.548862090334296">
        <ele>1717.05</ele>
        <time>2022-12-19T08:18:21Z</time>
      </trkpt>
      <trkpt lat="-29.315188927575946" lon="27.550790179520845">
        <ele>1732.9100000000001</ele>
        <time>2022-12-19T08:18:32Z</time>
      </trkpt>
      <trkpt lat="-29.315820503979921" lon="27.552310824394226">
        <ele>1748.29</ele>
        <time>2022-12-19T08:18:41Z</time>
      </trkpt>
      <trkpt lat="-29.316877713426948" lon="27.554225753992796">
        <ele>1770.4100000000001</ele>
        <time>2022-12-19T08:18:53Z</time>
      </trkpt>
      <trkpt lat="-29.316967567428946" lon="27.554349135607481">
        <ele>1771.8499999999999</ele>
        <time>2022-12-19T08:18:54Z</time>
      </trkpt>
      <trkpt lat="-29.317097906023264" lon="27.554500177502632">
        <ele>1774.25</ele>
        <time>2022-12-19T08:26:14Z</time>
      </trkpt>
    </trkseg>
  </trk>

</gpx>