<?xml version="1.0" encoding="utf-8"?><gpx creator="Garmin Desktop App" version="1.1" xsi:schemaLocation="http://www.topografix.com/GPX/1/1 http://www.topografix.com/GPX/1/1/gpx.xsd http://www.garmin.com/xmlschemas/WaypointExtension/v1 http://www8.garmin.com/xmlschemas/WaypointExtensionv1.xsd http://www.garmin.com/xmlschemas/TrackPointExtension/v1 http://www.garmin.com/xmlschemas/TrackPointExtensionv1.xsd http://www.garmin.com/xmlschemas/GpxExtensions/v3 http://www8.garmin.com/xmlschemas/GpxExtensionsv3.xsd http://www.garmin.com/xmlschemas/ActivityExtension/v1 http://www8.garmin.com/xmlschemas/ActivityExtensionv1.xsd http://www.garmin.com/xmlschemas/AdventuresExtensions/v1 http://www8.garmin.com/xmlschemas/AdventuresExtensionv1.xsd http://www.garmin.com/xmlschemas/PressureExtension/v1 http://www.garmin.com/xmlschemas/PressureExtensionv1.xsd http://www.garmin.com/xmlschemas/TripExtensions/v1 http://www.garmin.com/xmlschemas/TripExtensionsv1.xsd http://www.garmin.com/xmlschemas/TripMetaDataExtensions/v1 http://www.garmin.com/xmlschemas/TripMetaDataExtensionsv1.xsd http://www.garmin.com/xmlschemas/ViaPointTransportationModeExtensions/v1 http://www.garmin.com/xmlschemas/ViaPointTransportationModeExtensionsv1.xsd http://www.garmin.com/xmlschemas/CreationTimeExtension/v1 http://www.garmin.com/xmlschemas/CreationTimeExtensionsv1.xsd http://www.garmin.com/xmlschemas/AccelerationExtension/v1 http://www.garmin.com/xmlschemas/AccelerationExtensionv1.xsd http://www.garmin.com/xmlschemas/PowerExtension/v1 http://www.garmin.com/xmlschemas/PowerExtensionv1.xsd http://www.garmin.com/xmlschemas/VideoExtension/v1 http://www.garmin.com/xmlschemas/VideoExtensionv1.xsd" xmlns="http://www.topografix.com/GPX/1/1" xmlns:xsi="http://www.w3.org/2001/XMLSchema-instance" xmlns:wptx1="http://www.garmin.com/xmlschemas/WaypointExtension/v1" xmlns:gpxtrx="http://www.garmin.com/xmlschemas/GpxExtensions/v3" xmlns:gpxtpx="http://www.garmin.com/xmlschemas/TrackPointExtension/v1" xmlns:gpxx="http://www.garmin.com/xmlschemas/GpxExtensions/v3" xmlns:trp="http://www.garmin.com/xmlschemas/TripExtensions/v1" xmlns:adv="http://www.garmin.com/xmlschemas/AdventuresExtensions/v1" xmlns:prs="http://www.garmin.com/xmlschemas/PressureExtension/v1" xmlns:tmd="http://www.garmin.com/xmlschemas/TripMetaDataExtensions/v1" xmlns:vptm="http://www.garmin.com/xmlschemas/ViaPointTransportationModeExtensions/v1" xmlns:ctx="http://www.garmin.com/xmlschemas/CreationTimeExtension/v1" xmlns:gpxacc="http://www.garmin.com/xmlschemas/AccelerationExtension/v1" xmlns:gpxpx="http://www.garmin.com/xmlschemas/PowerExtension/v1" xmlns:vidx1="http://www.garmin.com/xmlschemas/VideoExtension/v1">

  <metadata>
    <link href="http://www.garmin.com">
      <text>Garmin International</text>
    </link>
    <time>2023-04-16T05:44:46Z</time>
    <bounds maxlat="-28.677626335993409" maxlon="28.235621508210897" minlat="-28.692390555515885" minlon="28.232493214309216" />
  </metadata>

  <trk>
    <name>[338] Caledonspoort</name>
    <extensions>
      <gpxx:TrackExtension>
        <gpxx:DisplayColor>Green</gpxx:DisplayColor>
      </gpxx:TrackExtension>
    </extensions>
    <trkseg>
      <trkpt lat="-28.677626335993409" lon="28.23284232057631">
        <ele>1656.01</ele>
        <time>2023-03-18T08:09:54Z</time>
      </trkpt>
      <trkpt lat="-28.678870545700192" lon="28.232714831829071">
        <ele>1653.1199999999999</ele>
        <time>2023-03-18T08:10:01Z</time>
      </trkpt>
      <trkpt lat="-28.679684679955244" lon="28.232575776055455" />
      <trkpt lat="-28.680652705952525" lon="28.232634281739593">
        <ele>1647.3599999999999</ele>
        <time>2023-03-18T08:10:11Z</time>
      </trkpt>
      <trkpt lat="-28.681219909340143" lon="28.232783647254109" />
      <trkpt lat="-28.681999845430255" lon="28.232688680291176">
        <ele>1645.9100000000001</ele>
        <time>2023-03-18T08:10:19Z</time>
      </trkpt>
      <trkpt lat="-28.682955047115684" lon="28.232493214309216">
        <ele>1642.55</ele>
        <time>2023-03-18T08:10:25Z</time>
      </trkpt>
      <trkpt lat="-28.683119667693973" lon="28.232504446059465">
        <ele>1642.0699999999999</ele>
        <time>2023-03-18T08:10:26Z</time>
      </trkpt>
      <trkpt lat="-28.683285294100642" lon="28.232530346140265">
        <ele>1641.5899999999999</ele>
        <time>2023-03-18T08:10:27Z</time>
      </trkpt>
      <trkpt lat="-28.684115102514625" lon="28.232695050537586">
        <ele>1638.7</ele>
        <time>2023-03-18T08:10:32Z</time>
      </trkpt>
      <trkpt lat="-28.684286344796419" lon="28.232694044709206">
        <ele>1638.22</ele>
        <time>2023-03-18T08:10:33Z</time>
      </trkpt>
      <trkpt lat="-28.684457838535309" lon="28.232678789645433">
        <ele>1637.26</ele>
        <time>2023-03-18T08:10:34Z</time>
      </trkpt>
      <trkpt lat="-28.685454363003373" lon="28.232601843774319">
        <ele>1633.9000000000001</ele>
        <time>2023-03-18T08:10:40Z</time>
      </trkpt>
      <trkpt lat="-28.685617223381996" lon="28.232632018625736">
        <ele>1633.4200000000001</ele>
        <time>2023-03-18T08:10:41Z</time>
      </trkpt>
      <trkpt lat="-28.685779077932239" lon="28.232676610350609">
        <ele>1632.46</ele>
        <time>2023-03-18T08:10:42Z</time>
      </trkpt>
      <trkpt lat="-28.68738622404635" lon="28.23306025005877">
        <ele>1627.6500000000001</ele>
        <time>2023-03-18T08:10:52Z</time>
      </trkpt>
      <trkpt lat="-28.688996303826571" lon="28.23323710821569">
        <ele>1622.8399999999999</ele>
        <time>2023-03-18T08:11:02Z</time>
      </trkpt>
      <trkpt lat="-28.689143322408199" lon="28.233303241431713">
        <ele>1622.8399999999999</ele>
        <time>2023-03-18T08:11:03Z</time>
      </trkpt>
      <trkpt lat="-28.689282881096005" lon="28.233384881168604">
        <ele>1622.3599999999999</ele>
        <time>2023-03-18T08:11:04Z</time>
      </trkpt>
      <trkpt lat="-28.690514517948031" lon="28.234353242442012">
        <ele>1620.9200000000001</ele>
        <time>2023-03-18T08:11:14Z</time>
      </trkpt>
      <trkpt lat="-28.690600013360381" lon="28.234476037323475">
        <ele>1620.9200000000001</ele>
        <time>2023-03-18T08:11:15Z</time>
      </trkpt>
      <trkpt lat="-28.691235277801752" lon="28.235306851565838">
        <ele>1619.48</ele>
        <time>2023-03-18T08:11:24Z</time>
      </trkpt>
      <trkpt lat="-28.691622689366341" lon="28.235526205971837">
        <ele>1619</ele>
        <time>2023-03-18T08:11:29Z</time>
      </trkpt>
      <trkpt lat="-28.691702904179692" lon="28.235547244548798">
        <ele>1619</ele>
        <time>2023-03-18T08:11:30Z</time>
      </trkpt>
      <trkpt lat="-28.691782867535949" lon="28.235562248155475">
        <ele>1619</ele>
        <time>2023-03-18T08:11:31Z</time>
      </trkpt>
      <trkpt lat="-28.692113282158971" lon="28.235621508210897" />
      <trkpt lat="-28.692390555515885" lon="28.235489325597882">
        <ele>1617.5599999999999</ele>
        <time>2023-03-18T08:11:41Z</time>
      </trkpt>
    </trkseg>
  </trk>

</gpx>