<?xml version="1.0" encoding="utf-8"?><gpx creator="Garmin Desktop App" version="1.1" xsi:schemaLocation="http://www.topografix.com/GPX/1/1 http://www.topografix.com/GPX/1/1/gpx.xsd http://www.garmin.com/xmlschemas/WaypointExtension/v1 http://www8.garmin.com/xmlschemas/WaypointExtensionv1.xsd http://www.garmin.com/xmlschemas/TrackPointExtension/v1 http://www.garmin.com/xmlschemas/TrackPointExtensionv1.xsd http://www.garmin.com/xmlschemas/GpxExtensions/v3 http://www8.garmin.com/xmlschemas/GpxExtensionsv3.xsd http://www.garmin.com/xmlschemas/ActivityExtension/v1 http://www8.garmin.com/xmlschemas/ActivityExtensionv1.xsd http://www.garmin.com/xmlschemas/AdventuresExtensions/v1 http://www8.garmin.com/xmlschemas/AdventuresExtensionv1.xsd http://www.garmin.com/xmlschemas/PressureExtension/v1 http://www.garmin.com/xmlschemas/PressureExtensionv1.xsd http://www.garmin.com/xmlschemas/TripExtensions/v1 http://www.garmin.com/xmlschemas/TripExtensionsv1.xsd http://www.garmin.com/xmlschemas/TripMetaDataExtensions/v1 http://www.garmin.com/xmlschemas/TripMetaDataExtensionsv1.xsd http://www.garmin.com/xmlschemas/ViaPointTransportationModeExtensions/v1 http://www.garmin.com/xmlschemas/ViaPointTransportationModeExtensionsv1.xsd http://www.garmin.com/xmlschemas/CreationTimeExtension/v1 http://www.garmin.com/xmlschemas/CreationTimeExtensionsv1.xsd http://www.garmin.com/xmlschemas/AccelerationExtension/v1 http://www.garmin.com/xmlschemas/AccelerationExtensionv1.xsd http://www.garmin.com/xmlschemas/PowerExtension/v1 http://www.garmin.com/xmlschemas/PowerExtensionv1.xsd http://www.garmin.com/xmlschemas/VideoExtension/v1 http://www.garmin.com/xmlschemas/VideoExtensionv1.xsd" xmlns="http://www.topografix.com/GPX/1/1" xmlns:xsi="http://www.w3.org/2001/XMLSchema-instance" xmlns:wptx1="http://www.garmin.com/xmlschemas/WaypointExtension/v1" xmlns:gpxtrx="http://www.garmin.com/xmlschemas/GpxExtensions/v3" xmlns:gpxtpx="http://www.garmin.com/xmlschemas/TrackPointExtension/v1" xmlns:gpxx="http://www.garmin.com/xmlschemas/GpxExtensions/v3" xmlns:trp="http://www.garmin.com/xmlschemas/TripExtensions/v1" xmlns:adv="http://www.garmin.com/xmlschemas/AdventuresExtensions/v1" xmlns:prs="http://www.garmin.com/xmlschemas/PressureExtension/v1" xmlns:tmd="http://www.garmin.com/xmlschemas/TripMetaDataExtensions/v1" xmlns:vptm="http://www.garmin.com/xmlschemas/ViaPointTransportationModeExtensions/v1" xmlns:ctx="http://www.garmin.com/xmlschemas/CreationTimeExtension/v1" xmlns:gpxacc="http://www.garmin.com/xmlschemas/AccelerationExtension/v1" xmlns:gpxpx="http://www.garmin.com/xmlschemas/PowerExtension/v1" xmlns:vidx1="http://www.garmin.com/xmlschemas/VideoExtension/v1">

  <metadata>
    <link href="http://www.garmin.com">
      <text>Garmin International</text>
    </link>
    <time>2023-04-15T10:46:41Z</time>
    <bounds maxlat="-27.394407503306866" maxlon="30.409793732687831" minlat="-27.405417552217841" minlon="30.310783423483372" />
  </metadata>

  <trk>
    <name>[359] Vredehof Pass</name>
    <extensions>
      <gpxx:TrackExtension>
        <gpxx:DisplayColor>Red</gpxx:DisplayColor>
      </gpxx:TrackExtension>
    </extensions>
    <trkseg>
      <trkpt lat="-27.395571246743202" lon="30.409793732687831">
        <ele>1399.8199999999999</ele>
        <time>2023-04-09T07:43:41Z</time>
      </trkpt>
      <trkpt lat="-27.395573006942868" lon="30.409518470987678">
        <ele>1401.26</ele>
        <time>2023-04-09T07:43:52Z</time>
      </trkpt>
      <trkpt lat="-27.395599912852049" lon="30.408669803291559">
        <ele>1406.55</ele>
        <time>2023-04-09T07:43:58Z</time>
      </trkpt>
      <trkpt lat="-27.395594883710146" lon="30.406658984720707">
        <ele>1430.0999999999999</ele>
        <time>2023-04-09T07:44:10Z</time>
      </trkpt>
      <trkpt lat="-27.395234797149897" lon="30.40521084330976">
        <ele>1444.52</ele>
        <time>2023-04-09T07:44:18Z</time>
      </trkpt>
      <trkpt lat="-27.394939418882132" lon="30.404108874499798">
        <ele>1455.0899999999999</ele>
        <time>2023-04-09T07:44:26Z</time>
      </trkpt>
      <trkpt lat="-27.39451470784843" lon="30.402500219643116">
        <ele>1465.1900000000001</ele>
        <time>2023-04-09T07:44:34Z</time>
      </trkpt>
      <trkpt lat="-27.394407503306866" lon="30.401477292180061">
        <ele>1470.95</ele>
        <time>2023-04-09T07:44:39Z</time>
      </trkpt>
      <trkpt lat="-27.394424518570304" lon="30.401256093755364">
        <ele>1472.4000000000001</ele>
        <time>2023-04-09T07:44:40Z</time>
      </trkpt>
      <trkpt lat="-27.394451089203358" lon="30.40106481872499">
        <ele>1473.8399999999999</ele>
        <time>2023-04-09T07:44:41Z</time>
      </trkpt>
      <trkpt lat="-27.394490484148264" lon="30.400864072144032">
        <ele>1475.28</ele>
        <time>2023-04-09T07:44:42Z</time>
      </trkpt>
      <trkpt lat="-27.394546810537577" lon="30.400648824870586">
        <ele>1477.2</ele>
        <time>2023-04-09T07:44:43Z</time>
      </trkpt>
      <trkpt lat="-27.394602550193667" lon="30.400473223999143">
        <ele>1479.1300000000001</ele>
        <time>2023-04-09T07:44:44Z</time>
      </trkpt>
      <trkpt lat="-27.394675808027387" lon="30.400286139920354">
        <ele>1481.05</ele>
        <time>2023-04-09T07:44:45Z</time>
      </trkpt>
      <trkpt lat="-27.39475660957396" lon="30.400135768577456">
        <ele>1482.97</ele>
        <time>2023-04-09T07:44:46Z</time>
      </trkpt>
      <trkpt lat="-27.394847050309181" lon="30.400012470781803">
        <ele>1484.8900000000001</ele>
        <time>2023-04-09T07:44:47Z</time>
      </trkpt>
      <trkpt lat="-27.394955595955253" lon="30.399899818003178">
        <ele>1486.8199999999999</ele>
        <time>2023-04-09T07:44:48Z</time>
      </trkpt>
      <trkpt lat="-27.395090041682124" lon="30.399793200194836">
        <ele>1488.26</ele>
        <time>2023-04-09T07:44:49Z</time>
      </trkpt>
      <trkpt lat="-27.395216440781951" lon="30.399710219353437">
        <ele>1490.1800000000001</ele>
        <time>2023-04-09T07:44:50Z</time>
      </trkpt>
      <trkpt lat="-27.395357927307487" lon="30.399624388664961">
        <ele>1491.6199999999999</ele>
        <time>2023-04-09T07:44:51Z</time>
      </trkpt>
      <trkpt lat="-27.396721495315433" lon="30.398717047646642">
        <ele>1504.1199999999999</ele>
        <time>2023-04-09T07:45:00Z</time>
      </trkpt>
      <trkpt lat="-27.39703900180757" lon="30.398395014926791">
        <ele>1507.97</ele>
        <time>2023-04-09T07:45:03Z</time>
      </trkpt>
      <trkpt lat="-27.39711812697351" lon="30.398271717131138">
        <ele>1509.4100000000001</ele>
        <time>2023-04-09T07:45:04Z</time>
      </trkpt>
      <trkpt lat="-27.397179817780852" lon="30.398144898936152">
        <ele>1510.3699999999999</ele>
        <time>2023-04-09T07:45:05Z</time>
      </trkpt>
      <trkpt lat="-27.397229354828596" lon="30.398001484572887">
        <ele>1511.8099999999999</ele>
        <time>2023-04-09T07:45:06Z</time>
      </trkpt>
      <trkpt lat="-27.397262379527092" lon="30.39785890839994">
        <ele>1513.25</ele>
        <time>2023-04-09T07:45:07Z</time>
      </trkpt>
      <trkpt lat="-27.397287441417575" lon="30.397710297256708">
        <ele>1514.6900000000001</ele>
        <time>2023-04-09T07:45:08Z</time>
      </trkpt>
      <trkpt lat="-27.397306971251965" lon="30.397548442706466">
        <ele>1516.6199999999999</ele>
        <time>2023-04-09T07:45:09Z</time>
      </trkpt>
      <trkpt lat="-27.397291800007224" lon="30.396939078345895">
        <ele>1521.9000000000001</ele>
        <time>2023-04-09T07:45:13Z</time>
      </trkpt>
      <trkpt lat="-27.397258440032601" lon="30.39679566398263">
        <ele>1523.3499999999999</ele>
        <time>2023-04-09T07:45:14Z</time>
      </trkpt>
      <trkpt lat="-27.397206136956811" lon="30.396643280982971">
        <ele>1524.3099999999999</ele>
        <time>2023-04-09T07:45:15Z</time>
      </trkpt>
      <trkpt lat="-27.397140087559819" lon="30.396489892154932">
        <ele>1525.75</ele>
        <time>2023-04-09T07:45:16Z</time>
      </trkpt>
      <trkpt lat="-27.397058112546802" lon="30.396321164444089">
        <ele>1526.71</ele>
        <time>2023-04-09T07:45:17Z</time>
      </trkpt>
      <trkpt lat="-27.396253030747175" lon="30.394607065245509">
        <ele>1537.77</ele>
        <time>2023-04-09T07:45:26Z</time>
      </trkpt>
      <trkpt lat="-27.39593468606472" lon="30.392906544730067">
        <ele>1549.3</ele>
        <time>2023-04-09T07:45:34Z</time>
      </trkpt>
      <trkpt lat="-27.395900906994939" lon="30.391087252646685">
        <ele>1558.4300000000001</ele>
        <time>2023-04-09T07:45:42Z</time>
      </trkpt>
      <trkpt lat="-27.396080866456032" lon="30.38847385905683">
        <ele>1565.6400000000001</ele>
        <time>2023-04-09T07:45:53Z</time>
      </trkpt>
      <trkpt lat="-27.396255042403936" lon="30.387159744277596">
        <ele>1573.8199999999999</ele>
        <time>2023-04-09T07:46:00Z</time>
      </trkpt>
      <trkpt lat="-27.396819647401571" lon="30.385398035869002">
        <ele>1581.51</ele>
        <time>2023-04-09T07:46:09Z</time>
      </trkpt>
      <trkpt lat="-27.397694801911712" lon="30.383186722174287">
        <ele>1594.48</ele>
        <time>2023-04-09T07:46:20Z</time>
      </trkpt>
      <trkpt lat="-27.398330233991146" lon="30.382118700072169">
        <ele>1604.5799999999999</ele>
        <time>2023-04-09T07:46:27Z</time>
      </trkpt>
      <trkpt lat="-27.398426542058587" lon="30.382028091698885">
        <ele>1606.5</ele>
        <time>2023-04-09T07:46:28Z</time>
      </trkpt>
      <trkpt lat="-27.398528046905994" lon="30.381951564922929">
        <ele>1608.4200000000001</ele>
        <time>2023-04-09T07:46:29Z</time>
      </trkpt>
      <trkpt lat="-27.398631479591131" lon="30.38189398124814">
        <ele>1610.3499999999999</ele>
        <time>2023-04-09T07:46:30Z</time>
      </trkpt>
      <trkpt lat="-27.398724853992462" lon="30.381857603788376">
        <ele>1611.79</ele>
        <time>2023-04-09T07:46:31Z</time>
      </trkpt>
      <trkpt lat="-27.398827448487282" lon="30.381834805011749">
        <ele>1613.71</ele>
        <time>2023-04-09T07:46:32Z</time>
      </trkpt>
      <trkpt lat="-27.398919649422169" lon="30.381830194965005">
        <ele>1615.1500000000001</ele>
        <time>2023-04-09T07:46:33Z</time>
      </trkpt>
      <trkpt lat="-27.399020399898291" lon="30.381842432543635">
        <ele>1616.5899999999999</ele>
        <time>2023-04-09T07:46:34Z</time>
      </trkpt>
      <trkpt lat="-27.399119222536683" lon="30.381869673728943">
        <ele>1618.04</ele>
        <time>2023-04-09T07:46:35Z</time>
      </trkpt>
      <trkpt lat="-27.399221984669566" lon="30.381909739226103">
        <ele>1619.48</ele>
        <time>2023-04-09T07:46:36Z</time>
      </trkpt>
      <trkpt lat="-27.399336565285921" lon="30.381960365921259">
        <ele>1620.4400000000001</ele>
        <time>2023-04-09T07:46:37Z</time>
      </trkpt>
      <trkpt lat="-27.400535764172673" lon="30.382582889869809">
        <ele>1635.3399999999999</ele>
        <time>2023-04-09T07:46:46Z</time>
      </trkpt>
      <trkpt lat="-27.40101688541472" lon="30.382705349475145">
        <ele>1644.47</ele>
        <time>2023-04-09T07:46:51Z</time>
      </trkpt>
      <trkpt lat="-27.401091484352946" lon="30.382695375010371">
        <ele>1645.9100000000001</ele>
        <time>2023-04-09T07:46:52Z</time>
      </trkpt>
      <trkpt lat="-27.40116692148149" lon="30.38267089985311">
        <ele>1647.3599999999999</ele>
        <time>2023-04-09T07:46:53Z</time>
      </trkpt>
      <trkpt lat="-27.401239592581987" lon="30.382631253451109">
        <ele>1648.8</ele>
        <time>2023-04-09T07:46:54Z</time>
      </trkpt>
      <trkpt lat="-27.40129642188549" lon="30.382584230974317">
        <ele>1649.76</ele>
        <time>2023-04-09T07:46:55Z</time>
      </trkpt>
      <trkpt lat="-27.401350568979979" lon="30.382521450519562">
        <ele>1650.72</ele>
        <time>2023-04-09T07:46:56Z</time>
      </trkpt>
      <trkpt lat="-27.401398681104183" lon="30.382439224049449">
        <ele>1651.6800000000001</ele>
        <time>2023-04-09T07:46:57Z</time>
      </trkpt>
      <trkpt lat="-27.401433885097504" lon="30.382351633161306">
        <ele>1652.6400000000001</ele>
        <time>2023-04-09T07:46:58Z</time>
      </trkpt>
      <trkpt lat="-27.401459533721209" lon="30.382243506610394">
        <ele>1653.1199999999999</ele>
        <time>2023-04-09T07:46:59Z</time>
      </trkpt>
      <trkpt lat="-27.401468586176634" lon="30.382134541869164">
        <ele>1654.0899999999999</ele>
        <time>2023-04-09T07:47:00Z</time>
      </trkpt>
      <trkpt lat="-27.401469675824046" lon="30.38201954215765">
        <ele>1655.05</ele>
        <time>2023-04-09T07:47:01Z</time>
      </trkpt>
      <trkpt lat="-27.401460707187653" lon="30.381889622658491">
        <ele>1656.01</ele>
        <time>2023-04-09T07:47:02Z</time>
      </trkpt>
      <trkpt lat="-27.401444111019373" lon="30.38174981251359">
        <ele>1656.97</ele>
        <time>2023-04-09T07:47:03Z</time>
      </trkpt>
      <trkpt lat="-27.401419635862112" lon="30.381599860265851">
        <ele>1658.4100000000001</ele>
        <time>2023-04-09T07:47:04Z</time>
      </trkpt>
      <trkpt lat="-27.401172369718552" lon="30.380106205120683">
        <ele>1669.47</ele>
        <time>2023-04-09T07:47:12Z</time>
      </trkpt>
      <trkpt lat="-27.401223415508866" lon="30.378894098103046">
        <ele>1679.5599999999999</ele>
        <time>2023-04-09T07:47:19Z</time>
      </trkpt>
      <trkpt lat="-27.401585597544909" lon="30.377061646431684">
        <ele>1694.46</ele>
        <time>2023-04-09T07:47:28Z</time>
      </trkpt>
      <trkpt lat="-27.401629518717527" lon="30.376562671735883">
        <ele>1700.23</ele>
        <time>2023-04-09T07:47:31Z</time>
      </trkpt>
      <trkpt lat="-27.401619628071785" lon="30.376409953460097">
        <ele>1702.1500000000001</ele>
        <time>2023-04-09T07:47:32Z</time>
      </trkpt>
      <trkpt lat="-27.401595991104841" lon="30.376255558803678">
        <ele>1703.5899999999999</ele>
        <time>2023-04-09T07:47:33Z</time>
      </trkpt>
      <trkpt lat="-27.401555422693491" lon="30.376087250187993">
        <ele>1705.52</ele>
        <time>2023-04-09T07:47:34Z</time>
      </trkpt>
      <trkpt lat="-27.401500605046749" lon="30.375917684286833">
        <ele>1706.96</ele>
        <time>2023-04-09T07:47:35Z</time>
      </trkpt>
      <trkpt lat="-27.401443775743246" lon="30.375763876363635">
        <ele>1707.9200000000001</ele>
        <time>2023-04-09T07:47:36Z</time>
      </trkpt>
      <trkpt lat="-27.400831058621407" lon="30.374105935916305">
        <ele>1714.1700000000001</ele>
        <time>2023-04-09T07:47:44Z</time>
      </trkpt>
      <trkpt lat="-27.400351278483868" lon="30.372135769575834">
        <ele>1723.3</ele>
        <time>2023-04-09T07:47:53Z</time>
      </trkpt>
      <trkpt lat="-27.400088841095567" lon="30.371051067486405">
        <ele>1730.03</ele>
        <time>2023-04-09T07:47:59Z</time>
      </trkpt>
      <trkpt lat="-27.400013990700245" lon="30.370894158259034">
        <ele>1730.99</ele>
        <time>2023-04-09T07:48:00Z</time>
      </trkpt>
      <trkpt lat="-27.399919694289565" lon="30.370740434154868">
        <ele>1732.4300000000001</ele>
        <time>2023-04-09T07:48:01Z</time>
      </trkpt>
      <trkpt lat="-27.399812992662191" lon="30.37060079164803">
        <ele>1733.8800000000001</ele>
        <time>2023-04-09T07:48:02Z</time>
      </trkpt>
      <trkpt lat="-27.399695478379726" lon="30.370462741702795">
        <ele>1735.3199999999999</ele>
        <time>2023-04-09T07:48:03Z</time>
      </trkpt>
      <trkpt lat="-27.398663079366088" lon="30.369515921920538">
        <ele>1750.22</ele>
        <time>2023-04-09T07:48:11Z</time>
      </trkpt>
      <trkpt lat="-27.398498961701989" lon="30.369356498122215">
        <ele>1753.5799999999999</ele>
        <time>2023-04-09T07:48:13Z</time>
      </trkpt>
      <trkpt lat="-27.398451520130038" lon="30.369279133155942">
        <ele>1755.02</ele>
        <time>2023-04-09T07:48:14Z</time>
      </trkpt>
      <trkpt lat="-27.398421093821526" lon="30.36919204518199">
        <ele>1755.99</ele>
        <time>2023-04-09T07:48:15Z</time>
      </trkpt>
      <trkpt lat="-27.39840273745358" lon="30.369091043248773">
        <ele>1757.4300000000001</ele>
        <time>2023-04-09T07:48:16Z</time>
      </trkpt>
      <trkpt lat="-27.398394607007504" lon="30.368976881727576">
        <ele>1758.8699999999999</ele>
        <time>2023-04-09T07:48:17Z</time>
      </trkpt>
      <trkpt lat="-27.398392511531711" lon="30.368859535083175">
        <ele>1760.3099999999999</ele>
        <time>2023-04-09T07:48:18Z</time>
      </trkpt>
      <trkpt lat="-27.398411789909005" lon="30.368500454351306">
        <ele>1764.6400000000001</ele>
        <time>2023-04-09T07:48:21Z</time>
      </trkpt>
      <trkpt lat="-27.398437187075615" lon="30.368411019444466">
        <ele>1766.0799999999999</ele>
        <time>2023-04-09T07:48:22Z</time>
      </trkpt>
      <trkpt lat="-27.39847507327795" lon="30.368325188755989">
        <ele>1767.52</ele>
        <time>2023-04-09T07:48:23Z</time>
      </trkpt>
      <trkpt lat="-27.398521592840552" lon="30.368244471028447">
        <ele>1768.96</ele>
        <time>2023-04-09T07:48:24Z</time>
      </trkpt>
      <trkpt lat="-27.39857766777277" lon="30.368165345862508">
        <ele>1770.8900000000001</ele>
        <time>2023-04-09T07:48:25Z</time>
      </trkpt>
      <trkpt lat="-27.398640783503652" lon="30.368092674762011">
        <ele>1771.8499999999999</ele>
        <time>2023-04-09T07:48:26Z</time>
      </trkpt>
      <trkpt lat="-27.398714125156403" lon="30.36802226677537">
        <ele>1772.8099999999999</ele>
        <time>2023-04-09T07:48:27Z</time>
      </trkpt>
      <trkpt lat="-27.398798698559403" lon="30.367959151044488">
        <ele>1773.77</ele>
        <time>2023-04-09T07:48:28Z</time>
      </trkpt>
      <trkpt lat="-27.39888989366591" lon="30.36791380494833">
        <ele>1774.73</ele>
        <time>2023-04-09T07:48:29Z</time>
      </trkpt>
      <trkpt lat="-27.398999193683267" lon="30.36788203753531">
        <ele>1775.21</ele>
        <time>2023-04-09T07:48:30Z</time>
      </trkpt>
      <trkpt lat="-27.399129029363394" lon="30.367863345891237">
        <ele>1776.1700000000001</ele>
        <time>2023-04-09T07:48:31Z</time>
      </trkpt>
      <trkpt lat="-27.399271773174405" lon="30.367850353941321">
        <ele>1777.1300000000001</ele>
        <time>2023-04-09T07:48:32Z</time>
      </trkpt>
      <trkpt lat="-27.400413891300559" lon="30.367677938193083">
        <ele>1781.9400000000001</ele>
        <time>2023-04-09T07:48:39Z</time>
      </trkpt>
      <trkpt lat="-27.40054246969521" lon="30.367622030898929">
        <ele>1782.4200000000001</ele>
        <time>2023-04-09T07:48:40Z</time>
      </trkpt>
      <trkpt lat="-27.4006587266922" lon="30.367553634569049">
        <ele>1782.9000000000001</ele>
        <time>2023-04-09T07:48:41Z</time>
      </trkpt>
      <trkpt lat="-27.400775235146284" lon="30.367465121671557">
        <ele>1783.3800000000001</ele>
        <time>2023-04-09T07:48:42Z</time>
      </trkpt>
      <trkpt lat="-27.400880176573992" lon="30.367364455014467">
        <ele>1783.3800000000001</ele>
        <time>2023-04-09T07:48:43Z</time>
      </trkpt>
      <trkpt lat="-27.400976903736591" lon="30.367250125855207">
        <ele>1783.3800000000001</ele>
        <time>2023-04-09T07:48:44Z</time>
      </trkpt>
      <trkpt lat="-27.401066087186337" lon="30.367121798917651">
        <ele>1783.3800000000001</ele>
        <time>2023-04-09T07:48:45Z</time>
      </trkpt>
      <trkpt lat="-27.401141608133912" lon="30.366980731487274">
        <ele>1783.3800000000001</ele>
        <time>2023-04-09T07:48:46Z</time>
      </trkpt>
      <trkpt lat="-27.401197347790003" lon="30.366835305467248">
        <ele>1783.3800000000001</ele>
        <time>2023-04-09T07:48:47Z</time>
      </trkpt>
      <trkpt lat="-27.401236156001687" lon="30.36667856387794">
        <ele>1783.3800000000001</ele>
        <time>2023-04-09T07:48:48Z</time>
      </trkpt>
      <trkpt lat="-27.401260212063789" lon="30.366507321596146">
        <ele>1783.8599999999999</ele>
        <time>2023-04-09T07:48:49Z</time>
      </trkpt>
      <trkpt lat="-27.401274712756276" lon="30.366329541429877">
        <ele>1783.8599999999999</ele>
        <time>2023-04-09T07:48:50Z</time>
      </trkpt>
      <trkpt lat="-27.401305641978979" lon="30.364766903221607">
        <ele>1787.71</ele>
        <time>2023-04-09T07:48:57Z</time>
      </trkpt>
      <trkpt lat="-27.401332044973969" lon="30.361875565722585">
        <ele>1795.8800000000001</ele>
        <time>2023-04-09T07:49:08Z</time>
      </trkpt>
      <trkpt lat="-27.401292147114873" lon="30.35944975912571">
        <ele>1802.6099999999999</ele>
        <time>2023-04-09T07:49:17Z</time>
      </trkpt>
      <trkpt lat="-27.401242945343256" lon="30.359290167689323">
        <ele>1803.5699999999999</ele>
        <time>2023-04-09T07:49:18Z</time>
      </trkpt>
      <trkpt lat="-27.401174046099186" lon="30.35914096981287">
        <ele>1804.05</ele>
        <time>2023-04-09T07:49:19Z</time>
      </trkpt>
      <trkpt lat="-27.401082767173648" lon="30.358991520479321">
        <ele>1804.53</ele>
        <time>2023-04-09T07:49:20Z</time>
      </trkpt>
      <trkpt lat="-27.400981597602367" lon="30.358844418078661">
        <ele>1804.53</ele>
        <time>2023-04-09T07:49:21Z</time>
      </trkpt>
      <trkpt lat="-27.400116920471191" lon="30.357744125649333">
        <ele>1800.21</ele>
        <time>2023-04-09T07:49:28Z</time>
      </trkpt>
      <trkpt lat="-27.3995759524405" lon="30.3566406480968">
        <ele>1795.4000000000001</ele>
        <time>2023-04-09T07:49:35Z</time>
      </trkpt>
      <trkpt lat="-27.399323657155037" lon="30.3548947814852">
        <ele>1790.1099999999999</ele>
        <time>2023-04-09T07:49:44Z</time>
      </trkpt>
      <trkpt lat="-27.399543765932322" lon="30.353380171582103">
        <ele>1786.75</ele>
        <time>2023-04-09T07:49:51Z</time>
      </trkpt>
      <trkpt lat="-27.399944001808763" lon="30.351472701877356">
        <ele>1783.3800000000001</ele>
        <time>2023-04-09T07:50:00Z</time>
      </trkpt>
      <trkpt lat="-27.400173079222441" lon="30.35028993152082">
        <ele>1782.9000000000001</ele>
        <time>2023-04-09T07:50:07Z</time>
      </trkpt>
      <trkpt lat="-27.40018866956234" lon="30.349896904081106">
        <ele>1781.9400000000001</ele>
        <time>2023-04-09T07:50:10Z</time>
      </trkpt>
      <trkpt lat="-27.400169055908918" lon="30.349771929904819">
        <ele>1781.9400000000001</ele>
        <time>2023-04-09T07:50:11Z</time>
      </trkpt>
      <trkpt lat="-27.400135193020105" lon="30.349650643765926">
        <ele>1781.9400000000001</ele>
        <time>2023-04-09T07:50:12Z</time>
      </trkpt>
      <trkpt lat="-27.40008951164782" lon="30.349532710388303">
        <ele>1781.9400000000001</ele>
        <time>2023-04-09T07:50:13Z</time>
      </trkpt>
      <trkpt lat="-27.400038549676538" lon="30.349429026246071">
        <ele>1781.9400000000001</ele>
        <time>2023-04-09T07:50:14Z</time>
      </trkpt>
      <trkpt lat="-27.399977697059512" lon="30.3493273537606">
        <ele>1781.9400000000001</ele>
        <time>2023-04-09T07:50:15Z</time>
      </trkpt>
      <trkpt lat="-27.399901589378715" lon="30.349226770922542">
        <ele>1781.9400000000001</ele>
        <time>2023-04-09T07:50:16Z</time>
      </trkpt>
      <trkpt lat="-27.399806203320622" lon="30.349120907485485">
        <ele>1781.46</ele>
        <time>2023-04-09T07:50:17Z</time>
      </trkpt>
      <trkpt lat="-27.399687096476555" lon="30.349007165059447">
        <ele>1780.98</ele>
        <time>2023-04-09T07:50:18Z</time>
      </trkpt>
      <trkpt lat="-27.39954904653132" lon="30.348884956911206">
        <ele>1780.02</ele>
        <time>2023-04-09T07:50:19Z</time>
      </trkpt>
      <trkpt lat="-27.398130744695663" lon="30.347879966720939">
        <ele>1784.8199999999999</ele>
        <time>2023-04-09T07:50:27Z</time>
      </trkpt>
      <trkpt lat="-27.39732775837183" lon="30.347182843834162">
        <ele>1793.48</ele>
        <time>2023-04-09T07:50:32Z</time>
      </trkpt>
      <trkpt lat="-27.39721342921257" lon="30.347019983455539">
        <ele>1795.4000000000001</ele>
        <time>2023-04-09T07:50:33Z</time>
      </trkpt>
      <trkpt lat="-27.397111253812909" lon="30.346846478059888">
        <ele>1797.8</ele>
        <time>2023-04-09T07:50:34Z</time>
      </trkpt>
      <trkpt lat="-27.39701896905899" lon="30.346665009856224">
        <ele>1800.21</ele>
        <time>2023-04-09T07:50:35Z</time>
      </trkpt>
      <trkpt lat="-27.396934814751148" lon="30.34647960215807">
        <ele>1802.6099999999999</ele>
        <time>2023-04-09T07:50:36Z</time>
      </trkpt>
      <trkpt lat="-27.39637590944767" lon="30.344676990061998">
        <ele>1826.1600000000001</ele>
        <time>2023-04-09T07:50:45Z</time>
      </trkpt>
      <trkpt lat="-27.395824547857046" lon="30.343429259955883">
        <ele>1840.5799999999999</ele>
        <time>2023-04-09T07:50:52Z</time>
      </trkpt>
      <trkpt lat="-27.395460773259401" lon="30.342523846775293">
        <ele>1844.4300000000001</ele>
        <time>2023-04-09T07:50:57Z</time>
      </trkpt>
      <trkpt lat="-27.395430011674762" lon="30.342340618371964">
        <ele>1844.4300000000001</ele>
        <time>2023-04-09T07:50:58Z</time>
      </trkpt>
      <trkpt lat="-27.395358346402645" lon="30.34071964211762">
        <ele>1843.95</ele>
        <time>2023-04-09T07:51:07Z</time>
      </trkpt>
      <trkpt lat="-27.395326159894466" lon="30.339119201526046">
        <ele>1855.48</ele>
        <time>2023-04-09T07:51:16Z</time>
      </trkpt>
      <trkpt lat="-27.395176962018013" lon="30.33746000379324">
        <ele>1864.1300000000001</ele>
        <time>2023-04-09T07:51:25Z</time>
      </trkpt>
      <trkpt lat="-27.394710928201675" lon="30.335978921502829">
        <ele>1875.6700000000001</ele>
        <time>2023-04-09T07:51:34Z</time>
      </trkpt>
      <trkpt lat="-27.394683100283146" lon="30.335856545716524">
        <ele>1876.1500000000001</ele>
        <time>2023-04-09T07:51:35Z</time>
      </trkpt>
      <trkpt lat="-27.394668096676469" lon="30.335744312033057">
        <ele>1876.6300000000001</ele>
        <time>2023-04-09T07:51:36Z</time>
      </trkpt>
      <trkpt lat="-27.394665917381644" lon="30.335634928196669">
        <ele>1876.6300000000001</ele>
        <time>2023-04-09T07:51:37Z</time>
      </trkpt>
      <trkpt lat="-27.394677400588989" lon="30.335525209084153">
        <ele>1877.1099999999999</ele>
        <time>2023-04-09T07:51:38Z</time>
      </trkpt>
      <trkpt lat="-27.394703552126884" lon="30.335410041734576">
        <ele>1876.6300000000001</ele>
        <time>2023-04-09T07:51:39Z</time>
      </trkpt>
      <trkpt lat="-27.394747473299503" lon="30.335287330672145">
        <ele>1876.6300000000001</ele>
        <time>2023-04-09T07:51:40Z</time>
      </trkpt>
      <trkpt lat="-27.394808158278465" lon="30.335159758105874">
        <ele>1876.1500000000001</ele>
        <time>2023-04-09T07:51:41Z</time>
      </trkpt>
      <trkpt lat="-27.394882505759597" lon="30.335028497502208">
        <ele>1875.6700000000001</ele>
        <time>2023-04-09T07:51:42Z</time>
      </trkpt>
      <trkpt lat="-27.394962217658758" lon="30.334888184443116">
        <ele>1875.1900000000001</ele>
        <time>2023-04-09T07:51:43Z</time>
      </trkpt>
      <trkpt lat="-27.395033212378621" lon="30.334734376519918">
        <ele>1874.71</ele>
        <time>2023-04-09T07:51:44Z</time>
      </trkpt>
      <trkpt lat="-27.39508886821568" lon="30.334567660465837">
        <ele>1874.71</ele>
        <time>2023-04-09T07:51:45Z</time>
      </trkpt>
      <trkpt lat="-27.39513136446476" lon="30.334387198090553">
        <ele>1874.23</ele>
        <time>2023-04-09T07:51:46Z</time>
      </trkpt>
      <trkpt lat="-27.395163718611002" lon="30.334203131496906">
        <ele>1874.23</ele>
        <time>2023-04-09T07:51:47Z</time>
      </trkpt>
      <trkpt lat="-27.395356670022011" lon="30.332629680633545">
        <ele>1869.9000000000001</ele>
        <time>2023-04-09T07:51:54Z</time>
      </trkpt>
      <trkpt lat="-27.395737962797284" lon="30.330781973898411">
        <ele>1874.71</ele>
        <time>2023-04-09T07:52:03Z</time>
      </trkpt>
      <trkpt lat="-27.396265603601933" lon="30.329549498856068">
        <ele>1887.6900000000001</ele>
        <time>2023-04-09T07:52:10Z</time>
      </trkpt>
      <trkpt lat="-27.397041516378522" lon="30.328322052955627">
        <ele>1898.26</ele>
        <time>2023-04-09T07:52:18Z</time>
      </trkpt>
      <trkpt lat="-27.397561026737094" lon="30.32684943638742">
        <ele>1913.6400000000001</ele>
        <time>2023-04-09T07:52:27Z</time>
      </trkpt>
      <trkpt lat="-27.397612994536757" lon="30.326735861599445">
        <ele>1914.5999999999999</ele>
        <time>2023-04-09T07:52:28Z</time>
      </trkpt>
      <trkpt lat="-27.397649455815554" lon="30.326614324003458">
        <ele>1916.04</ele>
        <time>2023-04-09T07:52:29Z</time>
      </trkpt>
      <trkpt lat="-27.397664124146104" lon="30.326478285714984">
        <ele>1917.01</ele>
        <time>2023-04-09T07:52:30Z</time>
      </trkpt>
      <trkpt lat="-27.397653562948108" lon="30.32633638009429">
        <ele>1917.97</ele>
        <time>2023-04-09T07:52:31Z</time>
      </trkpt>
      <trkpt lat="-27.397623723372817" lon="30.326185505837202">
        <ele>1919.4100000000001</ele>
        <time>2023-04-09T07:52:32Z</time>
      </trkpt>
      <trkpt lat="-27.397578293457627" lon="30.326025914400816">
        <ele>1920.3699999999999</ele>
        <time>2023-04-09T07:52:33Z</time>
      </trkpt>
      <trkpt lat="-27.397524481639266" lon="30.325853582471609">
        <ele>1921.3299999999999</ele>
        <time>2023-04-09T07:52:34Z</time>
      </trkpt>
      <trkpt lat="-27.397258607670665" lon="30.324546424672008">
        <ele>1928.54</ele>
        <time>2023-04-09T07:52:41Z</time>
      </trkpt>
      <trkpt lat="-27.397275120019913" lon="30.324248364195228">
        <ele>1929.98</ele>
        <time>2023-04-09T07:52:43Z</time>
      </trkpt>
      <trkpt lat="-27.39729842171073" lon="30.324113164097071">
        <ele>1930.46</ele>
        <time>2023-04-09T07:52:44Z</time>
      </trkpt>
      <trkpt lat="-27.39763512276113" lon="30.323279500007629">
        <ele>1926.6199999999999</ele>
        <time>2023-04-09T07:52:51Z</time>
      </trkpt>
      <trkpt lat="-27.398320678621531" lon="30.322092287242413">
        <ele>1918.45</ele>
        <time>2023-04-09T07:52:58Z</time>
      </trkpt>
      <trkpt lat="-27.399519206956029" lon="30.320074427872896">
        <ele>1912.6800000000001</ele>
        <time>2023-04-09T07:53:10Z</time>
      </trkpt>
      <trkpt lat="-27.400281457230449" lon="30.31878168694675">
        <ele>1902.5899999999999</ele>
        <time>2023-04-09T07:53:20Z</time>
      </trkpt>
      <trkpt lat="-27.400886882096529" lon="30.318008037284017">
        <ele>1897.3</ele>
        <time>2023-04-09T07:53:26Z</time>
      </trkpt>
      <trkpt lat="-27.402160679921508" lon="30.316283544525504">
        <ele>1888.1700000000001</ele>
        <time>2023-04-09T07:53:38Z</time>
      </trkpt>
      <trkpt lat="-27.403211100026965" lon="30.315049644559622">
        <ele>1880.48</ele>
        <time>2023-04-09T07:53:48Z</time>
      </trkpt>
      <trkpt lat="-27.404290856793523" lon="30.313721699640155">
        <ele>1877.1099999999999</ele>
        <time>2023-04-09T07:53:58Z</time>
      </trkpt>
      <trkpt lat="-27.405116474255919" lon="30.312581844627857">
        <ele>1870.8599999999999</ele>
        <time>2023-04-09T07:54:07Z</time>
      </trkpt>
      <trkpt lat="-27.40516391582787" lon="30.312459971755743">
        <ele>1870.3800000000001</ele>
        <time>2023-04-09T07:54:08Z</time>
      </trkpt>
      <trkpt lat="-27.405199874192476" lon="30.312338098883629">
        <ele>1869.9000000000001</ele>
        <time>2023-04-09T07:54:09Z</time>
      </trkpt>
      <trkpt lat="-27.405417552217841" lon="30.310783423483372">
        <ele>1859.8099999999999</ele>
        <time>2023-04-09T07:54:22Z</time>
      </trkpt>
    </trkseg>
  </trk>

</gpx>