<?xml version="1.0" encoding="utf-8"?><gpx creator="Garmin Desktop App" version="1.1" xsi:schemaLocation="http://www.topografix.com/GPX/1/1 http://www.topografix.com/GPX/1/1/gpx.xsd http://www.garmin.com/xmlschemas/WaypointExtension/v1 http://www8.garmin.com/xmlschemas/WaypointExtensionv1.xsd http://www.garmin.com/xmlschemas/TrackPointExtension/v1 http://www.garmin.com/xmlschemas/TrackPointExtensionv1.xsd http://www.garmin.com/xmlschemas/GpxExtensions/v3 http://www8.garmin.com/xmlschemas/GpxExtensionsv3.xsd http://www.garmin.com/xmlschemas/ActivityExtension/v1 http://www8.garmin.com/xmlschemas/ActivityExtensionv1.xsd http://www.garmin.com/xmlschemas/AdventuresExtensions/v1 http://www8.garmin.com/xmlschemas/AdventuresExtensionv1.xsd http://www.garmin.com/xmlschemas/PressureExtension/v1 http://www.garmin.com/xmlschemas/PressureExtensionv1.xsd http://www.garmin.com/xmlschemas/TripExtensions/v1 http://www.garmin.com/xmlschemas/TripExtensionsv1.xsd http://www.garmin.com/xmlschemas/TripMetaDataExtensions/v1 http://www.garmin.com/xmlschemas/TripMetaDataExtensionsv1.xsd http://www.garmin.com/xmlschemas/ViaPointTransportationModeExtensions/v1 http://www.garmin.com/xmlschemas/ViaPointTransportationModeExtensionsv1.xsd http://www.garmin.com/xmlschemas/CreationTimeExtension/v1 http://www.garmin.com/xmlschemas/CreationTimeExtensionsv1.xsd http://www.garmin.com/xmlschemas/AccelerationExtension/v1 http://www.garmin.com/xmlschemas/AccelerationExtensionv1.xsd http://www.garmin.com/xmlschemas/PowerExtension/v1 http://www.garmin.com/xmlschemas/PowerExtensionv1.xsd http://www.garmin.com/xmlschemas/VideoExtension/v1 http://www.garmin.com/xmlschemas/VideoExtensionv1.xsd" xmlns="http://www.topografix.com/GPX/1/1" xmlns:xsi="http://www.w3.org/2001/XMLSchema-instance" xmlns:wptx1="http://www.garmin.com/xmlschemas/WaypointExtension/v1" xmlns:gpxtrx="http://www.garmin.com/xmlschemas/GpxExtensions/v3" xmlns:gpxtpx="http://www.garmin.com/xmlschemas/TrackPointExtension/v1" xmlns:gpxx="http://www.garmin.com/xmlschemas/GpxExtensions/v3" xmlns:trp="http://www.garmin.com/xmlschemas/TripExtensions/v1" xmlns:adv="http://www.garmin.com/xmlschemas/AdventuresExtensions/v1" xmlns:prs="http://www.garmin.com/xmlschemas/PressureExtension/v1" xmlns:tmd="http://www.garmin.com/xmlschemas/TripMetaDataExtensions/v1" xmlns:vptm="http://www.garmin.com/xmlschemas/ViaPointTransportationModeExtensions/v1" xmlns:ctx="http://www.garmin.com/xmlschemas/CreationTimeExtension/v1" xmlns:gpxacc="http://www.garmin.com/xmlschemas/AccelerationExtension/v1" xmlns:gpxpx="http://www.garmin.com/xmlschemas/PowerExtension/v1" xmlns:vidx1="http://www.garmin.com/xmlschemas/VideoExtension/v1">

  <metadata>
    <link href="http://www.garmin.com">
      <text>Garmin International</text>
    </link>
    <time>2025-11-24T11:44:28Z</time>
    <bounds maxlat="-28.386206589639187" maxlon="28.17400555126369" minlat="-28.426632089540362" minlon="28.153209546580911" />
  </metadata>

  <trk>
    <name>[409] Slabberts Nek</name>
    <extensions>
      <gpxx:TrackExtension>
        <gpxx:DisplayColor>Red</gpxx:DisplayColor>
      </gpxx:TrackExtension>
    </extensions>
    <trkseg>
      <trkpt lat="-28.386206589639187" lon="28.153209546580911">
        <ele>1796.3599999999999</ele>
        <time>2025-11-20T14:44:44Z</time>
      </trkpt>
      <trkpt lat="-28.388340454548597" lon="28.15387012436986">
        <ele>1798.76</ele>
        <time>2025-11-20T14:44:59Z</time>
      </trkpt>
      <trkpt lat="-28.390269968658686" lon="28.154571857303381">
        <ele>1794.9200000000001</ele>
        <time>2025-11-20T14:45:13Z</time>
      </trkpt>
      <trkpt lat="-28.391212429851294" lon="28.155510881915689">
        <ele>1794.4400000000001</ele>
        <time>2025-11-20T14:45:22Z</time>
      </trkpt>
      <trkpt lat="-28.391864374279976" lon="28.156489720568061">
        <ele>1789.6300000000001</ele>
        <time>2025-11-20T14:45:31Z</time>
      </trkpt>
      <trkpt lat="-28.392966091632843" lon="28.158047748729587">
        <ele>1776.1700000000001</ele>
        <time>2025-11-20T14:45:44Z</time>
      </trkpt>
      <trkpt lat="-28.394383722916245" lon="28.160112211480737">
        <ele>1766.5599999999999</ele>
        <time>2025-11-20T14:46:00Z</time>
      </trkpt>
      <trkpt lat="-28.394639287143946" lon="28.160468274727464">
        <ele>1766.0799999999999</ele>
        <time>2025-11-20T14:46:03Z</time>
      </trkpt>
      <trkpt lat="-28.39473626576364" lon="28.160555278882384">
        <ele>1766.0799999999999</ele>
        <time>2025-11-20T14:46:04Z</time>
      </trkpt>
      <trkpt lat="-28.394825449213386" lon="28.160617053508759">
        <ele>1766.0799999999999</ele>
        <time>2025-11-20T14:46:05Z</time>
      </trkpt>
      <trkpt lat="-28.394939862191677" lon="28.16068310290575">
        <ele>1766.0799999999999</ele>
        <time>2025-11-20T14:46:06Z</time>
      </trkpt>
      <trkpt lat="-28.395062237977982" lon="28.160739848390222">
        <ele>1766.0799999999999</ele>
        <time>2025-11-20T14:46:07Z</time>
      </trkpt>
      <trkpt lat="-28.395191989839077" lon="28.160792989656329">
        <ele>1765.5999999999999</ele>
        <time>2025-11-20T14:46:08Z</time>
      </trkpt>
      <trkpt lat="-28.39685101993382" lon="28.161289701238275">
        <ele>1761.27</ele>
        <time>2025-11-20T14:46:19Z</time>
      </trkpt>
      <trkpt lat="-28.399884263053536" lon="28.162245992571115">
        <ele>1760.79</ele>
        <time>2025-11-20T14:46:39Z</time>
      </trkpt>
      <trkpt lat="-28.40258214622736" lon="28.163174455985427">
        <ele>1757.4300000000001</ele>
        <time>2025-11-20T14:46:57Z</time>
      </trkpt>
      <trkpt lat="-28.404766973108053" lon="28.163928491994739">
        <ele>1753.5799999999999</ele>
        <time>2025-11-20T14:47:11Z</time>
      </trkpt>
      <trkpt lat="-28.407442308962345" lon="28.16488285548985">
        <ele>1751.1800000000001</ele>
        <time>2025-11-20T14:47:29Z</time>
      </trkpt>
      <trkpt lat="-28.408787436783314" lon="28.165299100801349">
        <ele>1749.26</ele>
        <time>2025-11-20T14:47:39Z</time>
      </trkpt>
      <trkpt lat="-28.410621313378215" lon="28.165712999179959">
        <ele>1744.45</ele>
        <time>2025-11-20T14:47:52Z</time>
      </trkpt>
      <trkpt lat="-28.411804335191846" lon="28.166313646361232">
        <ele>1738.6800000000001</ele>
        <time>2025-11-20T14:48:01Z</time>
      </trkpt>
      <trkpt lat="-28.414448071271181" lon="28.16770076751709">
        <ele>1734.8399999999999</ele>
        <time>2025-11-20T14:48:19Z</time>
      </trkpt>
      <trkpt lat="-28.415899481624365" lon="28.168428568169475">
        <ele>1728.5899999999999</ele>
        <time>2025-11-20T14:48:31Z</time>
      </trkpt>
      <trkpt lat="-28.416964486241341" lon="28.169517377391458">
        <ele>1717.53</ele>
        <time>2025-11-20T14:48:41Z</time>
      </trkpt>
      <trkpt lat="-28.418763158842921" lon="28.17133859731257">
        <ele>1704.55</ele>
        <time>2025-11-20T14:48:57Z</time>
      </trkpt>
      <trkpt lat="-28.418929371982813" lon="28.171433815732598">
        <ele>1704.0699999999999</ele>
        <time>2025-11-20T14:48:58Z</time>
      </trkpt>
      <trkpt lat="-28.419069601222873" lon="28.171496009454131">
        <ele>1703.5899999999999</ele>
        <time>2025-11-20T14:48:59Z</time>
      </trkpt>
      <trkpt lat="-28.419193401932716" lon="28.171541020274162">
        <ele>1703.1099999999999</ele>
        <time>2025-11-20T14:49:00Z</time>
      </trkpt>
      <trkpt lat="-28.421194916591048" lon="28.172098500654101">
        <ele>1700.23</ele>
        <time>2025-11-20T14:49:13Z</time>
      </trkpt>
      <trkpt lat="-28.424188932403922" lon="28.173051439225674">
        <ele>1700.71</ele>
        <time>2025-11-20T14:49:32Z</time>
      </trkpt>
      <trkpt lat="-28.426632089540362" lon="28.17400555126369">
        <ele>1694.46</ele>
        <time>2025-11-20T14:49:48Z</time>
      </trkpt>
    </trkseg>
  </trk>

</gpx>