<?xml version="1.0" encoding="utf-8"?><gpx creator="Garmin Desktop App" version="1.1" xsi:schemaLocation="http://www.topografix.com/GPX/1/1 http://www.topografix.com/GPX/1/1/gpx.xsd http://www.garmin.com/xmlschemas/WaypointExtension/v1 http://www8.garmin.com/xmlschemas/WaypointExtensionv1.xsd http://www.garmin.com/xmlschemas/TrackPointExtension/v1 http://www.garmin.com/xmlschemas/TrackPointExtensionv1.xsd http://www.garmin.com/xmlschemas/GpxExtensions/v3 http://www8.garmin.com/xmlschemas/GpxExtensionsv3.xsd http://www.garmin.com/xmlschemas/ActivityExtension/v1 http://www8.garmin.com/xmlschemas/ActivityExtensionv1.xsd http://www.garmin.com/xmlschemas/AdventuresExtensions/v1 http://www8.garmin.com/xmlschemas/AdventuresExtensionv1.xsd http://www.garmin.com/xmlschemas/PressureExtension/v1 http://www.garmin.com/xmlschemas/PressureExtensionv1.xsd http://www.garmin.com/xmlschemas/TripExtensions/v1 http://www.garmin.com/xmlschemas/TripExtensionsv1.xsd http://www.garmin.com/xmlschemas/TripMetaDataExtensions/v1 http://www.garmin.com/xmlschemas/TripMetaDataExtensionsv1.xsd http://www.garmin.com/xmlschemas/ViaPointTransportationModeExtensions/v1 http://www.garmin.com/xmlschemas/ViaPointTransportationModeExtensionsv1.xsd http://www.garmin.com/xmlschemas/CreationTimeExtension/v1 http://www.garmin.com/xmlschemas/CreationTimeExtensionsv1.xsd http://www.garmin.com/xmlschemas/AccelerationExtension/v1 http://www.garmin.com/xmlschemas/AccelerationExtensionv1.xsd http://www.garmin.com/xmlschemas/PowerExtension/v1 http://www.garmin.com/xmlschemas/PowerExtensionv1.xsd http://www.garmin.com/xmlschemas/VideoExtension/v1 http://www.garmin.com/xmlschemas/VideoExtensionv1.xsd" xmlns="http://www.topografix.com/GPX/1/1" xmlns:xsi="http://www.w3.org/2001/XMLSchema-instance" xmlns:wptx1="http://www.garmin.com/xmlschemas/WaypointExtension/v1" xmlns:gpxtrx="http://www.garmin.com/xmlschemas/GpxExtensions/v3" xmlns:gpxtpx="http://www.garmin.com/xmlschemas/TrackPointExtension/v1" xmlns:gpxx="http://www.garmin.com/xmlschemas/GpxExtensions/v3" xmlns:trp="http://www.garmin.com/xmlschemas/TripExtensions/v1" xmlns:adv="http://www.garmin.com/xmlschemas/AdventuresExtensions/v1" xmlns:prs="http://www.garmin.com/xmlschemas/PressureExtension/v1" xmlns:tmd="http://www.garmin.com/xmlschemas/TripMetaDataExtensions/v1" xmlns:vptm="http://www.garmin.com/xmlschemas/ViaPointTransportationModeExtensions/v1" xmlns:ctx="http://www.garmin.com/xmlschemas/CreationTimeExtension/v1" xmlns:gpxacc="http://www.garmin.com/xmlschemas/AccelerationExtension/v1" xmlns:gpxpx="http://www.garmin.com/xmlschemas/PowerExtension/v1" xmlns:vidx1="http://www.garmin.com/xmlschemas/VideoExtension/v1">

  <metadata>
    <link href="http://www.garmin.com">
      <text>Garmin International</text>
    </link>
    <time>2025-11-24T11:44:49Z</time>
    <bounds maxlat="-28.724643029272556" maxlon="28.080564010888338" minlat="-28.742889007553458" minlon="28.06559300981462" />
  </metadata>

  <trk>
    <name>[412] Generaalsnek</name>
    <extensions>
      <gpxx:TrackExtension>
        <gpxx:DisplayColor>Green</gpxx:DisplayColor>
      </gpxx:TrackExtension>
    </extensions>
    <trkseg>
      <trkpt lat="-28.742889007553458" lon="28.06559300981462">
        <ele>1651.2</ele>
        <time>2025-11-21T14:32:02Z</time>
      </trkpt>
      <trkpt lat="-28.738298993557692" lon="28.06909597478807">
        <ele>1655.53</ele>
        <time>2025-11-21T14:32:24Z</time>
      </trkpt>
      <trkpt lat="-28.737680995836854" lon="28.069565026089549">
        <ele>1659.3699999999999</ele>
        <time>2025-11-21T14:32:27Z</time>
      </trkpt>
      <trkpt lat="-28.737056963145733" lon="28.070038016885519">
        <ele>1662.74</ele>
        <time>2025-11-21T14:32:30Z</time>
      </trkpt>
      <trkpt lat="-28.736424967646599" lon="28.070517964661121">
        <ele>1666.5799999999999</ele>
        <time>2025-11-21T14:32:33Z</time>
      </trkpt>
      <trkpt lat="-28.735580993816257" lon="28.0711580067873">
        <ele>1670.4300000000001</ele>
        <time>2025-11-21T14:32:36Z</time>
      </trkpt>
      <trkpt lat="-28.735166005790234" lon="28.071472998708487">
        <ele>1673.79</ele>
        <time>2025-11-21T14:32:39Z</time>
      </trkpt>
      <trkpt lat="-28.734537027776241" lon="28.071951018646359">
        <ele>1677.1600000000001</ele>
        <time>2025-11-21T14:32:42Z</time>
      </trkpt>
      <trkpt lat="-28.733693975955248" lon="28.072589971125126">
        <ele>1680.52</ele>
        <time>2025-11-21T14:32:46Z</time>
      </trkpt>
      <trkpt lat="-28.732416993007064" lon="28.073561014607549">
        <ele>1683.8900000000001</ele>
        <time>2025-11-21T14:32:52Z</time>
      </trkpt>
      <trkpt lat="-28.731567990034819" lon="28.074207007884979">
        <ele>1685.3299999999999</ele>
        <time>2025-11-21T14:32:55Z</time>
      </trkpt>
      <trkpt lat="-28.730720998719335" lon="28.074848977848887">
        <ele>1688.6900000000001</ele>
        <time>2025-11-21T14:33:00Z</time>
      </trkpt>
      <trkpt lat="-28.730094032362103" lon="28.075328003615141">
        <ele>1692.0599999999999</ele>
        <time>2025-11-21T14:33:03Z</time>
      </trkpt>
      <trkpt lat="-28.729469999670982" lon="28.075797976925969">
        <ele>1694.9400000000001</ele>
        <time>2025-11-21T14:33:06Z</time>
      </trkpt>
      <trkpt lat="-28.72862602584064" lon="28.076445981860161">
        <ele>1698.79</ele>
        <time>2025-11-21T14:33:10Z</time>
      </trkpt>
      <trkpt lat="-28.727792026475072" lon="28.07708602398634">
        <ele>1701.6700000000001</ele>
        <time>2025-11-21T14:33:14Z</time>
      </trkpt>
      <trkpt lat="-28.726183958351612" lon="28.078593006357551">
        <ele>1703.5899999999999</ele>
        <time>2025-11-21T14:33:22Z</time>
      </trkpt>
      <trkpt lat="-28.724643029272556" lon="28.080564010888338">
        <ele>1702.1500000000001</ele>
        <time>2025-11-21T14:33:34Z</time>
      </trkpt>
    </trkseg>
  </trk>

</gpx>