<?xml version="1.0" encoding="utf-8"?><gpx creator="Garmin Desktop App" version="1.1" xsi:schemaLocation="http://www.topografix.com/GPX/1/1 http://www.topografix.com/GPX/1/1/gpx.xsd http://www.garmin.com/xmlschemas/WaypointExtension/v1 http://www8.garmin.com/xmlschemas/WaypointExtensionv1.xsd http://www.garmin.com/xmlschemas/TrackPointExtension/v1 http://www.garmin.com/xmlschemas/TrackPointExtensionv1.xsd http://www.garmin.com/xmlschemas/GpxExtensions/v3 http://www8.garmin.com/xmlschemas/GpxExtensionsv3.xsd http://www.garmin.com/xmlschemas/ActivityExtension/v1 http://www8.garmin.com/xmlschemas/ActivityExtensionv1.xsd http://www.garmin.com/xmlschemas/AdventuresExtensions/v1 http://www8.garmin.com/xmlschemas/AdventuresExtensionv1.xsd http://www.garmin.com/xmlschemas/PressureExtension/v1 http://www.garmin.com/xmlschemas/PressureExtensionv1.xsd http://www.garmin.com/xmlschemas/TripExtensions/v1 http://www.garmin.com/xmlschemas/TripExtensionsv1.xsd http://www.garmin.com/xmlschemas/TripMetaDataExtensions/v1 http://www.garmin.com/xmlschemas/TripMetaDataExtensionsv1.xsd http://www.garmin.com/xmlschemas/ViaPointTransportationModeExtensions/v1 http://www.garmin.com/xmlschemas/ViaPointTransportationModeExtensionsv1.xsd http://www.garmin.com/xmlschemas/CreationTimeExtension/v1 http://www.garmin.com/xmlschemas/CreationTimeExtensionsv1.xsd http://www.garmin.com/xmlschemas/AccelerationExtension/v1 http://www.garmin.com/xmlschemas/AccelerationExtensionv1.xsd http://www.garmin.com/xmlschemas/PowerExtension/v1 http://www.garmin.com/xmlschemas/PowerExtensionv1.xsd http://www.garmin.com/xmlschemas/VideoExtension/v1 http://www.garmin.com/xmlschemas/VideoExtensionv1.xsd" xmlns="http://www.topografix.com/GPX/1/1" xmlns:xsi="http://www.w3.org/2001/XMLSchema-instance" xmlns:wptx1="http://www.garmin.com/xmlschemas/WaypointExtension/v1" xmlns:gpxtrx="http://www.garmin.com/xmlschemas/GpxExtensions/v3" xmlns:gpxtpx="http://www.garmin.com/xmlschemas/TrackPointExtension/v1" xmlns:gpxx="http://www.garmin.com/xmlschemas/GpxExtensions/v3" xmlns:trp="http://www.garmin.com/xmlschemas/TripExtensions/v1" xmlns:adv="http://www.garmin.com/xmlschemas/AdventuresExtensions/v1" xmlns:prs="http://www.garmin.com/xmlschemas/PressureExtension/v1" xmlns:tmd="http://www.garmin.com/xmlschemas/TripMetaDataExtensions/v1" xmlns:vptm="http://www.garmin.com/xmlschemas/ViaPointTransportationModeExtensions/v1" xmlns:ctx="http://www.garmin.com/xmlschemas/CreationTimeExtension/v1" xmlns:gpxacc="http://www.garmin.com/xmlschemas/AccelerationExtension/v1" xmlns:gpxpx="http://www.garmin.com/xmlschemas/PowerExtension/v1" xmlns:vidx1="http://www.garmin.com/xmlschemas/VideoExtension/v1">

  <metadata>
    <link href="http://www.garmin.com">
      <text>Garmin International</text>
    </link>
    <time>2022-03-25T19:36:19Z</time>
    <bounds maxlat="-24.870516043156385" maxlon="30.751694245263934" minlat="-24.904034603387117" minlon="30.564526934176683" />
  </metadata>

  <trk>
    <name>[3] Robbers Pass</name>
    <extensions>
      <gpxx:TrackExtension>
        <gpxx:DisplayColor>Blue</gpxx:DisplayColor>
      </gpxx:TrackExtension>
    </extensions>
    <trkseg>
      <trkpt lat="-24.881075983867049" lon="30.564526934176683">
        <ele>1262.3499999999999</ele>
        <time>2013-07-01T07:01:10Z</time>
      </trkpt>
      <trkpt lat="-24.881123593077064" lon="30.564599940553308">
        <ele>1262.8299999999999</ele>
        <time>2013-07-01T07:01:11Z</time>
      </trkpt>
      <trkpt lat="-24.881166173145175" lon="30.564687950536609">
        <ele>1263.3099999999999</ele>
        <time>2013-07-01T07:01:12Z</time>
      </trkpt>
      <trkpt lat="-24.881601529195905" lon="30.565532678738236">
        <ele>1264.27</ele>
        <time>2013-07-01T07:01:19Z</time>
      </trkpt>
      <trkpt lat="-24.882300496101379" lon="30.566817708313465">
        <ele>1265.71</ele>
        <time>2013-07-01T07:01:26Z</time>
      </trkpt>
      <trkpt lat="-24.883274473249912" lon="30.568590480834246">
        <ele>1265.71</ele>
        <time>2013-07-01T07:01:33Z</time>
      </trkpt>
      <trkpt lat="-24.885848723351955" lon="30.573295829817653">
        <ele>1260.9100000000001</ele>
        <time>2013-07-01T07:01:50Z</time>
      </trkpt>
      <trkpt lat="-24.887095531448722" lon="30.576295796781778">
        <ele>1256.5799999999999</ele>
        <time>2013-07-01T07:02:00Z</time>
      </trkpt>
      <trkpt lat="-24.888913985341787" lon="30.581835564225912">
        <ele>1244.0799999999999</ele>
        <time>2013-07-01T07:02:17Z</time>
      </trkpt>
      <trkpt lat="-24.889544807374477" lon="30.584744419902563">
        <ele>1246.01</ele>
        <time>2013-07-01T07:02:26Z</time>
      </trkpt>
      <trkpt lat="-24.890172109007835" lon="30.586471930146217">
        <ele>1248.8900000000001</ele>
        <time>2013-07-01T07:02:32Z</time>
      </trkpt>
      <trkpt lat="-24.891451522707939" lon="30.588316787034273">
        <ele>1251.29</ele>
        <time>2013-07-01T07:02:39Z</time>
      </trkpt>
      <trkpt lat="-24.893725113943219" lon="30.591681534424424">
        <ele>1261.8699999999999</ele>
        <time>2013-07-01T07:02:51Z</time>
      </trkpt>
      <trkpt lat="-24.895821344107389" lon="30.595663106068969">
        <ele>1281.0899999999999</ele>
        <time>2013-07-01T07:03:05Z</time>
      </trkpt>
      <trkpt lat="-24.897022973746061" lon="30.5976577475667">
        <ele>1284.46</ele>
        <time>2013-07-01T07:03:13Z</time>
      </trkpt>
      <trkpt lat="-24.898823741823435" lon="30.599687593057752">
        <ele>1285.4200000000001</ele>
        <time>2013-07-01T07:03:22Z</time>
      </trkpt>
      <trkpt lat="-24.90034949965775" lon="30.601955568417907">
        <ele>1286.8599999999999</ele>
        <time>2013-07-01T07:03:31Z</time>
      </trkpt>
      <trkpt lat="-24.90243156440556" lon="30.60553346760571">
        <ele>1292.6300000000001</ele>
        <time>2013-07-01T07:03:44Z</time>
      </trkpt>
      <trkpt lat="-24.903146121650934" lon="30.607865648344159">
        <ele>1295.03</ele>
        <time>2013-07-01T07:03:52Z</time>
      </trkpt>
      <trkpt lat="-24.903417946770787" lon="30.610284581780434">
        <ele>1293.1099999999999</ele>
        <time>2013-07-01T07:04:00Z</time>
      </trkpt>
      <trkpt lat="-24.903178391978145" lon="30.612977100536227">
        <ele>1288.3</ele>
        <time>2013-07-01T07:04:09Z</time>
      </trkpt>
      <trkpt lat="-24.90243156440556" lon="30.615497287362814">
        <ele>1293.5899999999999</ele>
        <time>2013-07-01T07:04:18Z</time>
      </trkpt>
      <trkpt lat="-24.900948470458388" lon="30.618503289297223">
        <ele>1311.8599999999999</ele>
        <time>2013-07-01T07:04:29Z</time>
      </trkpt>
      <trkpt lat="-24.899720186367631" lon="30.621122382581234">
        <ele>1329.6400000000001</ele>
        <time>2013-07-01T07:04:39Z</time>
      </trkpt>
      <trkpt lat="-24.899389855563641" lon="30.623073522001505">
        <ele>1342.1400000000001</ele>
        <time>2013-07-01T07:04:46Z</time>
      </trkpt>
      <trkpt lat="-24.899688167497516" lon="30.625082664191723">
        <ele>1354.1500000000001</ele>
        <time>2013-07-01T07:04:53Z</time>
      </trkpt>
      <trkpt lat="-24.900496266782284" lon="30.627004466950893">
        <ele>1364.25</ele>
        <time>2013-07-01T07:05:00Z</time>
      </trkpt>
      <trkpt lat="-24.900852413848042" lon="30.628706999123096">
        <ele>1373.8599999999999</ele>
        <time>2013-07-01T07:05:06Z</time>
      </trkpt>
      <trkpt lat="-24.900759626179934" lon="30.631021913141012">
        <ele>1388.76</ele>
        <time>2013-07-01T07:05:14Z</time>
      </trkpt>
      <trkpt lat="-24.900396270677447" lon="30.634170072153211">
        <ele>1410.3900000000001</ele>
        <time>2013-07-01T07:05:25Z</time>
      </trkpt>
      <trkpt lat="-24.899542406201363" lon="30.6361875962466">
        <ele>1429.1400000000001</ele>
        <time>2013-07-01T07:05:33Z</time>
      </trkpt>
      <trkpt lat="-24.899258259683847" lon="30.637797927483916">
        <ele>1442.5999999999999</ele>
        <time>2013-07-01T07:05:39Z</time>
      </trkpt>
      <trkpt lat="-24.899460934102535" lon="30.639451928436756">
        <ele>1453.6500000000001</ele>
        <time>2013-07-01T07:05:45Z</time>
      </trkpt>
      <trkpt lat="-24.900201559066772" lon="30.641426118090749">
        <ele>1460.3800000000001</ele>
        <time>2013-07-01T07:05:53Z</time>
      </trkpt>
      <trkpt lat="-24.900450333952904" lon="30.642369166016579">
        <ele>1460.3800000000001</ele>
        <time>2013-07-01T07:05:57Z</time>
      </trkpt>
      <trkpt lat="-24.900459554046392" lon="30.642616599798203">
        <ele>1460.3800000000001</ele>
        <time>2013-07-01T07:05:58Z</time>
      </trkpt>
      <trkpt lat="-24.900443209335208" lon="30.64286420121789">
        <ele>1460.3800000000001</ele>
        <time>2013-07-01T07:05:59Z</time>
      </trkpt>
      <trkpt lat="-24.900405658408999" lon="30.643110126256943">
        <ele>1460.3800000000001</ele>
        <time>2013-07-01T07:06:00Z</time>
      </trkpt>
      <trkpt lat="-24.900346901267767" lon="30.643353369086981">
        <ele>1460.3800000000001</ele>
        <time>2013-07-01T07:06:01Z</time>
      </trkpt>
      <trkpt lat="-24.900266770273447" lon="30.643593007698655">
        <ele>1460.3800000000001</ele>
        <time>2013-07-01T07:06:02Z</time>
      </trkpt>
      <trkpt lat="-24.900173395872116" lon="30.643831640481949">
        <ele>1460.3800000000001</ele>
        <time>2013-07-01T07:06:03Z</time>
      </trkpt>
      <trkpt lat="-24.899759916588664" lon="30.64504056237638">
        <ele>1462.78</ele>
        <time>2013-07-01T07:06:08Z</time>
      </trkpt>
      <trkpt lat="-24.899733010679483" lon="30.645290175452828">
        <ele>1463.74</ele>
        <time>2013-07-01T07:06:09Z</time>
      </trkpt>
      <trkpt lat="-24.899729322642088" lon="30.645538363605738">
        <ele>1464.71</ele>
        <time>2013-07-01T07:06:10Z</time>
      </trkpt>
      <trkpt lat="-24.899747343733907" lon="30.645784959197044">
        <ele>1465.1900000000001</ele>
        <time>2013-07-01T07:06:11Z</time>
      </trkpt>
      <trkpt lat="-24.899780619889498" lon="30.646033482626081">
        <ele>1465.6700000000001</ele>
        <time>2013-07-01T07:06:12Z</time>
      </trkpt>
      <trkpt lat="-24.89982814528048" lon="30.64628561027348">
        <ele>1466.1500000000001</ele>
        <time>2013-07-01T07:06:13Z</time>
      </trkpt>
      <trkpt lat="-24.900085050612688" lon="30.648496923968196">
        <ele>1469.99</ele>
        <time>2013-07-01T07:06:21Z</time>
      </trkpt>
      <trkpt lat="-24.899754384532571" lon="30.650170706212521">
        <ele>1478.1600000000001</ele>
        <time>2013-07-01T07:06:27Z</time>
      </trkpt>
      <trkpt lat="-24.899636367335916" lon="30.651791598647833">
        <ele>1488.74</ele>
        <time>2013-07-01T07:06:33Z</time>
      </trkpt>
      <trkpt lat="-24.900011708959937" lon="30.653382567688823">
        <ele>1498.3499999999999</ele>
        <time>2013-07-01T07:06:39Z</time>
      </trkpt>
      <trkpt lat="-24.900806983932853" lon="30.654699113219976">
        <ele>1506.04</ele>
        <time>2013-07-01T07:06:45Z</time>
      </trkpt>
      <trkpt lat="-24.902258897200227" lon="30.656039295718074">
        <ele>1514.21</ele>
        <time>2013-07-01T07:06:53Z</time>
      </trkpt>
      <trkpt lat="-24.9036746006459" lon="30.657764039933681">
        <ele>1521.4200000000001</ele>
        <time>2013-07-01T07:07:02Z</time>
      </trkpt>
      <trkpt lat="-24.903980540111661" lon="30.658373488113284">
        <ele>1523.3499999999999</ele>
        <time>2013-07-01T07:07:05Z</time>
      </trkpt>
      <trkpt lat="-24.904025802388787" lon="30.658564008772373">
        <ele>1524.3099999999999</ele>
        <time>2013-07-01T07:07:06Z</time>
      </trkpt>
      <trkpt lat="-24.904034603387117" lon="30.658741118386388">
        <ele>1525.27</ele>
        <time>2013-07-01T07:07:07Z</time>
      </trkpt>
      <trkpt lat="-24.904008954763412" lon="30.658904649317265">
        <ele>1525.75</ele>
        <time>2013-07-01T07:07:08Z</time>
      </trkpt>
      <trkpt lat="-24.903951874002814" lon="30.65905493684113">
        <ele>1526.71</ele>
        <time>2013-07-01T07:07:09Z</time>
      </trkpt>
      <trkpt lat="-24.903868641704321" lon="30.659190891310573">
        <ele>1527.6700000000001</ele>
        <time>2013-07-01T07:07:10Z</time>
      </trkpt>
      <trkpt lat="-24.903764789924026" lon="30.659311087802052">
        <ele>1528.1500000000001</ele>
        <time>2013-07-01T07:07:11Z</time>
      </trkpt>
      <trkpt lat="-24.90364140830934" lon="30.659412005916238">
        <ele>1529.1099999999999</ele>
        <time>2013-07-01T07:07:12Z</time>
      </trkpt>
      <trkpt lat="-24.903504615649581" lon="30.659486521035433">
        <ele>1530.0799999999999</ele>
        <time>2013-07-01T07:07:13Z</time>
      </trkpt>
      <trkpt lat="-24.903355501592159" lon="30.659529520198703">
        <ele>1531.04</ele>
        <time>2013-07-01T07:07:14Z</time>
      </trkpt>
      <trkpt lat="-24.903191216289997" lon="30.659541757777333">
        <ele>1532</ele>
        <time>2013-07-01T07:07:15Z</time>
      </trkpt>
      <trkpt lat="-24.903020141646266" lon="30.659534633159637">
        <ele>1532.96</ele>
        <time>2013-07-01T07:07:16Z</time>
      </trkpt>
      <trkpt lat="-24.902842529118061" lon="30.659515438601375">
        <ele>1533.9200000000001</ele>
        <time>2013-07-01T07:07:17Z</time>
      </trkpt>
      <trkpt lat="-24.902465511113405" lon="30.659498590976">
        <ele>1536.8</ele>
        <time>2013-07-01T07:07:19Z</time>
      </trkpt>
      <trkpt lat="-24.902270883321762" lon="30.659520048648119">
        <ele>1537.77</ele>
        <time>2013-07-01T07:07:20Z</time>
      </trkpt>
      <trkpt lat="-24.902081536129117" lon="30.659565310925245">
        <ele>1539.21</ele>
        <time>2013-07-01T07:07:21Z</time>
      </trkpt>
      <trkpt lat="-24.901904594153166" lon="30.659636976197362">
        <ele>1540.6500000000001</ele>
        <time>2013-07-01T07:07:22Z</time>
      </trkpt>
      <trkpt lat="-24.901739554479718" lon="30.659733787178993">
        <ele>1542.5699999999999</ele>
        <time>2013-07-01T07:07:23Z</time>
      </trkpt>
      <trkpt lat="-24.901584573090076" lon="30.659854402765632">
        <ele>1544.01</ele>
        <time>2013-07-01T07:07:24Z</time>
      </trkpt>
      <trkpt lat="-24.901437219232321" lon="30.65999505110085">
        <ele>1545.46</ele>
        <time>2013-07-01T07:07:25Z</time>
      </trkpt>
      <trkpt lat="-24.901296906173229" lon="30.660150619223714">
        <ele>1546.9000000000001</ele>
        <time>2013-07-01T07:07:26Z</time>
      </trkpt>
      <trkpt lat="-24.901162125170231" lon="30.660316161811352">
        <ele>1548.3399999999999</ele>
        <time>2013-07-01T07:07:27Z</time>
      </trkpt>
      <trkpt lat="-24.900519819930196" lon="30.661525083705783">
        <ele>1557.47</ele>
        <time>2013-07-01T07:07:33Z</time>
      </trkpt>
      <trkpt lat="-24.900169372558594" lon="30.663261897861958">
        <ele>1568.53</ele>
        <time>2013-07-01T07:07:40Z</time>
      </trkpt>
      <trkpt lat="-24.899728065356612" lon="30.665092589333653">
        <ele>1580.54</ele>
        <time>2013-07-01T07:07:47Z</time>
      </trkpt>
      <trkpt lat="-24.898524424061179" lon="30.667189238592982">
        <ele>1597.8499999999999</ele>
        <time>2013-07-01T07:07:56Z</time>
      </trkpt>
      <trkpt lat="-24.898257041350007" lon="30.667850906029344">
        <ele>1603.6199999999999</ele>
        <time>2013-07-01T07:07:59Z</time>
      </trkpt>
      <trkpt lat="-24.89822200499475" lon="30.668057687580585">
        <ele>1605.54</ele>
        <time>2013-07-01T07:08:00Z</time>
      </trkpt>
      <trkpt lat="-24.898223178461194" lon="30.668253488838673">
        <ele>1607.46</ele>
        <time>2013-07-01T07:08:01Z</time>
      </trkpt>
      <trkpt lat="-24.898255364969373" lon="30.668437974527478">
        <ele>1608.9000000000001</ele>
        <time>2013-07-01T07:08:02Z</time>
      </trkpt>
      <trkpt lat="-24.898313200101256" lon="30.668612066656351">
        <ele>1610.3499999999999</ele>
        <time>2013-07-01T07:08:03Z</time>
      </trkpt>
      <trkpt lat="-24.898391151800752" lon="30.668780039995909">
        <ele>1611.79</ele>
        <time>2013-07-01T07:08:04Z</time>
      </trkpt>
      <trkpt lat="-24.898488633334637" lon="30.668938709422946">
        <ele>1613.71</ele>
        <time>2013-07-01T07:08:05Z</time>
      </trkpt>
      <trkpt lat="-24.898601705208421" lon="30.669089583680034">
        <ele>1615.1500000000001</ele>
        <time>2013-07-01T07:08:06Z</time>
      </trkpt>
      <trkpt lat="-24.898721985518932" lon="30.669237021356821">
        <ele>1617.0699999999999</ele>
        <time>2013-07-01T07:08:07Z</time>
      </trkpt>
      <trkpt lat="-24.899547938257456" lon="30.670651299878955">
        <ele>1630.05</ele>
        <time>2013-07-01T07:08:15Z</time>
      </trkpt>
      <trkpt lat="-24.900504229590297" lon="30.671954015269876">
        <ele>1643.99</ele>
        <time>2013-07-01T07:08:22Z</time>
      </trkpt>
      <trkpt lat="-24.901047376915812" lon="30.672398926690221">
        <ele>1650.24</ele>
        <time>2013-07-01T07:08:25Z</time>
      </trkpt>
      <trkpt lat="-24.901242675259709" lon="30.672508142888546">
        <ele>1652.1600000000001</ele>
        <time>2013-07-01T07:08:26Z</time>
      </trkpt>
      <trkpt lat="-24.901442667469382" lon="30.672590369358659">
        <ele>1654.0899999999999</ele>
        <time>2013-07-01T07:08:27Z</time>
      </trkpt>
      <trkpt lat="-24.901650622487068" lon="30.672645270824432">
        <ele>1656.01</ele>
        <time>2013-07-01T07:08:28Z</time>
      </trkpt>
      <trkpt lat="-24.901865115389228" lon="30.672676032409072">
        <ele>1657.9300000000001</ele>
        <time>2013-07-01T07:08:29Z</time>
      </trkpt>
      <trkpt lat="-24.902085727080703" lon="30.672689191997051">
        <ele>1659.8499999999999</ele>
        <time>2013-07-01T07:08:30Z</time>
      </trkpt>
      <trkpt lat="-24.902721159160137" lon="30.672763036563993">
        <ele>1663.7</ele>
        <time>2013-07-01T07:08:33Z</time>
      </trkpt>
      <trkpt lat="-24.902902543544769" lon="30.672833109274507">
        <ele>1664.1800000000001</ele>
        <time>2013-07-01T07:08:34Z</time>
      </trkpt>
      <trkpt lat="-24.903057357296348" lon="30.672930339351296">
        <ele>1665.1400000000001</ele>
        <time>2013-07-01T07:08:35Z</time>
      </trkpt>
      <trkpt lat="-24.903180319815874" lon="30.673049865290523">
        <ele>1665.6199999999999</ele>
        <time>2013-07-01T07:08:36Z</time>
      </trkpt>
      <trkpt lat="-24.903272269293666" lon="30.67318556830287">
        <ele>1666.5799999999999</ele>
        <time>2013-07-01T07:08:37Z</time>
      </trkpt>
      <trkpt lat="-24.903332032263279" lon="30.673330156132579">
        <ele>1666.5799999999999</ele>
        <time>2013-07-01T07:08:38Z</time>
      </trkpt>
      <trkpt lat="-24.903360530734062" lon="30.673485137522221">
        <ele>1667.0599999999999</ele>
        <time>2013-07-01T07:08:39Z</time>
      </trkpt>
      <trkpt lat="-24.903358351439238" lon="30.673649506643414">
        <ele>1667.0599999999999</ele>
        <time>2013-07-01T07:08:40Z</time>
      </trkpt>
      <trkpt lat="-24.903330439701676" lon="30.673820581287146">
        <ele>1667.0599999999999</ele>
        <time>2013-07-01T07:08:41Z</time>
      </trkpt>
      <trkpt lat="-24.903281573206186" lon="30.673996601253748">
        <ele>1667.0599999999999</ele>
        <time>2013-07-01T07:08:42Z</time>
      </trkpt>
      <trkpt lat="-24.903217284008861" lon="30.67417798563838">
        <ele>1667.0599999999999</ele>
        <time>2013-07-01T07:08:43Z</time>
      </trkpt>
      <trkpt lat="-24.903139499947429" lon="30.674365740269423">
        <ele>1667.54</ele>
        <time>2013-07-01T07:08:44Z</time>
      </trkpt>
      <trkpt lat="-24.902277421206236" lon="30.676035163924098">
        <ele>1669.95</ele>
        <time>2013-07-01T07:08:52Z</time>
      </trkpt>
      <trkpt lat="-24.901776518672705" lon="30.677639879286289">
        <ele>1673.3099999999999</ele>
        <time>2013-07-01T07:08:59Z</time>
      </trkpt>
      <trkpt lat="-24.901845920830965" lon="30.679021468386054">
        <ele>1676.6800000000001</ele>
        <time>2013-07-01T07:09:05Z</time>
      </trkpt>
      <trkpt lat="-24.901877017691731" lon="30.679410556331277">
        <ele>1677.6400000000001</ele>
        <time>2013-07-01T07:09:07Z</time>
      </trkpt>
      <trkpt lat="-24.901862936094403" lon="30.679589007049799">
        <ele>1678.1199999999999</ele>
        <time>2013-07-01T07:09:08Z</time>
      </trkpt>
      <trkpt lat="-24.901823960244656" lon="30.679757231846452">
        <ele>1679.0799999999999</ele>
        <time>2013-07-01T07:09:09Z</time>
      </trkpt>
      <trkpt lat="-24.901760425418615" lon="30.679914895445108">
        <ele>1679.0799999999999</ele>
        <time>2013-07-01T07:09:10Z</time>
      </trkpt>
      <trkpt lat="-24.901670655235648" lon="30.680055543780327">
        <ele>1679.5599999999999</ele>
        <time>2013-07-01T07:09:11Z</time>
      </trkpt>
      <trkpt lat="-24.901556326076388" lon="30.68017247132957">
        <ele>1680.04</ele>
        <time>2013-07-01T07:09:12Z</time>
      </trkpt>
      <trkpt lat="-24.901424730196595" lon="30.680260816588998">
        <ele>1680.52</ele>
        <time>2013-07-01T07:09:13Z</time>
      </trkpt>
      <trkpt lat="-24.90128031000495" lon="30.680316388607025">
        <ele>1681</ele>
        <time>2013-07-01T07:09:14Z</time>
      </trkpt>
      <trkpt lat="-24.901123065501451" lon="30.680338768288493">
        <ele>1681.48</ele>
        <time>2013-07-01T07:09:15Z</time>
      </trkpt>
      <trkpt lat="-24.900955930352211" lon="30.680329380556941">
        <ele>1681.96</ele>
        <time>2013-07-01T07:09:16Z</time>
      </trkpt>
      <trkpt lat="-24.900783933699131" lon="30.680292248725891">
        <ele>1682.4400000000001</ele>
        <time>2013-07-01T07:09:17Z</time>
      </trkpt>
      <trkpt lat="-24.900607746094465" lon="30.68023843690753">
        <ele>1682.4400000000001</ele>
        <time>2013-07-01T07:09:18Z</time>
      </trkpt>
      <trkpt lat="-24.900429379194975" lon="30.680177249014378">
        <ele>1682.9300000000001</ele>
        <time>2013-07-01T07:09:19Z</time>
      </trkpt>
      <trkpt lat="-24.90006904117763" lon="30.680065434426069">
        <ele>1683.8900000000001</ele>
        <time>2013-07-01T07:09:21Z</time>
      </trkpt>
      <trkpt lat="-24.899889081716537" lon="30.680050766095519">
        <ele>1683.8900000000001</ele>
        <time>2013-07-01T07:09:22Z</time>
      </trkpt>
      <trkpt lat="-24.89970987662673" lon="30.680067194625735">
        <ele>1684.3699999999999</ele>
        <time>2013-07-01T07:09:23Z</time>
      </trkpt>
      <trkpt lat="-24.89953301846981" lon="30.680109858512878">
        <ele>1684.3699999999999</ele>
        <time>2013-07-01T07:09:24Z</time>
      </trkpt>
      <trkpt lat="-24.899359177798033" lon="30.680168531835079">
        <ele>1684.8499999999999</ele>
        <time>2013-07-01T07:09:25Z</time>
      </trkpt>
      <trkpt lat="-24.898822316899896" lon="30.680310018360615">
        <ele>1685.3299999999999</ele>
        <time>2013-07-01T07:09:28Z</time>
      </trkpt>
      <trkpt lat="-24.898637998849154" lon="30.680321753025055">
        <ele>1685.3299999999999</ele>
        <time>2013-07-01T07:09:29Z</time>
      </trkpt>
      <trkpt lat="-24.898454435169697" lon="30.68030683323741">
        <ele>1685.3299999999999</ele>
        <time>2013-07-01T07:09:30Z</time>
      </trkpt>
      <trkpt lat="-24.89827573299408" lon="30.680262241512537">
        <ele>1685.8099999999999</ele>
        <time>2013-07-01T07:09:31Z</time>
      </trkpt>
      <trkpt lat="-24.898106418550014" lon="30.680185798555613">
        <ele>1685.8099999999999</ele>
        <time>2013-07-01T07:09:32Z</time>
      </trkpt>
      <trkpt lat="-24.897948419675231" lon="30.680082784965634">
        <ele>1685.8099999999999</ele>
        <time>2013-07-01T07:09:33Z</time>
      </trkpt>
      <trkpt lat="-24.89779788069427" lon="30.6799584813416">
        <ele>1686.29</ele>
        <time>2013-07-01T07:09:34Z</time>
      </trkpt>
      <trkpt lat="-24.897648096084595" lon="30.679818000644445">
        <ele>1686.77</ele>
        <time>2013-07-01T07:09:35Z</time>
      </trkpt>
      <trkpt lat="-24.896108759567142" lon="30.678534731268883">
        <ele>1692.54</ele>
        <time>2013-07-01T07:09:44Z</time>
      </trkpt>
      <trkpt lat="-24.895460586994886" lon="30.678132986649871">
        <ele>1696.8599999999999</ele>
        <time>2013-07-01T07:09:49Z</time>
      </trkpt>
      <trkpt lat="-24.895320693030953" lon="30.678045395761728">
        <ele>1697.8299999999999</ele>
        <time>2013-07-01T07:09:51Z</time>
      </trkpt>
      <trkpt lat="-24.895264031365514" lon="30.678021172061563">
        <ele>1698.3099999999999</ele>
        <time>2013-07-01T07:09:52Z</time>
      </trkpt>
      <trkpt lat="-24.894980974495411" lon="30.677909441292286">
        <ele>1700.23</ele>
        <time>2013-07-01T07:10:01Z</time>
      </trkpt>
      <trkpt lat="-24.89496873691678" lon="30.677909944206476">
        <ele>1699.75</ele>
        <time>2013-07-01T07:10:15Z</time>
      </trkpt>
      <trkpt lat="-24.894909476861358" lon="30.677915224805474">
        <ele>1699.75</ele>
        <time>2013-07-01T07:10:24Z</time>
      </trkpt>
      <trkpt lat="-24.89479087293148" lon="30.677933916449547">
        <ele>1699.75</ele>
        <time>2013-07-01T07:10:26Z</time>
      </trkpt>
      <trkpt lat="-24.894722644239664" lon="30.677927965298295">
        <ele>1699.75</ele>
        <time>2013-07-01T07:10:27Z</time>
      </trkpt>
      <trkpt lat="-24.894645195454359" lon="30.677910195663571">
        <ele>1700.23</ele>
        <time>2013-07-01T07:10:28Z</time>
      </trkpt>
      <trkpt lat="-24.893936924636364" lon="30.677634766325355">
        <ele>1702.6300000000001</ele>
        <time>2013-07-01T07:10:34Z</time>
      </trkpt>
      <trkpt lat="-24.89305229857564" lon="30.676939822733402">
        <ele>1707.4400000000001</ele>
        <time>2013-07-01T07:10:40Z</time>
      </trkpt>
      <trkpt lat="-24.891909677535295" lon="30.676272539421916">
        <ele>1715.6099999999999</ele>
        <time>2013-07-01T07:10:47Z</time>
      </trkpt>
      <trkpt lat="-24.891177685931325" lon="30.676129041239619">
        <ele>1720.4200000000001</ele>
        <time>2013-07-01T07:10:51Z</time>
      </trkpt>
      <trkpt lat="-24.890988674014807" lon="30.676133399829268">
        <ele>1721.3800000000001</ele>
        <time>2013-07-01T07:10:52Z</time>
      </trkpt>
      <trkpt lat="-24.890800835564733" lon="30.676153684034944">
        <ele>1722.8199999999999</ele>
        <time>2013-07-01T07:10:53Z</time>
      </trkpt>
      <trkpt lat="-24.890613835304976" lon="30.676185535266995">
        <ele>1723.78</ele>
        <time>2013-07-01T07:10:54Z</time>
      </trkpt>
      <trkpt lat="-24.890428176149726" lon="30.676229540258646">
        <ele>1724.74</ele>
        <time>2013-07-01T07:10:55Z</time>
      </trkpt>
      <trkpt lat="-24.890244277194142" lon="30.676287962123752">
        <ele>1725.7</ele>
        <time>2013-07-01T07:10:56Z</time>
      </trkpt>
      <trkpt lat="-24.890067167580128" lon="30.676360717043281">
        <ele>1726.1800000000001</ele>
        <time>2013-07-01T07:10:57Z</time>
      </trkpt>
      <trkpt lat="-24.889896847307682" lon="30.676446799188852">
        <ele>1727.1500000000001</ele>
        <time>2013-07-01T07:10:58Z</time>
      </trkpt>
      <trkpt lat="-24.889733651652932" lon="30.676547801122069">
        <ele>1727.6300000000001</ele>
        <time>2013-07-01T07:10:59Z</time>
      </trkpt>
      <trkpt lat="-24.889573808759451" lon="30.676659783348441">
        <ele>1728.1099999999999</ele>
        <time>2013-07-01T07:11:00Z</time>
      </trkpt>
      <trkpt lat="-24.889419162645936" lon="30.676784170791507">
        <ele>1728.5899999999999</ele>
        <time>2013-07-01T07:11:01Z</time>
      </trkpt>
      <trkpt lat="-24.889270886778831" lon="30.676921382546425">
        <ele>1729.0699999999999</ele>
        <time>2013-07-01T07:11:02Z</time>
      </trkpt>
      <trkpt lat="-24.889129735529423" lon="30.677071837708354">
        <ele>1729.0699999999999</ele>
        <time>2013-07-01T07:11:03Z</time>
      </trkpt>
      <trkpt lat="-24.88899570889771" lon="30.677234781906009">
        <ele>1729.0699999999999</ele>
        <time>2013-07-01T07:11:04Z</time>
      </trkpt>
      <trkpt lat="-24.888871069997549" lon="30.677410550415516">
        <ele>1728.5899999999999</ele>
        <time>2013-07-01T07:11:05Z</time>
      </trkpt>
      <trkpt lat="-24.888758081942797" lon="30.677593946456909">
        <ele>1728.5899999999999</ele>
        <time>2013-07-01T07:11:06Z</time>
      </trkpt>
      <trkpt lat="-24.888658840209246" lon="30.677784802392125">
        <ele>1728.1099999999999</ele>
        <time>2013-07-01T07:11:07Z</time>
      </trkpt>
      <trkpt lat="-24.888570997864008" lon="30.677977250888944">
        <ele>1727.1500000000001</ele>
        <time>2013-07-01T07:11:08Z</time>
      </trkpt>
      <trkpt lat="-24.888299759477377" lon="30.678547052666545">
        <ele>1724.74</ele>
        <time>2013-07-01T07:11:11Z</time>
      </trkpt>
      <trkpt lat="-24.888182999566197" lon="30.67871636711061">
        <ele>1723.3</ele>
        <time>2013-07-01T07:11:12Z</time>
      </trkpt>
      <trkpt lat="-24.888051738962531" lon="30.67886590026319">
        <ele>1722.3399999999999</ele>
        <time>2013-07-01T07:11:13Z</time>
      </trkpt>
      <trkpt lat="-24.8879065643996" lon="30.678993472829461">
        <ele>1721.3800000000001</ele>
        <time>2013-07-01T07:11:14Z</time>
      </trkpt>
      <trkpt lat="-24.887751750648022" lon="30.67909799516201">
        <ele>1720.4200000000001</ele>
        <time>2013-07-01T07:11:15Z</time>
      </trkpt>
      <trkpt lat="-24.887589728459716" lon="30.67918055690825">
        <ele>1719.46</ele>
        <time>2013-07-01T07:11:16Z</time>
      </trkpt>
      <trkpt lat="-24.887420162558556" lon="30.679239733144641">
        <ele>1718.01</ele>
        <time>2013-07-01T07:11:17Z</time>
      </trkpt>
      <trkpt lat="-24.887239532545209" lon="30.67927535623312">
        <ele>1717.53</ele>
        <time>2013-07-01T07:11:18Z</time>
      </trkpt>
      <trkpt lat="-24.887051023542881" lon="30.679288934916258">
        <ele>1716.5699999999999</ele>
        <time>2013-07-01T07:11:19Z</time>
      </trkpt>
      <trkpt lat="-24.886857820674777" lon="30.679279463365674">
        <ele>1716.0899999999999</ele>
        <time>2013-07-01T07:11:20Z</time>
      </trkpt>
      <trkpt lat="-24.886663444340229" lon="30.679246271029115">
        <ele>1715.6099999999999</ele>
        <time>2013-07-01T07:11:21Z</time>
      </trkpt>
      <trkpt lat="-24.88647099584341" lon="30.679194470867515">
        <ele>1715.1300000000001</ele>
        <time>2013-07-01T07:11:22Z</time>
      </trkpt>
      <trkpt lat="-24.886285504326224" lon="30.679131774231791">
        <ele>1714.6500000000001</ele>
        <time>2013-07-01T07:11:23Z</time>
      </trkpt>
      <trkpt lat="-24.885934051126242" lon="30.679011074826121">
        <ele>1713.6900000000001</ele>
        <time>2013-07-01T07:11:25Z</time>
      </trkpt>
      <trkpt lat="-24.885758701711893" lon="30.678982241079211">
        <ele>1713.21</ele>
        <time>2013-07-01T07:11:26Z</time>
      </trkpt>
      <trkpt lat="-24.885579412803054" lon="30.67897679284215">
        <ele>1712.73</ele>
        <time>2013-07-01T07:11:27Z</time>
      </trkpt>
      <trkpt lat="-24.885397776961327" lon="30.678992634639144">
        <ele>1712.25</ele>
        <time>2013-07-01T07:11:28Z</time>
      </trkpt>
      <trkpt lat="-24.885216224938631" lon="30.679035130888224">
        <ele>1711.76</ele>
        <time>2013-07-01T07:11:29Z</time>
      </trkpt>
      <trkpt lat="-24.885037019848824" lon="30.679105035960674">
        <ele>1710.8</ele>
        <time>2013-07-01T07:11:30Z</time>
      </trkpt>
      <trkpt lat="-24.884862005710602" lon="30.679198494181037">
        <ele>1710.3199999999999</ele>
        <time>2013-07-01T07:11:31Z</time>
      </trkpt>
      <trkpt lat="-24.884693445637822" lon="30.679315840825438">
        <ele>1709.3599999999999</ele>
        <time>2013-07-01T07:11:32Z</time>
      </trkpt>
      <trkpt lat="-24.884536452591419" lon="30.679457494989038">
        <ele>1708.4000000000001</ele>
        <time>2013-07-01T07:11:33Z</time>
      </trkpt>
      <trkpt lat="-24.88439479842782" lon="30.679623372852802">
        <ele>1707.4400000000001</ele>
        <time>2013-07-01T07:11:34Z</time>
      </trkpt>
      <trkpt lat="-24.88427066244185" lon="30.679808780550957">
        <ele>1706.48</ele>
        <time>2013-07-01T07:11:35Z</time>
      </trkpt>
      <trkpt lat="-24.884164966642857" lon="30.680011203512549">
        <ele>1705.52</ele>
        <time>2013-07-01T07:11:36Z</time>
      </trkpt>
      <trkpt lat="-24.884072095155716" lon="30.680222762748599">
        <ele>1705.04</ele>
        <time>2013-07-01T07:11:37Z</time>
      </trkpt>
      <trkpt lat="-24.883874533697963" lon="30.680622076615691">
        <ele>1703.1099999999999</ele>
        <time>2013-07-01T07:11:39Z</time>
      </trkpt>
      <trkpt lat="-24.883754001930356" lon="30.680795330554247">
        <ele>1702.1500000000001</ele>
        <time>2013-07-01T07:11:40Z</time>
      </trkpt>
      <trkpt lat="-24.883617544546723" lon="30.680949222296476">
        <ele>1701.6700000000001</ele>
        <time>2013-07-01T07:11:41Z</time>
      </trkpt>
      <trkpt lat="-24.883465580642223" lon="30.681082829833031">
        <ele>1701.1900000000001</ele>
        <time>2013-07-01T07:11:42Z</time>
      </trkpt>
      <trkpt lat="-24.883300540968776" lon="30.681192884221673">
        <ele>1700.71</ele>
        <time>2013-07-01T07:11:43Z</time>
      </trkpt>
      <trkpt lat="-24.883121168240905" lon="30.681278295814991">
        <ele>1700.71</ele>
        <time>2013-07-01T07:11:44Z</time>
      </trkpt>
      <trkpt lat="-24.882928049191833" lon="30.681343926116824">
        <ele>1700.71</ele>
        <time>2013-07-01T07:11:45Z</time>
      </trkpt>
      <trkpt lat="-24.882726967334747" lon="30.681398743763566">
        <ele>1700.71</ele>
        <time>2013-07-01T07:11:46Z</time>
      </trkpt>
      <trkpt lat="-24.881920795887709" lon="30.681708874180913">
        <ele>1702.6300000000001</ele>
        <time>2013-07-01T07:11:50Z</time>
      </trkpt>
      <trkpt lat="-24.881732203066349" lon="30.681834267452359">
        <ele>1703.1099999999999</ele>
        <time>2013-07-01T07:11:51Z</time>
      </trkpt>
      <trkpt lat="-24.881549058482051" lon="30.681974831968546">
        <ele>1703.5899999999999</ele>
        <time>2013-07-01T07:11:52Z</time>
      </trkpt>
      <trkpt lat="-24.880022127181292" lon="30.683081243187189">
        <ele>1709.8399999999999</ele>
        <time>2013-07-01T07:12:00Z</time>
      </trkpt>
      <trkpt lat="-24.877631524577737" lon="30.683930832892656">
        <ele>1721.3800000000001</ele>
        <time>2013-07-01T07:12:10Z</time>
      </trkpt>
      <trkpt lat="-24.875893453136086" lon="30.684680845588446">
        <ele>1730.51</ele>
        <time>2013-07-01T07:12:18Z</time>
      </trkpt>
      <trkpt lat="-24.874258143827319" lon="30.685918601229787">
        <ele>1738.6800000000001</ele>
        <time>2013-07-01T07:12:27Z</time>
      </trkpt>
      <trkpt lat="-24.873008821159601" lon="30.687444442883134">
        <ele>1748.78</ele>
        <time>2013-07-01T07:12:36Z</time>
      </trkpt>
      <trkpt lat="-24.872067701071501" lon="30.689346296712756">
        <ele>1762.23</ele>
        <time>2013-07-01T07:12:46Z</time>
      </trkpt>
      <trkpt lat="-24.871557746082544" lon="30.691616954281926">
        <ele>1775.21</ele>
        <time>2013-07-01T07:12:57Z</time>
      </trkpt>
      <trkpt lat="-24.871489768847823" lon="30.692702494561672">
        <ele>1779.0599999999999</ele>
        <time>2013-07-01T07:13:04Z</time>
      </trkpt>
      <trkpt lat="-24.871465545147657" lon="30.693057971075177">
        <ele>1779.54</ele>
        <time>2013-07-01T07:13:11Z</time>
      </trkpt>
      <trkpt lat="-24.871462108567357" lon="30.693084122613072">
        <ele>1779.54</ele>
        <time>2013-07-01T07:13:23Z</time>
      </trkpt>
      <trkpt lat="-24.871464036405087" lon="30.693064425140619">
        <ele>1779.54</ele>
        <time>2013-07-01T07:13:51Z</time>
      </trkpt>
      <trkpt lat="-24.871459761634469" lon="30.6930688675493">
        <ele>1780.98</ele>
        <time>2013-07-01T07:14:12Z</time>
      </trkpt>
      <trkpt lat="-24.871460851281881" lon="30.693076327443123">
        <ele>1779.54</ele>
        <time>2013-07-01T07:14:40Z</time>
      </trkpt>
      <trkpt lat="-24.871457498520613" lon="30.693076243624091">
        <ele>1779.0599999999999</ele>
        <time>2013-07-01T07:15:40Z</time>
      </trkpt>
      <trkpt lat="-24.871454397216439" lon="30.693067610263824">
        <ele>1779.54</ele>
        <time>2013-07-01T07:16:26Z</time>
      </trkpt>
      <trkpt lat="-24.87145540304482" lon="30.693066101521254">
        <ele>1780.98</ele>
        <time>2013-07-01T07:17:04Z</time>
      </trkpt>
      <trkpt lat="-24.871459174901247" lon="30.693069119006395">
        <ele>1781.46</ele>
        <time>2013-07-01T07:17:23Z</time>
      </trkpt>
      <trkpt lat="-24.871465209871531" lon="30.693067023530602">
        <ele>1781.46</ele>
        <time>2013-07-01T07:17:40Z</time>
      </trkpt>
      <trkpt lat="-24.871460432186723" lon="30.693069705739617">
        <ele>1780.5</ele>
        <time>2013-07-01T07:18:06Z</time>
      </trkpt>
      <trkpt lat="-24.871459929272532" lon="30.693115638568997">
        <ele>1779.0599999999999</ele>
        <time>2013-07-01T07:18:27Z</time>
      </trkpt>
      <trkpt lat="-24.871440231800079" lon="30.693706981837749">
        <ele>1779.0599999999999</ele>
        <time>2013-07-01T07:18:35Z</time>
      </trkpt>
      <trkpt lat="-24.87137334421277" lon="30.694637624546885">
        <ele>1779.54</ele>
        <time>2013-07-01T07:18:42Z</time>
      </trkpt>
      <trkpt lat="-24.871135968714952" lon="30.695282863453031">
        <ele>1779.0599999999999</ele>
        <time>2013-07-01T07:18:47Z</time>
      </trkpt>
      <trkpt lat="-24.871011413633823" lon="30.69547682069242">
        <ele>1778.0999999999999</ele>
        <time>2013-07-01T07:18:50Z</time>
      </trkpt>
      <trkpt lat="-24.870989369228482" lon="30.695504061877728">
        <ele>1777.6099999999999</ele>
        <time>2013-07-01T07:18:51Z</time>
      </trkpt>
      <trkpt lat="-24.87097411416471" lon="30.695524513721466">
        <ele>1777.6099999999999</ele>
        <time>2013-07-01T07:19:00Z</time>
      </trkpt>
      <trkpt lat="-24.870961541309953" lon="30.695544043555856">
        <ele>1777.1300000000001</ele>
        <time>2013-07-01T07:19:15Z</time>
      </trkpt>
      <trkpt lat="-24.87096874974668" lon="30.695544043555856">
        <ele>1776.6500000000001</ele>
        <time>2013-07-01T07:19:39Z</time>
      </trkpt>
      <trkpt lat="-24.870955673977733" lon="30.695535996928811">
        <ele>1776.6500000000001</ele>
        <time>2013-07-01T07:20:14Z</time>
      </trkpt>
      <trkpt lat="-24.870980065315962" lon="30.695515125989914">
        <ele>1776.6500000000001</ele>
        <time>2013-07-01T07:20:19Z</time>
      </trkpt>
      <trkpt lat="-24.871014598757029" lon="30.695467349141836">
        <ele>1776.6500000000001</ele>
        <time>2013-07-01T07:20:25Z</time>
      </trkpt>
      <trkpt lat="-24.87102348357439" lon="30.695443879812956">
        <ele>1776.6500000000001</ele>
        <time>2013-07-01T07:20:27Z</time>
      </trkpt>
      <trkpt lat="-24.871030105277896" lon="30.695433905348182">
        <ele>1776.6500000000001</ele>
        <time>2013-07-01T07:20:28Z</time>
      </trkpt>
      <trkpt lat="-24.871137477457523" lon="30.69524179212749">
        <ele>1778.0999999999999</ele>
        <time>2013-07-01T07:20:47Z</time>
      </trkpt>
      <trkpt lat="-24.871140997856855" lon="30.695233074948192">
        <ele>1778.5799999999999</ele>
        <time>2013-07-01T07:20:50Z</time>
      </trkpt>
      <trkpt lat="-24.871116271242499" lon="30.695289904251695">
        <ele>1779.54</ele>
        <time>2013-07-01T07:21:05Z</time>
      </trkpt>
      <trkpt lat="-24.871011665090919" lon="30.695457458496094">
        <ele>1779.0599999999999</ele>
        <time>2013-07-01T07:21:23Z</time>
      </trkpt>
      <trkpt lat="-24.870987189933658" lon="30.695491153746843">
        <ele>1777.6099999999999</ele>
        <time>2013-07-01T07:21:43Z</time>
      </trkpt>
      <trkpt lat="-24.870944442227483" lon="30.69553934969008">
        <ele>1776.6500000000001</ele>
        <time>2013-07-01T07:21:56Z</time>
      </trkpt>
      <trkpt lat="-24.870897000655532" lon="30.695502301678061">
        <ele>1778.5799999999999</ele>
        <time>2013-07-01T07:22:09Z</time>
      </trkpt>
      <trkpt lat="-24.870902113616467" lon="30.695445891469717">
        <ele>1779.54</ele>
        <time>2013-07-01T07:22:20Z</time>
      </trkpt>
      <trkpt lat="-24.870900688692927" lon="30.695408508181572">
        <ele>1780.5</ele>
        <time>2013-07-01T07:22:30Z</time>
      </trkpt>
      <trkpt lat="-24.870914770290256" lon="30.695394929498434">
        <ele>1780.98</ele>
        <time>2013-07-01T07:22:42Z</time>
      </trkpt>
      <trkpt lat="-24.870908735319972" lon="30.695366598665714">
        <ele>1781.9400000000001</ele>
        <time>2013-07-01T07:22:53Z</time>
      </trkpt>
      <trkpt lat="-24.870910076424479" lon="30.695365928113461">
        <ele>1781.9400000000001</ele>
        <time>2013-07-01T07:22:54Z</time>
      </trkpt>
      <trkpt lat="-24.87091451883316" lon="30.695351427420974">
        <ele>1782.9000000000001</ele>
        <time>2013-07-01T07:23:00Z</time>
      </trkpt>
      <trkpt lat="-24.870965396985412" lon="30.695383949205279">
        <ele>1783.3800000000001</ele>
        <time>2013-07-01T07:23:10Z</time>
      </trkpt>
      <trkpt lat="-24.870969252660871" lon="30.695369699969888">
        <ele>1782.9000000000001</ele>
        <time>2013-07-01T07:23:19Z</time>
      </trkpt>
      <trkpt lat="-24.870932120829821" lon="30.695335417985916">
        <ele>1782.9000000000001</ele>
        <time>2013-07-01T07:23:28Z</time>
      </trkpt>
      <trkpt lat="-24.870883086696267" lon="30.695288479328156">
        <ele>1783.3800000000001</ele>
        <time>2013-07-01T07:23:37Z</time>
      </trkpt>
      <trkpt lat="-24.87087881192565" lon="30.695255538448691">
        <ele>1782.4200000000001</ele>
        <time>2013-07-01T07:23:49Z</time>
      </trkpt>
      <trkpt lat="-24.870903370901942" lon="30.695263752713799">
        <ele>1783.8599999999999</ele>
        <time>2013-07-01T07:24:02Z</time>
      </trkpt>
      <trkpt lat="-24.870902197435498" lon="30.695328461006284">
        <ele>1783.3800000000001</ele>
        <time>2013-07-01T07:24:08Z</time>
      </trkpt>
      <trkpt lat="-24.870911501348019" lon="30.695352014154196">
        <ele>1782.9000000000001</ele>
        <time>2013-07-01T07:24:12Z</time>
      </trkpt>
      <trkpt lat="-24.870967827737331" lon="30.695386212319136">
        <ele>1782.9000000000001</ele>
        <time>2013-07-01T07:24:23Z</time>
      </trkpt>
      <trkpt lat="-24.870946537703276" lon="30.695398868992925">
        <ele>1783.3800000000001</ele>
        <time>2013-07-01T07:24:40Z</time>
      </trkpt>
      <trkpt lat="-24.870957769453526" lon="30.695385625585914">
        <ele>1782.9000000000001</ele>
        <time>2013-07-01T07:24:56Z</time>
      </trkpt>
      <trkpt lat="-24.870969336479902" lon="30.695377662777901">
        <ele>1783.3800000000001</ele>
        <time>2013-07-01T07:25:30Z</time>
      </trkpt>
      <trkpt lat="-24.87096288241446" lon="30.695378836244345">
        <ele>1782.4200000000001</ele>
        <time>2013-07-01T07:25:53Z</time>
      </trkpt>
      <trkpt lat="-24.870973695069551" lon="30.695378920063376">
        <ele>1782.9000000000001</ele>
        <time>2013-07-01T07:26:09Z</time>
      </trkpt>
      <trkpt lat="-24.870944442227483" lon="30.6953742261976">
        <ele>1782.4200000000001</ele>
        <time>2013-07-01T07:26:14Z</time>
      </trkpt>
      <trkpt lat="-24.870906304568052" lon="30.695344218984246">
        <ele>1781.46</ele>
        <time>2013-07-01T07:26:20Z</time>
      </trkpt>
      <trkpt lat="-24.87087881192565" lon="30.695288730785251">
        <ele>1781.46</ele>
        <time>2013-07-01T07:26:25Z</time>
      </trkpt>
      <trkpt lat="-24.870866490527987" lon="30.695251598954201">
        <ele>1782.9000000000001</ele>
        <time>2013-07-01T07:26:36Z</time>
      </trkpt>
      <trkpt lat="-24.870883924886584" lon="30.695256125181913">
        <ele>1784.8199999999999</ele>
        <time>2013-07-01T07:27:06Z</time>
      </trkpt>
      <trkpt lat="-24.870882416144013" lon="30.695269452407956">
        <ele>1783.8599999999999</ele>
        <time>2013-07-01T07:27:19Z</time>
      </trkpt>
      <trkpt lat="-24.870890798047185" lon="30.695355366915464">
        <ele>1782.9000000000001</ele>
        <time>2013-07-01T07:27:26Z</time>
      </trkpt>
      <trkpt lat="-24.870832711458206" lon="30.695380931720138">
        <ele>1781.9400000000001</ele>
        <time>2013-07-01T07:27:34Z</time>
      </trkpt>
      <trkpt lat="-24.870800022035837" lon="30.695450166240335">
        <ele>1779.0599999999999</ele>
        <time>2013-07-01T07:27:44Z</time>
      </trkpt>
      <trkpt lat="-24.870775965973735" lon="30.695541696622968">
        <ele>1778.0999999999999</ele>
        <time>2013-07-01T07:27:51Z</time>
      </trkpt>
      <trkpt lat="-24.870877973735332" lon="30.695591233670712">
        <ele>1778.0999999999999</ele>
        <time>2013-07-01T07:28:00Z</time>
      </trkpt>
      <trkpt lat="-24.870945950970054" lon="30.695571871474385">
        <ele>1776.6500000000001</ele>
        <time>2013-07-01T07:28:09Z</time>
      </trkpt>
      <trkpt lat="-24.870960703119636" lon="30.695539684966207">
        <ele>1776.6500000000001</ele>
        <time>2013-07-01T07:28:13Z</time>
      </trkpt>
      <trkpt lat="-24.870949639007449" lon="30.695540858432651">
        <ele>1776.6500000000001</ele>
        <time>2013-07-01T07:28:22Z</time>
      </trkpt>
      <trkpt lat="-24.87094335258007" lon="30.695542870089412">
        <ele>1777.6099999999999</ele>
        <time>2013-07-01T07:28:36Z</time>
      </trkpt>
      <trkpt lat="-24.870949555188417" lon="30.695545887574553">
        <ele>1774.73</ele>
        <time>2013-07-01T07:28:58Z</time>
      </trkpt>
      <trkpt lat="-24.870955590158701" lon="30.69554571993649">
        <ele>1777.1300000000001</ele>
        <time>2013-07-01T07:29:14Z</time>
      </trkpt>
      <trkpt lat="-24.870955925434828" lon="30.695545049384236">
        <ele>1778.0999999999999</ele>
        <time>2013-07-01T07:29:36Z</time>
      </trkpt>
      <trkpt lat="-24.870951902121305" lon="30.695544546470046">
        <ele>1776.6500000000001</ele>
        <time>2013-07-01T07:29:48Z</time>
      </trkpt>
      <trkpt lat="-24.870753167197108" lon="30.695894071832299">
        <ele>1775.6900000000001</ele>
        <time>2013-07-01T07:29:55Z</time>
      </trkpt>
      <trkpt lat="-24.870609669014812" lon="30.696177715435624">
        <ele>1774.25</ele>
        <time>2013-07-01T07:29:58Z</time>
      </trkpt>
      <trkpt lat="-24.870570693165064" lon="30.696294642984867">
        <ele>1773.77</ele>
        <time>2013-07-01T07:29:59Z</time>
      </trkpt>
      <trkpt lat="-24.870540937408805" lon="30.696420958265662">
        <ele>1773.29</ele>
        <time>2013-07-01T07:30:00Z</time>
      </trkpt>
      <trkpt lat="-24.870520485565066" lon="30.696556158363819">
        <ele>1772.3299999999999</ele>
        <time>2013-07-01T07:30:01Z</time>
      </trkpt>
      <trkpt lat="-24.870516043156385" lon="30.696695549413562">
        <ele>1771.3699999999999</ele>
        <time>2013-07-01T07:30:02Z</time>
      </trkpt>
      <trkpt lat="-24.870531801134348" lon="30.696837287396193">
        <ele>1770.4100000000001</ele>
        <time>2013-07-01T07:30:03Z</time>
      </trkpt>
      <trkpt lat="-24.870568849146366" lon="30.696975002065301">
        <ele>1769.9200000000001</ele>
        <time>2013-07-01T07:30:04Z</time>
      </trkpt>
      <trkpt lat="-24.870624337345362" lon="30.697102574631572">
        <ele>1768.96</ele>
        <time>2013-07-01T07:30:05Z</time>
      </trkpt>
      <trkpt lat="-24.870696170255542" lon="30.697216400876641">
        <ele>1768</ele>
        <time>2013-07-01T07:30:06Z</time>
      </trkpt>
      <trkpt lat="-24.870779905468225" lon="30.697316145524383">
        <ele>1767.04</ele>
        <time>2013-07-01T07:30:07Z</time>
      </trkpt>
      <trkpt lat="-24.870873112231493" lon="30.697401640936732">
        <ele>1766.0799999999999</ele>
        <time>2013-07-01T07:30:08Z</time>
      </trkpt>
      <trkpt lat="-24.870972856879234" lon="30.697472635656595">
        <ele>1765.5999999999999</ele>
        <time>2013-07-01T07:30:09Z</time>
      </trkpt>
      <trkpt lat="-24.871079474687576" lon="30.697531895712018">
        <ele>1764.6400000000001</ele>
        <time>2013-07-01T07:30:10Z</time>
      </trkpt>
      <trkpt lat="-24.871193133294582" lon="30.697580929845572">
        <ele>1763.6800000000001</ele>
        <time>2013-07-01T07:30:11Z</time>
      </trkpt>
      <trkpt lat="-24.871311066672206" lon="30.697622168809175">
        <ele>1762.71</ele>
        <time>2013-07-01T07:30:12Z</time>
      </trkpt>
      <trkpt lat="-24.871431598439813" lon="30.697658797726035">
        <ele>1762.23</ele>
        <time>2013-07-01T07:30:13Z</time>
      </trkpt>
      <trkpt lat="-24.872343298047781" lon="30.69819557480514">
        <ele>1758.8699999999999</ele>
        <time>2013-07-01T07:30:21Z</time>
      </trkpt>
      <trkpt lat="-24.873336050659418" lon="30.699571883305907">
        <ele>1755.5</ele>
        <time>2013-07-01T07:30:33Z</time>
      </trkpt>
      <trkpt lat="-24.874321259558201" lon="30.701069980859756">
        <ele>1753.0999999999999</ele>
        <time>2013-07-01T07:30:44Z</time>
      </trkpt>
      <trkpt lat="-24.875006312504411" lon="30.701720919460058">
        <ele>1751.1800000000001</ele>
        <time>2013-07-01T07:30:49Z</time>
      </trkpt>
      <trkpt lat="-24.875121731311083" lon="30.701861903071404">
        <ele>1750.7</ele>
        <time>2013-07-01T07:30:50Z</time>
      </trkpt>
      <trkpt lat="-24.875225834548473" lon="30.702013447880745">
        <ele>1750.22</ele>
        <time>2013-07-01T07:30:51Z</time>
      </trkpt>
      <trkpt lat="-24.875317281112075" lon="30.702176811173558">
        <ele>1750.22</ele>
        <time>2013-07-01T07:30:52Z</time>
      </trkpt>
      <trkpt lat="-24.875396573916078" lon="30.702351573854685">
        <ele>1749.74</ele>
        <time>2013-07-01T07:30:53Z</time>
      </trkpt>
      <trkpt lat="-24.875467820093036" lon="30.702535221353173">
        <ele>1749.26</ele>
        <time>2013-07-01T07:30:54Z</time>
      </trkpt>
      <trkpt lat="-24.875669572502375" lon="30.703104101121426">
        <ele>1748.29</ele>
        <time>2013-07-01T07:30:57Z</time>
      </trkpt>
      <trkpt lat="-24.875757414847612" lon="30.703274672850966">
        <ele>1747.8099999999999</ele>
        <time>2013-07-01T07:30:58Z</time>
      </trkpt>
      <trkpt lat="-24.875862440094352" lon="30.703425882384181">
        <ele>1747.3299999999999</ele>
        <time>2013-07-01T07:30:59Z</time>
      </trkpt>
      <trkpt lat="-24.875985234975815" lon="30.703556388616562">
        <ele>1746.8499999999999</ele>
        <time>2013-07-01T07:31:00Z</time>
      </trkpt>
      <trkpt lat="-24.876120937988162" lon="30.703669376671314">
        <ele>1746.3699999999999</ele>
        <time>2013-07-01T07:31:01Z</time>
      </trkpt>
      <trkpt lat="-24.876263849437237" lon="30.703774150460958">
        <ele>1745.8900000000001</ele>
        <time>2013-07-01T07:31:02Z</time>
      </trkpt>
      <trkpt lat="-24.876541793346405" lon="30.703997863456607">
        <ele>1744.9300000000001</ele>
        <time>2013-07-01T07:31:04Z</time>
      </trkpt>
      <trkpt lat="-24.876662911847234" lon="30.704129878431559">
        <ele>1743.97</ele>
        <time>2013-07-01T07:31:05Z</time>
      </trkpt>
      <trkpt lat="-24.876767266541719" lon="30.704281004145741">
        <ele>1743.49</ele>
        <time>2013-07-01T07:31:06Z</time>
      </trkpt>
      <trkpt lat="-24.876853600144386" lon="30.704450570046902">
        <ele>1742.53</ele>
        <time>2013-07-01T07:31:07Z</time>
      </trkpt>
      <trkpt lat="-24.876928282901645" lon="30.7046337146312">
        <ele>1742.05</ele>
        <time>2013-07-01T07:31:08Z</time>
      </trkpt>
      <trkpt lat="-24.877911312505603" lon="30.706776464357972">
        <ele>1732.4300000000001</ele>
        <time>2013-07-01T07:31:19Z</time>
      </trkpt>
      <trkpt lat="-24.879335230216384" lon="30.70887059904635">
        <ele>1719.9400000000001</ele>
        <time>2013-07-01T07:31:30Z</time>
      </trkpt>
      <trkpt lat="-24.880015170201659" lon="30.710623757913709">
        <ele>1706.48</ele>
        <time>2013-07-01T07:31:38Z</time>
      </trkpt>
      <trkpt lat="-24.880105862393975" lon="30.710806818678975">
        <ele>1704.0699999999999</ele>
        <time>2013-07-01T07:31:39Z</time>
      </trkpt>
      <trkpt lat="-24.880208373069763" lon="30.710969176143408">
        <ele>1702.1500000000001</ele>
        <time>2013-07-01T07:31:40Z</time>
      </trkpt>
      <trkpt lat="-24.880317924544215" lon="30.711112841963768">
        <ele>1700.23</ele>
        <time>2013-07-01T07:31:41Z</time>
      </trkpt>
      <trkpt lat="-24.880507690832019" lon="30.711376452818513">
        <ele>1696.3800000000001</ele>
        <time>2013-07-01T07:31:43Z</time>
      </trkpt>
      <trkpt lat="-24.880565777420998" lon="30.711510647088289">
        <ele>1694.46</ele>
        <time>2013-07-01T07:31:44Z</time>
      </trkpt>
      <trkpt lat="-24.880591174587607" lon="30.71164945140481">
        <ele>1693.02</ele>
        <time>2013-07-01T07:31:45Z</time>
      </trkpt>
      <trkpt lat="-24.880583798512816" lon="30.711787836626172">
        <ele>1691.5799999999999</ele>
        <time>2013-07-01T07:31:46Z</time>
      </trkpt>
      <trkpt lat="-24.880543313920498" lon="30.711916331201792">
        <ele>1690.1400000000001</ele>
        <time>2013-07-01T07:31:47Z</time>
      </trkpt>
      <trkpt lat="-24.88047449849546" lon="30.712028397247195">
        <ele>1688.6900000000001</ele>
        <time>2013-07-01T07:31:48Z</time>
      </trkpt>
      <trkpt lat="-24.880384476855397" lon="30.712120682001114">
        <ele>1687.73</ele>
        <time>2013-07-01T07:31:49Z</time>
      </trkpt>
      <trkpt lat="-24.880276015028358" lon="30.712188240140676">
        <ele>1686.29</ele>
        <time>2013-07-01T07:31:50Z</time>
      </trkpt>
      <trkpt lat="-24.880152633413672" lon="30.712225791066885">
        <ele>1685.3299999999999</ele>
        <time>2013-07-01T07:31:51Z</time>
      </trkpt>
      <trkpt lat="-24.880020534619689" lon="30.712230484932661">
        <ele>1683.8900000000001</ele>
        <time>2013-07-01T07:31:52Z</time>
      </trkpt>
      <trkpt lat="-24.87988818436861" lon="30.712200477719307">
        <ele>1682.4400000000001</ele>
        <time>2013-07-01T07:31:53Z</time>
      </trkpt>
      <trkpt lat="-24.87976212054491" lon="30.712134847417474">
        <ele>1681.48</ele>
        <time>2013-07-01T07:31:54Z</time>
      </trkpt>
      <trkpt lat="-24.879647707566619" lon="30.712037617340684">
        <ele>1680.04</ele>
        <time>2013-07-01T07:31:55Z</time>
      </trkpt>
      <trkpt lat="-24.879543436691165" lon="30.711915409192443">
        <ele>1679.0799999999999</ele>
        <time>2013-07-01T07:31:56Z</time>
      </trkpt>
      <trkpt lat="-24.879445703700185" lon="30.711782556027174">
        <ele>1677.6400000000001</ele>
        <time>2013-07-01T07:31:57Z</time>
      </trkpt>
      <trkpt lat="-24.878954691812396" lon="30.711167743429542">
        <ele>1671.3900000000001</ele>
        <time>2013-07-01T07:32:02Z</time>
      </trkpt>
      <trkpt lat="-24.878848660737276" lon="30.711082834750414">
        <ele>1670.4300000000001</ele>
        <time>2013-07-01T07:32:03Z</time>
      </trkpt>
      <trkpt lat="-24.878736175596714" lon="30.711022736504674">
        <ele>1669.47</ele>
        <time>2013-07-01T07:32:04Z</time>
      </trkpt>
      <trkpt lat="-24.8786177393049" lon="30.710991136729717">
        <ele>1668.02</ele>
        <time>2013-07-01T07:32:05Z</time>
      </trkpt>
      <trkpt lat="-24.87849653698504" lon="30.710987197235227">
        <ele>1667.0599999999999</ele>
        <time>2013-07-01T07:32:06Z</time>
      </trkpt>
      <trkpt lat="-24.878378184512258" lon="30.711011840030551">
        <ele>1666.0999999999999</ele>
        <time>2013-07-01T07:32:07Z</time>
      </trkpt>
      <trkpt lat="-24.87826737575233" lon="30.711065987125039">
        <ele>1665.1400000000001</ele>
        <time>2013-07-01T07:32:08Z</time>
      </trkpt>
      <trkpt lat="-24.878169139847159" lon="30.711150225251913">
        <ele>1664.1800000000001</ele>
        <time>2013-07-01T07:32:09Z</time>
      </trkpt>
      <trkpt lat="-24.878085739910603" lon="30.711262626573443">
        <ele>1663.22</ele>
        <time>2013-07-01T07:32:10Z</time>
      </trkpt>
      <trkpt lat="-24.878017930313945" lon="30.711398916319013">
        <ele>1661.78</ele>
        <time>2013-07-01T07:32:11Z</time>
      </trkpt>
      <trkpt lat="-24.877966130152345" lon="30.711554819718003">
        <ele>1660.8099999999999</ele>
        <time>2013-07-01T07:32:12Z</time>
      </trkpt>
      <trkpt lat="-24.877924975007772" lon="30.711725642904639">
        <ele>1658.8900000000001</ele>
        <time>2013-07-01T07:32:13Z</time>
      </trkpt>
      <trkpt lat="-24.877529852092266" lon="30.713577037677169">
        <ele>1644.47</ele>
        <time>2013-07-01T07:32:22Z</time>
      </trkpt>
      <trkpt lat="-24.877479560673237" lon="30.714841783046722">
        <ele>1633.4200000000001</ele>
        <time>2013-07-01T07:32:28Z</time>
      </trkpt>
      <trkpt lat="-24.877525912597775" lon="30.715040182694793">
        <ele>1631.98</ele>
        <time>2013-07-01T07:32:29Z</time>
      </trkpt>
      <trkpt lat="-24.877588944509625" lon="30.715232044458389">
        <ele>1630.05</ele>
        <time>2013-07-01T07:32:30Z</time>
      </trkpt>
      <trkpt lat="-24.877665303647518" lon="30.715418877080083">
        <ele>1628.1300000000001</ele>
        <time>2013-07-01T07:32:31Z</time>
      </trkpt>
      <trkpt lat="-24.877751721069217" lon="30.71559950709343">
        <ele>1626.6900000000001</ele>
        <time>2013-07-01T07:32:32Z</time>
      </trkpt>
      <trkpt lat="-24.87784911878407" lon="30.715774102136493">
        <ele>1624.77</ele>
        <time>2013-07-01T07:32:33Z</time>
      </trkpt>
      <trkpt lat="-24.877958754077554" lon="30.715940147638321">
        <ele>1622.8399999999999</ele>
        <time>2013-07-01T07:32:34Z</time>
      </trkpt>
      <trkpt lat="-24.878080375492573" lon="30.71609303355217">
        <ele>1620.9200000000001</ele>
        <time>2013-07-01T07:32:35Z</time>
      </trkpt>
      <trkpt lat="-24.878213396295905" lon="30.716232424601912">
        <ele>1619</ele>
        <time>2013-07-01T07:32:36Z</time>
      </trkpt>
      <trkpt lat="-24.87835580483079" lon="30.716356644406915">
        <ele>1617.5599999999999</ele>
        <time>2013-07-01T07:32:37Z</time>
      </trkpt>
      <trkpt lat="-24.878506008535624" lon="30.716466950252652">
        <ele>1615.6300000000001</ele>
        <time>2013-07-01T07:32:38Z</time>
      </trkpt>
      <trkpt lat="-24.878660906106234" lon="30.716564431786537">
        <ele>1614.1900000000001</ele>
        <time>2013-07-01T07:32:39Z</time>
      </trkpt>
      <trkpt lat="-24.878820748999715" lon="30.716646909713745">
        <ele>1612.27</ele>
        <time>2013-07-01T07:32:40Z</time>
      </trkpt>
      <trkpt lat="-24.878979083150625" lon="30.716713797301054">
        <ele>1610.3499999999999</ele>
        <time>2013-07-01T07:32:41Z</time>
      </trkpt>
      <trkpt lat="-24.879135908558965" lon="30.716762328520417">
        <ele>1607.9400000000001</ele>
        <time>2013-07-01T07:32:42Z</time>
      </trkpt>
      <trkpt lat="-24.879285525530577" lon="30.716788731515408">
        <ele>1606.02</ele>
        <time>2013-07-01T07:32:43Z</time>
      </trkpt>
      <trkpt lat="-24.879424413666129" lon="30.716788731515408">
        <ele>1604.0999999999999</ele>
        <time>2013-07-01T07:32:44Z</time>
      </trkpt>
      <trkpt lat="-24.879548968747258" lon="30.716759730130434">
        <ele>1602.6600000000001</ele>
        <time>2013-07-01T07:32:45Z</time>
      </trkpt>
      <trkpt lat="-24.879659609869123" lon="30.716711534187198">
        <ele>1601.21</ele>
        <time>2013-07-01T07:32:46Z</time>
      </trkpt>
      <trkpt lat="-24.879757845774293" lon="30.716650430113077">
        <ele>1599.77</ele>
        <time>2013-07-01T07:32:47Z</time>
      </trkpt>
      <trkpt lat="-24.879848202690482" lon="30.716582788154483">
        <ele>1598.8099999999999</ele>
        <time>2013-07-01T07:32:48Z</time>
      </trkpt>
      <trkpt lat="-24.880024055019021" lon="30.716470051556826">
        <ele>1595.9300000000001</ele>
        <time>2013-07-01T07:32:50Z</time>
      </trkpt>
      <trkpt lat="-24.880112400278449" lon="30.716443480923772">
        <ele>1594.96</ele>
        <time>2013-07-01T07:32:51Z</time>
      </trkpt>
      <trkpt lat="-24.88020041026175" lon="30.716447085142136">
        <ele>1593.52</ele>
        <time>2013-07-01T07:32:52Z</time>
      </trkpt>
      <trkpt lat="-24.880280792713165" lon="30.716483546420932">
        <ele>1592.5599999999999</ele>
        <time>2013-07-01T07:32:53Z</time>
      </trkpt>
      <trkpt lat="-24.880345836281776" lon="30.716549009084702">
        <ele>1591.5999999999999</ele>
        <time>2013-07-01T07:32:54Z</time>
      </trkpt>
      <trkpt lat="-24.880388332530856" lon="30.716637019068003">
        <ele>1590.6400000000001</ele>
        <time>2013-07-01T07:32:55Z</time>
      </trkpt>
      <trkpt lat="-24.88040710799396" lon="30.716742463409901">
        <ele>1589.6800000000001</ele>
        <time>2013-07-01T07:32:56Z</time>
      </trkpt>
      <trkpt lat="-24.880412556231022" lon="30.716861234977841">
        <ele>1588.72</ele>
        <time>2013-07-01T07:32:57Z</time>
      </trkpt>
      <trkpt lat="-24.880424039438367" lon="30.716991154477">
        <ele>1588.24</ele>
        <time>2013-07-01T07:32:58Z</time>
      </trkpt>
      <trkpt lat="-24.880457483232021" lon="30.717125181108713">
        <ele>1587.27</ele>
        <time>2013-07-01T07:32:59Z</time>
      </trkpt>
      <trkpt lat="-24.880513977259398" lon="30.71725744754076">
        <ele>1586.3099999999999</ele>
        <time>2013-07-01T07:33:00Z</time>
      </trkpt>
      <trkpt lat="-24.880630150437355" lon="30.717532960698009">
        <ele>1583.9100000000001</ele>
        <time>2013-07-01T07:33:02Z</time>
      </trkpt>
      <trkpt lat="-24.880657726898789" lon="30.717682242393494">
        <ele>1582.95</ele>
        <time>2013-07-01T07:33:03Z</time>
      </trkpt>
      <trkpt lat="-24.880659151822329" lon="30.717835631221533">
        <ele>1581.99</ele>
        <time>2013-07-01T07:33:04Z</time>
      </trkpt>
      <trkpt lat="-24.880656972527504" lon="30.718132350593805">
        <ele>1579.5799999999999</ele>
        <time>2013-07-01T07:33:06Z</time>
      </trkpt>
      <trkpt lat="-24.880694355815649" lon="30.718272160738707">
        <ele>1578.1400000000001</ele>
        <time>2013-07-01T07:33:07Z</time>
      </trkpt>
      <trkpt lat="-24.880760656669736" lon="30.718404175713658">
        <ele>1576.7</ele>
        <time>2013-07-01T07:33:08Z</time>
      </trkpt>
      <trkpt lat="-24.880846571177244" lon="30.718530742451549">
        <ele>1575.74</ele>
        <time>2013-07-01T07:33:09Z</time>
      </trkpt>
      <trkpt lat="-24.880936341360211" lon="30.718656219542027">
        <ele>1574.3</ele>
        <time>2013-07-01T07:33:10Z</time>
      </trkpt>
      <trkpt lat="-24.881016220897436" lon="30.718791503459215">
        <ele>1572.8499999999999</ele>
        <time>2013-07-01T07:33:11Z</time>
      </trkpt>
      <trkpt lat="-24.881075816228986" lon="30.718944724649191">
        <ele>1570.9300000000001</ele>
        <time>2013-07-01T07:33:12Z</time>
      </trkpt>
      <trkpt lat="-24.881114037707448" lon="30.719115380197763">
        <ele>1569.49</ele>
        <time>2013-07-01T07:33:13Z</time>
      </trkpt>
      <trkpt lat="-24.881368931382895" lon="30.721256034448743">
        <ele>1549.3</ele>
        <time>2013-07-01T07:33:25Z</time>
      </trkpt>
      <trkpt lat="-24.881351077929139" lon="30.721429539844394">
        <ele>1547.3800000000001</ele>
        <time>2013-07-01T07:33:26Z</time>
      </trkpt>
      <trkpt lat="-24.881309838965535" lon="30.72160086594522">
        <ele>1545.9400000000001</ele>
        <time>2013-07-01T07:33:27Z</time>
      </trkpt>
      <trkpt lat="-24.881244041025639" lon="30.721764229238033">
        <ele>1544.01</ele>
        <time>2013-07-01T07:33:28Z</time>
      </trkpt>
      <trkpt lat="-24.881154019385576" lon="30.721914768218994">
        <ele>1542.0899999999999</ele>
        <time>2013-07-01T07:33:29Z</time>
      </trkpt>
      <trkpt lat="-24.881044467911124" lon="30.722048878669739">
        <ele>1540.6500000000001</ele>
        <time>2013-07-01T07:33:30Z</time>
      </trkpt>
      <trkpt lat="-24.880918320268393" lon="30.722166644409299">
        <ele>1538.73</ele>
        <time>2013-07-01T07:33:31Z</time>
      </trkpt>
      <trkpt lat="-24.880777504295111" lon="30.722266221418977">
        <ele>1536.8</ele>
        <time>2013-07-01T07:33:32Z</time>
      </trkpt>
      <trkpt lat="-24.880625288933516" lon="30.722347525879741">
        <ele>1534.8800000000001</ele>
        <time>2013-07-01T07:33:33Z</time>
      </trkpt>
      <trkpt lat="-24.880471816286445" lon="30.72241785004735">
        <ele>1533.4400000000001</ele>
        <time>2013-07-01T07:33:34Z</time>
      </trkpt>
      <trkpt lat="-24.879905954003334" lon="30.722736613824964">
        <ele>1526.71</ele>
        <time>2013-07-01T07:33:38Z</time>
      </trkpt>
      <trkpt lat="-24.879800258204341" lon="30.72285127826035">
        <ele>1525.27</ele>
        <time>2013-07-01T07:33:39Z</time>
      </trkpt>
      <trkpt lat="-24.879725575447083" lon="30.722986059263349">
        <ele>1523.8299999999999</ele>
        <time>2013-07-01T07:33:40Z</time>
      </trkpt>
      <trkpt lat="-24.87968735396862" lon="30.723130982369184">
        <ele>1522.3900000000001</ele>
        <time>2013-07-01T07:33:41Z</time>
      </trkpt>
      <trkpt lat="-24.879685929045081" lon="30.723278671503067">
        <ele>1520.9400000000001</ele>
        <time>2013-07-01T07:33:42Z</time>
      </trkpt>
      <trkpt lat="-24.879717947915196" lon="30.723421834409237">
        <ele>1519.98</ele>
        <time>2013-07-01T07:33:43Z</time>
      </trkpt>
      <trkpt lat="-24.879781566560268" lon="30.723549071699381">
        <ele>1518.54</ele>
        <time>2013-07-01T07:33:44Z</time>
      </trkpt>
      <trkpt lat="-24.879870917648077" lon="30.723654516041279">
        <ele>1517.5799999999999</ele>
        <time>2013-07-01T07:33:45Z</time>
      </trkpt>
      <trkpt lat="-24.879975942894816" lon="30.723740179091692">
        <ele>1516.6199999999999</ele>
        <time>2013-07-01T07:33:46Z</time>
      </trkpt>
      <trkpt lat="-24.880089182406664" lon="30.723809497430921">
        <ele>1515.1800000000001</ele>
        <time>2013-07-01T07:33:47Z</time>
      </trkpt>
      <trkpt lat="-24.880207786336541" lon="30.723866242915392">
        <ele>1514.21</ele>
        <time>2013-07-01T07:33:48Z</time>
      </trkpt>
      <trkpt lat="-24.880332257598639" lon="30.723915444687009">
        <ele>1513.25</ele>
        <time>2013-07-01T07:33:49Z</time>
      </trkpt>
      <trkpt lat="-24.880467960610986" lon="30.723959617316723">
        <ele>1511.8099999999999</ele>
        <time>2013-07-01T07:33:50Z</time>
      </trkpt>
      <trkpt lat="-24.8806122969836" lon="30.723995910957456">
        <ele>1510.3699999999999</ele>
        <time>2013-07-01T07:33:51Z</time>
      </trkpt>
      <trkpt lat="-24.880763590335846" lon="30.724022816866636">
        <ele>1508.9300000000001</ele>
        <time>2013-07-01T07:33:52Z</time>
      </trkpt>
      <trkpt lat="-24.880920080468059" lon="30.724039915949106">
        <ele>1507.48</ele>
        <time>2013-07-01T07:33:53Z</time>
      </trkpt>
      <trkpt lat="-24.882184993475676" lon="30.723977219313383">
        <ele>1491.6199999999999</ele>
        <time>2013-07-01T07:34:02Z</time>
      </trkpt>
      <trkpt lat="-24.88227367401123" lon="30.724000269547105">
        <ele>1490.1800000000001</ele>
        <time>2013-07-01T07:34:03Z</time>
      </trkpt>
      <trkpt lat="-24.882345674559474" lon="30.724046370014548">
        <ele>1488.74</ele>
        <time>2013-07-01T07:34:04Z</time>
      </trkpt>
      <trkpt lat="-24.882396133616567" lon="30.724117364734411">
        <ele>1487.3</ele>
        <time>2013-07-01T07:34:05Z</time>
      </trkpt>
      <trkpt lat="-24.882417675107718" lon="30.7242077216506">
        <ele>1485.8499999999999</ele>
        <time>2013-07-01T07:34:06Z</time>
      </trkpt>
      <trkpt lat="-24.882408371195197" lon="30.724305957555771">
        <ele>1484.4100000000001</ele>
        <time>2013-07-01T07:34:07Z</time>
      </trkpt>
      <trkpt lat="-24.882372580468655" lon="30.724402852356434">
        <ele>1483.45</ele>
        <time>2013-07-01T07:34:08Z</time>
      </trkpt>
      <trkpt lat="-24.882323797792196" lon="30.724495388567448">
        <ele>1482.01</ele>
        <time>2013-07-01T07:34:09Z</time>
      </trkpt>
      <trkpt lat="-24.88228440284729" lon="30.724591445177794">
        <ele>1481.05</ele>
        <time>2013-07-01T07:34:10Z</time>
      </trkpt>
      <trkpt lat="-24.882268980145454" lon="30.72469093836844">
        <ele>1479.6099999999999</ele>
        <time>2013-07-01T07:34:11Z</time>
      </trkpt>
      <trkpt lat="-24.882282558828592" lon="30.724788419902325">
        <ele>1478.1600000000001</ele>
        <time>2013-07-01T07:34:12Z</time>
      </trkpt>
      <trkpt lat="-24.882323043420911" lon="30.724876848980784">
        <ele>1476.72</ele>
        <time>2013-07-01T07:34:13Z</time>
      </trkpt>
      <trkpt lat="-24.882386159151793" lon="30.724951112642884">
        <ele>1475.28</ele>
        <time>2013-07-01T07:34:14Z</time>
      </trkpt>
      <trkpt lat="-24.882462518289685" lon="30.725010624155402">
        <ele>1473.8399999999999</ele>
        <time>2013-07-01T07:34:15Z</time>
      </trkpt>
      <trkpt lat="-24.88254583440721" lon="30.725062172859907">
        <ele>1472.4000000000001</ele>
        <time>2013-07-01T07:34:16Z</time>
      </trkpt>
      <trkpt lat="-24.88261959515512" lon="30.725117744877934">
        <ele>1470.95</ele>
        <time>2013-07-01T07:34:17Z</time>
      </trkpt>
      <trkpt lat="-24.882674915716052" lon="30.725183123722672">
        <ele>1469.51</ele>
        <time>2013-07-01T07:34:18Z</time>
      </trkpt>
      <trkpt lat="-24.882707018405199" lon="30.72525973431766">
        <ele>1468.0699999999999</ele>
        <time>2013-07-01T07:34:19Z</time>
      </trkpt>
      <trkpt lat="-24.882712131366134" lon="30.725346989929676">
        <ele>1466.6300000000001</ele>
        <time>2013-07-01T07:34:20Z</time>
      </trkpt>
      <trkpt lat="-24.882685728371143" lon="30.725443046540022">
        <ele>1465.1900000000001</ele>
        <time>2013-07-01T07:34:21Z</time>
      </trkpt>
      <trkpt lat="-24.882627725601196" lon="30.725541701540351">
        <ele>1463.74</ele>
        <time>2013-07-01T07:34:22Z</time>
      </trkpt>
      <trkpt lat="-24.882546756416559" lon="30.725645553320646">
        <ele>1461.8199999999999</ele>
        <time>2013-07-01T07:34:23Z</time>
      </trkpt>
      <trkpt lat="-24.882451873272657" lon="30.72575812228024">
        <ele>1460.3800000000001</ele>
        <time>2013-07-01T07:34:24Z</time>
      </trkpt>
      <trkpt lat="-24.881834797561169" lon="30.726451640948653">
        <ele>1449.3199999999999</ele>
        <time>2013-07-01T07:34:30Z</time>
      </trkpt>
      <trkpt lat="-24.881728431209922" lon="30.726526826620102">
        <ele>1447.4000000000001</ele>
        <time>2013-07-01T07:34:31Z</time>
      </trkpt>
      <trkpt lat="-24.881612677127123" lon="30.726570496335626">
        <ele>1445.48</ele>
        <time>2013-07-01T07:34:32Z</time>
      </trkpt>
      <trkpt lat="-24.881491642445326" lon="30.72658340446651">
        <ele>1444.04</ele>
        <time>2013-07-01T07:34:33Z</time>
      </trkpt>
      <trkpt lat="-24.881370943039656" lon="30.72656731121242">
        <ele>1442.5999999999999</ele>
        <time>2013-07-01T07:34:34Z</time>
      </trkpt>
      <trkpt lat="-24.88125242292881" lon="30.726528922095895">
        <ele>1441.1500000000001</ele>
        <time>2013-07-01T07:34:35Z</time>
      </trkpt>
      <trkpt lat="-24.881135830655694" lon="30.726476702839136">
        <ele>1439.71</ele>
        <time>2013-07-01T07:34:36Z</time>
      </trkpt>
      <trkpt lat="-24.881019573658705" lon="30.726424483582377">
        <ele>1438.27</ele>
        <time>2013-07-01T07:34:37Z</time>
      </trkpt>
      <trkpt lat="-24.880904573947191" lon="30.726385172456503">
        <ele>1436.8299999999999</ele>
        <time>2013-07-01T07:34:38Z</time>
      </trkpt>
      <trkpt lat="-24.880794184282422" lon="30.726364720612764">
        <ele>1435.3900000000001</ele>
        <time>2013-07-01T07:34:39Z</time>
      </trkpt>
      <trkpt lat="-24.880690919235349" lon="30.726366899907589">
        <ele>1433.9400000000001</ele>
        <time>2013-07-01T07:34:40Z</time>
      </trkpt>
      <trkpt lat="-24.880597880110145" lon="30.726396907120943">
        <ele>1432.98</ele>
        <time>2013-07-01T07:34:41Z</time>
      </trkpt>
      <trkpt lat="-24.880517246201634" lon="30.72645490989089">
        <ele>1431.54</ele>
        <time>2013-07-01T07:34:42Z</time>
      </trkpt>
      <trkpt lat="-24.880455303937197" lon="30.726537220180035">
        <ele>1430.5799999999999</ele>
        <time>2013-07-01T07:34:43Z</time>
      </trkpt>
      <trkpt lat="-24.880419345572591" lon="30.72663763538003">
        <ele>1429.1400000000001</ele>
        <time>2013-07-01T07:34:44Z</time>
      </trkpt>
      <trkpt lat="-24.880412891507149" lon="30.726749198511243">
        <ele>1428.1800000000001</ele>
        <time>2013-07-01T07:34:45Z</time>
      </trkpt>
      <trkpt lat="-24.880431666970253" lon="30.72686973027885">
        <ele>1426.73</ele>
        <time>2013-07-01T07:34:46Z</time>
      </trkpt>
      <trkpt lat="-24.880465781316161" lon="30.726995458826423">
        <ele>1425.29</ele>
        <time>2013-07-01T07:34:47Z</time>
      </trkpt>
      <trkpt lat="-24.880496459081769" lon="30.727127809077501">
        <ele>1424.3299999999999</ele>
        <time>2013-07-01T07:34:48Z</time>
      </trkpt>
      <trkpt lat="-24.880502913147211" lon="30.727267954498529">
        <ele>1422.4100000000001</ele>
        <time>2013-07-01T07:34:49Z</time>
      </trkpt>
      <trkpt lat="-24.880475839599967" lon="30.727409273386002">
        <ele>1420.97</ele>
        <time>2013-07-01T07:34:50Z</time>
      </trkpt>
      <trkpt lat="-24.880428230389953" lon="30.727548245340586">
        <ele>1419.04</ele>
        <time>2013-07-01T07:34:51Z</time>
      </trkpt>
      <trkpt lat="-24.880384393036366" lon="30.727686882019043">
        <ele>1417.5999999999999</ele>
        <time>2013-07-01T07:34:52Z</time>
      </trkpt>
      <trkpt lat="-24.8803636059165" lon="30.727829374372959">
        <ele>1415.6800000000001</ele>
        <time>2013-07-01T07:34:53Z</time>
      </trkpt>
      <trkpt lat="-24.880369724705815" lon="30.727972537279129">
        <ele>1413.76</ele>
        <time>2013-07-01T07:34:54Z</time>
      </trkpt>
      <trkpt lat="-24.880388332530856" lon="30.728111257776618">
        <ele>1411.8299999999999</ele>
        <time>2013-07-01T07:34:55Z</time>
      </trkpt>
      <trkpt lat="-24.880398726090789" lon="30.728247296065092">
        <ele>1410.3900000000001</ele>
        <time>2013-07-01T07:34:56Z</time>
      </trkpt>
      <trkpt lat="-24.880383973941207" lon="30.728379897773266">
        <ele>1408.47</ele>
        <time>2013-07-01T07:34:57Z</time>
      </trkpt>
      <trkpt lat="-24.880335694178939" lon="30.728504620492458">
        <ele>1407.03</ele>
        <time>2013-07-01T07:34:58Z</time>
      </trkpt>
      <trkpt lat="-24.880259167402983" lon="30.728620709851384">
        <ele>1405.0999999999999</ele>
        <time>2013-07-01T07:34:59Z</time>
      </trkpt>
      <trkpt lat="-24.880168307572603" lon="30.728734117001295">
        <ele>1403.1800000000001</ele>
        <time>2013-07-01T07:35:00Z</time>
      </trkpt>
      <trkpt lat="-24.879696490243077" lon="30.729716559872031">
        <ele>1390.6800000000001</ele>
        <time>2013-07-01T07:35:07Z</time>
      </trkpt>
      <trkpt lat="-24.879614431411028" lon="30.730199944227934">
        <ele>1385.8800000000001</ele>
        <time>2013-07-01T07:35:10Z</time>
      </trkpt>
      <trkpt lat="-24.87961258739233" lon="30.730362888425589">
        <ele>1383.96</ele>
        <time>2013-07-01T07:35:11Z</time>
      </trkpt>
      <trkpt lat="-24.87962038256228" lon="30.730525748804212">
        <ele>1382.51</ele>
        <time>2013-07-01T07:35:12Z</time>
      </trkpt>
      <trkpt lat="-24.879972338676453" lon="30.731678931042552">
        <ele>1370.98</ele>
        <time>2013-07-01T07:35:19Z</time>
      </trkpt>
      <trkpt lat="-24.880069652572274" lon="30.731828380376101">
        <ele>1369.05</ele>
        <time>2013-07-01T07:35:20Z</time>
      </trkpt>
      <trkpt lat="-24.880179120227695" lon="30.731963999569416">
        <ele>1367.1300000000001</ele>
        <time>2013-07-01T07:35:21Z</time>
      </trkpt>
      <trkpt lat="-24.880301160737872" lon="30.732082771137357">
        <ele>1365.21</ele>
        <time>2013-07-01T07:35:22Z</time>
      </trkpt>
      <trkpt lat="-24.880431415513158" lon="30.732183437794447">
        <ele>1363.29</ele>
        <time>2013-07-01T07:35:23Z</time>
      </trkpt>
      <trkpt lat="-24.88056929782033" lon="30.732261808589101">
        <ele>1361.8399999999999</ele>
        <time>2013-07-01T07:35:24Z</time>
      </trkpt>
      <trkpt lat="-24.880713215097785" lon="30.732313189655542">
        <ele>1359.9200000000001</ele>
        <time>2013-07-01T07:35:25Z</time>
      </trkpt>
      <trkpt lat="-24.880860485136509" lon="30.732346046715975">
        <ele>1358</ele>
        <time>2013-07-01T07:35:26Z</time>
      </trkpt>
      <trkpt lat="-24.881007419899106" lon="30.732377730309963">
        <ele>1355.5999999999999</ele>
        <time>2013-07-01T07:35:27Z</time>
      </trkpt>
      <trkpt lat="-24.881148738786578" lon="30.732429614290595">
        <ele>1353.6700000000001</ele>
        <time>2013-07-01T07:35:28Z</time>
      </trkpt>
      <trkpt lat="-24.881277484819293" lon="30.732510583475232">
        <ele>1351.75</ele>
        <time>2013-07-01T07:35:29Z</time>
      </trkpt>
      <trkpt lat="-24.881390053778887" lon="30.732621559873223">
        <ele>1349.8299999999999</ele>
        <time>2013-07-01T07:35:30Z</time>
      </trkpt>
      <trkpt lat="-24.881487200036645" lon="30.732758436352015">
        <ele>1347.9100000000001</ele>
        <time>2013-07-01T07:35:31Z</time>
      </trkpt>
      <trkpt lat="-24.881570851430297" lon="30.732920374721289">
        <ele>1345.98</ele>
        <time>2013-07-01T07:35:32Z</time>
      </trkpt>
      <trkpt lat="-24.881637487560511" lon="30.73310125619173">
        <ele>1344.0599999999999</ele>
        <time>2013-07-01T07:35:33Z</time>
      </trkpt>
      <trkpt lat="-24.881691131740808" lon="30.733291106298566">
        <ele>1341.6600000000001</ele>
        <time>2013-07-01T07:35:34Z</time>
      </trkpt>
      <trkpt lat="-24.881738573312759" lon="30.733482716605067">
        <ele>1339.25</ele>
        <time>2013-07-01T07:35:35Z</time>
      </trkpt>
      <trkpt lat="-24.881851561367512" lon="30.733857303857803">
        <ele>1334.9300000000001</ele>
        <time>2013-07-01T07:35:37Z</time>
      </trkpt>
      <trkpt lat="-24.881934290751815" lon="30.734028294682503">
        <ele>1332.52</ele>
        <time>2013-07-01T07:35:38Z</time>
      </trkpt>
      <trkpt lat="-24.882035963237286" lon="30.734184617176652">
        <ele>1330.1199999999999</ele>
        <time>2013-07-01T07:35:39Z</time>
      </trkpt>
      <trkpt lat="-24.882155237719417" lon="30.734325014054775">
        <ele>1328.2</ele>
        <time>2013-07-01T07:35:40Z</time>
      </trkpt>
      <trkpt lat="-24.882288258522749" lon="30.734448730945587">
        <ele>1325.8</ele>
        <time>2013-07-01T07:35:41Z</time>
      </trkpt>
      <trkpt lat="-24.882433600723743" lon="30.734551576897502">
        <ele>1323.8699999999999</ele>
        <time>2013-07-01T07:35:42Z</time>
      </trkpt>
      <trkpt lat="-24.882590342313051" lon="30.734628858044744">
        <ele>1321.47</ele>
        <time>2013-07-01T07:35:43Z</time>
      </trkpt>
      <trkpt lat="-24.882754711434245" lon="30.73468049056828">
        <ele>1319.0699999999999</ele>
        <time>2013-07-01T07:35:44Z</time>
      </trkpt>
      <trkpt lat="-24.882923103868961" lon="30.734707312658429">
        <ele>1317.1400000000001</ele>
        <time>2013-07-01T07:35:45Z</time>
      </trkpt>
      <trkpt lat="-24.883093340322375" lon="30.7347122579813">
        <ele>1314.74</ele>
        <time>2013-07-01T07:35:46Z</time>
      </trkpt>
      <trkpt lat="-24.883261397480965" lon="30.734696332365274">
        <ele>1312.8199999999999</ele>
        <time>2013-07-01T07:35:47Z</time>
      </trkpt>
      <trkpt lat="-24.8834287840873" lon="30.734664816409349">
        <ele>1310.4100000000001</ele>
        <time>2013-07-01T07:35:48Z</time>
      </trkpt>
      <trkpt lat="-24.883598014712334" lon="30.734623661264777">
        <ele>1308.49</ele>
        <time>2013-07-01T07:35:49Z</time>
      </trkpt>
      <trkpt lat="-24.884462608024478" lon="30.734409000724554">
        <ele>1297.9200000000001</ele>
        <time>2013-07-01T07:35:54Z</time>
      </trkpt>
      <trkpt lat="-24.884636281058192" lon="30.73440782725811">
        <ele>1295.99</ele>
        <time>2013-07-01T07:35:55Z</time>
      </trkpt>
      <trkpt lat="-24.884806433692575" lon="30.734427524730563">
        <ele>1294.55</ele>
        <time>2013-07-01T07:35:56Z</time>
      </trkpt>
      <trkpt lat="-24.884967869147658" lon="30.734473876655102">
        <ele>1293.1099999999999</ele>
        <time>2013-07-01T07:35:57Z</time>
      </trkpt>
      <trkpt lat="-24.885114887729287" lon="30.734550822526217">
        <ele>1291.6700000000001</ele>
        <time>2013-07-01T07:35:58Z</time>
      </trkpt>
      <trkpt lat="-24.885243382304907" lon="30.734654506668448">
        <ele>1290.23</ele>
        <time>2013-07-01T07:35:59Z</time>
      </trkpt>
      <trkpt lat="-24.885351341217756" lon="30.734777888283134">
        <ele>1289.27</ele>
        <time>2013-07-01T07:36:00Z</time>
      </trkpt>
      <trkpt lat="-24.885441865772009" lon="30.734915686771274">
        <ele>1288.3</ele>
        <time>2013-07-01T07:36:01Z</time>
      </trkpt>
      <trkpt lat="-24.885516716167331" lon="30.735065974295139">
        <ele>1287.3399999999999</ele>
        <time>2013-07-01T07:36:02Z</time>
      </trkpt>
      <trkpt lat="-24.88557337783277" lon="30.735226990655065">
        <ele>1286.3800000000001</ele>
        <time>2013-07-01T07:36:03Z</time>
      </trkpt>
      <trkpt lat="-24.885610593482852" lon="30.73539680801332">
        <ele>1285.4200000000001</ele>
        <time>2013-07-01T07:36:04Z</time>
      </trkpt>
      <trkpt lat="-24.885624339804053" lon="30.735572744160891">
        <ele>1284.46</ele>
        <time>2013-07-01T07:36:05Z</time>
      </trkpt>
      <trkpt lat="-24.885613778606057" lon="30.735751278698444">
        <ele>1283.98</ele>
        <time>2013-07-01T07:36:06Z</time>
      </trkpt>
      <trkpt lat="-24.885581340640783" lon="30.735928975045681">
        <ele>1283.02</ele>
        <time>2013-07-01T07:36:07Z</time>
      </trkpt>
      <trkpt lat="-24.885529624298215" lon="30.736107090488076">
        <ele>1282.54</ele>
        <time>2013-07-01T07:36:08Z</time>
      </trkpt>
      <trkpt lat="-24.885465335100889" lon="30.736285792663693">
        <ele>1281.5699999999999</ele>
        <time>2013-07-01T07:36:09Z</time>
      </trkpt>
      <trkpt lat="-24.884621277451515" lon="30.738477995619178">
        <ele>1272.9200000000001</ele>
        <time>2013-07-01T07:36:21Z</time>
      </trkpt>
      <trkpt lat="-24.884398989379406" lon="30.740352021530271">
        <ele>1268.1199999999999</ele>
        <time>2013-07-01T07:36:30Z</time>
      </trkpt>
      <trkpt lat="-24.884707191959023" lon="30.742132253944874">
        <ele>1263.79</ele>
        <time>2013-07-01T07:36:38Z</time>
      </trkpt>
      <trkpt lat="-24.885456031188369" lon="30.743748033419251">
        <ele>1259.9400000000001</ele>
        <time>2013-07-01T07:36:46Z</time>
      </trkpt>
      <trkpt lat="-24.885681672021747" lon="30.744292354211211">
        <ele>1258.98</ele>
        <time>2013-07-01T07:36:49Z</time>
      </trkpt>
      <trkpt lat="-24.885728526860476" lon="30.74448580853641">
        <ele>1258.5</ele>
        <time>2013-07-01T07:36:50Z</time>
      </trkpt>
      <trkpt lat="-24.885761635378003" lon="30.744685297831893">
        <ele>1258.02</ele>
        <time>2013-07-01T07:36:51Z</time>
      </trkpt>
      <trkpt lat="-24.886005632579327" lon="30.746309962123632">
        <ele>1255.1400000000001</ele>
        <time>2013-07-01T07:36:59Z</time>
      </trkpt>
      <trkpt lat="-24.886416094377637" lon="30.747040612623096">
        <ele>1253.22</ele>
        <time>2013-07-01T07:37:03Z</time>
      </trkpt>
      <trkpt lat="-24.886556323617697" lon="30.747209172695875">
        <ele>1252.74</ele>
        <time>2013-07-01T07:37:04Z</time>
      </trkpt>
      <trkpt lat="-24.887944869697094" lon="30.748788323253393">
        <ele>1246.49</ele>
        <time>2013-07-01T07:37:14Z</time>
      </trkpt>
      <trkpt lat="-24.889191929250956" lon="30.750525807961822">
        <ele>1243.1199999999999</ele>
        <time>2013-07-01T07:37:26Z</time>
      </trkpt>
      <trkpt lat="-24.889808921143413" lon="30.7514145411551">
        <ele>1240.72</ele>
        <time>2013-07-01T07:37:34Z</time>
      </trkpt>
      <trkpt lat="-24.890011763200164" lon="30.751694245263934">
        <ele>1239.76</ele>
        <time>2013-07-01T07:37:41Z</time>
      </trkpt>
    </trkseg>
  </trk>

</gpx>