<?xml version="1.0" encoding="utf-8"?><gpx creator="Garmin Desktop App" version="1.1" xsi:schemaLocation="http://www.topografix.com/GPX/1/1 http://www.topografix.com/GPX/1/1/gpx.xsd http://www.garmin.com/xmlschemas/WaypointExtension/v1 http://www8.garmin.com/xmlschemas/WaypointExtensionv1.xsd http://www.garmin.com/xmlschemas/TrackPointExtension/v1 http://www.garmin.com/xmlschemas/TrackPointExtensionv1.xsd http://www.garmin.com/xmlschemas/GpxExtensions/v3 http://www8.garmin.com/xmlschemas/GpxExtensionsv3.xsd http://www.garmin.com/xmlschemas/ActivityExtension/v1 http://www8.garmin.com/xmlschemas/ActivityExtensionv1.xsd http://www.garmin.com/xmlschemas/AdventuresExtensions/v1 http://www8.garmin.com/xmlschemas/AdventuresExtensionv1.xsd http://www.garmin.com/xmlschemas/PressureExtension/v1 http://www.garmin.com/xmlschemas/PressureExtensionv1.xsd http://www.garmin.com/xmlschemas/TripExtensions/v1 http://www.garmin.com/xmlschemas/TripExtensionsv1.xsd http://www.garmin.com/xmlschemas/TripMetaDataExtensions/v1 http://www.garmin.com/xmlschemas/TripMetaDataExtensionsv1.xsd http://www.garmin.com/xmlschemas/ViaPointTransportationModeExtensions/v1 http://www.garmin.com/xmlschemas/ViaPointTransportationModeExtensionsv1.xsd http://www.garmin.com/xmlschemas/CreationTimeExtension/v1 http://www.garmin.com/xmlschemas/CreationTimeExtensionsv1.xsd http://www.garmin.com/xmlschemas/AccelerationExtension/v1 http://www.garmin.com/xmlschemas/AccelerationExtensionv1.xsd http://www.garmin.com/xmlschemas/PowerExtension/v1 http://www.garmin.com/xmlschemas/PowerExtensionv1.xsd http://www.garmin.com/xmlschemas/VideoExtension/v1 http://www.garmin.com/xmlschemas/VideoExtensionv1.xsd" xmlns="http://www.topografix.com/GPX/1/1" xmlns:xsi="http://www.w3.org/2001/XMLSchema-instance" xmlns:wptx1="http://www.garmin.com/xmlschemas/WaypointExtension/v1" xmlns:gpxtrx="http://www.garmin.com/xmlschemas/GpxExtensions/v3" xmlns:gpxtpx="http://www.garmin.com/xmlschemas/TrackPointExtension/v1" xmlns:gpxx="http://www.garmin.com/xmlschemas/GpxExtensions/v3" xmlns:trp="http://www.garmin.com/xmlschemas/TripExtensions/v1" xmlns:adv="http://www.garmin.com/xmlschemas/AdventuresExtensions/v1" xmlns:prs="http://www.garmin.com/xmlschemas/PressureExtension/v1" xmlns:tmd="http://www.garmin.com/xmlschemas/TripMetaDataExtensions/v1" xmlns:vptm="http://www.garmin.com/xmlschemas/ViaPointTransportationModeExtensions/v1" xmlns:ctx="http://www.garmin.com/xmlschemas/CreationTimeExtension/v1" xmlns:gpxacc="http://www.garmin.com/xmlschemas/AccelerationExtension/v1" xmlns:gpxpx="http://www.garmin.com/xmlschemas/PowerExtension/v1" xmlns:vidx1="http://www.garmin.com/xmlschemas/VideoExtension/v1">

  <metadata>
    <link href="http://www.garmin.com">
      <text>Garmin International</text>
    </link>
    <time>2022-07-02T14:15:25Z</time>
    <bounds maxlat="-25.632952563464642" maxlon="27.153061414137483" minlat="-25.6385169737041" minlon="27.115626325830817" />
  </metadata>

  <trk>
    <name>[14] Magatasnek Pass</name>
    <extensions>
      <gpxx:TrackExtension>
        <gpxx:DisplayColor>Blue</gpxx:DisplayColor>
      </gpxx:TrackExtension>
    </extensions>
    <trkseg>
      <trkpt lat="-25.638066614046693" lon="27.115626325830817">
        <ele>1240.24</ele>
        <time>2014-07-06T09:43:33Z</time>
      </trkpt>
      <trkpt lat="-25.638232072815299" lon="27.118030842393637">
        <ele>1251.77</ele>
        <time>2014-07-06T09:43:41Z</time>
      </trkpt>
      <trkpt lat="-25.63842561095953" lon="27.121348734945059">
        <ele>1263.3099999999999</ele>
        <time>2014-07-06T09:43:52Z</time>
      </trkpt>
      <trkpt lat="-25.6385169737041" lon="27.12450142018497">
        <ele>1261.8699999999999</ele>
        <time>2014-07-06T09:44:01Z</time>
      </trkpt>
      <trkpt lat="-25.638079522177577" lon="27.12651995010674">
        <ele>1263.79</ele>
        <time>2014-07-06T09:44:07Z</time>
      </trkpt>
      <trkpt lat="-25.637173941358924" lon="27.128236815333366">
        <ele>1265.71</ele>
        <time>2014-07-06T09:44:13Z</time>
      </trkpt>
      <trkpt lat="-25.635720519348979" lon="27.130684833973646">
        <ele>1273.8800000000001</ele>
        <time>2014-07-06T09:44:22Z</time>
      </trkpt>
      <trkpt lat="-25.635151136666536" lon="27.132837474346161">
        <ele>1287.8199999999999</ele>
        <time>2014-07-06T09:44:29Z</time>
      </trkpt>
      <trkpt lat="-25.634673619642854" lon="27.137075616046786">
        <ele>1319.55</ele>
        <time>2014-07-06T09:44:42Z</time>
      </trkpt>
      <trkpt lat="-25.634178835898638" lon="27.141488520428538">
        <ele>1321.47</ele>
        <time>2014-07-06T09:44:55Z</time>
      </trkpt>
      <trkpt lat="-25.633647423237562" lon="27.143281409516931">
        <ele>1307.53</ele>
        <time>2014-07-06T09:45:01Z</time>
      </trkpt>
      <trkpt lat="-25.632952563464642" lon="27.145419046282768">
        <ele>1290.23</ele>
        <time>2014-07-06T09:45:09Z</time>
      </trkpt>
      <trkpt lat="-25.632973602041602" lon="27.14729935862124">
        <ele>1276.77</ele>
        <time>2014-07-06T09:45:16Z</time>
      </trkpt>
      <trkpt lat="-25.63351490534842" lon="27.148922262713313">
        <ele>1270.52</ele>
        <time>2014-07-06T09:45:23Z</time>
      </trkpt>
      <trkpt lat="-25.634694406762719" lon="27.150930147618055">
        <ele>1267.6400000000001</ele>
        <time>2014-07-06T09:45:34Z</time>
      </trkpt>
      <trkpt lat="-25.636008940637112" lon="27.153061414137483">
        <ele>1265.23</ele>
        <time>2014-07-06T09:45:47Z</time>
      </trkpt>
    </trkseg>
  </trk>

</gpx>