<?xml version="1.0" encoding="utf-8"?><gpx creator="Garmin Desktop App" version="1.1" xsi:schemaLocation="http://www.topografix.com/GPX/1/1 http://www.topografix.com/GPX/1/1/gpx.xsd http://www.garmin.com/xmlschemas/WaypointExtension/v1 http://www8.garmin.com/xmlschemas/WaypointExtensionv1.xsd http://www.garmin.com/xmlschemas/TrackPointExtension/v1 http://www.garmin.com/xmlschemas/TrackPointExtensionv1.xsd http://www.garmin.com/xmlschemas/GpxExtensions/v3 http://www8.garmin.com/xmlschemas/GpxExtensionsv3.xsd http://www.garmin.com/xmlschemas/ActivityExtension/v1 http://www8.garmin.com/xmlschemas/ActivityExtensionv1.xsd http://www.garmin.com/xmlschemas/AdventuresExtensions/v1 http://www8.garmin.com/xmlschemas/AdventuresExtensionv1.xsd http://www.garmin.com/xmlschemas/PressureExtension/v1 http://www.garmin.com/xmlschemas/PressureExtensionv1.xsd http://www.garmin.com/xmlschemas/TripExtensions/v1 http://www.garmin.com/xmlschemas/TripExtensionsv1.xsd http://www.garmin.com/xmlschemas/TripMetaDataExtensions/v1 http://www.garmin.com/xmlschemas/TripMetaDataExtensionsv1.xsd http://www.garmin.com/xmlschemas/ViaPointTransportationModeExtensions/v1 http://www.garmin.com/xmlschemas/ViaPointTransportationModeExtensionsv1.xsd http://www.garmin.com/xmlschemas/CreationTimeExtension/v1 http://www.garmin.com/xmlschemas/CreationTimeExtensionsv1.xsd http://www.garmin.com/xmlschemas/AccelerationExtension/v1 http://www.garmin.com/xmlschemas/AccelerationExtensionv1.xsd http://www.garmin.com/xmlschemas/PowerExtension/v1 http://www.garmin.com/xmlschemas/PowerExtensionv1.xsd http://www.garmin.com/xmlschemas/VideoExtension/v1 http://www.garmin.com/xmlschemas/VideoExtensionv1.xsd" xmlns="http://www.topografix.com/GPX/1/1" xmlns:xsi="http://www.w3.org/2001/XMLSchema-instance" xmlns:wptx1="http://www.garmin.com/xmlschemas/WaypointExtension/v1" xmlns:gpxtrx="http://www.garmin.com/xmlschemas/GpxExtensions/v3" xmlns:gpxtpx="http://www.garmin.com/xmlschemas/TrackPointExtension/v1" xmlns:gpxx="http://www.garmin.com/xmlschemas/GpxExtensions/v3" xmlns:trp="http://www.garmin.com/xmlschemas/TripExtensions/v1" xmlns:adv="http://www.garmin.com/xmlschemas/AdventuresExtensions/v1" xmlns:prs="http://www.garmin.com/xmlschemas/PressureExtension/v1" xmlns:tmd="http://www.garmin.com/xmlschemas/TripMetaDataExtensions/v1" xmlns:vptm="http://www.garmin.com/xmlschemas/ViaPointTransportationModeExtensions/v1" xmlns:ctx="http://www.garmin.com/xmlschemas/CreationTimeExtension/v1" xmlns:gpxacc="http://www.garmin.com/xmlschemas/AccelerationExtension/v1" xmlns:gpxpx="http://www.garmin.com/xmlschemas/PowerExtension/v1" xmlns:vidx1="http://www.garmin.com/xmlschemas/VideoExtension/v1">

  <metadata>
    <link href="http://www.garmin.com">
      <text>Garmin International</text>
    </link>
    <time>2022-07-02T14:18:42Z</time>
    <bounds maxlat="-28.506242567673326" maxlon="28.673881804570556" minlat="-28.532993495464325" minlon="28.618108285591006" />
  </metadata>

  <trk>
    <name>[31] Lichens Pass (Down)</name>
    <extensions>
      <gpxx:TrackExtension>
        <gpxx:DisplayColor>Blue</gpxx:DisplayColor>
      </gpxx:TrackExtension>
    </extensions>
    <trkseg>
      <trkpt lat="-28.506242567673326" lon="28.618108285591006">
        <ele>1918.9300000000001</ele>
        <time>2015-12-27T05:37:32Z</time>
      </trkpt>
      <trkpt lat="-28.506345162168145" lon="28.618121696636081">
        <ele>1919.8900000000001</ele>
        <time>2015-12-27T05:37:37Z</time>
      </trkpt>
      <trkpt lat="-28.506404003128409" lon="28.618126809597015">
        <ele>1919.8900000000001</ele>
        <time>2015-12-27T05:37:38Z</time>
      </trkpt>
      <trkpt lat="-28.506484972313046" lon="28.618142567574978">
        <ele>1920.3699999999999</ele>
        <time>2015-12-27T05:37:39Z</time>
      </trkpt>
      <trkpt lat="-28.507347218692303" lon="28.618504162877798">
        <ele>1928.0599999999999</ele>
        <time>2015-12-27T05:37:48Z</time>
      </trkpt>
      <trkpt lat="-28.507934035733342" lon="28.619197430089116">
        <ele>1936.23</ele>
        <time>2015-12-27T05:37:56Z</time>
      </trkpt>
      <trkpt lat="-28.507983321323991" lon="28.619309747591615">
        <ele>1937.6700000000001</ele>
        <time>2015-12-27T05:37:57Z</time>
      </trkpt>
      <trkpt lat="-28.508023386821151" lon="28.619430446997285">
        <ele>1938.6400000000001</ele>
        <time>2015-12-27T05:37:58Z</time>
      </trkpt>
      <trkpt lat="-28.508379030972719" lon="28.620706172659993">
        <ele>1948.73</ele>
        <time>2015-12-27T05:38:07Z</time>
      </trkpt>
      <trkpt lat="-28.508558655157685" lon="28.622111482545733">
        <ele>1957.8599999999999</ele>
        <time>2015-12-27T05:38:15Z</time>
      </trkpt>
      <trkpt lat="-28.50859746336937" lon="28.622296806424856">
        <ele>1958.8199999999999</ele>
        <time>2015-12-27T05:38:16Z</time>
      </trkpt>
      <trkpt lat="-28.508648509159684" lon="28.622441058978438">
        <ele>1958.8199999999999</ele>
        <time>2015-12-27T05:38:17Z</time>
      </trkpt>
      <trkpt lat="-28.508728975430131" lon="28.622592436149716">
        <ele>1958.8199999999999</ele>
        <time>2015-12-27T05:38:18Z</time>
      </trkpt>
      <trkpt lat="-28.50881882943213" lon="28.622710620984435">
        <ele>1958.8199999999999</ele>
        <time>2015-12-27T05:38:19Z</time>
      </trkpt>
      <trkpt lat="-28.50892829708755" lon="28.622812880203128">
        <ele>1958.8199999999999</ele>
        <time>2015-12-27T05:38:20Z</time>
      </trkpt>
      <trkpt lat="-28.509055199101567" lon="28.622903488576412">
        <ele>1957.8599999999999</ele>
        <time>2015-12-27T05:38:21Z</time>
      </trkpt>
      <trkpt lat="-28.50917212665081" lon="28.622977836057544">
        <ele>1957.3800000000001</ele>
        <time>2015-12-27T05:38:22Z</time>
      </trkpt>
      <trkpt lat="-28.509399443864822" lon="28.623136421665549">
        <ele>1954.98</ele>
        <time>2015-12-27T05:38:24Z</time>
      </trkpt>
      <trkpt lat="-28.509493069723248" lon="28.623225688934326">
        <ele>1953.54</ele>
        <time>2015-12-27T05:38:25Z</time>
      </trkpt>
      <trkpt lat="-28.50956741720438" lon="28.623324260115623">
        <ele>1952.5699999999999</ele>
        <time>2015-12-27T05:38:26Z</time>
      </trkpt>
      <trkpt lat="-28.509634137153625" lon="28.623456861823797">
        <ele>1951.1300000000001</ele>
        <time>2015-12-27T05:38:27Z</time>
      </trkpt>
      <trkpt lat="-28.509672023355961" lon="28.623577896505594">
        <ele>1950.1700000000001</ele>
        <time>2015-12-27T05:38:28Z</time>
      </trkpt>
      <trkpt lat="-28.509695660322905" lon="28.623726172372699">
        <ele>1949.21</ele>
        <time>2015-12-27T05:38:29Z</time>
      </trkpt>
      <trkpt lat="-28.509697588160634" lon="28.62387528643012">
        <ele>1948.25</ele>
        <time>2015-12-27T05:38:30Z</time>
      </trkpt>
      <trkpt lat="-28.50967830978334" lon="28.624006127938628">
        <ele>1947.29</ele>
        <time>2015-12-27T05:38:31Z</time>
      </trkpt>
      <trkpt lat="-28.509633801877499" lon="28.624160690233111">
        <ele>1946.8099999999999</ele>
        <time>2015-12-27T05:38:32Z</time>
      </trkpt>
      <trkpt lat="-28.50957621820271" lon="28.624314498156309">
        <ele>1945.8499999999999</ele>
        <time>2015-12-27T05:38:33Z</time>
      </trkpt>
      <trkpt lat="-28.50917506031692" lon="28.625496011227369">
        <ele>1942.48</ele>
        <time>2015-12-27T05:38:41Z</time>
      </trkpt>
      <trkpt lat="-28.509150920435786" lon="28.625647891312838">
        <ele>1942.48</ele>
        <time>2015-12-27T05:38:42Z</time>
      </trkpt>
      <trkpt lat="-28.50913499481976" lon="28.625850817188621">
        <ele>1942.48</ele>
        <time>2015-12-27T05:38:43Z</time>
      </trkpt>
      <trkpt lat="-28.509195679798722" lon="28.627623924985528">
        <ele>1949.21</ele>
        <time>2015-12-27T05:38:51Z</time>
      </trkpt>
      <trkpt lat="-28.509617624804378" lon="28.629237189888954">
        <ele>1956.9000000000001</ele>
        <time>2015-12-27T05:38:58Z</time>
      </trkpt>
      <trkpt lat="-28.509653331711888" lon="28.630826566368341">
        <ele>1960.75</ele>
        <time>2015-12-27T05:39:04Z</time>
      </trkpt>
      <trkpt lat="-28.509552832692862" lon="28.634128030389547">
        <ele>1977.0899999999999</ele>
        <time>2015-12-27T05:39:16Z</time>
      </trkpt>
      <trkpt lat="-28.509664395824075" lon="28.635467877611518">
        <ele>1976.6099999999999</ele>
        <time>2015-12-27T05:39:21Z</time>
      </trkpt>
      <trkpt lat="-28.509634556248784" lon="28.635730147361755">
        <ele>1976.6099999999999</ele>
        <time>2015-12-27T05:39:22Z</time>
      </trkpt>
      <trkpt lat="-28.509488208219409" lon="28.637614985927939">
        <ele>1975.6500000000001</ele>
        <time>2015-12-27T05:39:29Z</time>
      </trkpt>
      <trkpt lat="-28.509644530713558" lon="28.638666914775968">
        <ele>1976.1300000000001</ele>
        <time>2015-12-27T05:39:33Z</time>
      </trkpt>
      <trkpt lat="-28.509724074974656" lon="28.638883838430047">
        <ele>1977.0899999999999</ele>
        <time>2015-12-27T05:39:34Z</time>
      </trkpt>
      <trkpt lat="-28.509825747460127" lon="28.639070000499487">
        <ele>1978.53</ele>
        <time>2015-12-27T05:39:35Z</time>
      </trkpt>
      <trkpt lat="-28.509951140731573" lon="28.639233615249395">
        <ele>1979.97</ele>
        <time>2015-12-27T05:39:36Z</time>
      </trkpt>
      <trkpt lat="-28.510096147656441" lon="28.639374598860741">
        <ele>1981.4100000000001</ele>
        <time>2015-12-27T05:39:37Z</time>
      </trkpt>
      <trkpt lat="-28.510263869538903" lon="28.639495549723506">
        <ele>1983.3399999999999</ele>
        <time>2015-12-27T05:39:38Z</time>
      </trkpt>
      <trkpt lat="-28.510437794029713" lon="28.639585906639695">
        <ele>1984.78</ele>
        <time>2015-12-27T05:39:39Z</time>
      </trkpt>
      <trkpt lat="-28.510627476498485" lon="28.639654638245702">
        <ele>1986.7</ele>
        <time>2015-12-27T05:39:40Z</time>
      </trkpt>
      <trkpt lat="-28.510834509506822" lon="28.639708114787936">
        <ele>1988.6199999999999</ele>
        <time>2015-12-27T05:39:41Z</time>
      </trkpt>
      <trkpt lat="-28.51104598492384" lon="28.639750024303794">
        <ele>1990.55</ele>
        <time>2015-12-27T05:39:42Z</time>
      </trkpt>
      <trkpt lat="-28.513031238690019" lon="28.640110027045012">
        <ele>2008.8099999999999</ele>
        <time>2015-12-27T05:39:50Z</time>
      </trkpt>
      <trkpt lat="-28.515181615948677" lon="28.640424013137817">
        <ele>2036.21</ele>
        <time>2015-12-27T05:39:59Z</time>
      </trkpt>
      <trkpt lat="-28.516726484522223" lon="28.640160569921136">
        <ele>2047.75</ele>
        <time>2015-12-27T05:40:06Z</time>
      </trkpt>
      <trkpt lat="-28.518220642581582" lon="28.639333778992295">
        <ele>2047.75</ele>
        <time>2015-12-27T05:40:13Z</time>
      </trkpt>
      <trkpt lat="-28.519585970789194" lon="28.638336751610041">
        <ele>2047.26</ele>
        <time>2015-12-27T05:40:20Z</time>
      </trkpt>
      <trkpt lat="-28.519758889451623" lon="28.638266678899527">
        <ele>2046.78</ele>
        <time>2015-12-27T05:40:21Z</time>
      </trkpt>
      <trkpt lat="-28.519917223602533" lon="28.638240862637758">
        <ele>2046.78</ele>
        <time>2015-12-27T05:40:22Z</time>
      </trkpt>
      <trkpt lat="-28.520078575238585" lon="28.638257123529911">
        <ele>2046.78</ele>
        <time>2015-12-27T05:40:23Z</time>
      </trkpt>
      <trkpt lat="-28.520223833620548" lon="28.638304732739925">
        <ele>2046.78</ele>
        <time>2015-12-27T05:40:24Z</time>
      </trkpt>
      <trkpt lat="-28.520361632108688" lon="28.638381091877818">
        <ele>2046.78</ele>
        <time>2015-12-27T05:40:25Z</time>
      </trkpt>
      <trkpt lat="-28.520486857742071" lon="28.638486284762621">
        <ele>2046.3</ele>
        <time>2015-12-27T05:40:26Z</time>
      </trkpt>
      <trkpt lat="-28.520591631531715" lon="28.638608995825052">
        <ele>2046.3</ele>
        <time>2015-12-27T05:40:27Z</time>
      </trkpt>
      <trkpt lat="-28.520681150257587" lon="28.638764061033726">
        <ele>2045.8199999999999</ele>
        <time>2015-12-27T05:40:28Z</time>
      </trkpt>
      <trkpt lat="-28.520742002874613" lon="28.638929603621364">
        <ele>2044.8599999999999</ele>
        <time>2015-12-27T05:40:29Z</time>
      </trkpt>
      <trkpt lat="-28.520783912390471" lon="28.639127835631371">
        <ele>2044.3800000000001</ele>
        <time>2015-12-27T05:40:30Z</time>
      </trkpt>
      <trkpt lat="-28.520803693681955" lon="28.639340149238706">
        <ele>2043.9000000000001</ele>
        <time>2015-12-27T05:40:31Z</time>
      </trkpt>
      <trkpt lat="-28.520809812471271" lon="28.639551708474755">
        <ele>2042.9400000000001</ele>
        <time>2015-12-27T05:40:32Z</time>
      </trkpt>
      <trkpt lat="-28.520903438329697" lon="28.642151607200503">
        <ele>2015.54</ele>
        <time>2015-12-27T05:40:43Z</time>
      </trkpt>
      <trkpt lat="-28.521277355030179" lon="28.644121689721942">
        <ele>1987.6600000000001</ele>
        <time>2015-12-27T05:40:51Z</time>
      </trkpt>
      <trkpt lat="-28.522086041048169" lon="28.645902257412672">
        <ele>1979.97</ele>
        <time>2015-12-27T05:40:58Z</time>
      </trkpt>
      <trkpt lat="-28.523490428924561" lon="28.647749461233616">
        <ele>1977.5699999999999</ele>
        <time>2015-12-27T05:41:07Z</time>
      </trkpt>
      <trkpt lat="-28.524446468800306" lon="28.648884203284979">
        <ele>1972.76</ele>
        <time>2015-12-27T05:41:14Z</time>
      </trkpt>
      <trkpt lat="-28.524585105478764" lon="28.648987468332052">
        <ele>1972.28</ele>
        <time>2015-12-27T05:41:15Z</time>
      </trkpt>
      <trkpt lat="-28.524727346375585" lon="28.649074723944068">
        <ele>1971.3199999999999</ele>
        <time>2015-12-27T05:41:16Z</time>
      </trkpt>
      <trkpt lat="-28.524871682748199" lon="28.649147897958755">
        <ele>1970.8399999999999</ele>
        <time>2015-12-27T05:41:17Z</time>
      </trkpt>
      <trkpt lat="-28.525015013292432" lon="28.649205816909671">
        <ele>1970.3599999999999</ele>
        <time>2015-12-27T05:41:18Z</time>
      </trkpt>
      <trkpt lat="-28.525156080722809" lon="28.649251749739051">
        <ele>1969.4000000000001</ele>
        <time>2015-12-27T05:41:19Z</time>
      </trkpt>
      <trkpt lat="-28.525318186730146" lon="28.649290222674608">
        <ele>1968.4400000000001</ele>
        <time>2015-12-27T05:41:20Z</time>
      </trkpt>
      <trkpt lat="-28.525440646335483" lon="28.649309752508998">
        <ele>1967.96</ele>
        <time>2015-12-27T05:41:21Z</time>
      </trkpt>
      <trkpt lat="-28.525588335469365" lon="28.649322325363755">
        <ele>1966.99</ele>
        <time>2015-12-27T05:41:22Z</time>
      </trkpt>
      <trkpt lat="-28.52573711425066" lon="28.649319894611835">
        <ele>1966.03</ele>
        <time>2015-12-27T05:41:23Z</time>
      </trkpt>
      <trkpt lat="-28.525887234136462" lon="28.649303801357746">
        <ele>1964.5899999999999</ele>
        <time>2015-12-27T05:41:24Z</time>
      </trkpt>
      <trkpt lat="-28.526037354022264" lon="28.649278823286295">
        <ele>1963.1500000000001</ele>
        <time>2015-12-27T05:41:25Z</time>
      </trkpt>
      <trkpt lat="-28.526601204648614" lon="28.649178575724363">
        <ele>1956.9000000000001</ele>
        <time>2015-12-27T05:41:29Z</time>
      </trkpt>
      <trkpt lat="-28.526713773608208" lon="28.649191232398152">
        <ele>1955.9400000000001</ele>
        <time>2015-12-27T05:41:30Z</time>
      </trkpt>
      <trkpt lat="-28.526808070018888" lon="28.649233477190137">
        <ele>1954.98</ele>
        <time>2015-12-27T05:41:31Z</time>
      </trkpt>
      <trkpt lat="-28.526882668957114" lon="28.649302963167429">
        <ele>1954.5</ele>
        <time>2015-12-27T05:41:32Z</time>
      </trkpt>
      <trkpt lat="-28.526934385299683" lon="28.649402121081948">
        <ele>1954.5</ele>
        <time>2015-12-27T05:41:33Z</time>
      </trkpt>
      <trkpt lat="-28.526960369199514" lon="28.649520641192794">
        <ele>1954.5</ele>
        <time>2015-12-27T05:41:34Z</time>
      </trkpt>
      <trkpt lat="-28.526962045580149" lon="28.649648046121001">
        <ele>1954.5</ele>
        <time>2015-12-27T05:41:35Z</time>
      </trkpt>
      <trkpt lat="-28.526951232925057" lon="28.649778384715319">
        <ele>1954.98</ele>
        <time>2015-12-27T05:41:36Z</time>
      </trkpt>
      <trkpt lat="-28.526942515745759" lon="28.649914171546698">
        <ele>1954.98</ele>
        <time>2015-12-27T05:41:37Z</time>
      </trkpt>
      <trkpt lat="-28.526952071115375" lon="28.650055322796106">
        <ele>1955.46</ele>
        <time>2015-12-27T05:41:38Z</time>
      </trkpt>
      <trkpt lat="-28.526985431089997" lon="28.650194630026817">
        <ele>1955.46</ele>
        <time>2015-12-27T05:41:39Z</time>
      </trkpt>
      <trkpt lat="-28.52704418823123" lon="28.65032765083015">
        <ele>1955.9400000000001</ele>
        <time>2015-12-27T05:41:40Z</time>
      </trkpt>
      <trkpt lat="-28.527126582339406" lon="28.650446757674217">
        <ele>1955.9400000000001</ele>
        <time>2015-12-27T05:41:41Z</time>
      </trkpt>
      <trkpt lat="-28.527230182662606" lon="28.650543820112944">
        <ele>1955.9400000000001</ele>
        <time>2015-12-27T05:41:42Z</time>
      </trkpt>
      <trkpt lat="-28.527350882068276" lon="28.65061447955668">
        <ele>1955.9400000000001</ele>
        <time>2015-12-27T05:41:43Z</time>
      </trkpt>
      <trkpt lat="-28.527482729405165" lon="28.650656472891569">
        <ele>1955.46</ele>
        <time>2015-12-27T05:41:44Z</time>
      </trkpt>
      <trkpt lat="-28.527616756036878" lon="28.650685306638479">
        <ele>1955.46</ele>
        <time>2015-12-27T05:41:45Z</time>
      </trkpt>
      <trkpt lat="-28.527751620858908" lon="28.650706596672535">
        <ele>1954.98</ele>
        <time>2015-12-27T05:41:46Z</time>
      </trkpt>
      <trkpt lat="-28.528592577204108" lon="28.650829643011093">
        <ele>1952.5699999999999</ele>
        <time>2015-12-27T05:41:52Z</time>
      </trkpt>
      <trkpt lat="-28.52872702293098" lon="28.65082218311727">
        <ele>1952.0899999999999</ele>
        <time>2015-12-27T05:41:53Z</time>
      </trkpt>
      <trkpt lat="-28.528846716508269" lon="28.650781447067857">
        <ele>1951.6099999999999</ele>
        <time>2015-12-27T05:41:54Z</time>
      </trkpt>
      <trkpt lat="-28.528961548581719" lon="28.650698214769363">
        <ele>1950.6500000000001</ele>
        <time>2015-12-27T05:41:55Z</time>
      </trkpt>
      <trkpt lat="-28.529049307107925" lon="28.650610456243157">
        <ele>1949.6900000000001</ele>
        <time>2015-12-27T05:41:56Z</time>
      </trkpt>
      <trkpt lat="-28.52914678864181" lon="28.650507442653179">
        <ele>1948.73</ele>
        <time>2015-12-27T05:41:57Z</time>
      </trkpt>
      <trkpt lat="-28.529780628159642" lon="28.649926744401455">
        <ele>1944.4000000000001</ele>
        <time>2015-12-27T05:42:03Z</time>
      </trkpt>
      <trkpt lat="-28.529900992289186" lon="28.649845523759723">
        <ele>1943.9200000000001</ele>
        <time>2015-12-27T05:42:04Z</time>
      </trkpt>
      <trkpt lat="-28.530026720836759" lon="28.649776624515653">
        <ele>1943.9200000000001</ele>
        <time>2015-12-27T05:42:05Z</time>
      </trkpt>
      <trkpt lat="-28.530157981440425" lon="28.649723064154387">
        <ele>1943.4400000000001</ele>
        <time>2015-12-27T05:42:06Z</time>
      </trkpt>
      <trkpt lat="-28.530295193195343" lon="28.649686351418495">
        <ele>1942.96</ele>
        <time>2015-12-27T05:42:07Z</time>
      </trkpt>
      <trkpt lat="-28.530440116301179" lon="28.649664726108313">
        <ele>1942.96</ele>
        <time>2015-12-27T05:42:08Z</time>
      </trkpt>
      <trkpt lat="-28.53059166111052" lon="28.649662882089615">
        <ele>1942</ele>
        <time>2015-12-27T05:42:09Z</time>
      </trkpt>
      <trkpt lat="-28.530744379386306" lon="28.649678053334355">
        <ele>1941.52</ele>
        <time>2015-12-27T05:42:10Z</time>
      </trkpt>
      <trkpt lat="-28.530897935852408" lon="28.649715101346374">
        <ele>1941.04</ele>
        <time>2015-12-27T05:42:11Z</time>
      </trkpt>
      <trkpt lat="-28.531052581965923" lon="28.649773858487606">
        <ele>1940.5599999999999</ele>
        <time>2015-12-27T05:42:12Z</time>
      </trkpt>
      <trkpt lat="-28.531206641346216" lon="28.649848289787769">
        <ele>1940.0799999999999</ele>
        <time>2015-12-27T05:42:13Z</time>
      </trkpt>
      <trkpt lat="-28.531357850879431" lon="28.649929342791438">
        <ele>1939.5999999999999</ele>
        <time>2015-12-27T05:42:14Z</time>
      </trkpt>
      <trkpt lat="-28.532653274014592" lon="28.650636607781053">
        <ele>1931.9100000000001</ele>
        <time>2015-12-27T05:42:24Z</time>
      </trkpt>
      <trkpt lat="-28.532822672277689" lon="28.650754373520613">
        <ele>1929.5</ele>
        <time>2015-12-27T05:42:26Z</time>
      </trkpt>
      <trkpt lat="-28.532887883484364" lon="28.650832744315267">
        <ele>1928.54</ele>
        <time>2015-12-27T05:42:27Z</time>
      </trkpt>
      <trkpt lat="-28.532941192388535" lon="28.650929890573025">
        <ele>1927.0999999999999</ele>
        <time>2015-12-27T05:42:28Z</time>
      </trkpt>
      <trkpt lat="-28.532977569848299" lon="28.65104254335165">
        <ele>1925.6600000000001</ele>
        <time>2015-12-27T05:42:29Z</time>
      </trkpt>
      <trkpt lat="-28.532993495464325" lon="28.651157710701227">
        <ele>1924.7</ele>
        <time>2015-12-27T05:42:30Z</time>
      </trkpt>
      <trkpt lat="-28.532988801598549" lon="28.651280086487532">
        <ele>1923.25</ele>
        <time>2015-12-27T05:42:31Z</time>
      </trkpt>
      <trkpt lat="-28.532958040013909" lon="28.651408161967993">
        <ele>1922.29</ele>
        <time>2015-12-27T05:42:32Z</time>
      </trkpt>
      <trkpt lat="-28.532895259559155" lon="28.651543445885181">
        <ele>1920.8499999999999</ele>
        <time>2015-12-27T05:42:33Z</time>
      </trkpt>
      <trkpt lat="-28.532808590680361" lon="28.651678143069148">
        <ele>1919.8900000000001</ele>
        <time>2015-12-27T05:42:34Z</time>
      </trkpt>
      <trkpt lat="-28.532700883224607" lon="28.651819042861462">
        <ele>1919.4100000000001</ele>
        <time>2015-12-27T05:42:35Z</time>
      </trkpt>
      <trkpt lat="-28.53175800293684" lon="28.653043722733855">
        <ele>1923.74</ele>
        <time>2015-12-27T05:42:43Z</time>
      </trkpt>
      <trkpt lat="-28.531564297154546" lon="28.653242709115148">
        <ele>1926.6199999999999</ele>
        <time>2015-12-27T05:42:45Z</time>
      </trkpt>
      <trkpt lat="-28.531452734023333" lon="28.65329559892416">
        <ele>1928.0599999999999</ele>
        <time>2015-12-27T05:42:46Z</time>
      </trkpt>
      <trkpt lat="-28.531335387378931" lon="28.653312865644693">
        <ele>1929.02</ele>
        <time>2015-12-27T05:42:47Z</time>
      </trkpt>
      <trkpt lat="-28.531212005764246" lon="28.653296269476414">
        <ele>1930.46</ele>
        <time>2015-12-27T05:42:48Z</time>
      </trkpt>
      <trkpt lat="-28.531089797616005" lon="28.653252767398953">
        <ele>1931.9100000000001</ele>
        <time>2015-12-27T05:42:49Z</time>
      </trkpt>
      <trkpt lat="-28.530965829268098" lon="28.653198704123497">
        <ele>1932.8699999999999</ele>
        <time>2015-12-27T05:42:50Z</time>
      </trkpt>
      <trkpt lat="-28.530718227848411" lon="28.653112957254052">
        <ele>1935.27</ele>
        <time>2015-12-27T05:42:52Z</time>
      </trkpt>
      <trkpt lat="-28.53059358894825" lon="28.653090745210648">
        <ele>1936.23</ele>
        <time>2015-12-27T05:42:53Z</time>
      </trkpt>
      <trkpt lat="-28.530474565923214" lon="28.653082698583603">
        <ele>1937.1900000000001</ele>
        <time>2015-12-27T05:42:54Z</time>
      </trkpt>
      <trkpt lat="-28.529760511592031" lon="28.653155453503132">
        <ele>1942.48</ele>
        <time>2015-12-27T05:43:02Z</time>
      </trkpt>
      <trkpt lat="-28.529685325920582" lon="28.653189232572913">
        <ele>1942.96</ele>
        <time>2015-12-27T05:43:03Z</time>
      </trkpt>
      <trkpt lat="-28.529608463868499" lon="28.65324379876256">
        <ele>1943.9200000000001</ele>
        <time>2015-12-27T05:43:04Z</time>
      </trkpt>
      <trkpt lat="-28.52953227236867" lon="28.653322588652372">
        <ele>1944.4000000000001</ele>
        <time>2015-12-27T05:43:05Z</time>
      </trkpt>
      <trkpt lat="-28.529466977342963" lon="28.653418980538845">
        <ele>1945.3599999999999</ele>
        <time>2015-12-27T05:43:06Z</time>
      </trkpt>
      <trkpt lat="-28.529413249343634" lon="28.653530543670058">
        <ele>1945.8499999999999</ele>
        <time>2015-12-27T05:43:07Z</time>
      </trkpt>
      <trkpt lat="-28.529368741437793" lon="28.653653338551521">
        <ele>1946.3299999999999</ele>
        <time>2015-12-27T05:43:08Z</time>
      </trkpt>
      <trkpt lat="-28.529327502474189" lon="28.653778731822968">
        <ele>1947.29</ele>
        <time>2015-12-27T05:43:09Z</time>
      </trkpt>
      <trkpt lat="-28.52893958799541" lon="28.654946833848953">
        <ele>1948.25</ele>
        <time>2015-12-27T05:43:16Z</time>
      </trkpt>
      <trkpt lat="-28.528206925839186" lon="28.656639056280255">
        <ele>1947.77</ele>
        <time>2015-12-27T05:43:23Z</time>
      </trkpt>
      <trkpt lat="-28.527900064364076" lon="28.658224660903215">
        <ele>1952.5699999999999</ele>
        <time>2015-12-27T05:43:30Z</time>
      </trkpt>
      <trkpt lat="-28.528102319687605" lon="28.659996679052711">
        <ele>1954.02</ele>
        <time>2015-12-27T05:43:38Z</time>
      </trkpt>
      <trkpt lat="-28.528725933283567" lon="28.661413639783859">
        <ele>1948.25</ele>
        <time>2015-12-27T05:43:45Z</time>
      </trkpt>
      <trkpt lat="-28.529725894331932" lon="28.662580484524369">
        <ele>1941.04</ele>
        <time>2015-12-27T05:43:52Z</time>
      </trkpt>
      <trkpt lat="-28.531735204160213" lon="28.664249321445823">
        <ele>1928.54</ele>
        <time>2015-12-27T05:44:04Z</time>
      </trkpt>
      <trkpt lat="-28.53186646476388" lon="28.664384856820107">
        <ele>1927.5799999999999</ele>
        <time>2015-12-27T05:44:05Z</time>
      </trkpt>
      <trkpt lat="-28.531970903277397" lon="28.664528271183372">
        <ele>1926.6199999999999</ele>
        <time>2015-12-27T05:44:06Z</time>
      </trkpt>
      <trkpt lat="-28.532053800299764" lon="28.664687359705567">
        <ele>1925.6600000000001</ele>
        <time>2015-12-27T05:44:07Z</time>
      </trkpt>
      <trkpt lat="-28.532117670401931" lon="28.664857847616076">
        <ele>1924.7</ele>
        <time>2015-12-27T05:44:08Z</time>
      </trkpt>
      <trkpt lat="-28.532168716192245" lon="28.665046691894531">
        <ele>1923.74</ele>
        <time>2015-12-27T05:44:09Z</time>
      </trkpt>
      <trkpt lat="-28.532209284603596" lon="28.665234614163637">
        <ele>1923.25</ele>
        <time>2015-12-27T05:44:10Z</time>
      </trkpt>
      <trkpt lat="-28.53243475779891" lon="28.666447475552559">
        <ele>1917.01</ele>
        <time>2015-12-27T05:44:17Z</time>
      </trkpt>
      <trkpt lat="-28.532415563240647" lon="28.666592314839363">
        <ele>1916.04</ele>
        <time>2015-12-27T05:44:18Z</time>
      </trkpt>
      <trkpt lat="-28.53236485272646" lon="28.66672994568944">
        <ele>1915.0799999999999</ele>
        <time>2015-12-27T05:44:19Z</time>
      </trkpt>
      <trkpt lat="-28.532284386456013" lon="28.666855171322823">
        <ele>1914.1199999999999</ele>
        <time>2015-12-27T05:44:20Z</time>
      </trkpt>
      <trkpt lat="-28.532187575474381" lon="28.666956089437008">
        <ele>1912.6800000000001</ele>
        <time>2015-12-27T05:44:21Z</time>
      </trkpt>
      <trkpt lat="-28.532076347619295" lon="28.667031107470393">
        <ele>1911.24</ele>
        <time>2015-12-27T05:44:22Z</time>
      </trkpt>
      <trkpt lat="-28.531951457262039" lon="28.667078800499439">
        <ele>1910.28</ele>
        <time>2015-12-27T05:44:23Z</time>
      </trkpt>
      <trkpt lat="-28.531819693744183" lon="28.667096234858036">
        <ele>1908.8299999999999</ele>
        <time>2015-12-27T05:44:24Z</time>
      </trkpt>
      <trkpt lat="-28.531694887205958" lon="28.667080728337169">
        <ele>1907.3900000000001</ele>
        <time>2015-12-27T05:44:25Z</time>
      </trkpt>
      <trkpt lat="-28.5315718408674" lon="28.667034795507789">
        <ele>1905.95</ele>
        <time>2015-12-27T05:44:26Z</time>
      </trkpt>
      <trkpt lat="-28.531457344070077" lon="28.666961872950196">
        <ele>1904.99</ele>
        <time>2015-12-27T05:44:27Z</time>
      </trkpt>
      <trkpt lat="-28.531348211690784" lon="28.666860200464725">
        <ele>1903.55</ele>
        <time>2015-12-27T05:44:28Z</time>
      </trkpt>
      <trkpt lat="-28.531239414587617" lon="28.666739584878087">
        <ele>1901.6300000000001</ele>
        <time>2015-12-27T05:44:29Z</time>
      </trkpt>
      <trkpt lat="-28.530667936429381" lon="28.666177997365594">
        <ele>1892.49</ele>
        <time>2015-12-27T05:44:34Z</time>
      </trkpt>
      <trkpt lat="-28.53055109269917" lon="28.666123431175947">
        <ele>1891.05</ele>
        <time>2015-12-27T05:44:35Z</time>
      </trkpt>
      <trkpt lat="-28.530431399121881" lon="28.666107170283794">
        <ele>1889.1300000000001</ele>
        <time>2015-12-27T05:44:36Z</time>
      </trkpt>
      <trkpt lat="-28.530316650867462" lon="28.666134243831038">
        <ele>1887.6900000000001</ele>
        <time>2015-12-27T05:44:37Z</time>
      </trkpt>
      <trkpt lat="-28.53021296672523" lon="28.666200628504157">
        <ele>1886.24</ele>
        <time>2015-12-27T05:44:38Z</time>
      </trkpt>
      <trkpt lat="-28.53012596257031" lon="28.666306240484118">
        <ele>1884.8</ele>
        <time>2015-12-27T05:44:39Z</time>
      </trkpt>
      <trkpt lat="-28.530063517391682" lon="28.666448146104813">
        <ele>1883.3599999999999</ele>
        <time>2015-12-27T05:44:40Z</time>
      </trkpt>
      <trkpt lat="-28.530032504349947" lon="28.666600193828344">
        <ele>1881.9200000000001</ele>
        <time>2015-12-27T05:44:41Z</time>
      </trkpt>
      <trkpt lat="-28.530020853504539" lon="28.666766071692109">
        <ele>1880.48</ele>
        <time>2015-12-27T05:44:42Z</time>
      </trkpt>
      <trkpt lat="-28.530022613704205" lon="28.666937230154872">
        <ele>1878.55</ele>
        <time>2015-12-27T05:44:43Z</time>
      </trkpt>
      <trkpt lat="-28.530034264549613" lon="28.667109897360206">
        <ele>1877.1099999999999</ele>
        <time>2015-12-27T05:44:44Z</time>
      </trkpt>
      <trkpt lat="-28.530044741928577" lon="28.667602334171534">
        <ele>1873.27</ele>
        <time>2015-12-27T05:44:47Z</time>
      </trkpt>
      <trkpt lat="-28.530017333105206" lon="28.667747844010592">
        <ele>1871.8199999999999</ele>
        <time>2015-12-27T05:44:48Z</time>
      </trkpt>
      <trkpt lat="-28.529972322285175" lon="28.667877092957497">
        <ele>1870.8599999999999</ele>
        <time>2015-12-27T05:44:49Z</time>
      </trkpt>
      <trkpt lat="-28.529901579022408" lon="28.66798521950841">
        <ele>1869.4200000000001</ele>
        <time>2015-12-27T05:44:50Z</time>
      </trkpt>
      <trkpt lat="-28.529804851859808" lon="28.668067362159491">
        <ele>1867.98</ele>
        <time>2015-12-27T05:44:51Z</time>
      </trkpt>
      <trkpt lat="-28.529687002301216" lon="28.668127544224262">
        <ele>1866.54</ele>
        <time>2015-12-27T05:44:52Z</time>
      </trkpt>
      <trkpt lat="-28.529552891850471" lon="28.668169286102057">
        <ele>1864.6099999999999</ele>
        <time>2015-12-27T05:44:53Z</time>
      </trkpt>
      <trkpt lat="-28.529409561306238" lon="28.668205915018916">
        <ele>1863.1700000000001</ele>
        <time>2015-12-27T05:44:54Z</time>
      </trkpt>
      <trkpt lat="-28.528993986546993" lon="28.668344551697373">
        <ele>1857.8900000000001</ele>
        <time>2015-12-27T05:44:57Z</time>
      </trkpt>
      <trkpt lat="-28.528883429244161" lon="28.668436836451292">
        <ele>1855.96</ele>
        <time>2015-12-27T05:44:58Z</time>
      </trkpt>
      <trkpt lat="-28.528796089813113" lon="28.668560720980167">
        <ele>1854.52</ele>
        <time>2015-12-27T05:44:59Z</time>
      </trkpt>
      <trkpt lat="-28.528730291873217" lon="28.668708158656955">
        <ele>1852.5999999999999</ele>
        <time>2015-12-27T05:45:00Z</time>
      </trkpt>
      <trkpt lat="-28.528671534731984" lon="28.668870264664292">
        <ele>1850.6800000000001</ele>
        <time>2015-12-27T05:45:01Z</time>
      </trkpt>
      <trkpt lat="-28.52843826636672" lon="28.669533608481288">
        <ele>1843.47</ele>
        <time>2015-12-27T05:45:05Z</time>
      </trkpt>
      <trkpt lat="-28.528416138142347" lon="28.669687332585454">
        <ele>1841.54</ele>
        <time>2015-12-27T05:45:06Z</time>
      </trkpt>
      <trkpt lat="-28.528426364064217" lon="28.669837201014161">
        <ele>1840.0999999999999</ele>
        <time>2015-12-27T05:45:07Z</time>
      </trkpt>
      <trkpt lat="-28.528467519208789" lon="28.66997835226357">
        <ele>1839.1400000000001</ele>
        <time>2015-12-27T05:45:08Z</time>
      </trkpt>
      <trkpt lat="-28.528535915538669" lon="28.67010491900146">
        <ele>1837.22</ele>
        <time>2015-12-27T05:45:09Z</time>
      </trkpt>
      <trkpt lat="-28.528627194464207" lon="28.670207262039185">
        <ele>1835.77</ele>
        <time>2015-12-27T05:45:10Z</time>
      </trkpt>
      <trkpt lat="-28.528734818100929" lon="28.670281022787094">
        <ele>1834.8099999999999</ele>
        <time>2015-12-27T05:45:11Z</time>
      </trkpt>
      <trkpt lat="-28.528855182230473" lon="28.670327877625823">
        <ele>1833.3699999999999</ele>
        <time>2015-12-27T05:45:12Z</time>
      </trkpt>
      <trkpt lat="-28.528983844444156" lon="28.670341540127993">
        <ele>1831.45</ele>
        <time>2015-12-27T05:45:13Z</time>
      </trkpt>
      <trkpt lat="-28.529118960723281" lon="28.670326368883252">
        <ele>1829.53</ele>
        <time>2015-12-27T05:45:14Z</time>
      </trkpt>
      <trkpt lat="-28.529259944334626" lon="28.670286135748029">
        <ele>1828.0799999999999</ele>
        <time>2015-12-27T05:45:15Z</time>
      </trkpt>
      <trkpt lat="-28.529403358697891" lon="28.670232826843858">
        <ele>1826.1600000000001</ele>
        <time>2015-12-27T05:45:16Z</time>
      </trkpt>
      <trkpt lat="-28.529817759990692" lon="28.670105924829841">
        <ele>1820.3900000000001</ele>
        <time>2015-12-27T05:45:19Z</time>
      </trkpt>
      <trkpt lat="-28.529954552650452" lon="28.670108523219824">
        <ele>1818.95</ele>
        <time>2015-12-27T05:45:20Z</time>
      </trkpt>
      <trkpt lat="-28.530089920386672" lon="28.670143894851208">
        <ele>1817.03</ele>
        <time>2015-12-27T05:45:21Z</time>
      </trkpt>
      <trkpt lat="-28.530216319486499" lon="28.670213967561722">
        <ele>1815.1099999999999</ele>
        <time>2015-12-27T05:45:22Z</time>
      </trkpt>
      <trkpt lat="-28.530324529856443" lon="28.670315388590097">
        <ele>1813.1800000000001</ele>
        <time>2015-12-27T05:45:23Z</time>
      </trkpt>
      <trkpt lat="-28.530406756326556" lon="28.6704430449754">
        <ele>1810.78</ele>
        <time>2015-12-27T05:45:24Z</time>
      </trkpt>
      <trkpt lat="-28.530461071059108" lon="28.670590566471219">
        <ele>1808.8599999999999</ele>
        <time>2015-12-27T05:45:25Z</time>
      </trkpt>
      <trkpt lat="-28.530483366921544" lon="28.670753259211779">
        <ele>1806.9400000000001</ele>
        <time>2015-12-27T05:45:26Z</time>
      </trkpt>
      <trkpt lat="-28.530474146828055" lon="28.6709214001894">
        <ele>1805.49</ele>
        <time>2015-12-27T05:45:27Z</time>
      </trkpt>
      <trkpt lat="-28.530431650578976" lon="28.671083422377706">
        <ele>1804.05</ele>
        <time>2015-12-27T05:45:28Z</time>
      </trkpt>
      <trkpt lat="-28.530355375260115" lon="28.671231865882874">
        <ele>1802.6099999999999</ele>
        <time>2015-12-27T05:45:29Z</time>
      </trkpt>
      <trkpt lat="-28.530246494337916" lon="28.671362036839128">
        <ele>1801.1700000000001</ele>
        <time>2015-12-27T05:45:30Z</time>
      </trkpt>
      <trkpt lat="-28.530110120773315" lon="28.671468403190374">
        <ele>1800.21</ele>
        <time>2015-12-27T05:45:31Z</time>
      </trkpt>
      <trkpt lat="-28.529956564307213" lon="28.671559849753976">
        <ele>1799.24</ele>
        <time>2015-12-27T05:45:32Z</time>
      </trkpt>
      <trkpt lat="-28.529790937900543" lon="28.671653307974339">
        <ele>1798.28</ele>
        <time>2015-12-27T05:45:33Z</time>
      </trkpt>
      <trkpt lat="-28.528423514217138" lon="28.672453863546252">
        <ele>1790.5899999999999</ele>
        <time>2015-12-27T05:45:40Z</time>
      </trkpt>
      <trkpt lat="-28.528050519526005" lon="28.672642959281802">
        <ele>1787.23</ele>
        <time>2015-12-27T05:45:42Z</time>
      </trkpt>
      <trkpt lat="-28.527857568114996" lon="28.672698531299829">
        <ele>1785.79</ele>
        <time>2015-12-27T05:45:43Z</time>
      </trkpt>
      <trkpt lat="-28.527662521228194" lon="28.672733316197991">
        <ele>1784.8199999999999</ele>
        <time>2015-12-27T05:45:44Z</time>
      </trkpt>
      <trkpt lat="-28.526928853243589" lon="28.672847393900156">
        <ele>1784.8199999999999</ele>
        <time>2015-12-27T05:45:48Z</time>
      </trkpt>
      <trkpt lat="-28.526770351454616" lon="28.672917885705829">
        <ele>1785.3099999999999</ele>
        <time>2015-12-27T05:45:49Z</time>
      </trkpt>
      <trkpt lat="-28.526622913777828" lon="28.67301519960165">
        <ele>1786.27</ele>
        <time>2015-12-27T05:45:50Z</time>
      </trkpt>
      <trkpt lat="-28.526488719508052" lon="28.673139084130526">
        <ele>1786.75</ele>
        <time>2015-12-27T05:45:51Z</time>
      </trkpt>
      <trkpt lat="-28.526369445025921" lon="28.67328735999763">
        <ele>1787.71</ele>
        <time>2015-12-27T05:45:52Z</time>
      </trkpt>
      <trkpt lat="-28.526265425607562" lon="28.673461116850376">
        <ele>1788.1900000000001</ele>
        <time>2015-12-27T05:45:53Z</time>
      </trkpt>
      <trkpt lat="-28.526174146682024" lon="28.673660019412637">
        <ele>1788.6700000000001</ele>
        <time>2015-12-27T05:45:54Z</time>
      </trkpt>
      <trkpt lat="-28.526088483631611" lon="28.673881804570556">
        <ele>1788.6700000000001</ele>
        <time>2015-12-27T05:45:55Z</time>
      </trkpt>
    </trkseg>
  </trk>

</gpx>