<?xml version="1.0" encoding="utf-8"?><gpx creator="Garmin Desktop App" version="1.1" xsi:schemaLocation="http://www.topografix.com/GPX/1/1 http://www.topografix.com/GPX/1/1/gpx.xsd http://www.garmin.com/xmlschemas/WaypointExtension/v1 http://www8.garmin.com/xmlschemas/WaypointExtensionv1.xsd http://www.garmin.com/xmlschemas/TrackPointExtension/v1 http://www.garmin.com/xmlschemas/TrackPointExtensionv1.xsd http://www.garmin.com/xmlschemas/GpxExtensions/v3 http://www8.garmin.com/xmlschemas/GpxExtensionsv3.xsd http://www.garmin.com/xmlschemas/ActivityExtension/v1 http://www8.garmin.com/xmlschemas/ActivityExtensionv1.xsd http://www.garmin.com/xmlschemas/AdventuresExtensions/v1 http://www8.garmin.com/xmlschemas/AdventuresExtensionv1.xsd http://www.garmin.com/xmlschemas/PressureExtension/v1 http://www.garmin.com/xmlschemas/PressureExtensionv1.xsd http://www.garmin.com/xmlschemas/TripExtensions/v1 http://www.garmin.com/xmlschemas/TripExtensionsv1.xsd http://www.garmin.com/xmlschemas/TripMetaDataExtensions/v1 http://www.garmin.com/xmlschemas/TripMetaDataExtensionsv1.xsd http://www.garmin.com/xmlschemas/ViaPointTransportationModeExtensions/v1 http://www.garmin.com/xmlschemas/ViaPointTransportationModeExtensionsv1.xsd http://www.garmin.com/xmlschemas/CreationTimeExtension/v1 http://www.garmin.com/xmlschemas/CreationTimeExtensionsv1.xsd http://www.garmin.com/xmlschemas/AccelerationExtension/v1 http://www.garmin.com/xmlschemas/AccelerationExtensionv1.xsd http://www.garmin.com/xmlschemas/PowerExtension/v1 http://www.garmin.com/xmlschemas/PowerExtensionv1.xsd http://www.garmin.com/xmlschemas/VideoExtension/v1 http://www.garmin.com/xmlschemas/VideoExtensionv1.xsd" xmlns="http://www.topografix.com/GPX/1/1" xmlns:xsi="http://www.w3.org/2001/XMLSchema-instance" xmlns:wptx1="http://www.garmin.com/xmlschemas/WaypointExtension/v1" xmlns:gpxtrx="http://www.garmin.com/xmlschemas/GpxExtensions/v3" xmlns:gpxtpx="http://www.garmin.com/xmlschemas/TrackPointExtension/v1" xmlns:gpxx="http://www.garmin.com/xmlschemas/GpxExtensions/v3" xmlns:trp="http://www.garmin.com/xmlschemas/TripExtensions/v1" xmlns:adv="http://www.garmin.com/xmlschemas/AdventuresExtensions/v1" xmlns:prs="http://www.garmin.com/xmlschemas/PressureExtension/v1" xmlns:tmd="http://www.garmin.com/xmlschemas/TripMetaDataExtensions/v1" xmlns:vptm="http://www.garmin.com/xmlschemas/ViaPointTransportationModeExtensions/v1" xmlns:ctx="http://www.garmin.com/xmlschemas/CreationTimeExtension/v1" xmlns:gpxacc="http://www.garmin.com/xmlschemas/AccelerationExtension/v1" xmlns:gpxpx="http://www.garmin.com/xmlschemas/PowerExtension/v1" xmlns:vidx1="http://www.garmin.com/xmlschemas/VideoExtension/v1">

  <metadata>
    <link href="http://www.garmin.com">
      <text>Garmin International</text>
    </link>
    <time>2022-07-02T19:01:47Z</time>
    <bounds maxlat="-25.064151417464018" maxlon="31.042060554027557" minlat="-25.080511467531323" minlon="30.934639675542712" />
  </metadata>

  <trk>
    <name>[75] Kiepersol Pass</name>
    <extensions>
      <gpxx:TrackExtension>
        <gpxx:DisplayColor>Blue</gpxx:DisplayColor>
      </gpxx:TrackExtension>
    </extensions>
    <trkseg>
      <trkpt lat="-25.064151417464018" lon="30.934639675542712">
        <ele>817.74000000000001</ele>
        <time>2017-09-15T06:32:24Z</time>
      </trkpt>
      <trkpt lat="-25.064710238948464" lon="30.934677226468921">
        <ele>819.17999999999995</ele>
        <time>2017-09-15T06:32:31Z</time>
      </trkpt>
      <trkpt lat="-25.064717531204224" lon="30.934686530381441">
        <ele>820.62</ele>
        <time>2017-09-15T06:32:41Z</time>
      </trkpt>
      <trkpt lat="-25.064721973612905" lon="30.93469331972301">
        <ele>822.05999999999995</ele>
        <time>2017-09-15T06:33:11Z</time>
      </trkpt>
      <trkpt lat="-25.064828926697373" lon="30.934681249782443">
        <ele>823.50999999999999</ele>
        <time>2017-09-15T06:33:24Z</time>
      </trkpt>
      <trkpt lat="-25.065540634095669" lon="30.934699354693294">
        <ele>823.99000000000001</ele>
        <time>2017-09-15T06:33:31Z</time>
      </trkpt>
      <trkpt lat="-25.066683003678918" lon="30.934973023831844">
        <ele>826.38999999999999</ele>
        <time>2017-09-15T06:33:38Z</time>
      </trkpt>
      <trkpt lat="-25.067715402692556" lon="30.93575899489224">
        <ele>832.63999999999999</ele>
        <time>2017-09-15T06:33:45Z</time>
      </trkpt>
      <trkpt lat="-25.068416632711887" lon="30.93692583963275">
        <ele>839.85000000000002</ele>
        <time>2017-09-15T06:33:52Z</time>
      </trkpt>
      <trkpt lat="-25.068480586633086" lon="30.937112336978316">
        <ele>840.80999999999995</ele>
        <time>2017-09-15T06:33:53Z</time>
      </trkpt>
      <trkpt lat="-25.068532135337591" lon="30.937306629493833">
        <ele>841.76999999999998</ele>
        <time>2017-09-15T06:33:54Z</time>
      </trkpt>
      <trkpt lat="-25.068571111187339" lon="30.937498155981302">
        <ele>843.21000000000004</ele>
        <time>2017-09-15T06:33:55Z</time>
      </trkpt>
      <trkpt lat="-25.068599693477154" lon="30.939021902158856">
        <ele>850.89999999999998</ele>
        <time>2017-09-15T06:34:02Z</time>
      </trkpt>
      <trkpt lat="-25.068604303523898" lon="30.940429223701358">
        <ele>858.11000000000001</ele>
        <time>2017-09-15T06:34:08Z</time>
      </trkpt>
      <trkpt lat="-25.068660797551274" lon="30.940652349963784">
        <ele>859.08000000000004</ele>
        <time>2017-09-15T06:34:09Z</time>
      </trkpt>
      <trkpt lat="-25.068729780614376" lon="30.940864831209183">
        <ele>860.03999999999996</ele>
        <time>2017-09-15T06:34:10Z</time>
      </trkpt>
      <trkpt lat="-25.068813264369965" lon="30.941073959693313">
        <ele>861.48000000000002</ele>
        <time>2017-09-15T06:34:11Z</time>
      </trkpt>
      <trkpt lat="-25.06890881806612" lon="30.941273868083954">
        <ele>862.44000000000005</ele>
        <time>2017-09-15T06:34:12Z</time>
      </trkpt>
      <trkpt lat="-25.069015268236399" lon="30.94146522693336">
        <ele>863.39999999999998</ele>
        <time>2017-09-15T06:34:13Z</time>
      </trkpt>
      <trkpt lat="-25.069135632365942" lon="30.941647449508309">
        <ele>864.36000000000001</ele>
        <time>2017-09-15T06:34:14Z</time>
      </trkpt>
      <trkpt lat="-25.069271335378289" lon="30.941818272694945">
        <ele>864.84000000000003</ele>
        <time>2017-09-15T06:34:15Z</time>
      </trkpt>
      <trkpt lat="-25.069418773055077" lon="30.941980127245188">
        <ele>865.79999999999995</ele>
        <time>2017-09-15T06:34:16Z</time>
      </trkpt>
      <trkpt lat="-25.070503558963537" lon="30.943257613107562">
        <ele>869.16999999999996</ele>
        <time>2017-09-15T06:34:24Z</time>
      </trkpt>
      <trkpt lat="-25.070589641109109" lon="30.943432627245784">
        <ele>869.64999999999998</ele>
        <time>2017-09-15T06:34:25Z</time>
      </trkpt>
      <trkpt lat="-25.07066055200994" lon="30.943607892841101">
        <ele>870.13</ele>
        <time>2017-09-15T06:34:26Z</time>
      </trkpt>
      <trkpt lat="-25.070890299975872" lon="30.944984620437026">
        <ele>873.00999999999999</ele>
        <time>2017-09-15T06:34:33Z</time>
      </trkpt>
      <trkpt lat="-25.071168076246977" lon="30.947176991030574">
        <ele>877.82000000000005</ele>
        <time>2017-09-15T06:34:43Z</time>
      </trkpt>
      <trkpt lat="-25.071828570216894" lon="30.948937106877565">
        <ele>886.95000000000005</ele>
        <time>2017-09-15T06:34:51Z</time>
      </trkpt>
      <trkpt lat="-25.072212126106024" lon="30.950549533590674">
        <ele>900.88999999999999</ele>
        <time>2017-09-15T06:34:59Z</time>
      </trkpt>
      <trkpt lat="-25.072295190766454" lon="30.951672540977597">
        <ele>908.58000000000004</ele>
        <time>2017-09-15T06:35:06Z</time>
      </trkpt>
      <trkpt lat="-25.072448579594493" lon="30.953686712309718">
        <ele>913.38999999999999</ele>
        <time>2017-09-15T06:35:15Z</time>
      </trkpt>
      <trkpt lat="-25.072612026706338" lon="30.955815380439162">
        <ele>911.95000000000005</ele>
        <time>2017-09-15T06:35:25Z</time>
      </trkpt>
      <trkpt lat="-25.07302600890398" lon="30.9575264621526">
        <ele>904.25999999999999</ele>
        <time>2017-09-15T06:35:34Z</time>
      </trkpt>
      <trkpt lat="-25.074151111766696" lon="30.960193835198879">
        <ele>877.34000000000003</ele>
        <time>2017-09-15T06:35:47Z</time>
      </trkpt>
      <trkpt lat="-25.07451681420207" lon="30.961854290217161">
        <ele>861.96000000000004</ele>
        <time>2017-09-15T06:35:54Z</time>
      </trkpt>
      <trkpt lat="-25.075105559080839" lon="30.963753713294864">
        <ele>846.10000000000002</ele>
        <time>2017-09-15T06:36:02Z</time>
      </trkpt>
      <trkpt lat="-25.07618841715157" lon="30.965479463338852">
        <ele>839.37</ele>
        <time>2017-09-15T06:36:10Z</time>
      </trkpt>
      <trkpt lat="-25.076801385730505" lon="30.967012010514736">
        <ele>841.76999999999998</ele>
        <time>2017-09-15T06:36:17Z</time>
      </trkpt>
      <trkpt lat="-25.076848743483424" lon="30.968646397814155">
        <ele>842.25</ele>
        <time>2017-09-15T06:36:24Z</time>
      </trkpt>
      <trkpt lat="-25.076360665261745" lon="30.970938093960285">
        <ele>832.63999999999999</ele>
        <time>2017-09-15T06:36:33Z</time>
      </trkpt>
      <trkpt lat="-25.075643761083484" lon="30.972644565626979">
        <ele>821.10000000000002</ele>
        <time>2017-09-15T06:36:40Z</time>
      </trkpt>
      <trkpt lat="-25.074519664049149" lon="30.974516412243247">
        <ele>802.36000000000001</ele>
        <time>2017-09-15T06:36:49Z</time>
      </trkpt>
      <trkpt lat="-25.073985317721963" lon="30.976159768179059">
        <ele>785.52999999999997</ele>
        <time>2017-09-15T06:36:56Z</time>
      </trkpt>
      <trkpt lat="-25.073684826493263" lon="30.977920219302177">
        <ele>765.35000000000002</ele>
        <time>2017-09-15T06:37:04Z</time>
      </trkpt>
      <trkpt lat="-25.073608970269561" lon="30.978100346401334">
        <ele>763.41999999999996</ele>
        <time>2017-09-15T06:37:05Z</time>
      </trkpt>
      <trkpt lat="-25.073520792648196" lon="30.978266056627035">
        <ele>761.5</ele>
        <time>2017-09-15T06:37:06Z</time>
      </trkpt>
      <trkpt lat="-25.07341786287725" lon="30.978415757417679">
        <ele>759.10000000000002</ele>
        <time>2017-09-15T06:37:07Z</time>
      </trkpt>
      <trkpt lat="-25.073299510404468" lon="30.978548778221011">
        <ele>757.17999999999995</ele>
        <time>2017-09-15T06:37:08Z</time>
      </trkpt>
      <trkpt lat="-25.073167998343706" lon="30.978669645264745">
        <ele>755.25</ele>
        <time>2017-09-15T06:37:09Z</time>
      </trkpt>
      <trkpt lat="-25.073028020560741" lon="30.978778777644038">
        <ele>753.33000000000004</ele>
        <time>2017-09-15T06:37:10Z</time>
      </trkpt>
      <trkpt lat="-25.072877397760749" lon="30.978874331340194">
        <ele>751.40999999999997</ele>
        <time>2017-09-15T06:37:11Z</time>
      </trkpt>
      <trkpt lat="-25.072718309238553" lon="30.978956893086433">
        <ele>749.49000000000001</ele>
        <time>2017-09-15T06:37:12Z</time>
      </trkpt>
      <trkpt lat="-25.072548910975456" lon="30.979025037959218">
        <ele>747.55999999999995</ele>
        <time>2017-09-15T06:37:13Z</time>
      </trkpt>
      <trkpt lat="-25.072369370609522" lon="30.979078263044357">
        <ele>745.63999999999999</ele>
        <time>2017-09-15T06:37:14Z</time>
      </trkpt>
      <trkpt lat="-25.072181532159448" lon="30.979118747636676">
        <ele>743.72000000000003</ele>
        <time>2017-09-15T06:37:15Z</time>
      </trkpt>
      <trkpt lat="-25.070817042142153" lon="30.979402642697096">
        <ele>731.70000000000005</ele>
        <time>2017-09-15T06:37:22Z</time>
      </trkpt>
      <trkpt lat="-25.070644458755851" lon="30.979497106745839">
        <ele>730.74000000000001</ele>
        <time>2017-09-15T06:37:23Z</time>
      </trkpt>
      <trkpt lat="-25.070482436567545" lon="30.979610849171877">
        <ele>729.77999999999997</ele>
        <time>2017-09-15T06:37:24Z</time>
      </trkpt>
      <trkpt lat="-25.070332400500774" lon="30.979743953794241">
        <ele>729.29999999999995</ele>
        <time>2017-09-15T06:37:25Z</time>
      </trkpt>
      <trkpt lat="-25.070200217887759" lon="30.979893570765853">
        <ele>729.29999999999995</ele>
        <time>2017-09-15T06:37:26Z</time>
      </trkpt>
      <trkpt lat="-25.070084966719151" lon="30.980062047019601">
        <ele>729.29999999999995</ele>
        <time>2017-09-15T06:37:27Z</time>
      </trkpt>
      <trkpt lat="-25.069984635338187" lon="30.980244353413582">
        <ele>729.29999999999995</ele>
        <time>2017-09-15T06:37:28Z</time>
      </trkpt>
      <trkpt lat="-25.069898134097457" lon="30.980436215177178">
        <ele>729.29999999999995</ele>
        <time>2017-09-15T06:37:29Z</time>
      </trkpt>
      <trkpt lat="-25.069827977567911" lon="30.980637967586517">
        <ele>729.77999999999997</ele>
        <time>2017-09-15T06:37:30Z</time>
      </trkpt>
      <trkpt lat="-25.06977953016758" lon="30.980846509337425">
        <ele>730.74000000000001</ele>
        <time>2017-09-15T06:37:31Z</time>
      </trkpt>
      <trkpt lat="-25.069755390286446" lon="30.981060080230236">
        <ele>731.22000000000003</ele>
        <time>2017-09-15T06:37:32Z</time>
      </trkpt>
      <trkpt lat="-25.069754384458065" lon="30.981269208714366">
        <ele>732.17999999999995</ele>
        <time>2017-09-15T06:37:33Z</time>
      </trkpt>
      <trkpt lat="-25.069776512682438" lon="30.981468614190817">
        <ele>733.13999999999999</ele>
        <time>2017-09-15T06:37:34Z</time>
      </trkpt>
      <trkpt lat="-25.069813644513488" lon="30.981658715754747">
        <ele>733.62</ele>
        <time>2017-09-15T06:37:35Z</time>
      </trkpt>
      <trkpt lat="-25.069862175732851" lon="30.981842447072268">
        <ele>735.07000000000005</ele>
        <time>2017-09-15T06:37:36Z</time>
      </trkpt>
      <trkpt lat="-25.069924704730511" lon="30.982019724324346">
        <ele>736.02999999999997</ele>
        <time>2017-09-15T06:37:37Z</time>
      </trkpt>
      <trkpt lat="-25.070006847381592" lon="30.982188954949379">
        <ele>737.47000000000003</ele>
        <time>2017-09-15T06:37:38Z</time>
      </trkpt>
      <trkpt lat="-25.070107933133841" lon="30.982350809499621">
        <ele>738.90999999999997</ele>
        <time>2017-09-15T06:37:39Z</time>
      </trkpt>
      <trkpt lat="-25.070225028321147" lon="30.982508640736341">
        <ele>740.83000000000004</ele>
        <time>2017-09-15T06:37:40Z</time>
      </trkpt>
      <trkpt lat="-25.070349667221308" lon="30.982667310163379">
        <ele>742.27999999999997</ele>
        <time>2017-09-15T06:37:41Z</time>
      </trkpt>
      <trkpt lat="-25.071474518626928" lon="30.984436143189669">
        <ele>759.58000000000004</ele>
        <time>2017-09-15T06:37:51Z</time>
      </trkpt>
      <trkpt lat="-25.071868803352118" lon="30.985963577404618">
        <ele>772.55999999999995</ele>
        <time>2017-09-15T06:37:59Z</time>
      </trkpt>
      <trkpt lat="-25.071883387863636" lon="30.987863671034575">
        <ele>781.69000000000005</ele>
        <time>2017-09-15T06:38:08Z</time>
      </trkpt>
      <trkpt lat="-25.071853213012218" lon="30.989760830998421">
        <ele>782.16999999999996</ele>
        <time>2017-09-15T06:38:15Z</time>
      </trkpt>
      <trkpt lat="-25.071833096444607" lon="30.991799142211676">
        <ele>774</ele>
        <time>2017-09-15T06:38:23Z</time>
      </trkpt>
      <trkpt lat="-25.071702506393194" lon="30.994538348168135">
        <ele>753.33000000000004</ele>
        <time>2017-09-15T06:38:34Z</time>
      </trkpt>
      <trkpt lat="-25.071324063464999" lon="30.996942277997732">
        <ele>740.83000000000004</ele>
        <time>2017-09-15T06:38:44Z</time>
      </trkpt>
      <trkpt lat="-25.071436297148466" lon="30.998515142127872">
        <ele>738.90999999999997</ele>
        <time>2017-09-15T06:38:52Z</time>
      </trkpt>
      <trkpt lat="-25.071964859962463" lon="31.000294787809253">
        <ele>731.70000000000005</ele>
        <time>2017-09-15T06:39:02Z</time>
      </trkpt>
      <trkpt lat="-25.072554526850581" lon="31.002310384064913">
        <ele>735.07000000000005</ele>
        <time>2017-09-15T06:39:12Z</time>
      </trkpt>
      <trkpt lat="-25.073403948917985" lon="31.004288848489523">
        <ele>750.45000000000005</ele>
        <time>2017-09-15T06:39:22Z</time>
      </trkpt>
      <trkpt lat="-25.07442737929523" lon="31.005470026284456">
        <ele>761.98000000000002</ele>
        <time>2017-09-15T06:39:30Z</time>
      </trkpt>
      <trkpt lat="-25.075173620134592" lon="31.006710631772876">
        <ele>770.63</ele>
        <time>2017-09-15T06:39:37Z</time>
      </trkpt>
      <trkpt lat="-25.075437482446432" lon="31.008247369900346">
        <ele>781.69000000000005</ele>
        <time>2017-09-15T06:39:44Z</time>
      </trkpt>
      <trkpt lat="-25.075441421940923" lon="31.010024165734649">
        <ele>794.66999999999996</ele>
        <time>2017-09-15T06:39:51Z</time>
      </trkpt>
      <trkpt lat="-25.075875017791986" lon="31.011296706274152">
        <ele>804.75999999999999</ele>
        <time>2017-09-15T06:39:57Z</time>
      </trkpt>
      <trkpt lat="-25.076690493151546" lon="31.012306725606322">
        <ele>812.92999999999995</ele>
        <time>2017-09-15T06:40:03Z</time>
      </trkpt>
      <trkpt lat="-25.077928248792887" lon="31.013132091611624">
        <ele>823.02999999999997</ele>
        <time>2017-09-15T06:40:09Z</time>
      </trkpt>
      <trkpt lat="-25.079216966405511" lon="31.014122748747468">
        <ele>832.63999999999999</ele>
        <time>2017-09-15T06:40:16Z</time>
      </trkpt>
      <trkpt lat="-25.080067561939359" lon="31.015432253479958">
        <ele>835.03999999999996</ele>
        <time>2017-09-15T06:40:23Z</time>
      </trkpt>
      <trkpt lat="-25.080511467531323" lon="31.017058677971363">
        <ele>832.15999999999997</ele>
        <time>2017-09-15T06:40:30Z</time>
      </trkpt>
      <trkpt lat="-25.080426475033164" lon="31.0187301132828">
        <ele>824.47000000000003</ele>
        <time>2017-09-15T06:40:37Z</time>
      </trkpt>
      <trkpt lat="-25.079861953854561" lon="31.020640600472689">
        <ele>815.82000000000005</ele>
        <time>2017-09-15T06:40:45Z</time>
      </trkpt>
      <trkpt lat="-25.079357195645571" lon="31.022288734093308">
        <ele>809.57000000000005</ele>
        <time>2017-09-15T06:40:53Z</time>
      </trkpt>
      <trkpt lat="-25.078743975609541" lon="31.023925300687551">
        <ele>812.45000000000005</ele>
        <time>2017-09-15T06:41:02Z</time>
      </trkpt>
      <trkpt lat="-25.077731357887387" lon="31.025366401299834">
        <ele>819.65999999999997</ele>
        <time>2017-09-15T06:41:10Z</time>
      </trkpt>
      <trkpt lat="-25.076362509280443" lon="31.026541041210294">
        <ele>819.65999999999997</ele>
        <time>2017-09-15T06:41:18Z</time>
      </trkpt>
      <trkpt lat="-25.074263345450163" lon="31.028341306373477">
        <ele>827.83000000000004</ele>
        <time>2017-09-15T06:41:30Z</time>
      </trkpt>
      <trkpt lat="-25.072971023619175" lon="31.030033612623811">
        <ele>835.03999999999996</ele>
        <time>2017-09-15T06:41:40Z</time>
      </trkpt>
      <trkpt lat="-25.072113890200853" lon="31.031877212226391">
        <ele>834.55999999999995</ele>
        <time>2017-09-15T06:41:49Z</time>
      </trkpt>
      <trkpt lat="-25.071607707068324" lon="31.033605057746172">
        <ele>833.60000000000002</ele>
        <time>2017-09-15T06:41:58Z</time>
      </trkpt>
      <trkpt lat="-25.071094231680036" lon="31.035594837740064">
        <ele>834.08000000000004</ele>
        <time>2017-09-15T06:42:08Z</time>
      </trkpt>
      <trkpt lat="-25.070403227582574" lon="31.03825131431222">
        <ele>831.20000000000005</ele>
        <time>2017-09-15T06:42:21Z</time>
      </trkpt>
      <trkpt lat="-25.070037106052041" lon="31.040063481777906">
        <ele>823.50999999999999</ele>
        <time>2017-09-15T06:42:31Z</time>
      </trkpt>
      <trkpt lat="-25.070151770487428" lon="31.04155495762825">
        <ele>816.77999999999997</ele>
        <time>2017-09-15T06:42:39Z</time>
      </trkpt>
      <trkpt lat="-25.070218406617641" lon="31.042060554027557">
        <ele>813.88999999999999</ele>
        <time>2017-09-15T06:42:44Z</time>
      </trkpt>
    </trkseg>
  </trk>

</gpx>