<?xml version="1.0" encoding="utf-8"?><gpx creator="Garmin Desktop App" version="1.1" xsi:schemaLocation="http://www.topografix.com/GPX/1/1 http://www.topografix.com/GPX/1/1/gpx.xsd http://www.garmin.com/xmlschemas/WaypointExtension/v1 http://www8.garmin.com/xmlschemas/WaypointExtensionv1.xsd http://www.garmin.com/xmlschemas/TrackPointExtension/v1 http://www.garmin.com/xmlschemas/TrackPointExtensionv1.xsd http://www.garmin.com/xmlschemas/GpxExtensions/v3 http://www8.garmin.com/xmlschemas/GpxExtensionsv3.xsd http://www.garmin.com/xmlschemas/ActivityExtension/v1 http://www8.garmin.com/xmlschemas/ActivityExtensionv1.xsd http://www.garmin.com/xmlschemas/AdventuresExtensions/v1 http://www8.garmin.com/xmlschemas/AdventuresExtensionv1.xsd http://www.garmin.com/xmlschemas/PressureExtension/v1 http://www.garmin.com/xmlschemas/PressureExtensionv1.xsd http://www.garmin.com/xmlschemas/TripExtensions/v1 http://www.garmin.com/xmlschemas/TripExtensionsv1.xsd http://www.garmin.com/xmlschemas/TripMetaDataExtensions/v1 http://www.garmin.com/xmlschemas/TripMetaDataExtensionsv1.xsd http://www.garmin.com/xmlschemas/ViaPointTransportationModeExtensions/v1 http://www.garmin.com/xmlschemas/ViaPointTransportationModeExtensionsv1.xsd http://www.garmin.com/xmlschemas/CreationTimeExtension/v1 http://www.garmin.com/xmlschemas/CreationTimeExtensionsv1.xsd http://www.garmin.com/xmlschemas/AccelerationExtension/v1 http://www.garmin.com/xmlschemas/AccelerationExtensionv1.xsd http://www.garmin.com/xmlschemas/PowerExtension/v1 http://www.garmin.com/xmlschemas/PowerExtensionv1.xsd http://www.garmin.com/xmlschemas/VideoExtension/v1 http://www.garmin.com/xmlschemas/VideoExtensionv1.xsd" xmlns="http://www.topografix.com/GPX/1/1" xmlns:xsi="http://www.w3.org/2001/XMLSchema-instance" xmlns:wptx1="http://www.garmin.com/xmlschemas/WaypointExtension/v1" xmlns:gpxtrx="http://www.garmin.com/xmlschemas/GpxExtensions/v3" xmlns:gpxtpx="http://www.garmin.com/xmlschemas/TrackPointExtension/v1" xmlns:gpxx="http://www.garmin.com/xmlschemas/GpxExtensions/v3" xmlns:trp="http://www.garmin.com/xmlschemas/TripExtensions/v1" xmlns:adv="http://www.garmin.com/xmlschemas/AdventuresExtensions/v1" xmlns:prs="http://www.garmin.com/xmlschemas/PressureExtension/v1" xmlns:tmd="http://www.garmin.com/xmlschemas/TripMetaDataExtensions/v1" xmlns:vptm="http://www.garmin.com/xmlschemas/ViaPointTransportationModeExtensions/v1" xmlns:ctx="http://www.garmin.com/xmlschemas/CreationTimeExtension/v1" xmlns:gpxacc="http://www.garmin.com/xmlschemas/AccelerationExtension/v1" xmlns:gpxpx="http://www.garmin.com/xmlschemas/PowerExtension/v1" xmlns:vidx1="http://www.garmin.com/xmlschemas/VideoExtension/v1">

  <metadata>
    <link href="http://www.garmin.com">
      <text>Garmin International</text>
    </link>
    <time>2022-07-02T19:05:23Z</time>
    <bounds maxlat="-32.031511031091213" maxlon="24.625848960131407" minlat="-32.091486984863877" minlon="24.602104034274817" />
  </metadata>

  <trk>
    <name>[098] Paardekloof Pass</name>
    <extensions>
      <gpxx:TrackExtension>
        <gpxx:DisplayColor>Green</gpxx:DisplayColor>
      </gpxx:TrackExtension>
    </extensions>
    <trkseg>
      <trkpt lat="-32.031511031091213" lon="24.625848960131407">
        <ele>1177.27</ele>
        <time>2020-02-23T09:22:27Z</time>
      </trkpt>
      <trkpt lat="-32.035147016867995" lon="24.62295301258564">
        <ele>1182.5599999999999</ele>
        <time>2020-02-23T09:22:42Z</time>
      </trkpt>
      <trkpt lat="-32.039625970646739" lon="24.619531016796827">
        <ele>1186.8800000000001</ele>
        <time>2020-02-23T09:23:00Z</time>
      </trkpt>
      <trkpt lat="-32.042036019265652" lon="24.618575982749462">
        <ele>1186.8800000000001</ele>
        <time>2020-02-23T09:23:08Z</time>
      </trkpt>
      <trkpt lat="-32.047332040965557" lon="24.616996999830008">
        <ele>1209.48</ele>
        <time>2020-02-23T09:23:25Z</time>
      </trkpt>
      <trkpt lat="-32.050098991021514" lon="24.615764021873474">
        <ele>1209.96</ele>
        <time>2020-02-23T09:23:35Z</time>
      </trkpt>
      <trkpt lat="-32.053471030667424" lon="24.613942969590425">
        <ele>1217.1700000000001</ele>
        <time>2020-02-23T09:23:48Z</time>
      </trkpt>
      <trkpt lat="-32.056908030062914" lon="24.611890995875001">
        <ele>1209.48</ele>
        <time>2020-02-23T09:24:03Z</time>
      </trkpt>
      <trkpt lat="-32.057873960584402" lon="24.610561039298773">
        <ele>1198.4200000000001</ele>
        <time>2020-02-23T09:24:09Z</time>
      </trkpt>
      <trkpt lat="-32.059337021782994" lon="24.608589028939605">
        <ele>1180.6400000000001</ele>
        <time>2020-02-23T09:24:18Z</time>
      </trkpt>
      <trkpt lat="-32.061033016070724" lon="24.60731397382915">
        <ele>1165.74</ele>
        <time>2020-02-23T09:24:26Z</time>
      </trkpt>
      <trkpt lat="-32.062800005078316" lon="24.606681978330016">
        <ele>1152.76</ele>
        <time>2020-02-23T09:24:33Z</time>
      </trkpt>
      <trkpt lat="-32.066144971176982" lon="24.606145033612847">
        <ele>1132.5699999999999</ele>
        <time>2020-02-23T09:24:45Z</time>
      </trkpt>
      <trkpt lat="-32.070451006293297" lon="24.605417987331748">
        <ele>1117.1900000000001</ele>
        <time>2020-02-23T09:24:59Z</time>
      </trkpt>
      <trkpt lat="-32.072561988607049" lon="24.604637967422605">
        <ele>1111.4200000000001</ele>
        <time>2020-02-23T09:25:06Z</time>
      </trkpt>
      <trkpt lat="-32.076723016798496" lon="24.602826973423362">
        <ele>1099.4000000000001</ele>
        <time>2020-02-23T09:25:20Z</time>
      </trkpt>
      <trkpt lat="-32.079844018444419" lon="24.602161031216383">
        <ele>1090.75</ele>
        <time>2020-02-23T09:25:30Z</time>
      </trkpt>
      <trkpt lat="-32.083022017031908" lon="24.602104034274817">
        <ele>1084.02</ele>
        <time>2020-02-23T09:25:40Z</time>
      </trkpt>
      <trkpt lat="-32.086477959528565" lon="24.602624969556928">
        <ele>1075.3699999999999</ele>
        <time>2020-02-23T09:25:51Z</time>
      </trkpt>
      <trkpt lat="-32.091486984863877" lon="24.603594001382589">
        <ele>1073.9300000000001</ele>
        <time>2020-02-23T09:26:07Z</time>
      </trkpt>
    </trkseg>
  </trk>

</gpx>