<?xml version="1.0" encoding="utf-8"?><gpx creator="Garmin Desktop App" version="1.1" xsi:schemaLocation="http://www.topografix.com/GPX/1/1 http://www.topografix.com/GPX/1/1/gpx.xsd http://www.garmin.com/xmlschemas/WaypointExtension/v1 http://www8.garmin.com/xmlschemas/WaypointExtensionv1.xsd http://www.garmin.com/xmlschemas/TrackPointExtension/v1 http://www.garmin.com/xmlschemas/TrackPointExtensionv1.xsd http://www.garmin.com/xmlschemas/GpxExtensions/v3 http://www8.garmin.com/xmlschemas/GpxExtensionsv3.xsd http://www.garmin.com/xmlschemas/ActivityExtension/v1 http://www8.garmin.com/xmlschemas/ActivityExtensionv1.xsd http://www.garmin.com/xmlschemas/AdventuresExtensions/v1 http://www8.garmin.com/xmlschemas/AdventuresExtensionv1.xsd http://www.garmin.com/xmlschemas/PressureExtension/v1 http://www.garmin.com/xmlschemas/PressureExtensionv1.xsd http://www.garmin.com/xmlschemas/TripExtensions/v1 http://www.garmin.com/xmlschemas/TripExtensionsv1.xsd http://www.garmin.com/xmlschemas/TripMetaDataExtensions/v1 http://www.garmin.com/xmlschemas/TripMetaDataExtensionsv1.xsd http://www.garmin.com/xmlschemas/ViaPointTransportationModeExtensions/v1 http://www.garmin.com/xmlschemas/ViaPointTransportationModeExtensionsv1.xsd http://www.garmin.com/xmlschemas/CreationTimeExtension/v1 http://www.garmin.com/xmlschemas/CreationTimeExtensionsv1.xsd http://www.garmin.com/xmlschemas/AccelerationExtension/v1 http://www.garmin.com/xmlschemas/AccelerationExtensionv1.xsd http://www.garmin.com/xmlschemas/PowerExtension/v1 http://www.garmin.com/xmlschemas/PowerExtensionv1.xsd http://www.garmin.com/xmlschemas/VideoExtension/v1 http://www.garmin.com/xmlschemas/VideoExtensionv1.xsd" xmlns="http://www.topografix.com/GPX/1/1" xmlns:xsi="http://www.w3.org/2001/XMLSchema-instance" xmlns:wptx1="http://www.garmin.com/xmlschemas/WaypointExtension/v1" xmlns:gpxtrx="http://www.garmin.com/xmlschemas/GpxExtensions/v3" xmlns:gpxtpx="http://www.garmin.com/xmlschemas/TrackPointExtension/v1" xmlns:gpxx="http://www.garmin.com/xmlschemas/GpxExtensions/v3" xmlns:trp="http://www.garmin.com/xmlschemas/TripExtensions/v1" xmlns:adv="http://www.garmin.com/xmlschemas/AdventuresExtensions/v1" xmlns:prs="http://www.garmin.com/xmlschemas/PressureExtension/v1" xmlns:tmd="http://www.garmin.com/xmlschemas/TripMetaDataExtensions/v1" xmlns:vptm="http://www.garmin.com/xmlschemas/ViaPointTransportationModeExtensions/v1" xmlns:ctx="http://www.garmin.com/xmlschemas/CreationTimeExtension/v1" xmlns:gpxacc="http://www.garmin.com/xmlschemas/AccelerationExtension/v1" xmlns:gpxpx="http://www.garmin.com/xmlschemas/PowerExtension/v1" xmlns:vidx1="http://www.garmin.com/xmlschemas/VideoExtension/v1">

  <metadata>
    <link href="http://www.garmin.com">
      <text>Garmin International</text>
    </link>
    <time>2023-01-21T10:00:08Z</time>
    <bounds maxlat="-34.197514001280069" maxlon="19.198984997346997" minlat="-34.235281012952328" minlon="19.129537995904684" />
  </metadata>

  <trk>
    <name>[118] Houw Hoek Pass</name>
    <extensions>
      <gpxx:TrackExtension>
        <gpxx:DisplayColor>Blue</gpxx:DisplayColor>
      </gpxx:TrackExtension>
    </extensions>
    <trkseg>
      <trkpt lat="-34.235281012952328" lon="19.198984997346997">
        <ele>86.659999999999997</ele>
        <time>2020-02-25T09:36:42Z</time>
      </trkpt>
      <trkpt lat="-34.235155032947659" lon="19.196608979254961">
        <ele>89.540000000000006</ele>
        <time>2020-02-25T09:36:49Z</time>
      </trkpt>
      <trkpt lat="-34.234951017424464" lon="19.193205004557967">
        <ele>100.11</ele>
        <time>2020-02-25T09:36:58Z</time>
      </trkpt>
      <trkpt lat="-34.234337965026498" lon="19.191044988110662">
        <ele>108.29000000000001</ele>
        <time>2020-02-25T09:37:04Z</time>
      </trkpt>
      <trkpt lat="-34.233384020626545" lon="19.189588967710733">
        <ele>116.45999999999999</ele>
        <time>2020-02-25T09:37:09Z</time>
      </trkpt>
      <trkpt lat="-34.231731025502086" lon="19.188203020021319">
        <ele>124.15000000000001</ele>
        <time>2020-02-25T09:37:16Z</time>
      </trkpt>
      <trkpt lat="-34.23012999817729" lon="19.187656017020345">
        <ele>126.06999999999999</ele>
        <time>2020-02-25T09:37:22Z</time>
      </trkpt>
      <trkpt lat="-34.228135021403432" lon="19.18769096955657">
        <ele>127.98999999999999</ele>
        <time>2020-02-25T09:37:29Z</time>
      </trkpt>
      <trkpt lat="-34.224336007609963" lon="19.187761964276433">
        <ele>146.74000000000001</ele>
        <time>2020-02-25T09:37:42Z</time>
      </trkpt>
      <trkpt lat="-34.221751028671861" lon="19.187887022271752">
        <ele>165.47999999999999</ele>
        <time>2020-02-25T09:37:51Z</time>
      </trkpt>
      <trkpt lat="-34.220476979389787" lon="19.188600992783904">
        <ele>175.58000000000001</ele>
        <time>2020-02-25T09:37:56Z</time>
      </trkpt>
      <trkpt lat="-34.219608027487993" lon="19.189384030178189">
        <ele>183.27000000000001</ele>
        <time>2020-02-25T09:38:00Z</time>
      </trkpt>
      <trkpt lat="-34.219395965337753" lon="19.189511016011238">
        <ele>185.19</ele>
        <time>2020-02-25T09:38:01Z</time>
      </trkpt>
      <trkpt lat="-34.219187004491687" lon="19.189592991024256">
        <ele>187.11000000000001</ele>
        <time>2020-02-25T09:38:02Z</time>
      </trkpt>
      <trkpt lat="-34.21897703781724" lon="19.189625009894371">
        <ele>189.03999999999999</ele>
        <time>2020-02-25T09:38:03Z</time>
      </trkpt>
      <trkpt lat="-34.21876598149538" lon="19.18960397131741">
        <ele>190.96000000000001</ele>
        <time>2020-02-25T09:38:04Z</time>
      </trkpt>
      <trkpt lat="-34.218561965972185" lon="19.189539011567831">
        <ele>192.88</ele>
        <time>2020-02-25T09:38:05Z</time>
      </trkpt>
      <trkpt lat="-34.218373959884048" lon="19.189424011856318">
        <ele>193.84</ele>
        <time>2020-02-25T09:38:06Z</time>
      </trkpt>
      <trkpt lat="-34.218211015686393" lon="19.189267018809915">
        <ele>196.72999999999999</ele>
        <time>2020-02-25T09:38:07Z</time>
      </trkpt>
      <trkpt lat="-34.218070032075047" lon="19.189074989408255">
        <ele>198.65000000000001</ele>
        <time>2020-02-25T09:38:08Z</time>
      </trkpt>
      <trkpt lat="-34.217967018485069" lon="19.188854964450002">
        <ele>199.13</ele>
        <time>2020-02-25T09:38:09Z</time>
      </trkpt>
      <trkpt lat="-34.217909015715122" lon="19.188598981127143">
        <ele>201.05000000000001</ele>
        <time>2020-02-25T09:38:10Z</time>
      </trkpt>
      <trkpt lat="-34.21788303181529" lon="19.188341991975904">
        <ele>201.05000000000001</ele>
        <time>2020-02-25T09:38:11Z</time>
      </trkpt>
      <trkpt lat="-34.217900969088078" lon="19.188080979511142">
        <ele>202.00999999999999</ele>
        <time>2020-02-25T09:38:12Z</time>
      </trkpt>
      <trkpt lat="-34.217976992949843" lon="19.187832958996296">
        <ele>204.41999999999999</ele>
        <time>2020-02-25T09:38:13Z</time>
      </trkpt>
      <trkpt lat="-34.218072965741158" lon="19.187580998986959">
        <ele>205.86000000000001</ele>
        <time>2020-02-25T09:38:14Z</time>
      </trkpt>
      <trkpt lat="-34.218196012079716" lon="19.18732400983572">
        <ele>208.25999999999999</ele>
        <time>2020-02-25T09:38:15Z</time>
      </trkpt>
      <trkpt lat="-34.218341019004583" lon="19.187060985714197">
        <ele>210.19</ele>
        <time>2020-02-25T09:38:16Z</time>
      </trkpt>
      <trkpt lat="-34.219538038596511" lon="19.185478985309601">
        <ele>224.61000000000001</ele>
        <time>2020-02-25T09:38:22Z</time>
      </trkpt>
      <trkpt lat="-34.221232021227479" lon="19.183791959658265">
        <ele>239.99000000000001</ele>
        <time>2020-02-25T09:38:29Z</time>
      </trkpt>
      <trkpt lat="-34.222200969234109" lon="19.182112980633974">
        <ele>252.96000000000001</ele>
        <time>2020-02-25T09:38:35Z</time>
      </trkpt>
      <trkpt lat="-34.222373971715569" lon="19.181589027866721">
        <ele>256.81</ele>
        <time>2020-02-25T09:38:37Z</time>
      </trkpt>
      <trkpt lat="-34.222422000020742" lon="19.181341007351875">
        <ele>258.73000000000002</ele>
        <time>2020-02-25T09:38:38Z</time>
      </trkpt>
      <trkpt lat="-34.222442032769322" lon="19.181096004322171">
        <ele>260.17000000000002</ele>
        <time>2020-02-25T09:38:39Z</time>
      </trkpt>
      <trkpt lat="-34.222439015284181" lon="19.180855024605989">
        <ele>261.62</ele>
        <time>2020-02-25T09:38:40Z</time>
      </trkpt>
      <trkpt lat="-34.222406996414065" lon="19.180612033233047">
        <ele>263.06</ele>
        <time>2020-02-25T09:38:41Z</time>
      </trkpt>
      <trkpt lat="-34.222357040271163" lon="19.180353032425046">
        <ele>264.5</ele>
        <time>2020-02-25T09:38:42Z</time>
      </trkpt>
      <trkpt lat="-34.222299959510565" lon="19.180085984990001">
        <ele>264.98000000000002</ele>
        <time>2020-02-25T09:38:43Z</time>
      </trkpt>
      <trkpt lat="-34.222086975350976" lon="19.178604986518621">
        <ele>270.26999999999998</ele>
        <time>2020-02-25T09:38:48Z</time>
      </trkpt>
      <trkpt lat="-34.222103990614414" lon="19.178288988769054">
        <ele>270.75</ele>
        <time>2020-02-25T09:38:49Z</time>
      </trkpt>
      <trkpt lat="-34.222477991133928" lon="19.175760000944138">
        <ele>281.80000000000001</ele>
        <time>2020-02-25T09:38:57Z</time>
      </trkpt>
      <trkpt lat="-34.222561977803707" lon="19.175483984872699">
        <ele>282.76999999999998</ele>
        <time>2020-02-25T09:38:58Z</time>
      </trkpt>
      <trkpt lat="-34.222668008878827" lon="19.175229007378221">
        <ele>283.73000000000002</ele>
        <time>2020-02-25T09:38:59Z</time>
      </trkpt>
      <trkpt lat="-34.222803041338921" lon="19.174998002126813">
        <ele>285.64999999999998</ele>
        <time>2020-02-25T09:39:00Z</time>
      </trkpt>
      <trkpt lat="-34.222966991364956" lon="19.174801027402282">
        <ele>287.56999999999999</ele>
        <time>2020-02-25T09:39:01Z</time>
      </trkpt>
      <trkpt lat="-34.223156003281474" lon="19.174619978293777">
        <ele>289.49000000000001</ele>
        <time>2020-02-25T09:39:02Z</time>
      </trkpt>
      <trkpt lat="-34.223345015197992" lon="19.174452004954219">
        <ele>290.94</ele>
        <time>2020-02-25T09:39:03Z</time>
      </trkpt>
      <trkpt lat="-34.223819011822343" lon="19.173967028036714">
        <ele>296.69999999999999</ele>
        <time>2020-02-25T09:39:06Z</time>
      </trkpt>
      <trkpt lat="-34.223931999877095" lon="19.173778016120195">
        <ele>298.14999999999998</ele>
        <time>2020-02-25T09:39:07Z</time>
      </trkpt>
      <trkpt lat="-34.224016992375255" lon="19.173574000597">
        <ele>300.06999999999999</ele>
        <time>2020-02-25T09:39:08Z</time>
      </trkpt>
      <trkpt lat="-34.224068038165569" lon="19.173360010609031">
        <ele>300.55000000000001</ele>
        <time>2020-02-25T09:39:09Z</time>
      </trkpt>
      <trkpt lat="-34.224087987095118" lon="19.173134034499526">
        <ele>301.50999999999999</ele>
        <time>2020-02-25T09:39:10Z</time>
      </trkpt>
      <trkpt lat="-34.224078012630343" lon="19.172899005934596">
        <ele>302.94999999999999</ele>
        <time>2020-02-25T09:39:11Z</time>
      </trkpt>
      <trkpt lat="-34.224025961011648" lon="19.172675963491201">
        <ele>304.38999999999999</ele>
        <time>2020-02-25T09:39:12Z</time>
      </trkpt>
      <trkpt lat="-34.223937029018998" lon="19.172468008473516">
        <ele>305.36000000000001</ele>
        <time>2020-02-25T09:39:13Z</time>
      </trkpt>
      <trkpt lat="-34.223817000165582" lon="19.172277990728617">
        <ele>306.31999999999999</ele>
        <time>2020-02-25T09:39:14Z</time>
      </trkpt>
      <trkpt lat="-34.22366201877594" lon="19.172125020995736">
        <ele>308.24000000000001</ele>
        <time>2020-02-25T09:39:15Z</time>
      </trkpt>
      <trkpt lat="-34.223493039608002" lon="19.172000968828797">
        <ele>309.19999999999999</ele>
        <time>2020-02-25T09:39:16Z</time>
      </trkpt>
      <trkpt lat="-34.223310984671116" lon="19.171917987987399">
        <ele>311.60000000000002</ele>
        <time>2020-02-25T09:39:17Z</time>
      </trkpt>
      <trkpt lat="-34.223101017996669" lon="19.171883035451174">
        <ele>313.05000000000001</ele>
        <time>2020-02-25T09:39:18Z</time>
      </trkpt>
      <trkpt lat="-34.222870012745261" lon="19.17189996689558">
        <ele>314.97000000000003</ele>
        <time>2020-02-25T09:39:19Z</time>
      </trkpt>
      <trkpt lat="-34.222619980573654" lon="19.171974984928966">
        <ele>316.88999999999999</ele>
        <time>2020-02-25T09:39:20Z</time>
      </trkpt>
      <trkpt lat="-34.222392998635769" lon="19.172066012397408">
        <ele>318.32999999999998</ele>
        <time>2020-02-25T09:39:21Z</time>
      </trkpt>
      <trkpt lat="-34.222157970070839" lon="19.172181012108922">
        <ele>320.25999999999999</ele>
        <time>2020-02-25T09:39:22Z</time>
      </trkpt>
      <trkpt lat="-34.220061991363764" lon="19.17320704087615">
        <ele>335.63999999999999</ele>
        <time>2020-02-25T09:39:30Z</time>
      </trkpt>
      <trkpt lat="-34.219069993123412" lon="19.173549022525549">
        <ele>338.51999999999998</ele>
        <time>2020-02-25T09:39:34Z</time>
      </trkpt>
      <trkpt lat="-34.218827001750469" lon="19.17357299476862">
        <ele>339</ele>
        <time>2020-02-25T09:39:35Z</time>
      </trkpt>
      <trkpt lat="-34.218577975407243" lon="19.17355396784842">
        <ele>338.51999999999998</ele>
        <time>2020-02-25T09:39:36Z</time>
      </trkpt>
      <trkpt lat="-34.218333978205919" lon="19.17351096868515">
        <ele>338.51999999999998</ele>
        <time>2020-02-25T09:39:37Z</time>
      </trkpt>
      <trkpt lat="-34.218096015974879" lon="19.173428993672132">
        <ele>339.48000000000002</ele>
        <time>2020-02-25T09:39:38Z</time>
      </trkpt>
      <trkpt lat="-34.217867022380233" lon="19.17331600561738">
        <ele>339.95999999999998</ele>
        <time>2020-02-25T09:39:39Z</time>
      </trkpt>
      <trkpt lat="-34.217643979936838" lon="19.173173010349274">
        <ele>340.44</ele>
        <time>2020-02-25T09:39:40Z</time>
      </trkpt>
      <trkpt lat="-34.217433007434011" lon="19.17299397289753">
        <ele>341.41000000000003</ele>
        <time>2020-02-25T09:39:41Z</time>
      </trkpt>
      <trkpt lat="-34.21723703853786" lon="19.172791969031096">
        <ele>341.41000000000003</ele>
        <time>2020-02-25T09:39:42Z</time>
      </trkpt>
      <trkpt lat="-34.21706504188478" lon="19.172560963779688">
        <ele>342.37</ele>
        <time>2020-02-25T09:39:43Z</time>
      </trkpt>
      <trkpt lat="-34.216911988332868" lon="19.17230699211359">
        <ele>342.85000000000002</ele>
        <time>2020-02-25T09:39:44Z</time>
      </trkpt>
      <trkpt lat="-34.216785002499819" lon="19.172027036547661">
        <ele>342.85000000000002</ele>
        <time>2020-02-25T09:39:45Z</time>
      </trkpt>
      <trkpt lat="-34.216679977253079" lon="19.1717279702425">
        <ele>343.32999999999998</ele>
        <time>2020-02-25T09:39:46Z</time>
      </trkpt>
      <trkpt lat="-34.216589033603668" lon="19.171424964442849">
        <ele>343.32999999999998</ele>
        <time>2020-02-25T09:39:47Z</time>
      </trkpt>
      <trkpt lat="-34.216216038912535" lon="19.170298017561436">
        <ele>342.85000000000002</ele>
        <time>2020-02-25T09:39:51Z</time>
      </trkpt>
      <trkpt lat="-34.216067008674145" lon="19.170069023966789">
        <ele>342.37</ele>
        <time>2020-02-25T09:39:52Z</time>
      </trkpt>
      <trkpt lat="-34.215889982879162" lon="19.169870959594846">
        <ele>342.37</ele>
        <time>2020-02-25T09:39:53Z</time>
      </trkpt>
      <trkpt lat="-34.215698037296534" lon="19.169691000133753">
        <ele>338.51999999999998</ele>
        <time>2020-02-25T09:39:54Z</time>
      </trkpt>
      <trkpt lat="-34.215494021773338" lon="19.169526966288686">
        <ele>337.56</ele>
        <time>2020-02-25T09:39:55Z</time>
      </trkpt>
      <trkpt lat="-34.21427202410996" lon="19.168245038017631">
        <ele>332.75</ele>
        <time>2020-02-25T09:40:01Z</time>
      </trkpt>
      <trkpt lat="-34.213983016088605" lon="19.167659981176257">
        <ele>329.87</ele>
        <time>2020-02-25T09:40:03Z</time>
      </trkpt>
      <trkpt lat="-34.213871033862233" lon="19.167341971769929">
        <ele>327.94999999999999</ele>
        <time>2020-02-25T09:40:04Z</time>
      </trkpt>
      <trkpt lat="-34.213785035535693" lon="19.167013987898827">
        <ele>326.01999999999998</ele>
        <time>2020-02-25T09:40:05Z</time>
      </trkpt>
      <trkpt lat="-34.213723009452224" lon="19.16667502373457">
        <ele>324.10000000000002</ele>
        <time>2020-02-25T09:40:06Z</time>
      </trkpt>
      <trkpt lat="-34.213687973096967" lon="19.166328012943268">
        <ele>322.18000000000001</ele>
        <time>2020-02-25T09:40:07Z</time>
      </trkpt>
      <trkpt lat="-34.213676992803812" lon="19.165973039343953">
        <ele>320.25999999999999</ele>
        <time>2020-02-25T09:40:08Z</time>
      </trkpt>
      <trkpt lat="-34.213683027774096" lon="19.165615970268846">
        <ele>317.85000000000002</ele>
        <time>2020-02-25T09:40:09Z</time>
      </trkpt>
      <trkpt lat="-34.213702976703644" lon="19.165255967527628">
        <ele>315.93000000000001</ele>
        <time>2020-02-25T09:40:10Z</time>
      </trkpt>
      <trkpt lat="-34.213699037209153" lon="19.163568019866943">
        <ele>306.31999999999999</ele>
        <time>2020-02-25T09:40:15Z</time>
      </trkpt>
      <trkpt lat="-34.21362997032702" lon="19.16328102350235">
        <ele>304.38999999999999</ele>
        <time>2020-02-25T09:40:16Z</time>
      </trkpt>
      <trkpt lat="-34.213526034727693" lon="19.163019005209208">
        <ele>303.43000000000001</ele>
        <time>2020-02-25T09:40:17Z</time>
      </trkpt>
      <trkpt lat="-34.213384967297316" lon="19.16278900578618">
        <ele>301.99000000000001</ele>
        <time>2020-02-25T09:40:18Z</time>
      </trkpt>
      <trkpt lat="-34.2132200114429" lon="19.162575015798211">
        <ele>300.55000000000001</ele>
        <time>2020-02-25T09:40:19Z</time>
      </trkpt>
      <trkpt lat="-34.213029993698001" lon="19.162379968911409">
        <ele>299.11000000000001</ele>
        <time>2020-02-25T09:40:20Z</time>
      </trkpt>
      <trkpt lat="-34.212824972346425" lon="19.162206966429949">
        <ele>296.22000000000003</ele>
        <time>2020-02-25T09:40:21Z</time>
      </trkpt>
      <trkpt lat="-34.212592039257288" lon="19.162052990868688">
        <ele>292.86000000000001</ele>
        <time>2020-02-25T09:40:22Z</time>
      </trkpt>
      <trkpt lat="-34.211682016029954" lon="19.161342959851027">
        <ele>285.17000000000002</ele>
        <time>2020-02-25T09:40:26Z</time>
      </trkpt>
      <trkpt lat="-34.211479006335139" lon="19.161099968478084">
        <ele>283.25</ele>
        <time>2020-02-25T09:40:27Z</time>
      </trkpt>
      <trkpt lat="-34.211298041045666" lon="19.160824958235025">
        <ele>281.80000000000001</ele>
        <time>2020-02-25T09:40:28Z</time>
      </trkpt>
      <trkpt lat="-34.21113601885736" lon="19.160519018769264">
        <ele>281.31999999999999</ele>
        <time>2020-02-25T09:40:29Z</time>
      </trkpt>
      <trkpt lat="-34.210987994447351" lon="19.160190029069781">
        <ele>280.36000000000001</ele>
        <time>2020-02-25T09:40:30Z</time>
      </trkpt>
      <trkpt lat="-34.210848016664386" lon="19.159841006621718">
        <ele>279.39999999999998</ele>
        <time>2020-02-25T09:40:31Z</time>
      </trkpt>
      <trkpt lat="-34.209875967353582" lon="19.157474040985107">
        <ele>280.83999999999997</ele>
        <time>2020-02-25T09:40:38Z</time>
      </trkpt>
      <trkpt lat="-34.209711011499166" lon="19.1572240088135">
        <ele>281.80000000000001</ele>
        <time>2020-02-25T09:40:39Z</time>
      </trkpt>
      <trkpt lat="-34.209530968219042" lon="19.156999960541725">
        <ele>282.76999999999998</ele>
        <time>2020-02-25T09:40:40Z</time>
      </trkpt>
      <trkpt lat="-34.209342040121555" lon="19.156799968332052">
        <ele>284.20999999999998</ele>
        <time>2020-02-25T09:40:41Z</time>
      </trkpt>
      <trkpt lat="-34.209147999063134" lon="19.156615985557437">
        <ele>285.17000000000002</ele>
        <time>2020-02-25T09:40:42Z</time>
      </trkpt>
      <trkpt lat="-34.20776397921145" lon="19.155000038444996">
        <ele>296.22000000000003</ele>
        <time>2020-02-25T09:40:50Z</time>
      </trkpt>
      <trkpt lat="-34.207342034205794" lon="19.153557009994984">
        <ele>300.06999999999999</ele>
        <time>2020-02-25T09:40:56Z</time>
      </trkpt>
      <trkpt lat="-34.20722502283752" lon="19.151468994095922">
        <ele>298.63</ele>
        <time>2020-02-25T09:41:05Z</time>
      </trkpt>
      <trkpt lat="-34.206796959042549" lon="19.14955398067832">
        <ele>291.89999999999998</ele>
        <time>2020-02-25T09:41:14Z</time>
      </trkpt>
      <trkpt lat="-34.205862041562796" lon="19.14776997640729">
        <ele>291.42000000000002</ele>
        <time>2020-02-25T09:41:22Z</time>
      </trkpt>
      <trkpt lat="-34.204586986452341" lon="19.146439014002681">
        <ele>297.67000000000002</ele>
        <time>2020-02-25T09:41:30Z</time>
      </trkpt>
      <trkpt lat="-34.202983025461435" lon="19.144899006932974">
        <ele>312.08999999999997</ele>
        <time>2020-02-25T09:41:40Z</time>
      </trkpt>
      <trkpt lat="-34.200962986797094" lon="19.142456017434597">
        <ele>320.25999999999999</ele>
        <time>2020-02-25T09:41:55Z</time>
      </trkpt>
      <trkpt lat="-34.19979102909565" lon="19.140630019828677">
        <ele>317.37</ele>
        <time>2020-02-25T09:42:06Z</time>
      </trkpt>
      <trkpt lat="-34.199276966974139" lon="19.138910975307226">
        <ele>313.05000000000001</ele>
        <time>2020-02-25T09:42:14Z</time>
      </trkpt>
      <trkpt lat="-34.199206978082657" lon="19.136878028512001">
        <ele>308.24000000000001</ele>
        <time>2020-02-25T09:42:22Z</time>
      </trkpt>
      <trkpt lat="-34.199142018333077" lon="19.134948011487722">
        <ele>308.24000000000001</ele>
        <time>2020-02-25T09:42:28Z</time>
      </trkpt>
      <trkpt lat="-34.198900032788515" lon="19.133112961426377">
        <ele>312.08999999999997</ele>
        <time>2020-02-25T09:42:34Z</time>
      </trkpt>
      <trkpt lat="-34.198356969282031" lon="19.130805004388094">
        <ele>314.97000000000003</ele>
        <time>2020-02-25T09:42:41Z</time>
      </trkpt>
      <trkpt lat="-34.197514001280069" lon="19.129537995904684">
        <ele>316.88999999999999</ele>
        <time>2020-02-25T09:42:46Z</time>
      </trkpt>
    </trkseg>
  </trk>

</gpx>