<?xml version="1.0" encoding="utf-8"?><gpx creator="Garmin Desktop App" version="1.1" xsi:schemaLocation="http://www.topografix.com/GPX/1/1 http://www.topografix.com/GPX/1/1/gpx.xsd http://www.garmin.com/xmlschemas/WaypointExtension/v1 http://www8.garmin.com/xmlschemas/WaypointExtensionv1.xsd http://www.garmin.com/xmlschemas/TrackPointExtension/v1 http://www.garmin.com/xmlschemas/TrackPointExtensionv1.xsd http://www.garmin.com/xmlschemas/GpxExtensions/v3 http://www8.garmin.com/xmlschemas/GpxExtensionsv3.xsd http://www.garmin.com/xmlschemas/ActivityExtension/v1 http://www8.garmin.com/xmlschemas/ActivityExtensionv1.xsd http://www.garmin.com/xmlschemas/AdventuresExtensions/v1 http://www8.garmin.com/xmlschemas/AdventuresExtensionv1.xsd http://www.garmin.com/xmlschemas/PressureExtension/v1 http://www.garmin.com/xmlschemas/PressureExtensionv1.xsd http://www.garmin.com/xmlschemas/TripExtensions/v1 http://www.garmin.com/xmlschemas/TripExtensionsv1.xsd http://www.garmin.com/xmlschemas/TripMetaDataExtensions/v1 http://www.garmin.com/xmlschemas/TripMetaDataExtensionsv1.xsd http://www.garmin.com/xmlschemas/ViaPointTransportationModeExtensions/v1 http://www.garmin.com/xmlschemas/ViaPointTransportationModeExtensionsv1.xsd http://www.garmin.com/xmlschemas/CreationTimeExtension/v1 http://www.garmin.com/xmlschemas/CreationTimeExtensionsv1.xsd http://www.garmin.com/xmlschemas/AccelerationExtension/v1 http://www.garmin.com/xmlschemas/AccelerationExtensionv1.xsd http://www.garmin.com/xmlschemas/PowerExtension/v1 http://www.garmin.com/xmlschemas/PowerExtensionv1.xsd http://www.garmin.com/xmlschemas/VideoExtension/v1 http://www.garmin.com/xmlschemas/VideoExtensionv1.xsd" xmlns="http://www.topografix.com/GPX/1/1" xmlns:xsi="http://www.w3.org/2001/XMLSchema-instance" xmlns:wptx1="http://www.garmin.com/xmlschemas/WaypointExtension/v1" xmlns:gpxtrx="http://www.garmin.com/xmlschemas/GpxExtensions/v3" xmlns:gpxtpx="http://www.garmin.com/xmlschemas/TrackPointExtension/v1" xmlns:gpxx="http://www.garmin.com/xmlschemas/GpxExtensions/v3" xmlns:trp="http://www.garmin.com/xmlschemas/TripExtensions/v1" xmlns:adv="http://www.garmin.com/xmlschemas/AdventuresExtensions/v1" xmlns:prs="http://www.garmin.com/xmlschemas/PressureExtension/v1" xmlns:tmd="http://www.garmin.com/xmlschemas/TripMetaDataExtensions/v1" xmlns:vptm="http://www.garmin.com/xmlschemas/ViaPointTransportationModeExtensions/v1" xmlns:ctx="http://www.garmin.com/xmlschemas/CreationTimeExtension/v1" xmlns:gpxacc="http://www.garmin.com/xmlschemas/AccelerationExtension/v1" xmlns:gpxpx="http://www.garmin.com/xmlschemas/PowerExtension/v1" xmlns:vidx1="http://www.garmin.com/xmlschemas/VideoExtension/v1">

  <metadata>
    <link href="http://www.garmin.com">
      <text>Garmin International</text>
    </link>
    <time>2023-01-21T11:40:32Z</time>
    <bounds maxlat="-33.251181039959192" maxlon="19.637066004797816" minlat="-33.260387973859906" minlon="19.576933979988098" />
  </metadata>

  <trk>
    <name>[142] Hottentots Kloof Pass</name>
    <extensions>
      <gpxx:TrackExtension>
        <gpxx:DisplayColor>Blue</gpxx:DisplayColor>
      </gpxx:TrackExtension>
    </extensions>
    <trkseg>
      <trkpt lat="-33.251181039959192" lon="19.637066004797816">
        <ele>918.67999999999995</ele>
        <time>2020-03-10T09:13:51Z</time>
      </trkpt>
      <trkpt lat="-33.256266005337238" lon="19.628338012844324">
        <ele>957.61000000000001</ele>
        <time>2020-03-10T09:14:18Z</time>
      </trkpt>
      <trkpt lat="-33.257995024323463" lon="19.625093964859843">
        <ele>967.70000000000005</ele>
        <time>2020-03-10T09:14:28Z</time>
      </trkpt>
      <trkpt lat="-33.258953997865319" lon="19.622082011774182">
        <ele>977.79999999999995</ele>
        <time>2020-03-10T09:14:37Z</time>
      </trkpt>
      <trkpt lat="-33.260065019130707" lon="19.619561992585659">
        <ele>987.40999999999997</ele>
        <time>2020-03-10T09:14:45Z</time>
      </trkpt>
      <trkpt lat="-33.260387973859906" lon="19.617610014975071">
        <ele>995.10000000000002</ele>
        <time>2020-03-10T09:14:51Z</time>
      </trkpt>
      <trkpt lat="-33.260301975533366" lon="19.615160990506411">
        <ele>1004.23</ele>
        <time>2020-03-10T09:14:58Z</time>
      </trkpt>
      <trkpt lat="-33.260203991085291" lon="19.614503011107445">
        <ele>1007.12</ele>
        <time>2020-03-10T09:15:00Z</time>
      </trkpt>
      <trkpt lat="-33.260120004415512" lon="19.61419397033751">
        <ele>1008.5599999999999</ele>
        <time>2020-03-10T09:15:01Z</time>
      </trkpt>
      <trkpt lat="-33.260016990825534" lon="19.613896999508142">
        <ele>1009.52</ele>
        <time>2020-03-10T09:15:02Z</time>
      </trkpt>
      <trkpt lat="-33.259891010820866" lon="19.613608997315168">
        <ele>1011.4400000000001</ele>
        <time>2020-03-10T09:15:03Z</time>
      </trkpt>
      <trkpt lat="-33.259747009724379" lon="19.613329963758588">
        <ele>1012.41</ele>
        <time>2020-03-10T09:15:04Z</time>
      </trkpt>
      <trkpt lat="-33.259588005021214" lon="19.613045984879136">
        <ele>1013.37</ele>
        <time>2020-03-10T09:15:05Z</time>
      </trkpt>
      <trkpt lat="-33.258546972647309" lon="19.610814973711967">
        <ele>1022.5</ele>
        <time>2020-03-10T09:15:12Z</time>
      </trkpt>
      <trkpt lat="-33.258054032921791" lon="19.608636014163494">
        <ele>1030.6700000000001</ele>
        <time>2020-03-10T09:15:18Z</time>
      </trkpt>
      <trkpt lat="-33.257285999134183" lon="19.606756959110498">
        <ele>1039.8</ele>
        <time>2020-03-10T09:15:24Z</time>
      </trkpt>
      <trkpt lat="-33.256932031363249" lon="19.605808965861797">
        <ele>1045.0899999999999</ele>
        <time>2020-03-10T09:15:27Z</time>
      </trkpt>
      <trkpt lat="-33.256863970309496" lon="19.605477964505553">
        <ele>1047.01</ele>
        <time>2020-03-10T09:15:28Z</time>
      </trkpt>
      <trkpt lat="-33.256814014166594" lon="19.605135982856154">
        <ele>1049.4200000000001</ele>
        <time>2020-03-10T09:15:29Z</time>
      </trkpt>
      <trkpt lat="-33.256498016417027" lon="19.601466972380877">
        <ele>1068.6400000000001</ele>
        <time>2020-03-10T09:15:39Z</time>
      </trkpt>
      <trkpt lat="-33.256230968981981" lon="19.598689964041114">
        <ele>1084.5</ele>
        <time>2020-03-10T09:15:47Z</time>
      </trkpt>
      <trkpt lat="-33.256159974262118" lon="19.59840296767652">
        <ele>1085.95</ele>
        <time>2020-03-10T09:15:48Z</time>
      </trkpt>
      <trkpt lat="-33.256072970107198" lon="19.59812100045383">
        <ele>1087.8699999999999</ele>
        <time>2020-03-10T09:15:49Z</time>
      </trkpt>
      <trkpt lat="-33.255263026803732" lon="19.595711035653949">
        <ele>1104.6900000000001</ele>
        <time>2020-03-10T09:15:57Z</time>
      </trkpt>
      <trkpt lat="-33.254738990217447" lon="19.594080001115799">
        <ele>1114.3099999999999</ele>
        <time>2020-03-10T09:16:03Z</time>
      </trkpt>
      <trkpt lat="-33.254702026024461" lon="19.593855030834675">
        <ele>1115.75</ele>
        <time>2020-03-10T09:16:04Z</time>
      </trkpt>
      <trkpt lat="-33.254702026024461" lon="19.5936309825629">
        <ele>1116.23</ele>
        <time>2020-03-10T09:16:05Z</time>
      </trkpt>
      <trkpt lat="-33.254733039066195" lon="19.593419004231691">
        <ele>1117.1900000000001</ele>
        <time>2020-03-10T09:16:06Z</time>
      </trkpt>
      <trkpt lat="-33.254801016300917" lon="19.593219012022018">
        <ele>1117.6700000000001</ele>
        <time>2020-03-10T09:16:07Z</time>
      </trkpt>
      <trkpt lat="-33.25489598326385" lon="19.593037040904164">
        <ele>1118.6300000000001</ele>
        <time>2020-03-10T09:16:08Z</time>
      </trkpt>
      <trkpt lat="-33.255020035430789" lon="19.592883987352252">
        <ele>1119.1099999999999</ele>
        <time>2020-03-10T09:16:09Z</time>
      </trkpt>
      <trkpt lat="-33.255159007385373" lon="19.592783991247416">
        <ele>1120.0699999999999</ele>
        <time>2020-03-10T09:16:10Z</time>
      </trkpt>
      <trkpt lat="-33.255321029573679" lon="19.59272900596261">
        <ele>1120.0699999999999</ele>
        <time>2020-03-10T09:16:11Z</time>
      </trkpt>
      <trkpt lat="-33.255500989034772" lon="19.592721965163946">
        <ele>1119.5899999999999</ele>
        <time>2020-03-10T09:16:12Z</time>
      </trkpt>
      <trkpt lat="-33.255683965981007" lon="19.592754989862442">
        <ele>1120.0699999999999</ele>
        <time>2020-03-10T09:16:13Z</time>
      </trkpt>
      <trkpt lat="-33.255871972069144" lon="19.592838976532221">
        <ele>1120.55</ele>
        <time>2020-03-10T09:16:14Z</time>
      </trkpt>
      <trkpt lat="-33.25605402700603" lon="19.592951964586973">
        <ele>1121.52</ele>
        <time>2020-03-10T09:16:15Z</time>
      </trkpt>
      <trkpt lat="-33.256241027265787" lon="19.593082973733544">
        <ele>1122</ele>
        <time>2020-03-10T09:16:16Z</time>
      </trkpt>
      <trkpt lat="-33.257646001875401" lon="19.593982016667724">
        <ele>1131.1300000000001</ele>
        <time>2020-03-10T09:16:23Z</time>
      </trkpt>
      <trkpt lat="-33.257827972993255" lon="19.594029039144516">
        <ele>1132.5699999999999</ele>
        <time>2020-03-10T09:16:24Z</time>
      </trkpt>
      <trkpt lat="-33.258003992959857" lon="19.594030966982245">
        <ele>1134.49</ele>
        <time>2020-03-10T09:16:25Z</time>
      </trkpt>
      <trkpt lat="-33.258168026804924" lon="19.593990985304117">
        <ele>1136.4200000000001</ele>
        <time>2020-03-10T09:16:26Z</time>
      </trkpt>
      <trkpt lat="-33.258325019851327" lon="19.593905992805958">
        <ele>1137.8599999999999</ele>
        <time>2020-03-10T09:16:27Z</time>
      </trkpt>
      <trkpt lat="-33.258471032604575" lon="19.593789987266064">
        <ele>1139.3</ele>
        <time>2020-03-10T09:16:28Z</time>
      </trkpt>
      <trkpt lat="-33.258600030094385" lon="19.593655960634351">
        <ele>1140.74</ele>
        <time>2020-03-10T09:16:29Z</time>
      </trkpt>
      <trkpt lat="-33.258711006492376" lon="19.593497039750218">
        <ele>1142.1800000000001</ele>
        <time>2020-03-10T09:16:30Z</time>
      </trkpt>
      <trkpt lat="-33.258793987333775" lon="19.593311967328191">
        <ele>1143.1400000000001</ele>
        <time>2020-03-10T09:16:31Z</time>
      </trkpt>
      <trkpt lat="-33.258852995932102" lon="19.593105018138885">
        <ele>1144.5899999999999</ele>
        <time>2020-03-10T09:16:32Z</time>
      </trkpt>
      <trkpt lat="-33.258875040337443" lon="19.592893039807677">
        <ele>1146.51</ele>
        <time>2020-03-10T09:16:33Z</time>
      </trkpt>
      <trkpt lat="-33.258867999538779" lon="19.592679971829057">
        <ele>1147.95</ele>
        <time>2020-03-10T09:16:34Z</time>
      </trkpt>
      <trkpt lat="-33.258828017860651" lon="19.592457013204694">
        <ele>1149.8699999999999</ele>
        <time>2020-03-10T09:16:35Z</time>
      </trkpt>
      <trkpt lat="-33.258759034797549" lon="19.592228019610047">
        <ele>1151.3199999999999</ele>
        <time>2020-03-10T09:16:36Z</time>
      </trkpt>
      <trkpt lat="-33.258669013157487" lon="19.591989973559976">
        <ele>1153.24</ele>
        <time>2020-03-10T09:16:37Z</time>
      </trkpt>
      <trkpt lat="-33.257917994633317" lon="19.590007988736033">
        <ele>1166.7</ele>
        <time>2020-03-10T09:16:44Z</time>
      </trkpt>
      <trkpt lat="-33.257768964394927" lon="19.589375993236899">
        <ele>1169.5799999999999</ele>
        <time>2020-03-10T09:16:46Z</time>
      </trkpt>
      <trkpt lat="-33.257729988545179" lon="19.5890530385077">
        <ele>1171.98</ele>
        <time>2020-03-10T09:16:47Z</time>
      </trkpt>
      <trkpt lat="-33.257715990766883" lon="19.588722959160805">
        <ele>1173.9100000000001</ele>
        <time>2020-03-10T09:16:48Z</time>
      </trkpt>
      <trkpt lat="-33.257712973281741" lon="19.585483018308878">
        <ele>1196.5</ele>
        <time>2020-03-10T09:16:57Z</time>
      </trkpt>
      <trkpt lat="-33.257696041837335" lon="19.580962993204594">
        <ele>1214.76</ele>
        <time>2020-03-10T09:17:09Z</time>
      </trkpt>
      <trkpt lat="-33.257761001586914" lon="19.576933979988098">
        <ele>1207.0699999999999</ele>
        <time>2020-03-10T09:17:20Z</time>
      </trkpt>
    </trkseg>
  </trk>

</gpx>