<?xml version="1.0" encoding="utf-8"?><gpx creator="Garmin Desktop App" version="1.1" xsi:schemaLocation="http://www.topografix.com/GPX/1/1 http://www.topografix.com/GPX/1/1/gpx.xsd http://www.garmin.com/xmlschemas/WaypointExtension/v1 http://www8.garmin.com/xmlschemas/WaypointExtensionv1.xsd http://www.garmin.com/xmlschemas/TrackPointExtension/v1 http://www.garmin.com/xmlschemas/TrackPointExtensionv1.xsd http://www.garmin.com/xmlschemas/GpxExtensions/v3 http://www8.garmin.com/xmlschemas/GpxExtensionsv3.xsd http://www.garmin.com/xmlschemas/ActivityExtension/v1 http://www8.garmin.com/xmlschemas/ActivityExtensionv1.xsd http://www.garmin.com/xmlschemas/AdventuresExtensions/v1 http://www8.garmin.com/xmlschemas/AdventuresExtensionv1.xsd http://www.garmin.com/xmlschemas/PressureExtension/v1 http://www.garmin.com/xmlschemas/PressureExtensionv1.xsd http://www.garmin.com/xmlschemas/TripExtensions/v1 http://www.garmin.com/xmlschemas/TripExtensionsv1.xsd http://www.garmin.com/xmlschemas/TripMetaDataExtensions/v1 http://www.garmin.com/xmlschemas/TripMetaDataExtensionsv1.xsd http://www.garmin.com/xmlschemas/ViaPointTransportationModeExtensions/v1 http://www.garmin.com/xmlschemas/ViaPointTransportationModeExtensionsv1.xsd http://www.garmin.com/xmlschemas/CreationTimeExtension/v1 http://www.garmin.com/xmlschemas/CreationTimeExtensionsv1.xsd http://www.garmin.com/xmlschemas/AccelerationExtension/v1 http://www.garmin.com/xmlschemas/AccelerationExtensionv1.xsd http://www.garmin.com/xmlschemas/PowerExtension/v1 http://www.garmin.com/xmlschemas/PowerExtensionv1.xsd http://www.garmin.com/xmlschemas/VideoExtension/v1 http://www.garmin.com/xmlschemas/VideoExtensionv1.xsd" xmlns="http://www.topografix.com/GPX/1/1" xmlns:xsi="http://www.w3.org/2001/XMLSchema-instance" xmlns:wptx1="http://www.garmin.com/xmlschemas/WaypointExtension/v1" xmlns:gpxtrx="http://www.garmin.com/xmlschemas/GpxExtensions/v3" xmlns:gpxtpx="http://www.garmin.com/xmlschemas/TrackPointExtension/v1" xmlns:gpxx="http://www.garmin.com/xmlschemas/GpxExtensions/v3" xmlns:trp="http://www.garmin.com/xmlschemas/TripExtensions/v1" xmlns:adv="http://www.garmin.com/xmlschemas/AdventuresExtensions/v1" xmlns:prs="http://www.garmin.com/xmlschemas/PressureExtension/v1" xmlns:tmd="http://www.garmin.com/xmlschemas/TripMetaDataExtensions/v1" xmlns:vptm="http://www.garmin.com/xmlschemas/ViaPointTransportationModeExtensions/v1" xmlns:ctx="http://www.garmin.com/xmlschemas/CreationTimeExtension/v1" xmlns:gpxacc="http://www.garmin.com/xmlschemas/AccelerationExtension/v1" xmlns:gpxpx="http://www.garmin.com/xmlschemas/PowerExtension/v1" xmlns:vidx1="http://www.garmin.com/xmlschemas/VideoExtension/v1">

  <metadata>
    <link href="http://www.garmin.com">
      <text>Garmin International</text>
    </link>
    <time>2023-01-21T11:42:05Z</time>
    <bounds maxlat="-33.942231992259622" maxlon="18.394193965941668" minlat="-33.963312981650233" minlon="18.378080008551478" />
  </metadata>

  <trk>
    <name>[150] Camps Bay Drive</name>
    <extensions>
      <gpxx:TrackExtension>
        <gpxx:DisplayColor>Blue</gpxx:DisplayColor>
      </gpxx:TrackExtension>
    </extensions>
    <trkseg>
      <trkpt lat="-33.942231992259622" lon="18.394193965941668">
        <ele>247.68000000000001</ele>
        <time>2020-03-13T08:42:48Z</time>
      </trkpt>
      <trkpt lat="-33.94227197393775" lon="18.394120037555695">
        <ele>247.68000000000001</ele>
        <time>2020-03-13T08:42:49Z</time>
      </trkpt>
      <trkpt lat="-33.942309021949768" lon="18.39402699843049">
        <ele>247.19999999999999</ele>
        <time>2020-03-13T08:42:50Z</time>
      </trkpt>
      <trkpt lat="-33.942365013062954" lon="18.39391702786088">
        <ele>246.72</ele>
        <time>2020-03-13T08:42:51Z</time>
      </trkpt>
      <trkpt lat="-33.942511025816202" lon="18.393688034266233">
        <ele>245.27000000000001</ele>
        <time>2020-03-13T08:42:53Z</time>
      </trkpt>
      <trkpt lat="-33.942602975293994" lon="18.393577979877591">
        <ele>244.78999999999999</ele>
        <time>2020-03-13T08:42:54Z</time>
      </trkpt>
      <trkpt lat="-33.942712023854256" lon="18.393474966287613">
        <ele>244.31</ele>
        <time>2020-03-13T08:42:55Z</time>
      </trkpt>
      <trkpt lat="-33.94282903522253" lon="18.393384022638202">
        <ele>242.87</ele>
        <time>2020-03-13T08:42:56Z</time>
      </trkpt>
      <trkpt lat="-33.942954009398818" lon="18.393307998776436">
        <ele>242.38999999999999</ele>
        <time>2020-03-13T08:42:57Z</time>
      </trkpt>
      <trkpt lat="-33.943090969696641" lon="18.393243961036205">
        <ele>241.43000000000001</ele>
        <time>2020-03-13T08:42:58Z</time>
      </trkpt>
      <trkpt lat="-33.943235976621509" lon="18.393191993236542">
        <ele>239.99000000000001</ele>
        <time>2020-03-13T08:42:59Z</time>
      </trkpt>
      <trkpt lat="-33.943382995203137" lon="18.393161986023188">
        <ele>238.06</ele>
        <time>2020-03-13T08:43:00Z</time>
      </trkpt>
      <trkpt lat="-33.943532025441527" lon="18.393142037093639">
        <ele>236.62</ele>
        <time>2020-03-13T08:43:01Z</time>
      </trkpt>
      <trkpt lat="-33.943683989346027" lon="18.393130972981453">
        <ele>235.18000000000001</ele>
        <time>2020-03-13T08:43:02Z</time>
      </trkpt>
      <trkpt lat="-33.943988000974059" lon="18.393111024051905">
        <ele>232.78</ele>
        <time>2020-03-13T08:43:04Z</time>
      </trkpt>
      <trkpt lat="-33.944134013727307" lon="18.393085040152073">
        <ele>231.33000000000001</ele>
        <time>2020-03-13T08:43:05Z</time>
      </trkpt>
      <trkpt lat="-33.944274997338653" lon="18.393038017675281">
        <ele>230.37</ele>
        <time>2020-03-13T08:43:06Z</time>
      </trkpt>
      <trkpt lat="-33.944415980949998" lon="18.392966017127037">
        <ele>228.93000000000001</ele>
        <time>2020-03-13T08:43:07Z</time>
      </trkpt>
      <trkpt lat="-33.944552019238472" lon="18.392877001315355">
        <ele>227.49000000000001</ele>
        <time>2020-03-13T08:43:08Z</time>
      </trkpt>
      <trkpt lat="-33.944681016728282" lon="18.39277901686728">
        <ele>226.53</ele>
        <time>2020-03-13T08:43:09Z</time>
      </trkpt>
      <trkpt lat="-33.945240005850792" lon="18.392439968883991">
        <ele>219.80000000000001</ele>
        <time>2020-03-13T08:43:13Z</time>
      </trkpt>
      <trkpt lat="-33.945392975583673" lon="18.392395963892341">
        <ele>218.36000000000001</ele>
        <time>2020-03-13T08:43:14Z</time>
      </trkpt>
      <trkpt lat="-33.945548962801695" lon="18.392372997477651">
        <ele>216.43000000000001</ele>
        <time>2020-03-13T08:43:15Z</time>
      </trkpt>
      <trkpt lat="-33.946180958300829" lon="18.392328992486">
        <ele>210.66999999999999</ele>
        <time>2020-03-13T08:43:19Z</time>
      </trkpt>
      <trkpt lat="-33.94633200019598" lon="18.392279958352447">
        <ele>209.22</ele>
        <time>2020-03-13T08:43:20Z</time>
      </trkpt>
      <trkpt lat="-33.94648103043437" lon="18.392209969460964">
        <ele>207.78</ele>
        <time>2020-03-13T08:43:21Z</time>
      </trkpt>
      <trkpt lat="-33.946622014045715" lon="18.392124976962805">
        <ele>206.81999999999999</ele>
        <time>2020-03-13T08:43:22Z</time>
      </trkpt>
      <trkpt lat="-33.946755034849048" lon="18.392021041363478">
        <ele>206.34</ele>
        <time>2020-03-13T08:43:23Z</time>
      </trkpt>
      <trkpt lat="-33.946885038167238" lon="18.391909981146455">
        <ele>205.38</ele>
        <time>2020-03-13T08:43:24Z</time>
      </trkpt>
      <trkpt lat="-33.948487993329763" lon="18.390324041247368">
        <ele>188.56</ele>
        <time>2020-03-13T08:43:37Z</time>
      </trkpt>
      <trkpt lat="-33.948809020221233" lon="18.389929002150893">
        <ele>185.19</ele>
        <time>2020-03-13T08:43:40Z</time>
      </trkpt>
      <trkpt lat="-33.948929971083999" lon="18.389826994389296">
        <ele>183.75</ele>
        <time>2020-03-13T08:43:41Z</time>
      </trkpt>
      <trkpt lat="-33.949054023250937" lon="18.38974803686142">
        <ele>182.78999999999999</ele>
        <time>2020-03-13T08:43:42Z</time>
      </trkpt>
      <trkpt lat="-33.949851980432868" lon="18.389292983338237">
        <ele>179.41999999999999</ele>
        <time>2020-03-13T08:43:50Z</time>
      </trkpt>
      <trkpt lat="-33.950748005881906" lon="18.388551017269492">
        <ele>172.69</ele>
        <time>2020-03-13T08:44:01Z</time>
      </trkpt>
      <trkpt lat="-33.951089987531304" lon="18.388228984549642">
        <ele>168.37</ele>
        <time>2020-03-13T08:44:06Z</time>
      </trkpt>
      <trkpt lat="-33.951143966987729" lon="18.388153966516256">
        <ele>168.37</ele>
        <time>2020-03-13T08:44:07Z</time>
      </trkpt>
      <trkpt lat="-33.951588962227106" lon="18.38760101236403">
        <ele>163.56</ele>
        <time>2020-03-13T08:44:15Z</time>
      </trkpt>
      <trkpt lat="-33.951672026887536" lon="18.387549966573715">
        <ele>163.08000000000001</ele>
        <time>2020-03-13T08:44:16Z</time>
      </trkpt>
      <trkpt lat="-33.95176699385047" lon="18.387510990723968">
        <ele>162.59999999999999</ele>
        <time>2020-03-13T08:44:17Z</time>
      </trkpt>
      <trkpt lat="-33.951875036582351" lon="18.387481989338994">
        <ele>161.63999999999999</ele>
        <time>2020-03-13T08:44:18Z</time>
      </trkpt>
      <trkpt lat="-33.951985007151961" lon="18.387449970468879">
        <ele>161.16</ele>
        <time>2020-03-13T08:44:19Z</time>
      </trkpt>
      <trkpt lat="-33.952094977721572" lon="18.387405965477228">
        <ele>160.68000000000001</ele>
        <time>2020-03-13T08:44:20Z</time>
      </trkpt>
      <trkpt lat="-33.952198997139931" lon="18.387342011556029">
        <ele>159.72</ele>
        <time>2020-03-13T08:44:21Z</time>
      </trkpt>
      <trkpt lat="-33.95230301655829" lon="18.387263976037502">
        <ele>159.24000000000001</ele>
        <time>2020-03-13T08:44:22Z</time>
      </trkpt>
      <trkpt lat="-33.953618975356221" lon="18.386299973353744">
        <ele>150.09999999999999</ele>
        <time>2020-03-13T08:44:36Z</time>
      </trkpt>
      <trkpt lat="-33.953989036381245" lon="18.386158989742398">
        <ele>146.74000000000001</ele>
        <time>2020-03-13T08:44:40Z</time>
      </trkpt>
      <trkpt lat="-33.954090038314462" lon="18.386148009449244">
        <ele>146.25999999999999</ele>
        <time>2020-03-13T08:44:41Z</time>
      </trkpt>
      <trkpt lat="-33.954190034419298" lon="18.386150021106005">
        <ele>145.30000000000001</ele>
        <time>2020-03-13T08:44:42Z</time>
      </trkpt>
      <trkpt lat="-33.954478958621621" lon="18.386168964207172">
        <ele>142.41</ele>
        <time>2020-03-13T08:44:45Z</time>
      </trkpt>
      <trkpt lat="-33.954569986090064" lon="18.386158989742398">
        <ele>142.41</ele>
        <time>2020-03-13T08:44:46Z</time>
      </trkpt>
      <trkpt lat="-33.954653972759843" lon="18.386129988357425">
        <ele>141.93000000000001</ele>
        <time>2020-03-13T08:44:47Z</time>
      </trkpt>
      <trkpt lat="-33.954726979136467" lon="18.386082965880632">
        <ele>141.93000000000001</ele>
        <time>2020-03-13T08:44:48Z</time>
      </trkpt>
      <trkpt lat="-33.95479797385633" lon="18.386023035272956">
        <ele>141.44999999999999</ele>
        <time>2020-03-13T08:44:49Z</time>
      </trkpt>
      <trkpt lat="-33.954867962747812" lon="18.385955980047584">
        <ele>140.97</ele>
        <time>2020-03-13T08:44:50Z</time>
      </trkpt>
      <trkpt lat="-33.955816039815545" lon="18.385443007573485">
        <ele>135.68000000000001</ele>
        <time>2020-03-13T08:45:01Z</time>
      </trkpt>
      <trkpt lat="-33.956713993102312" lon="18.385019972920418">
        <ele>130.88</ele>
        <time>2020-03-13T08:45:11Z</time>
      </trkpt>
      <trkpt lat="-33.957487978041172" lon="18.384847976267338">
        <ele>125.11</ele>
        <time>2020-03-13T08:45:19Z</time>
      </trkpt>
      <trkpt lat="-33.957575988024473" lon="18.384800031781197">
        <ele>124.63</ele>
        <time>2020-03-13T08:45:20Z</time>
      </trkpt>
      <trkpt lat="-33.95765301771462" lon="18.384738005697727">
        <ele>124.15000000000001</ele>
        <time>2020-03-13T08:45:21Z</time>
      </trkpt>
      <trkpt lat="-33.957727029919624" lon="18.384660976007581">
        <ele>123.19</ele>
        <time>2020-03-13T08:45:22Z</time>
      </trkpt>
      <trkpt lat="-33.957800036296248" lon="18.384577995166183">
        <ele>122.70999999999999</ele>
        <time>2020-03-13T08:45:23Z</time>
      </trkpt>
      <trkpt lat="-33.957870025187731" lon="18.38448797352612">
        <ele>122.22</ele>
        <time>2020-03-13T08:45:24Z</time>
      </trkpt>
      <trkpt lat="-33.957935990765691" lon="18.384390994906425">
        <ele>121.73999999999999</ele>
        <time>2020-03-13T08:45:25Z</time>
      </trkpt>
      <trkpt lat="-33.958002040162683" lon="18.384287981316447">
        <ele>121.26000000000001</ele>
        <time>2020-03-13T08:45:26Z</time>
      </trkpt>
      <trkpt lat="-33.958162972703576" lon="18.38397198356688">
        <ele>120.78</ele>
        <time>2020-03-13T08:45:29Z</time>
      </trkpt>
      <trkpt lat="-33.958197003230453" lon="18.38386301882565">
        <ele>120.3</ele>
        <time>2020-03-13T08:45:30Z</time>
      </trkpt>
      <trkpt lat="-33.958222987130284" lon="18.383757993578911">
        <ele>119.34</ele>
        <time>2020-03-13T08:45:31Z</time>
      </trkpt>
      <trkpt lat="-33.958333041518927" lon="18.383456999436021">
        <ele>118.38</ele>
        <time>2020-03-13T08:45:34Z</time>
      </trkpt>
      <trkpt lat="-33.958388026803732" lon="18.383372006937861">
        <ele>118.38</ele>
        <time>2020-03-13T08:45:35Z</time>
      </trkpt>
      <trkpt lat="-33.958816006779671" lon="18.382414039224386">
        <ele>113.56999999999999</ele>
        <time>2020-03-13T08:45:46Z</time>
      </trkpt>
      <trkpt lat="-33.958874009549618" lon="18.382207006216049">
        <ele>113.09</ele>
        <time>2020-03-13T08:45:48Z</time>
      </trkpt>
      <trkpt lat="-33.95892103202641" lon="18.382098963484168">
        <ele>112.13</ele>
        <time>2020-03-13T08:45:49Z</time>
      </trkpt>
      <trkpt lat="-33.958980962634087" lon="18.381998967379332">
        <ele>111.65000000000001</ele>
        <time>2020-03-13T08:45:50Z</time>
      </trkpt>
      <trkpt lat="-33.959057992324233" lon="18.38190701790154">
        <ele>111.17</ele>
        <time>2020-03-13T08:45:51Z</time>
      </trkpt>
      <trkpt lat="-33.959142984822392" lon="18.381830994039774">
        <ele>110.20999999999999</ele>
        <time>2020-03-13T08:45:52Z</time>
      </trkpt>
      <trkpt lat="-33.959240969270468" lon="18.381763016805053">
        <ele>109.73</ele>
        <time>2020-03-13T08:45:53Z</time>
      </trkpt>
      <trkpt lat="-33.959341971203685" lon="18.381696967408061">
        <ele>109.25</ele>
        <time>2020-03-13T08:45:54Z</time>
      </trkpt>
      <trkpt lat="-33.959530983120203" lon="18.3815429918468">
        <ele>108.77</ele>
        <time>2020-03-13T08:45:56Z</time>
      </trkpt>
      <trkpt lat="-33.959621004760265" lon="18.381453976035118">
        <ele>107.81</ele>
        <time>2020-03-13T08:45:57Z</time>
      </trkpt>
      <trkpt lat="-33.96006197668612" lon="18.381014009937644">
        <ele>104.44</ele>
        <time>2020-03-13T08:46:02Z</time>
      </trkpt>
      <trkpt lat="-33.960161972790956" lon="18.380955001339316">
        <ele>103.95999999999999</ele>
        <time>2020-03-13T08:46:03Z</time>
      </trkpt>
      <trkpt lat="-33.960264986380935" lon="18.380912002176046">
        <ele>103.48</ele>
        <time>2020-03-13T08:46:04Z</time>
      </trkpt>
      <trkpt lat="-33.960371017456055" lon="18.380887024104595">
        <ele>103</ele>
        <time>2020-03-13T08:46:05Z</time>
      </trkpt>
      <trkpt lat="-33.960475958883762" lon="18.380869003012776">
        <ele>102.52</ele>
        <time>2020-03-13T08:46:06Z</time>
      </trkpt>
      <trkpt lat="-33.960777036845684" lon="18.380795996636152">
        <ele>101.08</ele>
        <time>2020-03-13T08:46:09Z</time>
      </trkpt>
      <trkpt lat="-33.960869992151856" lon="18.380754003301263">
        <ele>100.59999999999999</ele>
        <time>2020-03-13T08:46:10Z</time>
      </trkpt>
      <trkpt lat="-33.960956996306777" lon="18.380700023844838">
        <ele>100.11</ele>
        <time>2020-03-13T08:46:11Z</time>
      </trkpt>
      <trkpt lat="-33.961035031825304" lon="18.380631040781736">
        <ele>99.629999999999995</ele>
        <time>2020-03-13T08:46:12Z</time>
      </trkpt>
      <trkpt lat="-33.961103009060025" lon="18.380545964464545">
        <ele>99.150000000000006</ele>
        <time>2020-03-13T08:46:13Z</time>
      </trkpt>
      <trkpt lat="-33.961159000173211" lon="18.380450997501612">
        <ele>98.189999999999998</ele>
        <time>2020-03-13T08:46:14Z</time>
      </trkpt>
      <trkpt lat="-33.961212979629636" lon="18.380362987518311">
        <ele>97.709999999999994</ele>
        <time>2020-03-13T08:46:15Z</time>
      </trkpt>
      <trkpt lat="-33.961351029574871" lon="18.380205994471908">
        <ele>96.269999999999996</ele>
        <time>2020-03-13T08:46:17Z</time>
      </trkpt>
      <trkpt lat="-33.961433004587889" lon="18.380138017237186">
        <ele>95.310000000000002</ele>
        <time>2020-03-13T08:46:18Z</time>
      </trkpt>
      <trkpt lat="-33.962070029228926" lon="18.379744989797473">
        <ele>91.459999999999994</ele>
        <time>2020-03-13T08:46:25Z</time>
      </trkpt>
      <trkpt lat="-33.962158961221576" lon="18.379720011726022">
        <ele>90.5</ele>
        <time>2020-03-13T08:46:26Z</time>
      </trkpt>
      <trkpt lat="-33.962249988690019" lon="18.379714982584119">
        <ele>90.5</ele>
        <time>2020-03-13T08:46:27Z</time>
      </trkpt>
      <trkpt lat="-33.962332969531417" lon="18.379718000069261">
        <ele>89.060000000000002</ele>
        <time>2020-03-13T08:46:28Z</time>
      </trkpt>
      <trkpt lat="-33.962419973686337" lon="18.379726968705654">
        <ele>88.579999999999998</ele>
        <time>2020-03-13T08:46:29Z</time>
      </trkpt>
      <trkpt lat="-33.962695989757776" lon="18.379733003675938">
        <ele>87.620000000000005</ele>
        <time>2020-03-13T08:46:32Z</time>
      </trkpt>
      <trkpt lat="-33.962786011397839" lon="18.379725040867925">
        <ele>87.140000000000001</ele>
        <time>2020-03-13T08:46:33Z</time>
      </trkpt>
      <trkpt lat="-33.96287796087563" lon="18.379692016169429">
        <ele>86.659999999999997</ele>
        <time>2020-03-13T08:46:34Z</time>
      </trkpt>
      <trkpt lat="-33.962963037192822" lon="18.379642982035875">
        <ele>86.180000000000007</ele>
        <time>2020-03-13T08:46:35Z</time>
      </trkpt>
      <trkpt lat="-33.963037971407175" lon="18.379582967609167">
        <ele>85.689999999999998</ele>
        <time>2020-03-13T08:46:36Z</time>
      </trkpt>
      <trkpt lat="-33.963106032460928" lon="18.379509961232543">
        <ele>85.209999999999994</ele>
        <time>2020-03-13T08:46:37Z</time>
      </trkpt>
      <trkpt lat="-33.963167974725366" lon="18.379429997876287">
        <ele>85.209999999999994</ele>
        <time>2020-03-13T08:46:38Z</time>
      </trkpt>
      <trkpt lat="-33.963217008858919" lon="18.379347017034888">
        <ele>84.730000000000004</ele>
        <time>2020-03-13T08:46:39Z</time>
      </trkpt>
      <trkpt lat="-33.963257996365428" lon="18.379263030365109">
        <ele>84.25</ele>
        <time>2020-03-13T08:46:40Z</time>
      </trkpt>
      <trkpt lat="-33.963282974436879" lon="18.379183989018202">
        <ele>83.290000000000006</ele>
        <time>2020-03-13T08:46:41Z</time>
      </trkpt>
      <trkpt lat="-33.963295966386795" lon="18.379103019833565">
        <ele>82.810000000000002</ele>
        <time>2020-03-13T08:46:42Z</time>
      </trkpt>
      <trkpt lat="-33.963307030498981" lon="18.379018027335405">
        <ele>82.329999999999998</ele>
        <time>2020-03-13T08:46:43Z</time>
      </trkpt>
      <trkpt lat="-33.963312981650233" lon="18.378919037058949">
        <ele>81.370000000000005</ele>
        <time>2020-03-13T08:46:44Z</time>
      </trkpt>
      <trkpt lat="-33.963308036327362" lon="18.378807976841927">
        <ele>80.890000000000001</ele>
        <time>2020-03-13T08:46:45Z</time>
      </trkpt>
      <trkpt lat="-33.963285991922021" lon="18.378689959645271">
        <ele>79.930000000000007</ele>
        <time>2020-03-13T08:46:46Z</time>
      </trkpt>
      <trkpt lat="-33.963247016072273" lon="18.378573032096028">
        <ele>78.969999999999999</ele>
        <time>2020-03-13T08:46:47Z</time>
      </trkpt>
      <trkpt lat="-33.963193958625197" lon="18.378462977707386">
        <ele>78.480000000000004</ele>
        <time>2020-03-13T08:46:48Z</time>
      </trkpt>
      <trkpt lat="-33.963127993047237" lon="18.378360969945788">
        <ele>77.519999999999996</ele>
        <time>2020-03-13T08:46:49Z</time>
      </trkpt>
      <trkpt lat="-33.963050041347742" lon="18.378270026296377">
        <ele>76.560000000000002</ele>
        <time>2020-03-13T08:46:50Z</time>
      </trkpt>
      <trkpt lat="-33.962955996394157" lon="18.378201965242624">
        <ele>75.599999999999994</ele>
        <time>2020-03-13T08:46:51Z</time>
      </trkpt>
      <trkpt lat="-33.962851976975799" lon="18.378155026584864">
        <ele>75.120000000000005</ele>
        <time>2020-03-13T08:46:52Z</time>
      </trkpt>
      <trkpt lat="-33.962748041376472" lon="18.378116972744465">
        <ele>73.680000000000007</ele>
        <time>2020-03-13T08:46:53Z</time>
      </trkpt>
      <trkpt lat="-33.962635975331068" lon="18.378100041300058">
        <ele>72.719999999999999</ele>
        <time>2020-03-13T08:46:54Z</time>
      </trkpt>
      <trkpt lat="-33.962523993104696" lon="18.378094006329775">
        <ele>71.760000000000005</ele>
        <time>2020-03-13T08:46:55Z</time>
      </trkpt>
      <trkpt lat="-33.961512967944145" lon="18.378080008551478">
        <ele>64.069999999999993</ele>
        <time>2020-03-13T08:47:04Z</time>
      </trkpt>
      <trkpt lat="-33.959949994459748" lon="18.378497008234262">
        <ele>56.859999999999999</ele>
        <time>2020-03-13T08:47:19Z</time>
      </trkpt>
      <trkpt lat="-33.959397040307522" lon="18.378566997125745">
        <ele>54.93</ele>
        <time>2020-03-13T08:47:26Z</time>
      </trkpt>
      <trkpt lat="-33.959364015609026" lon="18.378560962155461">
        <ele>54.450000000000003</ele>
        <time>2020-03-13T08:47:27Z</time>
      </trkpt>
      <trkpt lat="-33.959156982600689" lon="18.378478987142444">
        <ele>53.490000000000002</ele>
        <time>2020-03-13T08:47:38Z</time>
      </trkpt>
      <trkpt lat="-33.959150025621057" lon="18.378444034606218">
        <ele>53.490000000000002</ele>
        <time>2020-03-13T08:47:39Z</time>
      </trkpt>
    </trkseg>
  </trk>

</gpx>