<?xml version="1.0" encoding="utf-8"?><gpx creator="Garmin Desktop App" version="1.1" xsi:schemaLocation="http://www.topografix.com/GPX/1/1 http://www.topografix.com/GPX/1/1/gpx.xsd http://www.garmin.com/xmlschemas/WaypointExtension/v1 http://www8.garmin.com/xmlschemas/WaypointExtensionv1.xsd http://www.garmin.com/xmlschemas/TrackPointExtension/v1 http://www.garmin.com/xmlschemas/TrackPointExtensionv1.xsd http://www.garmin.com/xmlschemas/GpxExtensions/v3 http://www8.garmin.com/xmlschemas/GpxExtensionsv3.xsd http://www.garmin.com/xmlschemas/ActivityExtension/v1 http://www8.garmin.com/xmlschemas/ActivityExtensionv1.xsd http://www.garmin.com/xmlschemas/AdventuresExtensions/v1 http://www8.garmin.com/xmlschemas/AdventuresExtensionv1.xsd http://www.garmin.com/xmlschemas/PressureExtension/v1 http://www.garmin.com/xmlschemas/PressureExtensionv1.xsd http://www.garmin.com/xmlschemas/TripExtensions/v1 http://www.garmin.com/xmlschemas/TripExtensionsv1.xsd http://www.garmin.com/xmlschemas/TripMetaDataExtensions/v1 http://www.garmin.com/xmlschemas/TripMetaDataExtensionsv1.xsd http://www.garmin.com/xmlschemas/ViaPointTransportationModeExtensions/v1 http://www.garmin.com/xmlschemas/ViaPointTransportationModeExtensionsv1.xsd http://www.garmin.com/xmlschemas/CreationTimeExtension/v1 http://www.garmin.com/xmlschemas/CreationTimeExtensionsv1.xsd http://www.garmin.com/xmlschemas/AccelerationExtension/v1 http://www.garmin.com/xmlschemas/AccelerationExtensionv1.xsd http://www.garmin.com/xmlschemas/PowerExtension/v1 http://www.garmin.com/xmlschemas/PowerExtensionv1.xsd http://www.garmin.com/xmlschemas/VideoExtension/v1 http://www.garmin.com/xmlschemas/VideoExtensionv1.xsd" xmlns="http://www.topografix.com/GPX/1/1" xmlns:xsi="http://www.w3.org/2001/XMLSchema-instance" xmlns:wptx1="http://www.garmin.com/xmlschemas/WaypointExtension/v1" xmlns:gpxtrx="http://www.garmin.com/xmlschemas/GpxExtensions/v3" xmlns:gpxtpx="http://www.garmin.com/xmlschemas/TrackPointExtension/v1" xmlns:gpxx="http://www.garmin.com/xmlschemas/GpxExtensions/v3" xmlns:trp="http://www.garmin.com/xmlschemas/TripExtensions/v1" xmlns:adv="http://www.garmin.com/xmlschemas/AdventuresExtensions/v1" xmlns:prs="http://www.garmin.com/xmlschemas/PressureExtension/v1" xmlns:tmd="http://www.garmin.com/xmlschemas/TripMetaDataExtensions/v1" xmlns:vptm="http://www.garmin.com/xmlschemas/ViaPointTransportationModeExtensions/v1" xmlns:ctx="http://www.garmin.com/xmlschemas/CreationTimeExtension/v1" xmlns:gpxacc="http://www.garmin.com/xmlschemas/AccelerationExtension/v1" xmlns:gpxpx="http://www.garmin.com/xmlschemas/PowerExtension/v1" xmlns:vidx1="http://www.garmin.com/xmlschemas/VideoExtension/v1">

  <metadata>
    <link href="http://www.garmin.com">
      <text>Garmin International</text>
    </link>
    <time>2023-01-21T13:45:16Z</time>
    <bounds maxlat="-33.734255013987422" maxlon="19.07203696668148" minlat="-33.745521968230605" minlon="19.016207037493587" />
  </metadata>

  <trk>
    <name>[177] Du Toits Kloof Pass (New)-East</name>
    <extensions>
      <gpxx:TrackExtension>
        <gpxx:DisplayColor>Green</gpxx:DisplayColor>
      </gpxx:TrackExtension>
    </extensions>
    <trkseg>
      <trkpt lat="-33.741763019934297" lon="19.016207037493587">
        <ele>178.46000000000001</ele>
        <time>2020-03-21T07:28:09Z</time>
      </trkpt>
      <trkpt lat="-33.742270963266492" lon="19.018533015623689">
        <ele>180.87</ele>
        <time>2020-03-21T07:28:18Z</time>
      </trkpt>
      <trkpt lat="-33.742436002939939" lon="19.019371960312128">
        <ele>181.83000000000001</ele>
        <time>2020-03-21T07:28:24Z</time>
      </trkpt>
      <trkpt lat="-33.742470033466816" lon="19.019617969170213">
        <ele>181.83000000000001</ele>
        <time>2020-03-21T07:28:30Z</time>
      </trkpt>
      <trkpt lat="-33.74250004068017" lon="19.019644036889076">
        <ele>182.31</ele>
        <time>2020-03-21T07:29:11Z</time>
      </trkpt>
      <trkpt lat="-33.742531975731254" lon="19.019760964438319">
        <ele>182.78999999999999</ele>
        <time>2020-03-21T07:29:29Z</time>
      </trkpt>
      <trkpt lat="-33.742529964074492" lon="19.019773034378886">
        <ele>182.31</ele>
        <time>2020-03-21T07:29:45Z</time>
      </trkpt>
      <trkpt lat="-33.742538010701537" lon="19.019799018278718">
        <ele>182.31</ele>
        <time>2020-03-21T07:30:01Z</time>
      </trkpt>
      <trkpt lat="-33.742560977116227" lon="19.019859032705426">
        <ele>182.31</ele>
        <time>2020-03-21T07:30:15Z</time>
      </trkpt>
      <trkpt lat="-33.742595007643104" lon="19.020139994099736">
        <ele>183.75</ele>
        <time>2020-03-21T07:30:41Z</time>
      </trkpt>
      <trkpt lat="-33.742705984041095" lon="19.020507037639618">
        <ele>185.19</ele>
        <time>2020-03-21T07:30:44Z</time>
      </trkpt>
      <trkpt lat="-33.74310496263206" lon="19.021784020587802">
        <ele>187.59</ele>
        <time>2020-03-21T07:30:51Z</time>
      </trkpt>
      <trkpt lat="-33.743727989494801" lon="19.024219969287515">
        <ele>195.77000000000001</ele>
        <time>2020-03-21T07:31:01Z</time>
      </trkpt>
      <trkpt lat="-33.744148006662726" lon="19.026792040094733">
        <ele>203.94</ele>
        <time>2020-03-21T07:31:10Z</time>
      </trkpt>
      <trkpt lat="-33.744068965315819" lon="19.029322033748031">
        <ele>216.43000000000001</ele>
        <time>2020-03-21T07:31:18Z</time>
      </trkpt>
      <trkpt lat="-33.743576025590301" lon="19.032001979649067">
        <ele>227.49000000000001</ele>
        <time>2020-03-21T07:31:26Z</time>
      </trkpt>
      <trkpt lat="-33.742848979309201" lon="19.036733983084559">
        <ele>247.19999999999999</ele>
        <time>2020-03-21T07:31:40Z</time>
      </trkpt>
      <trkpt lat="-33.742786031216383" lon="19.040249017998576">
        <ele>262.10000000000002</ele>
        <time>2020-03-21T07:31:51Z</time>
      </trkpt>
      <trkpt lat="-33.743142010644078" lon="19.043578980490565">
        <ele>276.51999999999998</ele>
        <time>2020-03-21T07:32:02Z</time>
      </trkpt>
      <trkpt lat="-33.743641991168261" lon="19.046992007642984">
        <ele>290.94</ele>
        <time>2020-03-21T07:32:13Z</time>
      </trkpt>
      <trkpt lat="-33.744325032457709" lon="19.051585961133242">
        <ele>311.60000000000002</ele>
        <time>2020-03-21T07:32:28Z</time>
      </trkpt>
      <trkpt lat="-33.745135981589556" lon="19.056832026690245">
        <ele>336.12</ele>
        <time>2020-03-21T07:32:45Z</time>
      </trkpt>
      <trkpt lat="-33.745521968230605" lon="19.060572031885386">
        <ele>353.89999999999998</ele>
        <time>2020-03-21T07:32:57Z</time>
      </trkpt>
      <trkpt lat="-33.745344020426273" lon="19.061816995963454">
        <ele>360.14999999999998</ele>
        <time>2020-03-21T07:33:01Z</time>
      </trkpt>
      <trkpt lat="-33.744558971375227" lon="19.063803004100919">
        <ele>371.69</ele>
        <time>2020-03-21T07:33:08Z</time>
      </trkpt>
      <trkpt lat="-33.743494972586632" lon="19.065183000639081">
        <ele>379.86000000000001</ele>
        <time>2020-03-21T07:33:14Z</time>
      </trkpt>
      <trkpt lat="-33.742170967161655" lon="19.066058993339539">
        <ele>392.36000000000001</ele>
        <time>2020-03-21T07:33:20Z</time>
      </trkpt>
      <trkpt lat="-33.7394730001688" lon="19.067526999861002">
        <ele>409.18000000000001</ele>
        <time>2020-03-21T07:33:33Z</time>
      </trkpt>
      <trkpt lat="-33.73704400844872" lon="19.068931974470615">
        <ele>416.87</ele>
        <time>2020-03-21T07:33:45Z</time>
      </trkpt>
      <trkpt lat="-33.735357988625765" lon="19.070439962670207">
        <ele>415.43000000000001</ele>
        <time>2020-03-21T07:33:55Z</time>
      </trkpt>
      <trkpt lat="-33.734255013987422" lon="19.07203696668148">
        <ele>414.94999999999999</ele>
        <time>2020-03-21T07:34:05Z</time>
      </trkpt>
    </trkseg>
  </trk>

</gpx>