<?xml version="1.0" encoding="utf-8"?><gpx creator="Garmin Desktop App" version="1.1" xsi:schemaLocation="http://www.topografix.com/GPX/1/1 http://www.topografix.com/GPX/1/1/gpx.xsd http://www.garmin.com/xmlschemas/WaypointExtension/v1 http://www8.garmin.com/xmlschemas/WaypointExtensionv1.xsd http://www.garmin.com/xmlschemas/TrackPointExtension/v1 http://www.garmin.com/xmlschemas/TrackPointExtensionv1.xsd http://www.garmin.com/xmlschemas/GpxExtensions/v3 http://www8.garmin.com/xmlschemas/GpxExtensionsv3.xsd http://www.garmin.com/xmlschemas/ActivityExtension/v1 http://www8.garmin.com/xmlschemas/ActivityExtensionv1.xsd http://www.garmin.com/xmlschemas/AdventuresExtensions/v1 http://www8.garmin.com/xmlschemas/AdventuresExtensionv1.xsd http://www.garmin.com/xmlschemas/PressureExtension/v1 http://www.garmin.com/xmlschemas/PressureExtensionv1.xsd http://www.garmin.com/xmlschemas/TripExtensions/v1 http://www.garmin.com/xmlschemas/TripExtensionsv1.xsd http://www.garmin.com/xmlschemas/TripMetaDataExtensions/v1 http://www.garmin.com/xmlschemas/TripMetaDataExtensionsv1.xsd http://www.garmin.com/xmlschemas/ViaPointTransportationModeExtensions/v1 http://www.garmin.com/xmlschemas/ViaPointTransportationModeExtensionsv1.xsd http://www.garmin.com/xmlschemas/CreationTimeExtension/v1 http://www.garmin.com/xmlschemas/CreationTimeExtensionsv1.xsd http://www.garmin.com/xmlschemas/AccelerationExtension/v1 http://www.garmin.com/xmlschemas/AccelerationExtensionv1.xsd http://www.garmin.com/xmlschemas/PowerExtension/v1 http://www.garmin.com/xmlschemas/PowerExtensionv1.xsd http://www.garmin.com/xmlschemas/VideoExtension/v1 http://www.garmin.com/xmlschemas/VideoExtensionv1.xsd" xmlns="http://www.topografix.com/GPX/1/1" xmlns:xsi="http://www.w3.org/2001/XMLSchema-instance" xmlns:wptx1="http://www.garmin.com/xmlschemas/WaypointExtension/v1" xmlns:gpxtrx="http://www.garmin.com/xmlschemas/GpxExtensions/v3" xmlns:gpxtpx="http://www.garmin.com/xmlschemas/TrackPointExtension/v1" xmlns:gpxx="http://www.garmin.com/xmlschemas/GpxExtensions/v3" xmlns:trp="http://www.garmin.com/xmlschemas/TripExtensions/v1" xmlns:adv="http://www.garmin.com/xmlschemas/AdventuresExtensions/v1" xmlns:prs="http://www.garmin.com/xmlschemas/PressureExtension/v1" xmlns:tmd="http://www.garmin.com/xmlschemas/TripMetaDataExtensions/v1" xmlns:vptm="http://www.garmin.com/xmlschemas/ViaPointTransportationModeExtensions/v1" xmlns:ctx="http://www.garmin.com/xmlschemas/CreationTimeExtension/v1" xmlns:gpxacc="http://www.garmin.com/xmlschemas/AccelerationExtension/v1" xmlns:gpxpx="http://www.garmin.com/xmlschemas/PowerExtension/v1" xmlns:vidx1="http://www.garmin.com/xmlschemas/VideoExtension/v1">

  <metadata>
    <link href="http://www.garmin.com">
      <text>Garmin International</text>
    </link>
    <time>2023-01-21T13:46:16Z</time>
    <bounds maxlat="-33.266523024067283" maxlon="22.376787029206753" minlat="-33.280448969453573" minlon="22.243954986333847" />
  </metadata>

  <trk>
    <name>[181] Kredouw Pass</name>
    <extensions>
      <gpxx:TrackExtension>
        <gpxx:DisplayColor>Blue</gpxx:DisplayColor>
      </gpxx:TrackExtension>
    </extensions>
    <trkseg>
      <trkpt lat="-33.278396995738149" lon="22.243954986333847">
        <ele>865.32000000000005</ele>
        <time>2020-03-22T06:24:02Z</time>
      </trkpt>
      <trkpt lat="-33.278591958805919" lon="22.250712979584932">
        <ele>875.41999999999996</ele>
        <time>2020-03-22T06:24:20Z</time>
      </trkpt>
      <trkpt lat="-33.278329018503428" lon="22.252593962475657">
        <ele>874.94000000000005</ele>
        <time>2020-03-22T06:24:26Z</time>
      </trkpt>
      <trkpt lat="-33.277942026033998" lon="22.254589023068547">
        <ele>876.38</ele>
        <time>2020-03-22T06:24:33Z</time>
      </trkpt>
      <trkpt lat="-33.277961974963546" lon="22.254884988069534">
        <ele>876.86000000000001</ele>
        <time>2020-03-22T06:24:34Z</time>
      </trkpt>
      <trkpt lat="-33.278002962470055" lon="22.255182964727283">
        <ele>877.82000000000005</ele>
        <time>2020-03-22T06:24:35Z</time>
      </trkpt>
      <trkpt lat="-33.278061971068382" lon="22.255479013547301">
        <ele>878.29999999999995</ele>
        <time>2020-03-22T06:24:36Z</time>
      </trkpt>
      <trkpt lat="-33.278146041557193" lon="22.255769027397037">
        <ele>878.77999999999997</ele>
        <time>2020-03-22T06:24:37Z</time>
      </trkpt>
      <trkpt lat="-33.278247965499759" lon="22.256052000448108">
        <ele>879.25999999999999</ele>
        <time>2020-03-22T06:24:38Z</time>
      </trkpt>
      <trkpt lat="-33.278372017666698" lon="22.256327010691166">
        <ele>880.22000000000003</ele>
        <time>2020-03-22T06:24:39Z</time>
      </trkpt>
      <trkpt lat="-33.278513001278043" lon="22.256586011499166">
        <ele>880.22000000000003</ele>
        <time>2020-03-22T06:24:40Z</time>
      </trkpt>
      <trkpt lat="-33.278678962960839" lon="22.25683000870049">
        <ele>881.19000000000005</ele>
        <time>2020-03-22T06:24:41Z</time>
      </trkpt>
      <trkpt lat="-33.278859006240964" lon="22.257060008123517">
        <ele>882.14999999999998</ele>
        <time>2020-03-22T06:24:42Z</time>
      </trkpt>
      <trkpt lat="-33.27904399484396" lon="22.257273998111486">
        <ele>883.11000000000001</ele>
        <time>2020-03-22T06:24:43Z</time>
      </trkpt>
      <trkpt lat="-33.279986958950758" lon="22.25831201300025">
        <ele>886.95000000000005</ele>
        <time>2020-03-22T06:24:49Z</time>
      </trkpt>
      <trkpt lat="-33.280221987515688" lon="22.258641002699733">
        <ele>887.90999999999997</ele>
        <time>2020-03-22T06:24:51Z</time>
      </trkpt>
      <trkpt lat="-33.28031200915575" lon="22.258837977424264">
        <ele>887.90999999999997</ele>
        <time>2020-03-22T06:24:52Z</time>
      </trkpt>
      <trkpt lat="-33.280385015532374" lon="22.259037969633937">
        <ele>888.39999999999998</ele>
        <time>2020-03-22T06:24:53Z</time>
      </trkpt>
      <trkpt lat="-33.280426003038883" lon="22.259252965450287">
        <ele>889.36000000000001</ele>
        <time>2020-03-22T06:24:54Z</time>
      </trkpt>
      <trkpt lat="-33.280448969453573" lon="22.259475002065301">
        <ele>890.32000000000005</ele>
        <time>2020-03-22T06:24:55Z</time>
      </trkpt>
      <trkpt lat="-33.280436983332038" lon="22.259696032851934">
        <ele>891.27999999999997</ele>
        <time>2020-03-22T06:24:56Z</time>
      </trkpt>
      <trkpt lat="-33.280389038845897" lon="22.259913962334394">
        <ele>892.72000000000003</ele>
        <time>2020-03-22T06:24:57Z</time>
      </trkpt>
      <trkpt lat="-33.280316032469273" lon="22.260125018656254">
        <ele>894.15999999999997</ele>
        <time>2020-03-22T06:24:58Z</time>
      </trkpt>
      <trkpt lat="-33.280215030536056" lon="22.260325010865927">
        <ele>895.12</ele>
        <time>2020-03-22T06:24:59Z</time>
      </trkpt>
      <trkpt lat="-33.280090978369117" lon="22.260509999468923">
        <ele>896.57000000000005</ele>
        <time>2020-03-22T06:25:00Z</time>
      </trkpt>
      <trkpt lat="-33.279945971444249" lon="22.26067797280848">
        <ele>897.04999999999995</ele>
        <time>2020-03-22T06:25:01Z</time>
      </trkpt>
      <trkpt lat="-33.27977598644793" lon="22.260820968076587">
        <ele>898.49000000000001</ele>
        <time>2020-03-22T06:25:02Z</time>
      </trkpt>
      <trkpt lat="-33.279589992016554" lon="22.260919958353043">
        <ele>898.97000000000003</ele>
        <time>2020-03-22T06:25:03Z</time>
      </trkpt>
      <trkpt lat="-33.279395028948784" lon="22.260995982214808">
        <ele>900.40999999999997</ele>
        <time>2020-03-22T06:25:04Z</time>
      </trkpt>
      <trkpt lat="-33.279190007597208" lon="22.261054990813136">
        <ele>902.33000000000004</ele>
        <time>2020-03-22T06:25:05Z</time>
      </trkpt>
      <trkpt lat="-33.278991021215916" lon="22.261119028553367">
        <ele>903.29999999999995</ele>
        <time>2020-03-22T06:25:06Z</time>
      </trkpt>
      <trkpt lat="-33.278617020696402" lon="22.261273004114628">
        <ele>907.13999999999999</ele>
        <time>2020-03-22T06:25:08Z</time>
      </trkpt>
      <trkpt lat="-33.278452986851335" lon="22.261368976905942">
        <ele>908.58000000000004</ele>
        <time>2020-03-22T06:25:09Z</time>
      </trkpt>
      <trkpt lat="-33.278312003239989" lon="22.261505015194416">
        <ele>909.53999999999996</ele>
        <time>2020-03-22T06:25:10Z</time>
      </trkpt>
      <trkpt lat="-33.278183005750179" lon="22.261661002412438">
        <ele>910.50999999999999</ele>
        <time>2020-03-22T06:25:11Z</time>
      </trkpt>
      <trkpt lat="-33.278073035180569" lon="22.261837022379041">
        <ele>911.95000000000005</ele>
        <time>2020-03-22T06:25:12Z</time>
      </trkpt>
      <trkpt lat="-33.277985025197268" lon="22.262038020417094">
        <ele>912.90999999999997</ele>
        <time>2020-03-22T06:25:13Z</time>
      </trkpt>
      <trkpt lat="-33.277922999113798" lon="22.262246981263161">
        <ele>914.35000000000002</ele>
        <time>2020-03-22T06:25:14Z</time>
      </trkpt>
      <trkpt lat="-33.277868013828993" lon="22.262479998171329">
        <ele>915.78999999999996</ele>
        <time>2020-03-22T06:25:15Z</time>
      </trkpt>
      <trkpt lat="-33.2778400182724" lon="22.262719972059131">
        <ele>917.24000000000001</ele>
        <time>2020-03-22T06:25:16Z</time>
      </trkpt>
      <trkpt lat="-33.277837000787258" lon="22.262956006452441">
        <ele>919.15999999999997</ele>
        <time>2020-03-22T06:25:17Z</time>
      </trkpt>
      <trkpt lat="-33.277973961085081" lon="22.26516698487103">
        <ele>933.10000000000002</ele>
        <time>2020-03-22T06:25:25Z</time>
      </trkpt>
      <trkpt lat="-33.277954012155533" lon="22.26757301017642">
        <ele>948.96000000000004</ele>
        <time>2020-03-22T06:25:33Z</time>
      </trkpt>
      <trkpt lat="-33.277284968644381" lon="22.269908962771297">
        <ele>965.77999999999997</ele>
        <time>2020-03-22T06:25:41Z</time>
      </trkpt>
      <trkpt lat="-33.276807032525539" lon="22.271372023969889">
        <ele>976.84000000000003</ele>
        <time>2020-03-22T06:25:47Z</time>
      </trkpt>
      <trkpt lat="-33.276688009500504" lon="22.271529017016292">
        <ele>980.20000000000005</ele>
        <time>2020-03-22T06:25:48Z</time>
      </trkpt>
      <trkpt lat="-33.276543002575636" lon="22.27165499702096">
        <ele>985.00999999999999</ele>
        <time>2020-03-22T06:25:49Z</time>
      </trkpt>
      <trkpt lat="-33.276295987889171" lon="22.271875021979213">
        <ele>985.97000000000003</ele>
        <time>2020-03-22T06:25:51Z</time>
      </trkpt>
      <trkpt lat="-33.276191968470812" lon="22.271995972841978">
        <ele>986.92999999999995</ele>
        <time>2020-03-22T06:25:52Z</time>
      </trkpt>
      <trkpt lat="-33.276105970144272" lon="22.272126981988549">
        <ele>988.37</ele>
        <time>2020-03-22T06:25:53Z</time>
      </trkpt>
      <trkpt lat="-33.276028018444777" lon="22.272265031933784">
        <ele>989.33000000000004</ele>
        <time>2020-03-22T06:25:54Z</time>
      </trkpt>
      <trkpt lat="-33.275974960997701" lon="22.272413978353143">
        <ele>990.77999999999997</ele>
        <time>2020-03-22T06:25:55Z</time>
      </trkpt>
      <trkpt lat="-33.275936990976334" lon="22.272571977227926">
        <ele>991.74000000000001</ele>
        <time>2020-03-22T06:25:56Z</time>
      </trkpt>
      <trkpt lat="-33.275916036218405" lon="22.272738022729754">
        <ele>992.70000000000005</ele>
        <time>2020-03-22T06:25:57Z</time>
      </trkpt>
      <trkpt lat="-33.275911007076502" lon="22.272917982190847">
        <ele>994.13999999999999</ele>
        <time>2020-03-22T06:25:58Z</time>
      </trkpt>
      <trkpt lat="-33.27592802233994" lon="22.273101964965463">
        <ele>995.10000000000002</ele>
        <time>2020-03-22T06:25:59Z</time>
      </trkpt>
      <trkpt lat="-33.275948977097869" lon="22.273282008245587">
        <ele>996.53999999999996</ele>
        <time>2020-03-22T06:26:00Z</time>
      </trkpt>
      <trkpt lat="-33.276191968470812" lon="22.275286037474871">
        <ele>1011.4400000000001</ele>
        <time>2020-03-22T06:26:12Z</time>
      </trkpt>
      <trkpt lat="-33.276276038959622" lon="22.275587031617761">
        <ele>1013.37</ele>
        <time>2020-03-22T06:26:14Z</time>
      </trkpt>
      <trkpt lat="-33.276339992880821" lon="22.275745030492544">
        <ele>1013.85</ele>
        <time>2020-03-22T06:26:15Z</time>
      </trkpt>
      <trkpt lat="-33.276421967893839" lon="22.275913003832102">
        <ele>1014.8099999999999</ele>
        <time>2020-03-22T06:26:16Z</time>
      </trkpt>
      <trkpt lat="-33.276521963998675" lon="22.27610201574862">
        <ele>1016.73</ele>
        <time>2020-03-22T06:26:17Z</time>
      </trkpt>
      <trkpt lat="-33.276634030044079" lon="22.276282981038094">
        <ele>1017.21</ele>
        <time>2020-03-22T06:26:18Z</time>
      </trkpt>
      <trkpt lat="-33.276726985350251" lon="22.276465035974979">
        <ele>1019.62</ele>
        <time>2020-03-22T06:26:19Z</time>
      </trkpt>
      <trkpt lat="-33.276807032525539" lon="22.276650024577975">
        <ele>1020.58</ele>
        <time>2020-03-22T06:26:20Z</time>
      </trkpt>
      <trkpt lat="-33.276860006153584" lon="22.276858985424042">
        <ele>1022.02</ele>
        <time>2020-03-22T06:26:21Z</time>
      </trkpt>
      <trkpt lat="-33.276879033073783" lon="22.277089990675449">
        <ele>1023.9400000000001</ele>
        <time>2020-03-22T06:26:22Z</time>
      </trkpt>
      <trkpt lat="-33.276869980618358" lon="22.27732602506876">
        <ele>1026.3399999999999</ele>
        <time>2020-03-22T06:26:23Z</time>
      </trkpt>
      <trkpt lat="-33.276845002546906" lon="22.277568010613322">
        <ele>1028.27</ele>
        <time>2020-03-22T06:26:24Z</time>
      </trkpt>
      <trkpt lat="-33.276811977848411" lon="22.277817036956549">
        <ele>1027.79</ele>
        <time>2020-03-22T06:26:25Z</time>
      </trkpt>
      <trkpt lat="-33.276405036449432" lon="22.27975501678884">
        <ele>1037.8800000000001</ele>
        <time>2020-03-22T06:26:32Z</time>
      </trkpt>
      <trkpt lat="-33.275284040719271" lon="22.283200984820724">
        <ele>1054.7</ele>
        <time>2020-03-22T06:26:45Z</time>
      </trkpt>
      <trkpt lat="-33.275064015761018" lon="22.285110969096422">
        <ele>1059.03</ele>
        <time>2020-03-22T06:26:52Z</time>
      </trkpt>
      <trkpt lat="-33.275060998275876" lon="22.287870962172747">
        <ele>1044.6099999999999</ele>
        <time>2020-03-22T06:27:00Z</time>
      </trkpt>
      <trkpt lat="-33.27489897608757" lon="22.29269097559154">
        <ele>1027.3099999999999</ele>
        <time>2020-03-22T06:27:12Z</time>
      </trkpt>
      <trkpt lat="-33.273874958977103" lon="22.29885502718389">
        <ele>1011.4400000000001</ele>
        <time>2020-03-22T06:27:28Z</time>
      </trkpt>
      <trkpt lat="-33.272761004045606" lon="22.302093040198088">
        <ele>1000.87</ele>
        <time>2020-03-22T06:27:37Z</time>
      </trkpt>
      <trkpt lat="-33.270312985405326" lon="22.308263964951038">
        <ele>984.04999999999995</ele>
        <time>2020-03-22T06:27:54Z</time>
      </trkpt>
      <trkpt lat="-33.268530992791057" lon="22.312751971185207">
        <ele>979.72000000000003</ele>
        <time>2020-03-22T06:28:06Z</time>
      </trkpt>
      <trkpt lat="-33.266782024875283" lon="22.317546000704169">
        <ele>983.09000000000003</ele>
        <time>2020-03-22T06:28:19Z</time>
      </trkpt>
      <trkpt lat="-33.266523024067283" lon="22.319879019632936">
        <ele>976.84000000000003</ele>
        <time>2020-03-22T06:28:25Z</time>
      </trkpt>
      <trkpt lat="-33.266749000176787" lon="22.322270963340998">
        <ele>969.14999999999998</ele>
        <time>2020-03-22T06:28:31Z</time>
      </trkpt>
      <trkpt lat="-33.267476968467236" lon="22.325567984953523">
        <ele>959.04999999999995</ele>
        <time>2020-03-22T06:28:39Z</time>
      </trkpt>
      <trkpt lat="-33.268396966159344" lon="22.33003000728786">
        <ele>956.16999999999996</ele>
        <time>2020-03-22T06:28:49Z</time>
      </trkpt>
      <trkpt lat="-33.269310006871819" lon="22.334311986342072">
        <ele>946.55999999999995</ele>
        <time>2020-03-22T06:29:00Z</time>
      </trkpt>
      <trkpt lat="-33.27098798006773" lon="22.342259958386421">
        <ele>947.03999999999996</ele>
        <time>2020-03-22T06:29:20Z</time>
      </trkpt>
      <trkpt lat="-33.271885011345148" lon="22.34756100922823">
        <ele>932.62</ele>
        <time>2020-03-22T06:29:33Z</time>
      </trkpt>
      <trkpt lat="-33.273463994264603" lon="22.358107035979629">
        <ele>898.97000000000003</ele>
        <time>2020-03-22T06:29:58Z</time>
      </trkpt>
      <trkpt lat="-33.274133959785104" lon="22.364038992673159">
        <ele>885.99000000000001</ele>
        <time>2020-03-22T06:30:12Z</time>
      </trkpt>
      <trkpt lat="-33.273904966190457" lon="22.367833983153105">
        <ele>873.98000000000002</ele>
        <time>2020-03-22T06:30:21Z</time>
      </trkpt>
      <trkpt lat="-33.274055002257228" lon="22.370620965957642">
        <ele>872.52999999999997</ele>
        <time>2020-03-22T06:30:28Z</time>
      </trkpt>
      <trkpt lat="-33.274742988869548" lon="22.373720007017255">
        <ele>872.04999999999995</ele>
        <time>2020-03-22T06:30:36Z</time>
      </trkpt>
      <trkpt lat="-33.275221008807421" lon="22.376787029206753">
        <ele>863.39999999999998</ele>
        <time>2020-03-22T06:30:44Z</time>
      </trkpt>
    </trkseg>
  </trk>

</gpx>