<?xml version="1.0" encoding="utf-8"?><gpx creator="Garmin Desktop App" version="1.1" xsi:schemaLocation="http://www.topografix.com/GPX/1/1 http://www.topografix.com/GPX/1/1/gpx.xsd http://www.garmin.com/xmlschemas/WaypointExtension/v1 http://www8.garmin.com/xmlschemas/WaypointExtensionv1.xsd http://www.garmin.com/xmlschemas/TrackPointExtension/v1 http://www.garmin.com/xmlschemas/TrackPointExtensionv1.xsd http://www.garmin.com/xmlschemas/GpxExtensions/v3 http://www8.garmin.com/xmlschemas/GpxExtensionsv3.xsd http://www.garmin.com/xmlschemas/ActivityExtension/v1 http://www8.garmin.com/xmlschemas/ActivityExtensionv1.xsd http://www.garmin.com/xmlschemas/AdventuresExtensions/v1 http://www8.garmin.com/xmlschemas/AdventuresExtensionv1.xsd http://www.garmin.com/xmlschemas/PressureExtension/v1 http://www.garmin.com/xmlschemas/PressureExtensionv1.xsd http://www.garmin.com/xmlschemas/TripExtensions/v1 http://www.garmin.com/xmlschemas/TripExtensionsv1.xsd http://www.garmin.com/xmlschemas/TripMetaDataExtensions/v1 http://www.garmin.com/xmlschemas/TripMetaDataExtensionsv1.xsd http://www.garmin.com/xmlschemas/ViaPointTransportationModeExtensions/v1 http://www.garmin.com/xmlschemas/ViaPointTransportationModeExtensionsv1.xsd http://www.garmin.com/xmlschemas/CreationTimeExtension/v1 http://www.garmin.com/xmlschemas/CreationTimeExtensionsv1.xsd http://www.garmin.com/xmlschemas/AccelerationExtension/v1 http://www.garmin.com/xmlschemas/AccelerationExtensionv1.xsd http://www.garmin.com/xmlschemas/PowerExtension/v1 http://www.garmin.com/xmlschemas/PowerExtensionv1.xsd http://www.garmin.com/xmlschemas/VideoExtension/v1 http://www.garmin.com/xmlschemas/VideoExtensionv1.xsd" xmlns="http://www.topografix.com/GPX/1/1" xmlns:xsi="http://www.w3.org/2001/XMLSchema-instance" xmlns:wptx1="http://www.garmin.com/xmlschemas/WaypointExtension/v1" xmlns:gpxtrx="http://www.garmin.com/xmlschemas/GpxExtensions/v3" xmlns:gpxtpx="http://www.garmin.com/xmlschemas/TrackPointExtension/v1" xmlns:gpxx="http://www.garmin.com/xmlschemas/GpxExtensions/v3" xmlns:trp="http://www.garmin.com/xmlschemas/TripExtensions/v1" xmlns:adv="http://www.garmin.com/xmlschemas/AdventuresExtensions/v1" xmlns:prs="http://www.garmin.com/xmlschemas/PressureExtension/v1" xmlns:tmd="http://www.garmin.com/xmlschemas/TripMetaDataExtensions/v1" xmlns:vptm="http://www.garmin.com/xmlschemas/ViaPointTransportationModeExtensions/v1" xmlns:ctx="http://www.garmin.com/xmlschemas/CreationTimeExtension/v1" xmlns:gpxacc="http://www.garmin.com/xmlschemas/AccelerationExtension/v1" xmlns:gpxpx="http://www.garmin.com/xmlschemas/PowerExtension/v1" xmlns:vidx1="http://www.garmin.com/xmlschemas/VideoExtension/v1">

  <metadata>
    <link href="http://www.garmin.com">
      <text>Garmin International</text>
    </link>
    <time>2022-07-02T19:21:08Z</time>
    <bounds maxlat="-29.056572094559669" maxlon="29.974427372217178" minlat="-29.112745430320501" minlon="29.929123688489199" />
  </metadata>

  <trk>
    <name>[209] Griffins Hill</name>
    <extensions>
      <gpxx:TrackExtension>
        <gpxx:DisplayColor>Green</gpxx:DisplayColor>
      </gpxx:TrackExtension>
    </extensions>
    <trkseg>
      <trkpt lat="-29.056572094559669" lon="29.929123688489199">
        <ele>1322.9100000000001</ele>
        <time>2022-01-15T11:36:29Z</time>
      </trkpt>
      <trkpt lat="-29.05786550603807" lon="29.931328380480409">
        <ele>1318.0999999999999</ele>
        <time>2022-01-15T11:36:38Z</time>
      </trkpt>
      <trkpt lat="-29.059391180053353" lon="29.932895544916391">
        <ele>1327.72</ele>
        <time>2022-01-15T11:36:46Z</time>
      </trkpt>
      <trkpt lat="-29.061383893713355" lon="29.934201948344707">
        <ele>1344.0599999999999</ele>
        <time>2022-01-15T11:36:55Z</time>
      </trkpt>
      <trkpt lat="-29.06489641405642" lon="29.936384847387671">
        <ele>1334.45</ele>
        <time>2022-01-15T11:37:10Z</time>
      </trkpt>
      <trkpt lat="-29.068203661590815" lon="29.938459619879723">
        <ele>1312.3399999999999</ele>
        <time>2022-01-15T11:37:24Z</time>
      </trkpt>
      <trkpt lat="-29.070479851216078" lon="29.940098449587822">
        <ele>1311.8599999999999</ele>
        <time>2022-01-15T11:37:34Z</time>
      </trkpt>
      <trkpt lat="-29.071412170305848" lon="29.941475428640842">
        <ele>1322.9100000000001</ele>
        <time>2022-01-15T11:37:40Z</time>
      </trkpt>
      <trkpt lat="-29.071898739784956" lon="29.943095650523901">
        <ele>1333.49</ele>
        <time>2022-01-15T11:37:46Z</time>
      </trkpt>
      <trkpt lat="-29.071881305426359" lon="29.944738335907459">
        <ele>1338.77</ele>
        <time>2022-01-15T11:37:52Z</time>
      </trkpt>
      <trkpt lat="-29.071322567760944" lon="29.946452267467976">
        <ele>1335.8900000000001</ele>
        <time>2022-01-15T11:37:59Z</time>
      </trkpt>
      <trkpt lat="-29.070155555382371" lon="29.948223447427154">
        <ele>1327.72</ele>
        <time>2022-01-15T11:38:07Z</time>
      </trkpt>
      <trkpt lat="-29.069114020094275" lon="29.949748031795025">
        <ele>1326.28</ele>
        <time>2022-01-15T11:38:15Z</time>
      </trkpt>
      <trkpt lat="-29.0685308072716" lon="29.951162980869412">
        <ele>1325.3099999999999</ele>
        <time>2022-01-15T11:38:21Z</time>
      </trkpt>
      <trkpt lat="-29.068396529182792" lon="29.952799966558814">
        <ele>1320.51</ele>
        <time>2022-01-15T11:38:27Z</time>
      </trkpt>
      <trkpt lat="-29.068745300173759" lon="29.954339973628521">
        <ele>1315.7</ele>
        <time>2022-01-15T11:38:33Z</time>
      </trkpt>
      <trkpt lat="-29.069528253749013" lon="29.955644030123949">
        <ele>1313.78</ele>
        <time>2022-01-15T11:38:39Z</time>
      </trkpt>
      <trkpt lat="-29.070637850090861" lon="29.956589173525572">
        <ele>1315.7</ele>
        <time>2022-01-15T11:38:45Z</time>
      </trkpt>
      <trkpt lat="-29.072145419195294" lon="29.957082867622375">
        <ele>1321.95</ele>
        <time>2022-01-15T11:38:52Z</time>
      </trkpt>
      <trkpt lat="-29.075344204902649" lon="29.957443540915847">
        <ele>1321.47</ele>
        <time>2022-01-15T11:39:05Z</time>
      </trkpt>
      <trkpt lat="-29.078704845160246" lon="29.95793329551816">
        <ele>1333.97</ele>
        <time>2022-01-15T11:39:18Z</time>
      </trkpt>
      <trkpt lat="-29.080607537180185" lon="29.958818173035979">
        <ele>1347.9100000000001</ele>
        <time>2022-01-15T11:39:26Z</time>
      </trkpt>
      <trkpt lat="-29.084350811317563" lon="29.961029822006822">
        <ele>1378.1900000000001</ele>
        <time>2022-01-15T11:39:42Z</time>
      </trkpt>
      <trkpt lat="-29.090172462165356" lon="29.964463971555233">
        <ele>1427.7</ele>
        <time>2022-01-15T11:40:07Z</time>
      </trkpt>
      <trkpt lat="-29.093534108251333" lon="29.966559447348118">
        <ele>1464.23</ele>
        <time>2022-01-15T11:40:22Z</time>
      </trkpt>
      <trkpt lat="-29.094485118985176" lon="29.967829305678606">
        <ele>1477.2</ele>
        <time>2022-01-15T11:40:28Z</time>
      </trkpt>
      <trkpt lat="-29.095028098672628" lon="29.969432177022099">
        <ele>1487.78</ele>
        <time>2022-01-15T11:40:34Z</time>
      </trkpt>
      <trkpt lat="-29.095907360315323" lon="29.972553849220276">
        <ele>1513.25</ele>
        <time>2022-01-15T11:40:46Z</time>
      </trkpt>
      <trkpt lat="-29.09630298614502" lon="29.973151227459311">
        <ele>1519.02</ele>
        <time>2022-01-15T11:40:49Z</time>
      </trkpt>
      <trkpt lat="-29.09646182321012" lon="29.973322721198201">
        <ele>1520.9400000000001</ele>
        <time>2022-01-15T11:40:50Z</time>
      </trkpt>
      <trkpt lat="-29.0966338198632" lon="29.973479546606541">
        <ele>1522.3900000000001</ele>
        <time>2022-01-15T11:40:51Z</time>
      </trkpt>
      <trkpt lat="-29.096816964447498" lon="29.973621033132076">
        <ele>1524.3099999999999</ele>
        <time>2022-01-15T11:40:52Z</time>
      </trkpt>
      <trkpt lat="-29.09701150842011" lon="29.973746174946427">
        <ele>1525.75</ele>
        <time>2022-01-15T11:40:53Z</time>
      </trkpt>
      <trkpt lat="-29.09721627831459" lon="29.973853463307023">
        <ele>1527.6700000000001</ele>
        <time>2022-01-15T11:40:54Z</time>
      </trkpt>
      <trkpt lat="-29.097432028502226" lon="29.973940551280975">
        <ele>1529.1099999999999</ele>
        <time>2022-01-15T11:40:55Z</time>
      </trkpt>
      <trkpt lat="-29.097657417878509" lon="29.974004924297333">
        <ele>1530.5599999999999</ele>
        <time>2022-01-15T11:40:56Z</time>
      </trkpt>
      <trkpt lat="-29.097889764234424" lon="29.974048845469952">
        <ele>1532</ele>
        <time>2022-01-15T11:40:57Z</time>
      </trkpt>
      <trkpt lat="-29.098128732293844" lon="29.974074074998498">
        <ele>1533.4400000000001</ele>
        <time>2022-01-15T11:40:58Z</time>
      </trkpt>
      <trkpt lat="-29.098378345370293" lon="29.974087905138731">
        <ele>1534.8800000000001</ele>
        <time>2022-01-15T11:40:59Z</time>
      </trkpt>
      <trkpt lat="-29.101251075044274" lon="29.974115565419197">
        <ele>1555.0699999999999</ele>
        <time>2022-01-15T11:41:10Z</time>
      </trkpt>
      <trkpt lat="-29.106432432308793" lon="29.974120426923037">
        <ele>1577.1800000000001</ele>
        <time>2022-01-15T11:41:29Z</time>
      </trkpt>
      <trkpt lat="-29.11093351431191" lon="29.9740912579">
        <ele>1576.7</ele>
        <time>2022-01-15T11:41:45Z</time>
      </trkpt>
      <trkpt lat="-29.112745430320501" lon="29.974427372217178">
        <ele>1581.51</ele>
        <time>2022-01-15T11:41:52Z</time>
      </trkpt>
    </trkseg>
  </trk>

</gpx>