<?xml version="1.0" encoding="utf-8"?><gpx creator="Garmin Desktop App" version="1.1" xsi:schemaLocation="http://www.topografix.com/GPX/1/1 http://www.topografix.com/GPX/1/1/gpx.xsd http://www.garmin.com/xmlschemas/WaypointExtension/v1 http://www8.garmin.com/xmlschemas/WaypointExtensionv1.xsd http://www.garmin.com/xmlschemas/TrackPointExtension/v1 http://www.garmin.com/xmlschemas/TrackPointExtensionv1.xsd http://www.garmin.com/xmlschemas/GpxExtensions/v3 http://www8.garmin.com/xmlschemas/GpxExtensionsv3.xsd http://www.garmin.com/xmlschemas/ActivityExtension/v1 http://www8.garmin.com/xmlschemas/ActivityExtensionv1.xsd http://www.garmin.com/xmlschemas/AdventuresExtensions/v1 http://www8.garmin.com/xmlschemas/AdventuresExtensionv1.xsd http://www.garmin.com/xmlschemas/PressureExtension/v1 http://www.garmin.com/xmlschemas/PressureExtensionv1.xsd http://www.garmin.com/xmlschemas/TripExtensions/v1 http://www.garmin.com/xmlschemas/TripExtensionsv1.xsd http://www.garmin.com/xmlschemas/TripMetaDataExtensions/v1 http://www.garmin.com/xmlschemas/TripMetaDataExtensionsv1.xsd http://www.garmin.com/xmlschemas/ViaPointTransportationModeExtensions/v1 http://www.garmin.com/xmlschemas/ViaPointTransportationModeExtensionsv1.xsd http://www.garmin.com/xmlschemas/CreationTimeExtension/v1 http://www.garmin.com/xmlschemas/CreationTimeExtensionsv1.xsd http://www.garmin.com/xmlschemas/AccelerationExtension/v1 http://www.garmin.com/xmlschemas/AccelerationExtensionv1.xsd http://www.garmin.com/xmlschemas/PowerExtension/v1 http://www.garmin.com/xmlschemas/PowerExtensionv1.xsd http://www.garmin.com/xmlschemas/VideoExtension/v1 http://www.garmin.com/xmlschemas/VideoExtensionv1.xsd" xmlns="http://www.topografix.com/GPX/1/1" xmlns:xsi="http://www.w3.org/2001/XMLSchema-instance" xmlns:wptx1="http://www.garmin.com/xmlschemas/WaypointExtension/v1" xmlns:gpxtrx="http://www.garmin.com/xmlschemas/GpxExtensions/v3" xmlns:gpxtpx="http://www.garmin.com/xmlschemas/TrackPointExtension/v1" xmlns:gpxx="http://www.garmin.com/xmlschemas/GpxExtensions/v3" xmlns:trp="http://www.garmin.com/xmlschemas/TripExtensions/v1" xmlns:adv="http://www.garmin.com/xmlschemas/AdventuresExtensions/v1" xmlns:prs="http://www.garmin.com/xmlschemas/PressureExtension/v1" xmlns:tmd="http://www.garmin.com/xmlschemas/TripMetaDataExtensions/v1" xmlns:vptm="http://www.garmin.com/xmlschemas/ViaPointTransportationModeExtensions/v1" xmlns:ctx="http://www.garmin.com/xmlschemas/CreationTimeExtension/v1" xmlns:gpxacc="http://www.garmin.com/xmlschemas/AccelerationExtension/v1" xmlns:gpxpx="http://www.garmin.com/xmlschemas/PowerExtension/v1" xmlns:vidx1="http://www.garmin.com/xmlschemas/VideoExtension/v1">

  <metadata>
    <link href="http://www.garmin.com">
      <text>Garmin International</text>
    </link>
    <time>2022-07-02T19:22:38Z</time>
    <bounds maxlat="-30.832825116813183" maxlon="27.373614767566323" minlat="-30.842651054263115" minlon="27.322775507345796" />
  </metadata>

  <trk>
    <name>[222] GrondNek Pass</name>
    <extensions>
      <gpxx:TrackExtension>
        <gpxx:DisplayColor>Green</gpxx:DisplayColor>
      </gpxx:TrackExtension>
    </extensions>
    <trkseg>
      <trkpt lat="-30.839581936597824" lon="27.373614767566323">
        <ele>1907.8699999999999</ele>
        <time>2022-01-21T06:33:08Z</time>
      </trkpt>
      <trkpt lat="-30.839244481176138" lon="27.373110093176365">
        <ele>1906.4300000000001</ele>
        <time>2022-01-21T06:33:14Z</time>
      </trkpt>
      <trkpt lat="-30.838327081874013" lon="27.372113317251205">
        <ele>1903.0699999999999</ele>
        <time>2022-01-21T06:33:23Z</time>
      </trkpt>
      <trkpt lat="-30.837257718667388" lon="27.371317036449909">
        <ele>1898.74</ele>
        <time>2022-01-21T06:33:30Z</time>
      </trkpt>
      <trkpt lat="-30.835038106888533" lon="27.36967041157186">
        <ele>1889.6099999999999</ele>
        <time>2022-01-21T06:33:45Z</time>
      </trkpt>
      <trkpt lat="-30.833476055413485" lon="27.368289576843381">
        <ele>1882.8800000000001</ele>
        <time>2022-01-21T06:33:57Z</time>
      </trkpt>
      <trkpt lat="-30.83299158141017" lon="27.367239240556955">
        <ele>1883.3599999999999</ele>
        <time>2022-01-21T06:34:04Z</time>
      </trkpt>
      <trkpt lat="-30.832825116813183" lon="27.366197118535638">
        <ele>1887.6900000000001</ele>
        <time>2022-01-21T06:34:11Z</time>
      </trkpt>
      <trkpt lat="-30.832999125123024" lon="27.364816451445222">
        <ele>1894.9000000000001</ele>
        <time>2022-01-21T06:34:17Z</time>
      </trkpt>
      <trkpt lat="-30.833759279921651" lon="27.363116182386875">
        <ele>1905.95</ele>
        <time>2022-01-21T06:34:24Z</time>
      </trkpt>
      <trkpt lat="-30.835540937259793" lon="27.359430827200413">
        <ele>1924.22</ele>
        <time>2022-01-21T06:34:38Z</time>
      </trkpt>
      <trkpt lat="-30.837194016203284" lon="27.356195077300072">
        <ele>1932.3900000000001</ele>
        <time>2022-01-21T06:34:49Z</time>
      </trkpt>
      <trkpt lat="-30.838991850614548" lon="27.353532230481505">
        <ele>1938.6400000000001</ele>
        <time>2022-01-21T06:34:59Z</time>
      </trkpt>
      <trkpt lat="-30.842093238607049" lon="27.348922519013286">
        <ele>1973.72</ele>
        <time>2022-01-21T06:35:17Z</time>
      </trkpt>
      <trkpt lat="-30.842534881085157" lon="27.347866399213672">
        <ele>1981.9000000000001</ele>
        <time>2022-01-21T06:35:21Z</time>
      </trkpt>
      <trkpt lat="-30.842596823349595" lon="27.347581665962934">
        <ele>1984.3</ele>
        <time>2022-01-21T06:35:22Z</time>
      </trkpt>
      <trkpt lat="-30.842635128647089" lon="27.347295926883817">
        <ele>1986.22</ele>
        <time>2022-01-21T06:35:23Z</time>
      </trkpt>
      <trkpt lat="-30.842651054263115" lon="27.347007505595684">
        <ele>1988.1400000000001</ele>
        <time>2022-01-21T06:35:24Z</time>
      </trkpt>
      <trkpt lat="-30.842648288235068" lon="27.346734758466482">
        <ele>1990.0699999999999</ele>
        <time>2022-01-21T06:35:25Z</time>
      </trkpt>
      <trkpt lat="-30.84262833930552" lon="27.346458155661821">
        <ele>1992.47</ele>
        <time>2022-01-21T06:35:26Z</time>
      </trkpt>
      <trkpt lat="-30.842591626569629" lon="27.346182055771351">
        <ele>1994.3900000000001</ele>
        <time>2022-01-21T06:35:27Z</time>
      </trkpt>
      <trkpt lat="-30.842538988217711" lon="27.345906961709261">
        <ele>1995.8299999999999</ele>
        <time>2022-01-21T06:35:28Z</time>
      </trkpt>
      <trkpt lat="-30.842465478926897" lon="27.34562742523849">
        <ele>1997.28</ele>
        <time>2022-01-21T06:35:29Z</time>
      </trkpt>
      <trkpt lat="-30.842368751764297" lon="27.345349481329322">
        <ele>1998.72</ele>
        <time>2022-01-21T06:35:30Z</time>
      </trkpt>
      <trkpt lat="-30.842248974367976" lon="27.345080925151706">
        <ele>1999.2</ele>
        <time>2022-01-21T06:35:31Z</time>
      </trkpt>
      <trkpt lat="-30.842109331861138" lon="27.34482167288661">
        <ele>1999.6800000000001</ele>
        <time>2022-01-21T06:35:32Z</time>
      </trkpt>
      <trkpt lat="-30.841948902234435" lon="27.344570383429527">
        <ele>2000.1600000000001</ele>
        <time>2022-01-21T06:35:33Z</time>
      </trkpt>
      <trkpt lat="-30.841765338554978" lon="27.344329655170441">
        <ele>2000.1600000000001</ele>
        <time>2022-01-21T06:35:34Z</time>
      </trkpt>
      <trkpt lat="-30.841560317203403" lon="27.344097811728716">
        <ele>2000.1600000000001</ele>
        <time>2022-01-21T06:35:35Z</time>
      </trkpt>
      <trkpt lat="-30.841332329437137" lon="27.343868566676974">
        <ele>1999.6800000000001</ele>
        <time>2022-01-21T06:35:36Z</time>
      </trkpt>
      <trkpt lat="-30.839539188891649" lon="27.341954810544848">
        <ele>1991.03</ele>
        <time>2022-01-21T06:35:44Z</time>
      </trkpt>
      <trkpt lat="-30.839387476444244" lon="27.34167292714119">
        <ele>1990.0699999999999</ele>
        <time>2022-01-21T06:35:45Z</time>
      </trkpt>
      <trkpt lat="-30.839260993525386" lon="27.34138366766274">
        <ele>1989.5899999999999</ele>
        <time>2022-01-21T06:35:46Z</time>
      </trkpt>
      <trkpt lat="-30.839159823954105" lon="27.341088205575943">
        <ele>1988.6199999999999</ele>
        <time>2022-01-21T06:35:47Z</time>
      </trkpt>
      <trkpt lat="-30.839083297178149" lon="27.340785367414355">
        <ele>1987.6600000000001</ele>
        <time>2022-01-21T06:35:48Z</time>
      </trkpt>
      <trkpt lat="-30.839030407369137" lon="27.340477081015706">
        <ele>1986.7</ele>
        <time>2022-01-21T06:35:49Z</time>
      </trkpt>
      <trkpt lat="-30.839000148698688" lon="27.340163178741932">
        <ele>1985.74</ele>
        <time>2022-01-21T06:35:50Z</time>
      </trkpt>
      <trkpt lat="-30.83899000659585" lon="27.339843241497874">
        <ele>1984.3</ele>
        <time>2022-01-21T06:35:51Z</time>
      </trkpt>
      <trkpt lat="-30.838995706290007" lon="27.339516095817089">
        <ele>1982.8599999999999</ele>
        <time>2022-01-21T06:35:52Z</time>
      </trkpt>
      <trkpt lat="-30.839014817029238" lon="27.339182076975703">
        <ele>1981.4100000000001</ele>
        <time>2022-01-21T06:35:53Z</time>
      </trkpt>
      <trkpt lat="-30.83931346423924" lon="27.3349513951689">
        <ele>1966.51</ele>
        <time>2022-01-21T06:36:05Z</time>
      </trkpt>
      <trkpt lat="-30.8397576212883" lon="27.328239837661386">
        <ele>1945.8499999999999</ele>
        <time>2022-01-21T06:36:24Z</time>
      </trkpt>
      <trkpt lat="-30.84022918716073" lon="27.322775507345796">
        <ele>1953.54</ele>
        <time>2022-01-21T06:36:40Z</time>
      </trkpt>
    </trkseg>
  </trk>

</gpx>