<?xml version="1.0" encoding="utf-8"?><gpx creator="Garmin Desktop App" version="1.1" xsi:schemaLocation="http://www.topografix.com/GPX/1/1 http://www.topografix.com/GPX/1/1/gpx.xsd http://www.garmin.com/xmlschemas/WaypointExtension/v1 http://www8.garmin.com/xmlschemas/WaypointExtensionv1.xsd http://www.garmin.com/xmlschemas/TrackPointExtension/v1 http://www.garmin.com/xmlschemas/TrackPointExtensionv1.xsd http://www.garmin.com/xmlschemas/GpxExtensions/v3 http://www8.garmin.com/xmlschemas/GpxExtensionsv3.xsd http://www.garmin.com/xmlschemas/ActivityExtension/v1 http://www8.garmin.com/xmlschemas/ActivityExtensionv1.xsd http://www.garmin.com/xmlschemas/AdventuresExtensions/v1 http://www8.garmin.com/xmlschemas/AdventuresExtensionv1.xsd http://www.garmin.com/xmlschemas/PressureExtension/v1 http://www.garmin.com/xmlschemas/PressureExtensionv1.xsd http://www.garmin.com/xmlschemas/TripExtensions/v1 http://www.garmin.com/xmlschemas/TripExtensionsv1.xsd http://www.garmin.com/xmlschemas/TripMetaDataExtensions/v1 http://www.garmin.com/xmlschemas/TripMetaDataExtensionsv1.xsd http://www.garmin.com/xmlschemas/ViaPointTransportationModeExtensions/v1 http://www.garmin.com/xmlschemas/ViaPointTransportationModeExtensionsv1.xsd http://www.garmin.com/xmlschemas/CreationTimeExtension/v1 http://www.garmin.com/xmlschemas/CreationTimeExtensionsv1.xsd http://www.garmin.com/xmlschemas/AccelerationExtension/v1 http://www.garmin.com/xmlschemas/AccelerationExtensionv1.xsd http://www.garmin.com/xmlschemas/PowerExtension/v1 http://www.garmin.com/xmlschemas/PowerExtensionv1.xsd http://www.garmin.com/xmlschemas/VideoExtension/v1 http://www.garmin.com/xmlschemas/VideoExtensionv1.xsd" xmlns="http://www.topografix.com/GPX/1/1" xmlns:xsi="http://www.w3.org/2001/XMLSchema-instance" xmlns:wptx1="http://www.garmin.com/xmlschemas/WaypointExtension/v1" xmlns:gpxtrx="http://www.garmin.com/xmlschemas/GpxExtensions/v3" xmlns:gpxtpx="http://www.garmin.com/xmlschemas/TrackPointExtension/v1" xmlns:gpxx="http://www.garmin.com/xmlschemas/GpxExtensions/v3" xmlns:trp="http://www.garmin.com/xmlschemas/TripExtensions/v1" xmlns:adv="http://www.garmin.com/xmlschemas/AdventuresExtensions/v1" xmlns:prs="http://www.garmin.com/xmlschemas/PressureExtension/v1" xmlns:tmd="http://www.garmin.com/xmlschemas/TripMetaDataExtensions/v1" xmlns:vptm="http://www.garmin.com/xmlschemas/ViaPointTransportationModeExtensions/v1" xmlns:ctx="http://www.garmin.com/xmlschemas/CreationTimeExtension/v1" xmlns:gpxacc="http://www.garmin.com/xmlschemas/AccelerationExtension/v1" xmlns:gpxpx="http://www.garmin.com/xmlschemas/PowerExtension/v1" xmlns:vidx1="http://www.garmin.com/xmlschemas/VideoExtension/v1">

  <metadata>
    <link href="http://www.garmin.com">
      <text>Garmin International</text>
    </link>
    <time>2022-07-02T19:26:07Z</time>
    <bounds maxlat="-33.485224647447467" maxlon="23.653124738484621" minlat="-33.523281086236238" minlon="23.618132388219237" />
  </metadata>

  <trk>
    <name>[250] Nuwekloof Pass</name>
    <extensions>
      <gpxx:TrackExtension>
        <gpxx:DisplayColor>Red</gpxx:DisplayColor>
      </gpxx:TrackExtension>
    </extensions>
    <trkseg>
      <trkpt lat="-33.523281086236238" lon="23.653124738484621">
        <ele>849.46000000000004</ele>
        <time>2022-01-26T10:18:07Z</time>
      </trkpt>
      <trkpt lat="-33.523012278601527" lon="23.652872946113348">
        <ele>850.89999999999998</ele>
        <time>2022-01-26T10:18:10Z</time>
      </trkpt>
      <trkpt lat="-33.522420600056648" lon="23.652404397726059">
        <ele>852.35000000000002</ele>
        <time>2022-01-26T10:18:17Z</time>
      </trkpt>
      <trkpt lat="-33.522357903420925" lon="23.652332313358784">
        <ele>852.35000000000002</ele>
        <time>2022-01-26T10:18:18Z</time>
      </trkpt>
      <trkpt lat="-33.521741749718785" lon="23.651336459442973">
        <ele>853.78999999999996</ele>
        <time>2022-01-26T10:18:28Z</time>
      </trkpt>
      <trkpt lat="-33.521251156926155" lon="23.650614526122808">
        <ele>855.71000000000004</ele>
        <time>2022-01-26T10:18:37Z</time>
      </trkpt>
      <trkpt lat="-33.521200949326158" lon="23.65057747811079">
        <ele>855.71000000000004</ele>
        <time>2022-01-26T10:18:38Z</time>
      </trkpt>
      <trkpt lat="-33.521149232983589" lon="23.650556020438671">
        <ele>856.19000000000005</ele>
        <time>2022-01-26T10:18:39Z</time>
      </trkpt>
      <trkpt lat="-33.52109357714653" lon="23.650551494210958">
        <ele>856.19000000000005</ele>
        <time>2022-01-26T10:18:40Z</time>
      </trkpt>
      <trkpt lat="-33.521029707044363" lon="23.650558618828654">
        <ele>856.66999999999996</ele>
        <time>2022-01-26T10:18:41Z</time>
      </trkpt>
      <trkpt lat="-33.520953012630343" lon="23.650571526959538">
        <ele>856.66999999999996</ele>
        <time>2022-01-26T10:18:42Z</time>
      </trkpt>
      <trkpt lat="-33.520272737368941" lon="23.650729106739163">
        <ele>858.11000000000001</ele>
        <time>2022-01-26T10:18:51Z</time>
      </trkpt>
      <trkpt lat="-33.520207777619362" lon="23.650738410651684">
        <ele>858.11000000000001</ele>
        <time>2022-01-26T10:18:52Z</time>
      </trkpt>
      <trkpt lat="-33.520140470936894" lon="23.650736482813954">
        <ele>858.11000000000001</ele>
        <time>2022-01-26T10:18:53Z</time>
      </trkpt>
      <trkpt lat="-33.520075343549252" lon="23.650722736492753">
        <ele>858.59000000000003</ele>
        <time>2022-01-26T10:18:54Z</time>
      </trkpt>
      <trkpt lat="-33.520013149827719" lon="23.650696333497763">
        <ele>859.08000000000004</ele>
        <time>2022-01-26T10:18:55Z</time>
      </trkpt>
      <trkpt lat="-33.519956152886152" lon="23.650661380961537">
        <ele>859.55999999999995</ele>
        <time>2022-01-26T10:18:56Z</time>
      </trkpt>
      <trkpt lat="-33.519898820668459" lon="23.650616370141506">
        <ele>860.03999999999996</ele>
        <time>2022-01-26T10:18:57Z</time>
      </trkpt>
      <trkpt lat="-33.519835621118546" lon="23.650563647970557">
        <ele>860.51999999999998</ele>
        <time>2022-01-26T10:18:58Z</time>
      </trkpt>
      <trkpt lat="-33.519609142094851" lon="23.65041721612215">
        <ele>862.91999999999996</ele>
        <time>2022-01-26T10:19:01Z</time>
      </trkpt>
      <trkpt lat="-33.519522808492184" lon="23.650378240272403">
        <ele>863.39999999999998</ele>
        <time>2022-01-26T10:19:02Z</time>
      </trkpt>
      <trkpt lat="-33.519428428262472" lon="23.650344545021653">
        <ele>863.88</ele>
        <time>2022-01-26T10:19:03Z</time>
      </trkpt>
      <trkpt lat="-33.518763910979033" lon="23.650171291083097">
        <ele>867.73000000000002</ele>
        <time>2022-01-26T10:19:11Z</time>
      </trkpt>
      <trkpt lat="-33.518719235435128" lon="23.650152934715152">
        <ele>867.73000000000002</ele>
        <time>2022-01-26T10:19:12Z</time>
      </trkpt>
      <trkpt lat="-33.518672380596399" lon="23.650129716843367">
        <ele>868.21000000000004</ele>
        <time>2022-01-26T10:19:13Z</time>
      </trkpt>
      <trkpt lat="-33.518621837720275" lon="23.650098787620664">
        <ele>868.69000000000005</ele>
        <time>2022-01-26T10:19:14Z</time>
      </trkpt>
      <trkpt lat="-33.518569031730294" lon="23.650058722123504">
        <ele>868.69000000000005</ele>
        <time>2022-01-26T10:19:15Z</time>
      </trkpt>
      <trkpt lat="-33.51851505227387" lon="23.650011783465743">
        <ele>869.16999999999996</ele>
        <time>2022-01-26T10:19:16Z</time>
      </trkpt>
      <trkpt lat="-33.518458977341652" lon="23.649951685220003">
        <ele>869.16999999999996</ele>
        <time>2022-01-26T10:19:17Z</time>
      </trkpt>
      <trkpt lat="-33.518405165523291" lon="23.649882785975933">
        <ele>869.16999999999996</ele>
        <time>2022-01-26T10:19:18Z</time>
      </trkpt>
      <trkpt lat="-33.518353113904595" lon="23.649801062420011">
        <ele>869.16999999999996</ele>
        <time>2022-01-26T10:19:19Z</time>
      </trkpt>
      <trkpt lat="-33.518306678161025" lon="23.649713722988963">
        <ele>869.16999999999996</ele>
        <time>2022-01-26T10:19:20Z</time>
      </trkpt>
      <trkpt lat="-33.518262170255184" lon="23.649615487083793">
        <ele>869.16999999999996</ele>
        <time>2022-01-26T10:19:21Z</time>
      </trkpt>
      <trkpt lat="-33.518223026767373" lon="23.649506354704499">
        <ele>869.16999999999996</ele>
        <time>2022-01-26T10:19:22Z</time>
      </trkpt>
      <trkpt lat="-33.518188074231148" lon="23.649389678612351">
        <ele>868.69000000000005</ele>
        <time>2022-01-26T10:19:23Z</time>
      </trkpt>
      <trkpt lat="-33.517976431176066" lon="23.648385191336274">
        <ele>869.16999999999996</ele>
        <time>2022-01-26T10:19:33Z</time>
      </trkpt>
      <trkpt lat="-33.51793066598475" lon="23.647327646613121">
        <ele>872.04999999999995</ele>
        <time>2022-01-26T10:19:42Z</time>
      </trkpt>
      <trkpt lat="-33.517817175015807" lon="23.646962279453874">
        <ele>871.57000000000005</ele>
        <time>2022-01-26T10:19:46Z</time>
      </trkpt>
      <trkpt lat="-33.517780713737011" lon="23.646904109045863">
        <ele>872.04999999999995</ele>
        <time>2022-01-26T10:19:47Z</time>
      </trkpt>
      <trkpt lat="-33.517739558592439" lon="23.646862534806132">
        <ele>872.52999999999997</ele>
        <time>2022-01-26T10:19:48Z</time>
      </trkpt>
      <trkpt lat="-33.517692619934678" lon="23.646830432116985">
        <ele>872.52999999999997</ele>
        <time>2022-01-26T10:19:49Z</time>
      </trkpt>
      <trkpt lat="-33.517635120078921" lon="23.646798664703965">
        <ele>873.5</ele>
        <time>2022-01-26T10:19:50Z</time>
      </trkpt>
      <trkpt lat="-33.517567226663232" lon="23.646765556186438">
        <ele>873.98000000000002</ele>
        <time>2022-01-26T10:19:51Z</time>
      </trkpt>
      <trkpt lat="-33.516702549532056" lon="23.646522732451558">
        <ele>880.71000000000004</ele>
        <time>2022-01-26T10:20:02Z</time>
      </trkpt>
      <trkpt lat="-33.516628202050924" lon="23.646494736894965">
        <ele>881.19000000000005</ele>
        <time>2022-01-26T10:20:03Z</time>
      </trkpt>
      <trkpt lat="-33.516331985592842" lon="23.64633615128696">
        <ele>880.71000000000004</ele>
        <time>2022-01-26T10:20:08Z</time>
      </trkpt>
      <trkpt lat="-33.516251686960459" lon="23.646258534863591">
        <ele>880.71000000000004</ele>
        <time>2022-01-26T10:20:10Z</time>
      </trkpt>
      <trkpt lat="-33.516206843778491" lon="23.646205309778452">
        <ele>880.71000000000004</ele>
        <time>2022-01-26T10:20:11Z</time>
      </trkpt>
      <trkpt lat="-33.515726812183857" lon="23.645604914054275">
        <ele>881.19000000000005</ele>
        <time>2022-01-26T10:20:18Z</time>
      </trkpt>
      <trkpt lat="-33.515069084241986" lon="23.644751384854317">
        <ele>885.50999999999999</ele>
        <time>2022-01-26T10:20:28Z</time>
      </trkpt>
      <trkpt lat="-33.514869343489408" lon="23.644433626905084">
        <ele>885.99000000000001</ele>
        <time>2022-01-26T10:20:33Z</time>
      </trkpt>
      <trkpt lat="-33.514603804796934" lon="23.643866507336497">
        <ele>887.42999999999995</ele>
        <time>2022-01-26T10:20:40Z</time>
      </trkpt>
      <trkpt lat="-33.514553010463715" lon="23.643795596435666">
        <ele>887.90999999999997</ele>
        <time>2022-01-26T10:20:41Z</time>
      </trkpt>
      <trkpt lat="-33.514497857540846" lon="23.643735749647021">
        <ele>887.90999999999997</ele>
        <time>2022-01-26T10:20:42Z</time>
      </trkpt>
      <trkpt lat="-33.514438597485423" lon="23.643684955313802">
        <ele>887.90999999999997</ele>
        <time>2022-01-26T10:20:43Z</time>
      </trkpt>
      <trkpt lat="-33.514375817030668" lon="23.643639525398612">
        <ele>888.39999999999998</ele>
        <time>2022-01-26T10:20:44Z</time>
      </trkpt>
      <trkpt lat="-33.514305660501122" lon="23.643596023321152">
        <ele>888.88</ele>
        <time>2022-01-26T10:20:45Z</time>
      </trkpt>
      <trkpt lat="-33.513483814895153" lon="23.64312244579196">
        <ele>892.24000000000001</ele>
        <time>2022-01-26T10:20:55Z</time>
      </trkpt>
      <trkpt lat="-33.513260940089822" lon="23.643012307584286">
        <ele>892.72000000000003</ele>
        <time>2022-01-26T10:20:58Z</time>
      </trkpt>
      <trkpt lat="-33.513180809095502" lon="23.642987413331866">
        <ele>893.20000000000005</ele>
        <time>2022-01-26T10:20:59Z</time>
      </trkpt>
      <trkpt lat="-33.513095481321216" lon="23.642967799678445">
        <ele>893.67999999999995</ele>
        <time>2022-01-26T10:21:00Z</time>
      </trkpt>
      <trkpt lat="-33.513007052242756" lon="23.64295338280499">
        <ele>893.67999999999995</ele>
        <time>2022-01-26T10:21:01Z</time>
      </trkpt>
      <trkpt lat="-33.512915605679154" lon="23.642946509644389">
        <ele>893.67999999999995</ele>
        <time>2022-01-26T10:21:02Z</time>
      </trkpt>
      <trkpt lat="-33.51282793097198" lon="23.642945755273104">
        <ele>894.15999999999997</ele>
        <time>2022-01-26T10:21:03Z</time>
      </trkpt>
      <trkpt lat="-33.512684013694525" lon="23.642942486330867">
        <ele>894.63999999999999</ele>
        <time>2022-01-26T10:21:05Z</time>
      </trkpt>
      <trkpt lat="-33.512622239068151" lon="23.642929494380951">
        <ele>894.63999999999999</ele>
        <time>2022-01-26T10:21:06Z</time>
      </trkpt>
      <trkpt lat="-33.512561218813062" lon="23.642908874899149">
        <ele>895.12</ele>
        <time>2022-01-26T10:21:07Z</time>
      </trkpt>
      <trkpt lat="-33.512501372024417" lon="23.642878448590636">
        <ele>895.61000000000001</ele>
        <time>2022-01-26T10:21:08Z</time>
      </trkpt>
      <trkpt lat="-33.512447141110897" lon="23.642832348123193">
        <ele>896.09000000000003</ele>
        <time>2022-01-26T10:21:09Z</time>
      </trkpt>
      <trkpt lat="-33.51240674033761" lon="23.642772333696485">
        <ele>896.57000000000005</ele>
        <time>2022-01-26T10:21:10Z</time>
      </trkpt>
      <trkpt lat="-33.512376481667161" lon="23.642707290127873">
        <ele>897.04999999999995</ele>
        <time>2022-01-26T10:21:11Z</time>
      </trkpt>
      <trkpt lat="-33.512356029823422" lon="23.642647275701165">
        <ele>897.52999999999997</ele>
        <time>2022-01-26T10:21:12Z</time>
      </trkpt>
      <trkpt lat="-33.512347480282187" lon="23.642596900463104">
        <ele>898.00999999999999</ele>
        <time>2022-01-26T10:21:13Z</time>
      </trkpt>
      <trkpt lat="-33.512343876063824" lon="23.64254149608314">
        <ele>898.49000000000001</ele>
        <time>2022-01-26T10:21:14Z</time>
      </trkpt>
      <trkpt lat="-33.512346474453807" lon="23.642395567148924">
        <ele>898.97000000000003</ele>
        <time>2022-01-26T10:21:16Z</time>
      </trkpt>
      <trkpt lat="-33.51235837675631" lon="23.64230646751821">
        <ele>899.45000000000005</ele>
        <time>2022-01-26T10:21:17Z</time>
      </trkpt>
      <trkpt lat="-33.512454433366656" lon="23.641482358798385">
        <ele>901.37</ele>
        <time>2022-01-26T10:21:24Z</time>
      </trkpt>
      <trkpt lat="-33.512696754187346" lon="23.640239490196109">
        <ele>903.77999999999997</ele>
        <time>2022-01-26T10:21:36Z</time>
      </trkpt>
      <trkpt lat="-33.512742603197694" lon="23.640034552663565">
        <ele>904.25999999999999</ele>
        <time>2022-01-26T10:21:38Z</time>
      </trkpt>
      <trkpt lat="-33.512750817462802" lon="23.639941178262234">
        <ele>904.25999999999999</ele>
        <time>2022-01-26T10:21:39Z</time>
      </trkpt>
      <trkpt lat="-33.512745955958962" lon="23.639855179935694">
        <ele>904.25999999999999</ele>
        <time>2022-01-26T10:21:40Z</time>
      </trkpt>
      <trkpt lat="-33.512726593762636" lon="23.639782592654228">
        <ele>904.25999999999999</ele>
        <time>2022-01-26T10:21:41Z</time>
      </trkpt>
      <trkpt lat="-33.512697340920568" lon="23.639716627076268">
        <ele>904.25999999999999</ele>
        <time>2022-01-26T10:21:42Z</time>
      </trkpt>
      <trkpt lat="-33.512662891298532" lon="23.639652924612164">
        <ele>903.77999999999997</ele>
        <time>2022-01-26T10:21:43Z</time>
      </trkpt>
      <trkpt lat="-33.512623328715563" lon="23.639591736719012">
        <ele>903.77999999999997</ele>
        <time>2022-01-26T10:21:44Z</time>
      </trkpt>
      <trkpt lat="-33.512579659000039" lon="23.639535997062922">
        <ele>903.29999999999995</ele>
        <time>2022-01-26T10:21:45Z</time>
      </trkpt>
      <trkpt lat="-33.512534564360976" lon="23.639491572976112">
        <ele>903.29999999999995</ele>
        <time>2022-01-26T10:21:46Z</time>
      </trkpt>
      <trkpt lat="-33.512490224093199" lon="23.63945871591568">
        <ele>903.29999999999995</ele>
        <time>2022-01-26T10:21:47Z</time>
      </trkpt>
      <trkpt lat="-33.512441357597709" lon="23.639436587691307">
        <ele>903.29999999999995</ele>
        <time>2022-01-26T10:21:48Z</time>
      </trkpt>
      <trkpt lat="-33.512387461960316" lon="23.63942644558847">
        <ele>903.29999999999995</ele>
        <time>2022-01-26T10:21:49Z</time>
      </trkpt>
      <trkpt lat="-33.512326525524259" lon="23.639427116140723">
        <ele>903.29999999999995</ele>
        <time>2022-01-26T10:21:50Z</time>
      </trkpt>
      <trkpt lat="-33.512259973213077" lon="23.639439102262259">
        <ele>903.29999999999995</ele>
        <time>2022-01-26T10:21:51Z</time>
      </trkpt>
      <trkpt lat="-33.512190990149975" lon="23.639462739229202">
        <ele>903.29999999999995</ele>
        <time>2022-01-26T10:21:52Z</time>
      </trkpt>
      <trkpt lat="-33.512122174724936" lon="23.639498027041554">
        <ele>903.77999999999997</ele>
        <time>2022-01-26T10:21:53Z</time>
      </trkpt>
      <trkpt lat="-33.512052102014422" lon="23.639545133337379">
        <ele>903.77999999999997</ele>
        <time>2022-01-26T10:21:54Z</time>
      </trkpt>
      <trkpt lat="-33.511989153921604" lon="23.639602549374104">
        <ele>903.77999999999997</ele>
        <time>2022-01-26T10:21:55Z</time>
      </trkpt>
      <trkpt lat="-33.511933665722609" lon="23.639669017866254">
        <ele>903.77999999999997</ele>
        <time>2022-01-26T10:21:56Z</time>
      </trkpt>
      <trkpt lat="-33.511882536113262" lon="23.639739090576768">
        <ele>903.77999999999997</ele>
        <time>2022-01-26T10:21:57Z</time>
      </trkpt>
      <trkpt lat="-33.511830987408757" lon="23.639805894345045">
        <ele>903.77999999999997</ele>
        <time>2022-01-26T10:21:58Z</time>
      </trkpt>
      <trkpt lat="-33.511778935790062" lon="23.639863058924675">
        <ele>903.77999999999997</ele>
        <time>2022-01-26T10:21:59Z</time>
      </trkpt>
      <trkpt lat="-33.511582799255848" lon="23.640041342005134">
        <ele>903.29999999999995</ele>
        <time>2022-01-26T10:22:03Z</time>
      </trkpt>
      <trkpt lat="-33.511542901396751" lon="23.640065314248204">
        <ele>903.29999999999995</ele>
        <time>2022-01-26T10:22:04Z</time>
      </trkpt>
      <trkpt lat="-33.51108399219811" lon="23.640341414138675">
        <ele>903.77999999999997</ele>
        <time>2022-01-26T10:22:13Z</time>
      </trkpt>
      <trkpt lat="-33.511022971943021" lon="23.640370666980743">
        <ele>904.25999999999999</ele>
        <time>2022-01-26T10:22:14Z</time>
      </trkpt>
      <trkpt lat="-33.510959437116981" lon="23.640389945358038">
        <ele>904.25999999999999</ele>
        <time>2022-01-26T10:22:15Z</time>
      </trkpt>
      <trkpt lat="-33.510891795158386" lon="23.64040276966989">
        <ele>904.25999999999999</ele>
        <time>2022-01-26T10:22:16Z</time>
      </trkpt>
      <trkpt lat="-33.510824153199792" lon="23.640408888459206">
        <ele>904.74000000000001</ele>
        <time>2022-01-26T10:22:17Z</time>
      </trkpt>
      <trkpt lat="-33.510752320289612" lon="23.64040863700211">
        <ele>904.74000000000001</ele>
        <time>2022-01-26T10:22:18Z</time>
      </trkpt>
      <trkpt lat="-33.510677805170417" lon="23.640402099117637">
        <ele>905.22000000000003</ele>
        <time>2022-01-26T10:22:19Z</time>
      </trkpt>
      <trkpt lat="-33.510597925633192" lon="23.640389777719975">
        <ele>905.70000000000005</ele>
        <time>2022-01-26T10:22:20Z</time>
      </trkpt>
      <trkpt lat="-33.510309085249901" lon="23.64031920209527">
        <ele>908.10000000000002</ele>
        <time>2022-01-26T10:22:24Z</time>
      </trkpt>
      <trkpt lat="-33.510255608707666" lon="23.640284752473235">
        <ele>909.05999999999995</ele>
        <time>2022-01-26T10:22:25Z</time>
      </trkpt>
      <trkpt lat="-33.510213531553745" lon="23.640242507681251">
        <ele>909.05999999999995</ele>
        <time>2022-01-26T10:22:26Z</time>
      </trkpt>
      <trkpt lat="-33.510182099416852" lon="23.640192886814475">
        <ele>909.53999999999996</ele>
        <time>2022-01-26T10:22:27Z</time>
      </trkpt>
      <trkpt lat="-33.510160641744733" lon="23.640132453292608">
        <ele>909.53999999999996</ele>
        <time>2022-01-26T10:22:28Z</time>
      </trkpt>
      <trkpt lat="-33.510151505470276" lon="23.640066990628839">
        <ele>909.05999999999995</ele>
        <time>2022-01-26T10:22:29Z</time>
      </trkpt>
      <trkpt lat="-33.51015217602253" lon="23.639998510479927">
        <ele>908.58000000000004</ele>
        <time>2022-01-26T10:22:30Z</time>
      </trkpt>
      <trkpt lat="-33.51015904918313" lon="23.63992634229362">
        <ele>907.62</ele>
        <time>2022-01-26T10:22:31Z</time>
      </trkpt>
      <trkpt lat="-33.510167598724365" lon="23.63985694013536">
        <ele>907.13999999999999</ele>
        <time>2022-01-26T10:22:32Z</time>
      </trkpt>
      <trkpt lat="-33.510172544047236" lon="23.639607662335038">
        <ele>907.13999999999999</ele>
        <time>2022-01-26T10:22:36Z</time>
      </trkpt>
      <trkpt lat="-33.510164245963097" lon="23.639557203277946">
        <ele>907.13999999999999</ele>
        <time>2022-01-26T10:22:37Z</time>
      </trkpt>
      <trkpt lat="-33.510156534612179" lon="23.639520741999149">
        <ele>907.62</ele>
        <time>2022-01-26T10:22:38Z</time>
      </trkpt>
      <trkpt lat="-33.51014731451869" lon="23.639489226043224">
        <ele>907.62</ele>
        <time>2022-01-26T10:22:39Z</time>
      </trkpt>
      <trkpt lat="-33.510133400559425" lon="23.63945921882987">
        <ele>908.10000000000002</ele>
        <time>2022-01-26T10:22:40Z</time>
      </trkpt>
      <trkpt lat="-33.510116217657924" lon="23.639432899653912">
        <ele>908.58000000000004</ele>
        <time>2022-01-26T10:22:41Z</time>
      </trkpt>
      <trkpt lat="-33.510093251243234" lon="23.63941035233438">
        <ele>908.58000000000004</ele>
        <time>2022-01-26T10:22:42Z</time>
      </trkpt>
      <trkpt lat="-33.510064585134387" lon="23.639389481395483">
        <ele>909.05999999999995</ele>
        <time>2022-01-26T10:22:43Z</time>
      </trkpt>
      <trkpt lat="-33.510029464960098" lon="23.639370119199157">
        <ele>909.53999999999996</ele>
        <time>2022-01-26T10:22:44Z</time>
      </trkpt>
      <trkpt lat="-33.509996104985476" lon="23.639358971267939">
        <ele>909.53999999999996</ele>
        <time>2022-01-26T10:22:45Z</time>
      </trkpt>
      <trkpt lat="-33.50995821878314" lon="23.639352936297655">
        <ele>910.02999999999997</ele>
        <time>2022-01-26T10:22:46Z</time>
      </trkpt>
      <trkpt lat="-33.509913291782141" lon="23.639350757002831">
        <ele>910.50999999999999</ele>
        <time>2022-01-26T10:22:47Z</time>
      </trkpt>
      <trkpt lat="-33.509865179657936" lon="23.639351595193148">
        <ele>910.50999999999999</ele>
        <time>2022-01-26T10:22:48Z</time>
      </trkpt>
      <trkpt lat="-33.509447006508708" lon="23.639369448646903">
        <ele>911.95000000000005</ele>
        <time>2022-01-26T10:22:56Z</time>
      </trkpt>
      <trkpt lat="-33.509118435904384" lon="23.639323264360428">
        <ele>911.95000000000005</ele>
        <time>2022-01-26T10:23:02Z</time>
      </trkpt>
      <trkpt lat="-33.509069150313735" lon="23.639302309602499">
        <ele>912.42999999999995</ele>
        <time>2022-01-26T10:23:03Z</time>
      </trkpt>
      <trkpt lat="-33.509023217484355" lon="23.639276409521699">
        <ele>912.42999999999995</ele>
        <time>2022-01-26T10:23:04Z</time>
      </trkpt>
      <trkpt lat="-33.508854825049639" lon="23.639187142252922">
        <ele>912.90999999999997</ele>
        <time>2022-01-26T10:23:08Z</time>
      </trkpt>
      <trkpt lat="-33.5088119097054" lon="23.639155710116029">
        <ele>912.90999999999997</ele>
        <time>2022-01-26T10:23:09Z</time>
      </trkpt>
      <trkpt lat="-33.50876840762794" lon="23.639114890247583">
        <ele>913.38999999999999</ele>
        <time>2022-01-26T10:23:10Z</time>
      </trkpt>
      <trkpt lat="-33.508726330474019" lon="23.639062670990825">
        <ele>913.87</ele>
        <time>2022-01-26T10:23:11Z</time>
      </trkpt>
      <trkpt lat="-33.508692132309079" lon="23.639002572745085">
        <ele>914.35000000000002</ele>
        <time>2022-01-26T10:23:12Z</time>
      </trkpt>
      <trkpt lat="-33.508670758455992" lon="23.638939205557108">
        <ele>914.83000000000004</ele>
        <time>2022-01-26T10:23:13Z</time>
      </trkpt>
      <trkpt lat="-33.508662544190884" lon="23.638872820883989">
        <ele>915.30999999999995</ele>
        <time>2022-01-26T10:23:14Z</time>
      </trkpt>
      <trkpt lat="-33.508668998256326" lon="23.638804843649268">
        <ele>915.30999999999995</ele>
        <time>2022-01-26T10:23:15Z</time>
      </trkpt>
      <trkpt lat="-33.508692802861333" lon="23.63873309455812">
        <ele>915.30999999999995</ele>
        <time>2022-01-26T10:23:16Z</time>
      </trkpt>
      <trkpt lat="-33.508729264140129" lon="23.638655059039593">
        <ele>915.30999999999995</ele>
        <time>2022-01-26T10:23:17Z</time>
      </trkpt>
      <trkpt lat="-33.508776454254985" lon="23.638573586940765">
        <ele>915.30999999999995</ele>
        <time>2022-01-26T10:23:18Z</time>
      </trkpt>
      <trkpt lat="-33.508836217224598" lon="23.638491109013557">
        <ele>915.30999999999995</ele>
        <time>2022-01-26T10:23:19Z</time>
      </trkpt>
      <trkpt lat="-33.508901428431273" lon="23.638411900028586">
        <ele>915.78999999999996</ele>
        <time>2022-01-26T10:23:20Z</time>
      </trkpt>
      <trkpt lat="-33.508968399837613" lon="23.638341492041945">
        <ele>915.78999999999996</ele>
        <time>2022-01-26T10:23:21Z</time>
      </trkpt>
      <trkpt lat="-33.509035119786859" lon="23.638275023549795">
        <ele>915.78999999999996</ele>
        <time>2022-01-26T10:23:22Z</time>
      </trkpt>
      <trkpt lat="-33.509179456159472" lon="23.638147953897715">
        <ele>915.78999999999996</ele>
        <time>2022-01-26T10:23:24Z</time>
      </trkpt>
      <trkpt lat="-33.50926143117249" lon="23.638095315545797">
        <ele>915.78999999999996</ele>
        <time>2022-01-26T10:23:25Z</time>
      </trkpt>
      <trkpt lat="-33.509350614622235" lon="23.638050220906734">
        <ele>915.78999999999996</ele>
        <time>2022-01-26T10:23:26Z</time>
      </trkpt>
      <trkpt lat="-33.509446084499359" lon="23.638012669980526">
        <ele>915.78999999999996</ele>
        <time>2022-01-26T10:23:27Z</time>
      </trkpt>
      <trkpt lat="-33.509543230757117" lon="23.637981321662664">
        <ele>915.78999999999996</ele>
        <time>2022-01-26T10:23:28Z</time>
      </trkpt>
      <trkpt lat="-33.50986098870635" lon="23.637858023867011">
        <ele>915.78999999999996</ele>
        <time>2022-01-26T10:23:32Z</time>
      </trkpt>
      <trkpt lat="-33.509919745847583" lon="23.637810917571187">
        <ele>915.78999999999996</ele>
        <time>2022-01-26T10:23:33Z</time>
      </trkpt>
      <trkpt lat="-33.509966433048248" lon="23.63775341771543">
        <ele>915.78999999999996</ele>
        <time>2022-01-26T10:23:34Z</time>
      </trkpt>
      <trkpt lat="-33.509999960660934" lon="23.637685189023614">
        <ele>915.78999999999996</ele>
        <time>2022-01-26T10:23:35Z</time>
      </trkpt>
      <trkpt lat="-33.510020161047578" lon="23.637613272294402">
        <ele>915.78999999999996</ele>
        <time>2022-01-26T10:23:36Z</time>
      </trkpt>
      <trkpt lat="-33.510027453303337" lon="23.637543031945825">
        <ele>916.26999999999998</ele>
        <time>2022-01-26T10:23:37Z</time>
      </trkpt>
      <trkpt lat="-33.5100241843611" lon="23.637472791597247">
        <ele>916.26999999999998</ele>
        <time>2022-01-26T10:23:38Z</time>
      </trkpt>
      <trkpt lat="-33.510011862963438" lon="23.637401713058352">
        <ele>916.75</ele>
        <time>2022-01-26T10:23:39Z</time>
      </trkpt>
      <trkpt lat="-33.509984789416194" lon="23.637335831299424">
        <ele>917.24000000000001</ele>
        <time>2022-01-26T10:23:40Z</time>
      </trkpt>
      <trkpt lat="-33.509944221004844" lon="23.637275816872716">
        <ele>917.72000000000003</ele>
        <time>2022-01-26T10:23:41Z</time>
      </trkpt>
      <trkpt lat="-33.509895103052258" lon="23.637222005054355">
        <ele>918.20000000000005</ele>
        <time>2022-01-26T10:23:42Z</time>
      </trkpt>
      <trkpt lat="-33.509835842996836" lon="23.637172719463706">
        <ele>918.67999999999995</ele>
        <time>2022-01-26T10:23:43Z</time>
      </trkpt>
      <trkpt lat="-33.509766105562449" lon="23.637130139395595">
        <ele>919.63999999999999</ele>
        <time>2022-01-26T10:23:44Z</time>
      </trkpt>
      <trkpt lat="-33.509689075872302" lon="23.637095605954528">
        <ele>920.12</ele>
        <time>2022-01-26T10:23:45Z</time>
      </trkpt>
      <trkpt lat="-33.509608609601855" lon="23.637069873511791">
        <ele>920.12</ele>
        <time>2022-01-26T10:23:46Z</time>
      </trkpt>
      <trkpt lat="-33.509530993178487" lon="23.63705126568675">
        <ele>920.60000000000002</ele>
        <time>2022-01-26T10:23:47Z</time>
      </trkpt>
      <trkpt lat="-33.509263107553124" lon="23.636997872963548">
        <ele>922.03999999999996</ele>
        <time>2022-01-26T10:23:51Z</time>
      </trkpt>
      <trkpt lat="-33.509205440059304" lon="23.636976080015302">
        <ele>922.51999999999998</ele>
        <time>2022-01-26T10:23:52Z</time>
      </trkpt>
      <trkpt lat="-33.509150370955467" lon="23.636944312602282">
        <ele>923.48000000000002</ele>
        <time>2022-01-26T10:23:53Z</time>
      </trkpt>
      <trkpt lat="-33.509102594107389" lon="23.63690223544836">
        <ele>923.96000000000004</ele>
        <time>2022-01-26T10:23:54Z</time>
      </trkpt>
      <trkpt lat="-33.509059846401215" lon="23.636848172172904">
        <ele>924.45000000000005</ele>
        <time>2022-01-26T10:23:55Z</time>
      </trkpt>
      <trkpt lat="-33.509016847237945" lon="23.636780111119151">
        <ele>924.45000000000005</ele>
        <time>2022-01-26T10:23:56Z</time>
      </trkpt>
      <trkpt lat="-33.508838983252645" lon="23.636541897431016">
        <ele>924.92999999999995</ele>
        <time>2022-01-26T10:23:59Z</time>
      </trkpt>
      <trkpt lat="-33.508597752079368" lon="23.636347102001309">
        <ele>925.40999999999997</ele>
        <time>2022-01-26T10:24:03Z</time>
      </trkpt>
      <trkpt lat="-33.508280580863357" lon="23.63648297265172">
        <ele>925.88999999999999</ele>
        <time>2022-01-26T10:24:10Z</time>
      </trkpt>
      <trkpt lat="-33.508268175646663" lon="23.636644156649709">
        <ele>926.37</ele>
        <time>2022-01-26T10:24:12Z</time>
      </trkpt>
      <trkpt lat="-33.508260967209935" lon="23.637255784124136">
        <ele>928.76999999999998</ele>
        <time>2022-01-26T10:24:18Z</time>
      </trkpt>
      <trkpt lat="-33.508233223110437" lon="23.637334071099758">
        <ele>929.25</ele>
        <time>2022-01-26T10:24:19Z</time>
      </trkpt>
      <trkpt lat="-33.508198438212276" lon="23.637379920110106">
        <ele>929.25</ele>
        <time>2022-01-26T10:24:20Z</time>
      </trkpt>
      <trkpt lat="-33.508148984983563" lon="23.637412022799253">
        <ele>929.73000000000002</ele>
        <time>2022-01-26T10:24:21Z</time>
      </trkpt>
      <trkpt lat="-33.50809114985168" lon="23.637432139366865">
        <ele>929.73000000000002</ele>
        <time>2022-01-26T10:24:22Z</time>
      </trkpt>
      <trkpt lat="-33.508026106283069" lon="23.637444460764527">
        <ele>930.21000000000004</ele>
        <time>2022-01-26T10:24:23Z</time>
      </trkpt>
      <trkpt lat="-33.507958045229316" lon="23.637452507391572">
        <ele>930.21000000000004</ele>
        <time>2022-01-26T10:24:24Z</time>
      </trkpt>
      <trkpt lat="-33.507891576737165" lon="23.637464409694076">
        <ele>930.21000000000004</ele>
        <time>2022-01-26T10:24:25Z</time>
      </trkpt>
      <trkpt lat="-33.507831813767552" lon="23.637488884851336">
        <ele>930.21000000000004</ele>
        <time>2022-01-26T10:24:26Z</time>
      </trkpt>
      <trkpt lat="-33.507781270891428" lon="23.637528195977211">
        <ele>930.21000000000004</ele>
        <time>2022-01-26T10:24:27Z</time>
      </trkpt>
      <trkpt lat="-33.507742378860712" lon="23.637576978653669">
        <ele>929.73000000000002</ele>
        <time>2022-01-26T10:24:28Z</time>
      </trkpt>
      <trkpt lat="-33.507711449638009" lon="23.637629868462682">
        <ele>929.73000000000002</ele>
        <time>2022-01-26T10:24:29Z</time>
      </trkpt>
      <trkpt lat="-33.507682448253036" lon="23.637688374146819">
        <ele>929.73000000000002</ele>
        <time>2022-01-26T10:24:30Z</time>
      </trkpt>
      <trkpt lat="-33.507658140733838" lon="23.63775291480124">
        <ele>930.21000000000004</ele>
        <time>2022-01-26T10:24:31Z</time>
      </trkpt>
      <trkpt lat="-33.507639113813639" lon="23.637822568416595">
        <ele>930.69000000000005</ele>
        <time>2022-01-26T10:24:32Z</time>
      </trkpt>
      <trkpt lat="-33.507625367492437" lon="23.637888114899397">
        <ele>931.16999999999996</ele>
        <time>2022-01-26T10:24:33Z</time>
      </trkpt>
      <trkpt lat="-33.507617739960551" lon="23.637940417975187">
        <ele>931.64999999999998</ele>
        <time>2022-01-26T10:24:34Z</time>
      </trkpt>
      <trkpt lat="-33.507613800466061" lon="23.63797863945365">
        <ele>932.13999999999999</ele>
        <time>2022-01-26T10:24:35Z</time>
      </trkpt>
      <trkpt lat="-33.507590750232339" lon="23.638250883668661">
        <ele>935.5</ele>
        <time>2022-01-26T10:24:41Z</time>
      </trkpt>
      <trkpt lat="-33.507576081901789" lon="23.638312742114067">
        <ele>935.98000000000002</ele>
        <time>2022-01-26T10:24:42Z</time>
      </trkpt>
      <trkpt lat="-33.507557725533843" lon="23.638376863673329">
        <ele>936.46000000000004</ele>
        <time>2022-01-26T10:24:43Z</time>
      </trkpt>
      <trkpt lat="-33.507531573995948" lon="23.638438219204545">
        <ele>936.94000000000005</ele>
        <time>2022-01-26T10:24:44Z</time>
      </trkpt>
      <trkpt lat="-33.507495699450374" lon="23.638495299965143">
        <ele>937.41999999999996</ele>
        <time>2022-01-26T10:24:45Z</time>
      </trkpt>
      <trkpt lat="-33.507453203201294" lon="23.638548357412219">
        <ele>937.89999999999998</ele>
        <time>2022-01-26T10:24:46Z</time>
      </trkpt>
      <trkpt lat="-33.507409449666739" lon="23.638594206422567">
        <ele>938.38</ele>
        <time>2022-01-26T10:24:47Z</time>
      </trkpt>
      <trkpt lat="-33.507364522665739" lon="23.638632679358125">
        <ele>938.86000000000001</ele>
        <time>2022-01-26T10:24:48Z</time>
      </trkpt>
      <trkpt lat="-33.507316326722503" lon="23.638664362952113">
        <ele>939.35000000000002</ele>
        <time>2022-01-26T10:24:49Z</time>
      </trkpt>
      <trkpt lat="-33.507268214598298" lon="23.638686155900359">
        <ele>939.83000000000004</ele>
        <time>2022-01-26T10:24:50Z</time>
      </trkpt>
      <trkpt lat="-33.507217923179269" lon="23.638699650764465">
        <ele>940.78999999999996</ele>
        <time>2022-01-26T10:24:51Z</time>
      </trkpt>
      <trkpt lat="-33.507165787741542" lon="23.638702835887671">
        <ele>941.26999999999998</ele>
        <time>2022-01-26T10:24:52Z</time>
      </trkpt>
      <trkpt lat="-33.507109209895134" lon="23.638694956898689">
        <ele>942.23000000000002</ele>
        <time>2022-01-26T10:24:53Z</time>
      </trkpt>
      <trkpt lat="-33.507048357278109" lon="23.638675846159458">
        <ele>942.71000000000004</ele>
        <time>2022-01-26T10:24:54Z</time>
      </trkpt>
      <trkpt lat="-33.506985073909163" lon="23.638647515326738">
        <ele>943.66999999999996</ele>
        <time>2022-01-26T10:24:55Z</time>
      </trkpt>
      <trkpt lat="-33.506918102502823" lon="23.638613820075989">
        <ele>944.63</ele>
        <time>2022-01-26T10:24:56Z</time>
      </trkpt>
      <trkpt lat="-33.506793128326535" lon="23.638536706566811">
        <ele>946.07000000000005</ele>
        <time>2022-01-26T10:24:58Z</time>
      </trkpt>
      <trkpt lat="-33.506745435297489" lon="23.638491863384843">
        <ele>947.03999999999996</ele>
        <time>2022-01-26T10:24:59Z</time>
      </trkpt>
      <trkpt lat="-33.506704950705171" lon="23.638439895585179">
        <ele>947.51999999999998</ele>
        <time>2022-01-26T10:25:00Z</time>
      </trkpt>
      <trkpt lat="-33.506579389795661" lon="23.638215260580182">
        <ele>948</ele>
        <time>2022-01-26T10:25:03Z</time>
      </trkpt>
      <trkpt lat="-33.506545107811689" lon="23.638122975826263">
        <ele>948</ele>
        <time>2022-01-26T10:25:04Z</time>
      </trkpt>
      <trkpt lat="-33.506518872454762" lon="23.638028092682362">
        <ele>948</ele>
        <time>2022-01-26T10:25:05Z</time>
      </trkpt>
      <trkpt lat="-33.506499929353595" lon="23.637932538986206">
        <ele>948</ele>
        <time>2022-01-26T10:25:06Z</time>
      </trkpt>
      <trkpt lat="-33.506491295993328" lon="23.637841176241636">
        <ele>947.51999999999998</ele>
        <time>2022-01-26T10:25:07Z</time>
      </trkpt>
      <trkpt lat="-33.506490290164948" lon="23.63775241188705">
        <ele>947.51999999999998</ele>
        <time>2022-01-26T10:25:08Z</time>
      </trkpt>
      <trkpt lat="-33.506496660411358" lon="23.637670604512095">
        <ele>947.03999999999996</ele>
        <time>2022-01-26T10:25:09Z</time>
      </trkpt>
      <trkpt lat="-33.506507808342576" lon="23.637587539851665">
        <ele>947.03999999999996</ele>
        <time>2022-01-26T10:25:10Z</time>
      </trkpt>
      <trkpt lat="-33.506523817777634" lon="23.637501625344157">
        <ele>947.03999999999996</ele>
        <time>2022-01-26T10:25:11Z</time>
      </trkpt>
      <trkpt lat="-33.506547035649419" lon="23.637412274256349">
        <ele>947.03999999999996</ele>
        <time>2022-01-26T10:25:12Z</time>
      </trkpt>
      <trkpt lat="-33.506577042862773" lon="23.637326611205935">
        <ele>947.03999999999996</ele>
        <time>2022-01-26T10:25:13Z</time>
      </trkpt>
      <trkpt lat="-33.506611660122871" lon="23.637242875993252">
        <ele>947.03999999999996</ele>
        <time>2022-01-26T10:25:14Z</time>
      </trkpt>
      <trkpt lat="-33.506650049239397" lon="23.637162325903773">
        <ele>947.03999999999996</ele>
        <time>2022-01-26T10:25:15Z</time>
      </trkpt>
      <trkpt lat="-33.506724145263433" lon="23.637036932632327">
        <ele>947.03999999999996</ele>
        <time>2022-01-26T10:25:17Z</time>
      </trkpt>
      <trkpt lat="-33.506916845217347" lon="23.636813051998615">
        <ele>948.48000000000002</ele>
        <time>2022-01-26T10:25:22Z</time>
      </trkpt>
      <trkpt lat="-33.50727173499763" lon="23.636419018730521">
        <ele>953.76999999999998</ele>
        <time>2022-01-26T10:25:32Z</time>
      </trkpt>
      <trkpt lat="-33.507124967873096" lon="23.636049795895815">
        <ele>958.09000000000003</ele>
        <time>2022-01-26T10:25:39Z</time>
      </trkpt>
      <trkpt lat="-33.506954563781619" lon="23.6359435133636">
        <ele>960.49000000000001</ele>
        <time>2022-01-26T10:25:43Z</time>
      </trkpt>
      <trkpt lat="-33.506686510518193" lon="23.635728852823377">
        <ele>959.04999999999995</ele>
        <time>2022-01-26T10:25:49Z</time>
      </trkpt>
      <trkpt lat="-33.506638146936893" lon="23.63565182313323">
        <ele>958.09000000000003</ele>
        <time>2022-01-26T10:25:50Z</time>
      </trkpt>
      <trkpt lat="-33.506595734506845" lon="23.635576805099845">
        <ele>957.61000000000001</ele>
        <time>2022-01-26T10:25:51Z</time>
      </trkpt>
      <trkpt lat="-33.506345450878143" lon="23.635087218135595">
        <ele>952.79999999999995</ele>
        <time>2022-01-26T10:25:58Z</time>
      </trkpt>
      <trkpt lat="-33.505963236093521" lon="23.634992586448789">
        <ele>949.44000000000005</ele>
        <time>2022-01-26T10:26:08Z</time>
      </trkpt>
      <trkpt lat="-33.505824264138937" lon="23.635111274197698">
        <ele>948.96000000000004</ele>
        <time>2022-01-26T10:26:11Z</time>
      </trkpt>
      <trkpt lat="-33.505458142608404" lon="23.635510923340917">
        <ele>949.44000000000005</ele>
        <time>2022-01-26T10:26:19Z</time>
      </trkpt>
      <trkpt lat="-33.505187658593059" lon="23.635583594441414">
        <ele>950.88</ele>
        <time>2022-01-26T10:26:27Z</time>
      </trkpt>
      <trkpt lat="-33.504687594249845" lon="23.63563179038465">
        <ele>954.73000000000002</ele>
        <time>2022-01-26T10:26:36Z</time>
      </trkpt>
      <trkpt lat="-33.504631603136659" lon="23.635615613311529">
        <ele>955.21000000000004</ele>
        <time>2022-01-26T10:26:37Z</time>
      </trkpt>
      <trkpt lat="-33.504575695842505" lon="23.635593149811029">
        <ele>955.69000000000005</ele>
        <time>2022-01-26T10:26:38Z</time>
      </trkpt>
      <trkpt lat="-33.504185937345028" lon="23.635425008833408">
        <ele>959.52999999999997</ele>
        <time>2022-01-26T10:26:45Z</time>
      </trkpt>
      <trkpt lat="-33.504117541015148" lon="23.635410591959953">
        <ele>959.52999999999997</ele>
        <time>2022-01-26T10:26:46Z</time>
      </trkpt>
      <trkpt lat="-33.504041098058224" lon="23.635403048247099">
        <ele>959.52999999999997</ele>
        <time>2022-01-26T10:26:47Z</time>
      </trkpt>
      <trkpt lat="-33.503959542140365" lon="23.635400785133243">
        <ele>959.52999999999997</ele>
        <time>2022-01-26T10:26:48Z</time>
      </trkpt>
      <trkpt lat="-33.503874633461237" lon="23.635401874780655">
        <ele>959.52999999999997</ele>
        <time>2022-01-26T10:26:49Z</time>
      </trkpt>
      <trkpt lat="-33.502923035994172" lon="23.6354392580688">
        <ele>961.46000000000004</ele>
        <time>2022-01-26T10:27:01Z</time>
      </trkpt>
      <trkpt lat="-33.502869307994843" lon="23.635443281382322">
        <ele>961.46000000000004</ele>
        <time>2022-01-26T10:27:02Z</time>
      </trkpt>
      <trkpt lat="-33.502819268032908" lon="23.635454010218382">
        <ele>961.46000000000004</ele>
        <time>2022-01-26T10:27:03Z</time>
      </trkpt>
      <trkpt lat="-33.502636961638927" lon="23.635518634691834">
        <ele>961.46000000000004</ele>
        <time>2022-01-26T10:27:08Z</time>
      </trkpt>
      <trkpt lat="-33.50249438546598" lon="23.6356136854738">
        <ele>961.94000000000005</ele>
        <time>2022-01-26T10:27:11Z</time>
      </trkpt>
      <trkpt lat="-33.502446440979838" lon="23.635660456493497">
        <ele>962.41999999999996</ele>
        <time>2022-01-26T10:27:12Z</time>
      </trkpt>
      <trkpt lat="-33.502401513978839" lon="23.635710077360272">
        <ele>962.41999999999996</ele>
        <time>2022-01-26T10:27:13Z</time>
      </trkpt>
      <trkpt lat="-33.502357928082347" lon="23.635766739025712">
        <ele>962.89999999999998</ele>
        <time>2022-01-26T10:27:14Z</time>
      </trkpt>
      <trkpt lat="-33.502317862585187" lon="23.635828848928213">
        <ele>962.89999999999998</ele>
        <time>2022-01-26T10:27:15Z</time>
      </trkpt>
      <trkpt lat="-33.501818887889385" lon="23.63668866455555">
        <ele>965.77999999999997</ele>
        <time>2022-01-26T10:27:27Z</time>
      </trkpt>
      <trkpt lat="-33.501764070242643" lon="23.63674582913518">
        <ele>966.25999999999999</ele>
        <time>2022-01-26T10:27:28Z</time>
      </trkpt>
      <trkpt lat="-33.501354195177555" lon="23.637040285393596">
        <ele>968.17999999999995</ele>
        <time>2022-01-26T10:27:34Z</time>
      </trkpt>
      <trkpt lat="-33.500564871355891" lon="23.637149333953857">
        <ele>969.63</ele>
        <time>2022-01-26T10:27:43Z</time>
      </trkpt>
      <trkpt lat="-33.499493328854442" lon="23.637105412781239">
        <ele>972.50999999999999</ele>
        <time>2022-01-26T10:27:53Z</time>
      </trkpt>
      <trkpt lat="-33.498078128322959" lon="23.637097030878067">
        <ele>975.88</ele>
        <time>2022-01-26T10:28:06Z</time>
      </trkpt>
      <trkpt lat="-33.497843770310283" lon="23.637074064463377">
        <ele>975.88</ele>
        <time>2022-01-26T10:28:09Z</time>
      </trkpt>
      <trkpt lat="-33.497771853581071" lon="23.637049002572894">
        <ele>975.88</ele>
        <time>2022-01-26T10:28:10Z</time>
      </trkpt>
      <trkpt lat="-33.497704965993762" lon="23.637014636769891">
        <ele>976.36000000000001</ele>
        <time>2022-01-26T10:28:11Z</time>
      </trkpt>
      <trkpt lat="-33.497192077338696" lon="23.636715235188603">
        <ele>978.75999999999999</ele>
        <time>2022-01-26T10:28:18Z</time>
      </trkpt>
      <trkpt lat="-33.497119406238198" lon="23.636694783344865">
        <ele>978.27999999999997</ele>
        <time>2022-01-26T10:28:19Z</time>
      </trkpt>
      <trkpt lat="-33.496966101229191" lon="23.636663099750876">
        <ele>978.27999999999997</ele>
        <time>2022-01-26T10:28:21Z</time>
      </trkpt>
      <trkpt lat="-33.496883371844888" lon="23.636661004275084">
        <ele>978.27999999999997</ele>
        <time>2022-01-26T10:28:22Z</time>
      </trkpt>
      <trkpt lat="-33.496789243072271" lon="23.636671146377921">
        <ele>978.75999999999999</ele>
        <time>2022-01-26T10:28:23Z</time>
      </trkpt>
      <trkpt lat="-33.496686145663261" lon="23.636692687869072">
        <ele>978.75999999999999</ele>
        <time>2022-01-26T10:28:24Z</time>
      </trkpt>
      <trkpt lat="-33.496579527854919" lon="23.636722024530172">
        <ele>979.24000000000001</ele>
        <time>2022-01-26T10:28:25Z</time>
      </trkpt>
      <trkpt lat="-33.49626730196178" lon="23.636779775843024">
        <ele>981.15999999999997</ele>
        <time>2022-01-26T10:28:28Z</time>
      </trkpt>
      <trkpt lat="-33.496171245351434" lon="23.636769382283092">
        <ele>982.12</ele>
        <time>2022-01-26T10:28:29Z</time>
      </trkpt>
      <trkpt lat="-33.496079882606864" lon="23.636739710345864">
        <ele>982.60000000000002</ele>
        <time>2022-01-26T10:28:30Z</time>
      </trkpt>
      <trkpt lat="-33.495990447700024" lon="23.636694196611643">
        <ele>983.57000000000005</ele>
        <time>2022-01-26T10:28:31Z</time>
      </trkpt>
      <trkpt lat="-33.495903443545103" lon="23.636636361479759">
        <ele>984.04999999999995</ele>
        <time>2022-01-26T10:28:32Z</time>
      </trkpt>
      <trkpt lat="-33.49582364782691" lon="23.636572491377592">
        <ele>984.52999999999997</ele>
        <time>2022-01-26T10:28:33Z</time>
      </trkpt>
      <trkpt lat="-33.495748713612556" lon="23.636500407010317">
        <ele>985.49000000000001</ele>
        <time>2022-01-26T10:28:34Z</time>
      </trkpt>
      <trkpt lat="-33.495678557083011" lon="23.63641750998795">
        <ele>985.97000000000003</ele>
        <time>2022-01-26T10:28:35Z</time>
      </trkpt>
      <trkpt lat="-33.495612926781178" lon="23.636322962120175">
        <ele>986.45000000000005</ele>
        <time>2022-01-26T10:28:36Z</time>
      </trkpt>
      <trkpt lat="-33.495555510744452" lon="23.636223552748561">
        <ele>987.40999999999997</ele>
        <time>2022-01-26T10:28:37Z</time>
      </trkpt>
      <trkpt lat="-33.495505973696709" lon="23.636119030416012">
        <ele>988.37</ele>
        <time>2022-01-26T10:28:38Z</time>
      </trkpt>
      <trkpt lat="-33.495460795238614" lon="23.636008221656084">
        <ele>988.85000000000002</ele>
        <time>2022-01-26T10:28:39Z</time>
      </trkpt>
      <trkpt lat="-33.495276477187872" lon="23.635386452078819">
        <ele>994.62</ele>
        <time>2022-01-26T10:28:45Z</time>
      </trkpt>
      <trkpt lat="-33.495234483852983" lon="23.635283857584">
        <ele>995.58000000000004</ele>
        <time>2022-01-26T10:28:46Z</time>
      </trkpt>
      <trkpt lat="-33.495184192433953" lon="23.635182771831751">
        <ele>996.53999999999996</ele>
        <time>2022-01-26T10:28:47Z</time>
      </trkpt>
      <trkpt lat="-33.49512929096818" lon="23.635097527876496">
        <ele>997.50999999999999</ele>
        <time>2022-01-26T10:28:48Z</time>
      </trkpt>
      <trkpt lat="-33.495068857446313" lon="23.635027119889855">
        <ele>998.47000000000003</ele>
        <time>2022-01-26T10:28:49Z</time>
      </trkpt>
      <trkpt lat="-33.494999120011926" lon="23.634971715509892">
        <ele>999.42999999999995</ele>
        <time>2022-01-26T10:28:50Z</time>
      </trkpt>
      <trkpt lat="-33.494930556043983" lon="23.634936343878508">
        <ele>1000.39</ele>
        <time>2022-01-26T10:28:51Z</time>
      </trkpt>
      <trkpt lat="-33.494861405342817" lon="23.634916394948959">
        <ele>1001.35</ele>
        <time>2022-01-26T10:28:52Z</time>
      </trkpt>
      <trkpt lat="-33.49478923715651" lon="23.634907929226756">
        <ele>1002.3099999999999</ele>
        <time>2022-01-26T10:28:53Z</time>
      </trkpt>
      <trkpt lat="-33.494722433388233" lon="23.63491497002542">
        <ele>1003.27</ele>
        <time>2022-01-26T10:28:54Z</time>
      </trkpt>
      <trkpt lat="-33.49466166459024" lon="23.634942965582013">
        <ele>1003.75</ele>
        <time>2022-01-26T10:28:55Z</time>
      </trkpt>
      <trkpt lat="-33.494605924934149" lon="23.634997280314565">
        <ele>1004.23</ele>
        <time>2022-01-26T10:28:56Z</time>
      </trkpt>
      <trkpt lat="-33.49456544034183" lon="23.635066682472825">
        <ele>1004.72</ele>
        <time>2022-01-26T10:28:57Z</time>
      </trkpt>
      <trkpt lat="-33.494532415643334" lon="23.635146813467145">
        <ele>1005.2</ele>
        <time>2022-01-26T10:28:58Z</time>
      </trkpt>
      <trkpt lat="-33.49450190551579" lon="23.635236751288176">
        <ele>1006.16</ele>
        <time>2022-01-26T10:28:59Z</time>
      </trkpt>
      <trkpt lat="-33.494431581348181" lon="23.635410759598017">
        <ele>1007.12</ele>
        <time>2022-01-26T10:29:01Z</time>
      </trkpt>
      <trkpt lat="-33.494383050128818" lon="23.635481838136911">
        <ele>1008.08</ele>
        <time>2022-01-26T10:29:02Z</time>
      </trkpt>
      <trkpt lat="-33.494325382634997" lon="23.635538667440414">
        <ele>1008.5599999999999</ele>
        <time>2022-01-26T10:29:03Z</time>
      </trkpt>
      <trkpt lat="-33.494260590523481" lon="23.635581079870462">
        <ele>1009.04</ele>
        <time>2022-01-26T10:29:04Z</time>
      </trkpt>
      <trkpt lat="-33.494196385145187" lon="23.635607315227389">
        <ele>1010</ele>
        <time>2022-01-26T10:29:05Z</time>
      </trkpt>
      <trkpt lat="-33.494130754843354" lon="23.635621732100844">
        <ele>1010.96</ele>
        <time>2022-01-26T10:29:06Z</time>
      </trkpt>
      <trkpt lat="-33.494066298007965" lon="23.635623827576637">
        <ele>1011.4400000000001</ele>
        <time>2022-01-26T10:29:07Z</time>
      </trkpt>
      <trkpt lat="-33.494001589715481" lon="23.635613266378641">
        <ele>1012.41</ele>
        <time>2022-01-26T10:29:08Z</time>
      </trkpt>
      <trkpt lat="-33.493943000212312" lon="23.635587366297841">
        <ele>1013.37</ele>
        <time>2022-01-26T10:29:09Z</time>
      </trkpt>
      <trkpt lat="-33.49389061331749" lon="23.635543528944254">
        <ele>1013.85</ele>
        <time>2022-01-26T10:29:10Z</time>
      </trkpt>
      <trkpt lat="-33.49384811706841" lon="23.635482508689165">
        <ele>1014.8099999999999</ele>
        <time>2022-01-26T10:29:11Z</time>
      </trkpt>
      <trkpt lat="-33.493820456787944" lon="23.635409837588668">
        <ele>1015.77</ele>
        <time>2022-01-26T10:29:12Z</time>
      </trkpt>
      <trkpt lat="-33.493806459009647" lon="23.635332053527236">
        <ele>1016.73</ele>
        <time>2022-01-26T10:29:13Z</time>
      </trkpt>
      <trkpt lat="-33.493801848962903" lon="23.635247815400362">
        <ele>1017.6900000000001</ele>
        <time>2022-01-26T10:29:14Z</time>
      </trkpt>
      <trkpt lat="-33.493805285543203" lon="23.63515879958868">
        <ele>1018.65</ele>
        <time>2022-01-26T10:29:15Z</time>
      </trkpt>
      <trkpt lat="-33.49381048232317" lon="23.635075399652123">
        <ele>1019.62</ele>
        <time>2022-01-26T10:29:16Z</time>
      </trkpt>
      <trkpt lat="-33.493784917518497" lon="23.634513057768345">
        <ele>1024.9000000000001</ele>
        <time>2022-01-26T10:29:22Z</time>
      </trkpt>
      <trkpt lat="-33.493765220046043" lon="23.634421695023775">
        <ele>1025.3800000000001</ele>
        <time>2022-01-26T10:29:23Z</time>
      </trkpt>
      <trkpt lat="-33.493736051023006" lon="23.634330164641142">
        <ele>1026.3399999999999</ele>
        <time>2022-01-26T10:29:24Z</time>
      </trkpt>
      <trkpt lat="-33.493700344115496" lon="23.634242406114936">
        <ele>1027.3099999999999</ele>
        <time>2022-01-26T10:29:25Z</time>
      </trkpt>
      <trkpt lat="-33.493657177314162" lon="23.634156156331301">
        <ele>1028.27</ele>
        <time>2022-01-26T10:29:26Z</time>
      </trkpt>
      <trkpt lat="-33.493610825389624" lon="23.634078875184059">
        <ele>1029.23</ele>
        <time>2022-01-26T10:29:27Z</time>
      </trkpt>
      <trkpt lat="-33.493560366332531" lon="23.633999163284898">
        <ele>1030.1900000000001</ele>
        <time>2022-01-26T10:29:28Z</time>
      </trkpt>
      <trkpt lat="-33.492892077192664" lon="23.632928878068924">
        <ele>1045.0899999999999</ele>
        <time>2022-01-26T10:29:43Z</time>
      </trkpt>
      <trkpt lat="-33.492654534056783" lon="23.632426047697663">
        <ele>1051.8199999999999</ele>
        <time>2022-01-26T10:29:52Z</time>
      </trkpt>
      <trkpt lat="-33.492501648142934" lon="23.631942830979824">
        <ele>1052.78</ele>
        <time>2022-01-26T10:30:02Z</time>
      </trkpt>
      <trkpt lat="-33.492487734183669" lon="23.631907291710377">
        <ele>1052.3</ele>
        <time>2022-01-26T10:30:12Z</time>
      </trkpt>
      <trkpt lat="-33.492423361167312" lon="23.631617529317737">
        <ele>1052.3</ele>
        <time>2022-01-26T10:30:22Z</time>
      </trkpt>
      <trkpt lat="-33.492351109161973" lon="23.630655035376549">
        <ele>1053.26</ele>
        <time>2022-01-26T10:30:31Z</time>
      </trkpt>
      <trkpt lat="-33.492461917921901" lon="23.628394436091185">
        <ele>1053.26</ele>
        <time>2022-01-26T10:30:47Z</time>
      </trkpt>
      <trkpt lat="-33.492408860474825" lon="23.62658578902483">
        <ele>1053.74</ele>
        <time>2022-01-26T10:30:59Z</time>
      </trkpt>
      <trkpt lat="-33.492322023957968" lon="23.625210905447602">
        <ele>1054.7</ele>
        <time>2022-01-26T10:31:10Z</time>
      </trkpt>
      <trkpt lat="-33.492289753630757" lon="23.625105042010546">
        <ele>1054.7</ele>
        <time>2022-01-26T10:31:11Z</time>
      </trkpt>
      <trkpt lat="-33.492248011752963" lon="23.625000603497028">
        <ele>1054.7</ele>
        <time>2022-01-26T10:31:12Z</time>
      </trkpt>
      <trkpt lat="-33.4921960439533" lon="23.624901110306382">
        <ele>1054.7</ele>
        <time>2022-01-26T10:31:13Z</time>
      </trkpt>
      <trkpt lat="-33.492131922394037" lon="23.624808825552464">
        <ele>1055.1800000000001</ele>
        <time>2022-01-26T10:31:14Z</time>
      </trkpt>
      <trkpt lat="-33.492059418931603" lon="23.624724503606558">
        <ele>1055.6700000000001</ele>
        <time>2022-01-26T10:31:15Z</time>
      </trkpt>
      <trkpt lat="-33.491981970146298" lon="23.624646635726094">
        <ele>1056.1500000000001</ele>
        <time>2022-01-26T10:31:16Z</time>
      </trkpt>
      <trkpt lat="-33.491898234933615" lon="23.624576814472675">
        <ele>1056.6300000000001</ele>
        <time>2022-01-26T10:31:17Z</time>
      </trkpt>
      <trkpt lat="-33.49181198514998" lon="23.624519063159823">
        <ele>1057.1099999999999</ele>
        <time>2022-01-26T10:31:18Z</time>
      </trkpt>
      <trkpt lat="-33.491720035672188" lon="23.624469442293048">
        <ele>1057.5899999999999</ele>
        <time>2022-01-26T10:31:19Z</time>
      </trkpt>
      <trkpt lat="-33.491624481976032" lon="23.624430382624269">
        <ele>1058.0699999999999</ele>
        <time>2022-01-26T10:31:20Z</time>
      </trkpt>
      <trkpt lat="-33.49152272567153" lon="23.624402387067676">
        <ele>1059.03</ele>
        <time>2022-01-26T10:31:21Z</time>
      </trkpt>
      <trkpt lat="-33.491422478109598" lon="23.624384617432952">
        <ele>1059.51</ele>
        <time>2022-01-26T10:31:22Z</time>
      </trkpt>
      <trkpt lat="-33.491317201405764" lon="23.624378414824605">
        <ele>1060.47</ele>
        <time>2022-01-26T10:31:23Z</time>
      </trkpt>
      <trkpt lat="-33.491208320483565" lon="23.624388640746474">
        <ele>1060.95</ele>
        <time>2022-01-26T10:31:24Z</time>
      </trkpt>
      <trkpt lat="-33.491096086800098" lon="23.624417055398226">
        <ele>1061.9100000000001</ele>
        <time>2022-01-26T10:31:25Z</time>
      </trkpt>
      <trkpt lat="-33.490987624973059" lon="23.624457204714417">
        <ele>1062.3900000000001</ele>
        <time>2022-01-26T10:31:26Z</time>
      </trkpt>
      <trkpt lat="-33.49087723530829" lon="23.6245081666857">
        <ele>1062.8699999999999</ele>
        <time>2022-01-26T10:31:27Z</time>
      </trkpt>
      <trkpt lat="-33.490766175091267" lon="23.624569857493043">
        <ele>1063.8399999999999</ele>
        <time>2022-01-26T10:31:28Z</time>
      </trkpt>
      <trkpt lat="-33.49066374823451" lon="23.624638756737113">
        <ele>1064.8</ele>
        <time>2022-01-26T10:31:29Z</time>
      </trkpt>
      <trkpt lat="-33.490564255043864" lon="23.62471335567534">
        <ele>1065.76</ele>
        <time>2022-01-26T10:31:30Z</time>
      </trkpt>
      <trkpt lat="-33.489122651517391" lon="23.62589243799448">
        <ele>1078.74</ele>
        <time>2022-01-26T10:31:45Z</time>
      </trkpt>
      <trkpt lat="-33.488443633541465" lon="23.626281190663576">
        <ele>1084.02</ele>
        <time>2022-01-26T10:31:53Z</time>
      </trkpt>
      <trkpt lat="-33.48826895467937" lon="23.626356208696961">
        <ele>1085.47</ele>
        <time>2022-01-26T10:32:00Z</time>
      </trkpt>
      <trkpt lat="-33.488279012963176" lon="23.626355119049549">
        <ele>1086.4300000000001</ele>
        <time>2022-01-26T10:32:29Z</time>
      </trkpt>
      <trkpt lat="-33.488274654373527" lon="23.626357465982437">
        <ele>1085.95</ele>
        <time>2022-01-26T10:33:05Z</time>
      </trkpt>
      <trkpt lat="-33.488272977992892" lon="23.62635612487793">
        <ele>1085.95</ele>
        <time>2022-01-26T10:33:40Z</time>
      </trkpt>
      <trkpt lat="-33.488273480907083" lon="23.62635369412601">
        <ele>1086.4300000000001</ele>
        <time>2022-01-26T10:34:16Z</time>
      </trkpt>
      <trkpt lat="-33.488274067640305" lon="23.626354616135359">
        <ele>1086.4300000000001</ele>
        <time>2022-01-26T10:34:48Z</time>
      </trkpt>
      <trkpt lat="-33.488265266641974" lon="23.626359142363071">
        <ele>1086.4300000000001</ele>
        <time>2022-01-26T10:35:20Z</time>
      </trkpt>
      <trkpt lat="-33.488261410966516" lon="23.626363836228848">
        <ele>1086.4300000000001</ele>
        <time>2022-01-26T10:35:57Z</time>
      </trkpt>
      <trkpt lat="-33.488260321319103" lon="23.626365680247545">
        <ele>1085.95</ele>
        <time>2022-01-26T10:36:25Z</time>
      </trkpt>
      <trkpt lat="-33.488264763727784" lon="23.62636299803853">
        <ele>1086.4300000000001</ele>
        <time>2022-01-26T10:36:58Z</time>
      </trkpt>
      <trkpt lat="-33.488273313269019" lon="23.626355370506644">
        <ele>1086.4300000000001</ele>
        <time>2022-01-26T10:37:30Z</time>
      </trkpt>
      <trkpt lat="-33.488272894173861" lon="23.626350006088614">
        <ele>1085.47</ele>
        <time>2022-01-26T10:38:08Z</time>
      </trkpt>
      <trkpt lat="-33.488281192258" lon="23.626357046887279">
        <ele>1086.4300000000001</ele>
        <time>2022-01-26T10:38:53Z</time>
      </trkpt>
      <trkpt lat="-33.488260069862008" lon="23.626346820965409">
        <ele>1086.9100000000001</ele>
        <time>2022-01-26T10:39:11Z</time>
      </trkpt>
      <trkpt lat="-33.488235007971525" lon="23.62633416429162">
        <ele>1086.4300000000001</ele>
        <time>2022-01-26T10:39:12Z</time>
      </trkpt>
      <trkpt lat="-33.487763023003936" lon="23.626038450747728">
        <ele>1084.5</ele>
        <time>2022-01-26T10:39:20Z</time>
      </trkpt>
      <trkpt lat="-33.486832045018673" lon="23.625015858560801">
        <ele>1077.29</ele>
        <time>2022-01-26T10:39:34Z</time>
      </trkpt>
      <trkpt lat="-33.486300213262439" lon="23.624001480638981">
        <ele>1071.05</ele>
        <time>2022-01-26T10:39:44Z</time>
      </trkpt>
      <trkpt lat="-33.486267607659101" lon="23.622835809364915">
        <ele>1067.2</ele>
        <time>2022-01-26T10:39:53Z</time>
      </trkpt>
      <trkpt lat="-33.486369196325541" lon="23.621336203068495">
        <ele>1059.51</ele>
        <time>2022-01-26T10:40:05Z</time>
      </trkpt>
      <trkpt lat="-33.486369783058763" lon="23.620340935885906">
        <ele>1056.1500000000001</ele>
        <time>2022-01-26T10:40:13Z</time>
      </trkpt>
      <trkpt lat="-33.486274899914861" lon="23.619203260168433">
        <ele>1055.1800000000001</ele>
        <time>2022-01-26T10:40:22Z</time>
      </trkpt>
      <trkpt lat="-33.486168701201677" lon="23.618927579373121">
        <ele>1056.1500000000001</ele>
        <time>2022-01-26T10:40:25Z</time>
      </trkpt>
      <trkpt lat="-33.486114554107189" lon="23.618829343467951">
        <ele>1056.6300000000001</ele>
        <time>2022-01-26T10:40:26Z</time>
      </trkpt>
      <trkpt lat="-33.486053617671132" lon="23.618733789771795">
        <ele>1057.1099999999999</ele>
        <time>2022-01-26T10:40:27Z</time>
      </trkpt>
      <trkpt lat="-33.485983293503523" lon="23.618639493361115">
        <ele>1057.5899999999999</ele>
        <time>2022-01-26T10:40:28Z</time>
      </trkpt>
      <trkpt lat="-33.485900145024061" lon="23.618544610217214">
        <ele>1058.0699999999999</ele>
        <time>2022-01-26T10:40:29Z</time>
      </trkpt>
      <trkpt lat="-33.485813392326236" lon="23.618461210280657">
        <ele>1058.55</ele>
        <time>2022-01-26T10:40:30Z</time>
      </trkpt>
      <trkpt lat="-33.485718425363302" lon="23.618386946618557">
        <ele>1058.55</ele>
        <time>2022-01-26T10:40:31Z</time>
      </trkpt>
      <trkpt lat="-33.485622620210052" lon="23.61832307651639">
        <ele>1059.03</ele>
        <time>2022-01-26T10:40:32Z</time>
      </trkpt>
      <trkpt lat="-33.485331432893872" lon="23.618167340755463">
        <ele>1060.47</ele>
        <time>2022-01-26T10:40:35Z</time>
      </trkpt>
      <trkpt lat="-33.485224647447467" lon="23.618132388219237">
        <ele>1060.95</ele>
        <time>2022-01-26T10:40:36Z</time>
      </trkpt>
    </trkseg>
  </trk>

</gpx>