<?xml version="1.0" encoding="utf-8"?><gpx creator="Garmin Desktop App" version="1.1" xsi:schemaLocation="http://www.topografix.com/GPX/1/1 http://www.topografix.com/GPX/1/1/gpx.xsd http://www.garmin.com/xmlschemas/WaypointExtension/v1 http://www8.garmin.com/xmlschemas/WaypointExtensionv1.xsd http://www.garmin.com/xmlschemas/TrackPointExtension/v1 http://www.garmin.com/xmlschemas/TrackPointExtensionv1.xsd http://www.garmin.com/xmlschemas/GpxExtensions/v3 http://www8.garmin.com/xmlschemas/GpxExtensionsv3.xsd http://www.garmin.com/xmlschemas/ActivityExtension/v1 http://www8.garmin.com/xmlschemas/ActivityExtensionv1.xsd http://www.garmin.com/xmlschemas/AdventuresExtensions/v1 http://www8.garmin.com/xmlschemas/AdventuresExtensionv1.xsd http://www.garmin.com/xmlschemas/PressureExtension/v1 http://www.garmin.com/xmlschemas/PressureExtensionv1.xsd http://www.garmin.com/xmlschemas/TripExtensions/v1 http://www.garmin.com/xmlschemas/TripExtensionsv1.xsd http://www.garmin.com/xmlschemas/TripMetaDataExtensions/v1 http://www.garmin.com/xmlschemas/TripMetaDataExtensionsv1.xsd http://www.garmin.com/xmlschemas/ViaPointTransportationModeExtensions/v1 http://www.garmin.com/xmlschemas/ViaPointTransportationModeExtensionsv1.xsd http://www.garmin.com/xmlschemas/CreationTimeExtension/v1 http://www.garmin.com/xmlschemas/CreationTimeExtensionsv1.xsd http://www.garmin.com/xmlschemas/AccelerationExtension/v1 http://www.garmin.com/xmlschemas/AccelerationExtensionv1.xsd http://www.garmin.com/xmlschemas/PowerExtension/v1 http://www.garmin.com/xmlschemas/PowerExtensionv1.xsd http://www.garmin.com/xmlschemas/VideoExtension/v1 http://www.garmin.com/xmlschemas/VideoExtensionv1.xsd" xmlns="http://www.topografix.com/GPX/1/1" xmlns:xsi="http://www.w3.org/2001/XMLSchema-instance" xmlns:wptx1="http://www.garmin.com/xmlschemas/WaypointExtension/v1" xmlns:gpxtrx="http://www.garmin.com/xmlschemas/GpxExtensions/v3" xmlns:gpxtpx="http://www.garmin.com/xmlschemas/TrackPointExtension/v1" xmlns:gpxx="http://www.garmin.com/xmlschemas/GpxExtensions/v3" xmlns:trp="http://www.garmin.com/xmlschemas/TripExtensions/v1" xmlns:adv="http://www.garmin.com/xmlschemas/AdventuresExtensions/v1" xmlns:prs="http://www.garmin.com/xmlschemas/PressureExtension/v1" xmlns:tmd="http://www.garmin.com/xmlschemas/TripMetaDataExtensions/v1" xmlns:vptm="http://www.garmin.com/xmlschemas/ViaPointTransportationModeExtensions/v1" xmlns:ctx="http://www.garmin.com/xmlschemas/CreationTimeExtension/v1" xmlns:gpxacc="http://www.garmin.com/xmlschemas/AccelerationExtension/v1" xmlns:gpxpx="http://www.garmin.com/xmlschemas/PowerExtension/v1" xmlns:vidx1="http://www.garmin.com/xmlschemas/VideoExtension/v1">

  <metadata>
    <link href="http://www.garmin.com">
      <text>Garmin International</text>
    </link>
    <time>2023-01-21T16:04:57Z</time>
    <bounds maxlat="-25.820333864539862" maxlon="27.448962964117527" minlat="-25.893179979175329" minlon="27.438469659537077" />
  </metadata>

  <trk>
    <name>[266] Breedsnek</name>
    <extensions>
      <gpxx:TrackExtension>
        <gpxx:DisplayColor>Red</gpxx:DisplayColor>
      </gpxx:TrackExtension>
    </extensions>
    <trkseg>
      <trkpt lat="-25.893179979175329" lon="27.447234280407429">
        <ele>1474.8</ele>
        <time>2022-07-09T07:02:22Z</time>
      </trkpt>
      <trkpt lat="-25.89316631667316" lon="27.447236878797412">
        <ele>1474.8</ele>
        <time>2022-07-09T07:02:34Z</time>
      </trkpt>
      <trkpt lat="-25.893170088529587" lon="27.447240734472871">
        <ele>1477.6800000000001</ele>
        <time>2022-07-09T07:03:24Z</time>
      </trkpt>
      <trkpt lat="-25.893081156536937" lon="27.447271244600415">
        <ele>1477.6800000000001</ele>
        <time>2022-07-09T07:03:53Z</time>
      </trkpt>
      <trkpt lat="-25.892351930961013" lon="27.447451623156667">
        <ele>1477.2</ele>
        <time>2022-07-09T07:04:01Z</time>
      </trkpt>
      <trkpt lat="-25.891132950782776" lon="27.447751360014081">
        <ele>1479.6099999999999</ele>
        <time>2022-07-09T07:04:13Z</time>
      </trkpt>
      <trkpt lat="-25.890380004420877" lon="27.447944730520248">
        <ele>1482.01</ele>
        <time>2022-07-09T07:04:21Z</time>
      </trkpt>
      <trkpt lat="-25.889414241537452" lon="27.448155703023076">
        <ele>1485.3699999999999</ele>
        <time>2022-07-09T07:04:31Z</time>
      </trkpt>
      <trkpt lat="-25.888491226360202" lon="27.448349576443434">
        <ele>1487.3</ele>
        <time>2022-07-09T07:04:41Z</time>
      </trkpt>
      <trkpt lat="-25.887374337762594" lon="27.448614863678813">
        <ele>1490.6600000000001</ele>
        <time>2022-07-09T07:04:52Z</time>
      </trkpt>
      <trkpt lat="-25.886092912405729" lon="27.448927760124207">
        <ele>1493.0599999999999</ele>
        <time>2022-07-09T07:05:03Z</time>
      </trkpt>
      <trkpt lat="-25.884922547265887" lon="27.448962964117527">
        <ele>1496.4300000000001</ele>
        <time>2022-07-09T07:05:13Z</time>
      </trkpt>
      <trkpt lat="-25.883719408884645" lon="27.448757188394666">
        <ele>1501.24</ele>
        <time>2022-07-09T07:05:23Z</time>
      </trkpt>
      <trkpt lat="-25.881991060450673" lon="27.448453176766634">
        <ele>1507.97</ele>
        <time>2022-07-09T07:05:36Z</time>
      </trkpt>
      <trkpt lat="-25.880761854350567" lon="27.448238180950284">
        <ele>1512.29</ele>
        <time>2022-07-09T07:05:43Z</time>
      </trkpt>
      <trkpt lat="-25.879522925242782" lon="27.448012456297874">
        <ele>1519.5</ele>
        <time>2022-07-09T07:05:53Z</time>
      </trkpt>
      <trkpt lat="-25.878633018583059" lon="27.447456903755665">
        <ele>1524.3099999999999</ele>
        <time>2022-07-09T07:06:02Z</time>
      </trkpt>
      <trkpt lat="-25.877901865169406" lon="27.446721559390426">
        <ele>1529.1099999999999</ele>
        <time>2022-07-09T07:06:11Z</time>
      </trkpt>
      <trkpt lat="-25.877806227654219" lon="27.446627430617809">
        <ele>1530.0799999999999</ele>
        <time>2022-07-09T07:06:13Z</time>
      </trkpt>
      <trkpt lat="-25.877370033413172" lon="27.446153853088617">
        <ele>1532.96</ele>
        <time>2022-07-09T07:06:20Z</time>
      </trkpt>
      <trkpt lat="-25.876609291881323" lon="27.445374503731728">
        <ele>1537.77</ele>
        <time>2022-07-09T07:06:28Z</time>
      </trkpt>
      <trkpt lat="-25.875688875094056" lon="27.444339673966169">
        <ele>1544.01</ele>
        <time>2022-07-09T07:06:39Z</time>
      </trkpt>
      <trkpt lat="-25.875633889809251" lon="27.444258201867342">
        <ele>1544.5</ele>
        <time>2022-07-09T07:06:40Z</time>
      </trkpt>
      <trkpt lat="-25.875595919787884" lon="27.444179998710752">
        <ele>1544.98</ele>
        <time>2022-07-09T07:06:41Z</time>
      </trkpt>
      <trkpt lat="-25.875569265335798" lon="27.444089725613594">
        <ele>1545.46</ele>
        <time>2022-07-09T07:06:42Z</time>
      </trkpt>
      <trkpt lat="-25.875547556206584" lon="27.443979252129793">
        <ele>1545.9400000000001</ele>
        <time>2022-07-09T07:06:43Z</time>
      </trkpt>
      <trkpt lat="-25.875525092706084" lon="27.443855032324791">
        <ele>1546.9000000000001</ele>
        <time>2022-07-09T07:06:44Z</time>
      </trkpt>
      <trkpt lat="-25.875286376103759" lon="27.442785417661071">
        <ele>1551.22</ele>
        <time>2022-07-09T07:06:52Z</time>
      </trkpt>
      <trkpt lat="-25.875202808529139" lon="27.44238568469882">
        <ele>1553.6300000000001</ele>
        <time>2022-07-09T07:06:58Z</time>
      </trkpt>
      <trkpt lat="-25.875089317560196" lon="27.441991064697504">
        <ele>1555.55</ele>
        <time>2022-07-09T07:07:02Z</time>
      </trkpt>
      <trkpt lat="-25.875045647844672" lon="27.441892577335238">
        <ele>1556.03</ele>
        <time>2022-07-09T07:07:03Z</time>
      </trkpt>
      <trkpt lat="-25.874773152172565" lon="27.441461412236094">
        <ele>1559.4000000000001</ele>
        <time>2022-07-09T07:07:10Z</time>
      </trkpt>
      <trkpt lat="-25.874681537970901" lon="27.441348088905215">
        <ele>1560.8399999999999</ele>
        <time>2022-07-09T07:07:14Z</time>
      </trkpt>
      <trkpt lat="-25.874580619856715" lon="27.441253792494535">
        <ele>1561.8</ele>
        <time>2022-07-09T07:07:17Z</time>
      </trkpt>
      <trkpt lat="-25.874540889635682" lon="27.441227221861482">
        <ele>1562.28</ele>
        <time>2022-07-09T07:07:18Z</time>
      </trkpt>
      <trkpt lat="-25.874277278780937" lon="27.440980290994048">
        <ele>1565.1600000000001</ele>
        <time>2022-07-09T07:07:26Z</time>
      </trkpt>
      <trkpt lat="-25.874203769490123" lon="27.440883228555322">
        <ele>1566.1199999999999</ele>
        <time>2022-07-09T07:07:28Z</time>
      </trkpt>
      <trkpt lat="-25.874163871631026" lon="27.440840397030115">
        <ele>1566.1199999999999</ele>
        <time>2022-07-09T07:07:29Z</time>
      </trkpt>
      <trkpt lat="-25.874129254370928" lon="27.44080888107419">
        <ele>1566.6099999999999</ele>
        <time>2022-07-09T07:07:30Z</time>
      </trkpt>
      <trkpt lat="-25.874093798920512" lon="27.440785076469183">
        <ele>1567.0899999999999</ele>
        <time>2022-07-09T07:07:31Z</time>
      </trkpt>
      <trkpt lat="-25.874055409803987" lon="27.440759176388383">
        <ele>1567.5699999999999</ele>
        <time>2022-07-09T07:07:32Z</time>
      </trkpt>
      <trkpt lat="-25.874014422297478" lon="27.440724391490221">
        <ele>1568.05</ele>
        <time>2022-07-09T07:07:33Z</time>
      </trkpt>
      <trkpt lat="-25.873978044837713" lon="27.440685834735632">
        <ele>1568.53</ele>
        <time>2022-07-09T07:07:34Z</time>
      </trkpt>
      <trkpt lat="-25.873949127271771" lon="27.440652726218104">
        <ele>1569.01</ele>
        <time>2022-07-09T07:07:35Z</time>
      </trkpt>
      <trkpt lat="-25.873917359858751" lon="27.440623557195067">
        <ele>1569.49</ele>
        <time>2022-07-09T07:07:36Z</time>
      </trkpt>
      <trkpt lat="-25.87388115003705" lon="27.440593969076872">
        <ele>1569.97</ele>
        <time>2022-07-09T07:07:37Z</time>
      </trkpt>
      <trkpt lat="-25.873687528073788" lon="27.440380565822124">
        <ele>1573.3299999999999</ele>
        <time>2022-07-09T07:07:46Z</time>
      </trkpt>
      <trkpt lat="-25.873585268855095" lon="27.440308732911944">
        <ele>1574.78</ele>
        <time>2022-07-09T07:07:50Z</time>
      </trkpt>
      <trkpt lat="-25.873479321599007" lon="27.440213682129979">
        <ele>1576.7</ele>
        <time>2022-07-09T07:07:53Z</time>
      </trkpt>
      <trkpt lat="-25.873434897512197" lon="27.440187446773052">
        <ele>1577.1800000000001</ele>
        <time>2022-07-09T07:07:54Z</time>
      </trkpt>
      <trkpt lat="-25.873340098187327" lon="27.440149476751685">
        <ele>1578.6199999999999</ele>
        <time>2022-07-09T07:07:56Z</time>
      </trkpt>
      <trkpt lat="-25.873289639130235" lon="27.440139334648848">
        <ele>1579.0999999999999</ele>
        <time>2022-07-09T07:07:57Z</time>
      </trkpt>
      <trkpt lat="-25.873238509520888" lon="27.44013455696404">
        <ele>1579.5799999999999</ele>
        <time>2022-07-09T07:07:58Z</time>
      </trkpt>
      <trkpt lat="-25.87307539768517" lon="27.440135311335325">
        <ele>1581.51</ele>
        <time>2022-07-09T07:08:01Z</time>
      </trkpt>
      <trkpt lat="-25.87302116677165" lon="27.440147716552019">
        <ele>1581.99</ele>
        <time>2022-07-09T07:08:02Z</time>
      </trkpt>
      <trkpt lat="-25.872969701886177" lon="27.440170682966709">
        <ele>1582.47</ele>
        <time>2022-07-09T07:08:03Z</time>
      </trkpt>
      <trkpt lat="-25.872922763228416" lon="27.440196834504604">
        <ele>1582.95</ele>
        <time>2022-07-09T07:08:04Z</time>
      </trkpt>
      <trkpt lat="-25.872877417132258" lon="27.440223656594753">
        <ele>1583.4300000000001</ele>
        <time>2022-07-09T07:08:05Z</time>
      </trkpt>
      <trkpt lat="-25.872737187892199" lon="27.440359024330974">
        <ele>1585.8299999999999</ele>
        <time>2022-07-09T07:08:13Z</time>
      </trkpt>
      <trkpt lat="-25.872734924778342" lon="27.440371764823794">
        <ele>1585.8299999999999</ele>
        <time>2022-07-09T07:08:14Z</time>
      </trkpt>
      <trkpt lat="-25.872733499854803" lon="27.440387858077884">
        <ele>1585.8299999999999</ele>
        <time>2022-07-09T07:08:15Z</time>
      </trkpt>
      <trkpt lat="-25.872731823474169" lon="27.440408645197749">
        <ele>1585.8299999999999</ele>
        <time>2022-07-09T07:08:16Z</time>
      </trkpt>
      <trkpt lat="-25.872727045789361" lon="27.440436640754342">
        <ele>1586.3099999999999</ele>
        <time>2022-07-09T07:08:17Z</time>
      </trkpt>
      <trkpt lat="-25.87271623313427" lon="27.440474778413773">
        <ele>1586.3099999999999</ele>
        <time>2022-07-09T07:08:18Z</time>
      </trkpt>
      <trkpt lat="-25.872700558975339" lon="27.440521130338311">
        <ele>1586.79</ele>
        <time>2022-07-09T07:08:19Z</time>
      </trkpt>
      <trkpt lat="-25.872685890644789" lon="27.440572511404753">
        <ele>1586.79</ele>
        <time>2022-07-09T07:08:20Z</time>
      </trkpt>
      <trkpt lat="-25.87263903580606" lon="27.440788932144642">
        <ele>1589.2</ele>
        <time>2022-07-09T07:08:24Z</time>
      </trkpt>
      <trkpt lat="-25.87259846739471" lon="27.44093544781208">
        <ele>1590.1600000000001</ele>
        <time>2022-07-09T07:08:27Z</time>
      </trkpt>
      <trkpt lat="-25.872578602284193" lon="27.440984817221761">
        <ele>1590.6400000000001</ele>
        <time>2022-07-09T07:08:28Z</time>
      </trkpt>
      <trkpt lat="-25.872511630877852" lon="27.441184977069497">
        <ele>1593.04</ele>
        <time>2022-07-09T07:08:32Z</time>
      </trkpt>
      <trkpt lat="-25.872419597581029" lon="27.441373486071825">
        <ele>1595.9300000000001</ele>
        <time>2022-07-09T07:08:37Z</time>
      </trkpt>
      <trkpt lat="-25.872399481013417" lon="27.441417826339602">
        <ele>1596.4100000000001</ele>
        <time>2022-07-09T07:08:38Z</time>
      </trkpt>
      <trkpt lat="-25.872357822954655" lon="27.441518241539598">
        <ele>1597.8499999999999</ele>
        <time>2022-07-09T07:08:40Z</time>
      </trkpt>
      <trkpt lat="-25.872327983379364" lon="27.441566437482834">
        <ele>1598.3299999999999</ele>
        <time>2022-07-09T07:08:41Z</time>
      </trkpt>
      <trkpt lat="-25.871812161058187" lon="27.442116877064109">
        <ele>1605.54</ele>
        <time>2022-07-09T07:08:53Z</time>
      </trkpt>
      <trkpt lat="-25.871682912111282" lon="27.442256435751915">
        <ele>1607.46</ele>
        <time>2022-07-09T07:08:56Z</time>
      </trkpt>
      <trkpt lat="-25.87165055796504" lon="27.442307816818357">
        <ele>1607.9400000000001</ele>
        <time>2022-07-09T07:08:57Z</time>
      </trkpt>
      <trkpt lat="-25.87154159322381" lon="27.442503785714507">
        <ele>1610.3499999999999</ele>
        <time>2022-07-09T07:09:01Z</time>
      </trkpt>
      <trkpt lat="-25.871222158893943" lon="27.442904021590948">
        <ele>1617.0699999999999</ele>
        <time>2022-07-09T07:09:12Z</time>
      </trkpt>
      <trkpt lat="-25.871180081740022" lon="27.442991528660059">
        <ele>1618.52</ele>
        <time>2022-07-09T07:09:17Z</time>
      </trkpt>
      <trkpt lat="-25.871134148910642" lon="27.443084819242358">
        <ele>1619.48</ele>
        <time>2022-07-09T07:09:20Z</time>
      </trkpt>
      <trkpt lat="-25.871128281578422" lon="27.443159082904458">
        <ele>1619.96</ele>
        <time>2022-07-09T07:09:24Z</time>
      </trkpt>
      <trkpt lat="-25.871117636561394" lon="27.443166794255376">
        <ele>1620.4400000000001</ele>
        <time>2022-07-09T07:09:25Z</time>
      </trkpt>
      <trkpt lat="-25.871097519993782" lon="27.443184312433004">
        <ele>1620.4400000000001</ele>
        <time>2022-07-09T07:09:26Z</time>
      </trkpt>
      <trkpt lat="-25.871069189161062" lon="27.44321339763701">
        <ele>1620.9200000000001</ele>
        <time>2022-07-09T07:09:27Z</time>
      </trkpt>
      <trkpt lat="-25.871038259938359" lon="27.443250780925155">
        <ele>1621.4000000000001</ele>
        <time>2022-07-09T07:09:28Z</time>
      </trkpt>
      <trkpt lat="-25.871006995439529" lon="27.443293193355203">
        <ele>1621.8800000000001</ele>
        <time>2022-07-09T07:09:29Z</time>
      </trkpt>
      <trkpt lat="-25.870800465345383" lon="27.443620758131146">
        <ele>1625.73</ele>
        <time>2022-07-09T07:09:38Z</time>
      </trkpt>
      <trkpt lat="-25.870631067082286" lon="27.443828964605927">
        <ele>1628.1300000000001</ele>
        <time>2022-07-09T07:09:47Z</time>
      </trkpt>
      <trkpt lat="-25.870499135926366" lon="27.443962069228292">
        <ele>1629.5699999999999</ele>
        <time>2022-07-09T07:09:56Z</time>
      </trkpt>
      <trkpt lat="-25.870367623865604" lon="27.444015964865685">
        <ele>1631.49</ele>
        <time>2022-07-09T07:10:04Z</time>
      </trkpt>
      <trkpt lat="-25.870100157335401" lon="27.444221321493387">
        <ele>1634.3800000000001</ele>
        <time>2022-07-09T07:10:13Z</time>
      </trkpt>
      <trkpt lat="-25.869850376620889" lon="27.444350318983197">
        <ele>1637.74</ele>
        <time>2022-07-09T07:10:22Z</time>
      </trkpt>
      <trkpt lat="-25.869718361645937" lon="27.444466156885028">
        <ele>1640.1500000000001</ele>
        <time>2022-07-09T07:10:31Z</time>
      </trkpt>
      <trkpt lat="-25.86961249820888" lon="27.444568751379848">
        <ele>1642.55</ele>
        <time>2022-07-09T07:10:41Z</time>
      </trkpt>
      <trkpt lat="-25.86959095671773" lon="27.44457914493978">
        <ele>1643.51</ele>
        <time>2022-07-09T07:10:51Z</time>
      </trkpt>
      <trkpt lat="-25.869537312537432" lon="27.444623401388526">
        <ele>1643.99</ele>
        <time>2022-07-09T07:11:02Z</time>
      </trkpt>
      <trkpt lat="-25.869306391105056" lon="27.444794811308384">
        <ele>1646.8800000000001</ele>
        <time>2022-07-09T07:11:09Z</time>
      </trkpt>
      <trkpt lat="-25.869272192940116" lon="27.444819705560803">
        <ele>1646.8800000000001</ele>
        <time>2022-07-09T07:11:10Z</time>
      </trkpt>
      <trkpt lat="-25.869244281202555" lon="27.444841414690018">
        <ele>1647.3599999999999</ele>
        <time>2022-07-09T07:11:11Z</time>
      </trkpt>
      <trkpt lat="-25.869142692536116" lon="27.444912157952785">
        <ele>1648.3199999999999</ele>
        <time>2022-07-09T07:11:14Z</time>
      </trkpt>
      <trkpt lat="-25.868955189362168" lon="27.445068648084998">
        <ele>1650.72</ele>
        <time>2022-07-09T07:11:23Z</time>
      </trkpt>
      <trkpt lat="-25.868723094463348" lon="27.445205608382821">
        <ele>1653.1199999999999</ele>
        <time>2022-07-09T07:11:32Z</time>
      </trkpt>
      <trkpt lat="-25.868460405617952" lon="27.445357488468289">
        <ele>1655.53</ele>
        <time>2022-07-09T07:11:40Z</time>
      </trkpt>
      <trkpt lat="-25.868426458910108" lon="27.445383220911026">
        <ele>1655.53</ele>
        <time>2022-07-09T07:11:41Z</time>
      </trkpt>
      <trkpt lat="-25.868390332907438" lon="27.445411384105682">
        <ele>1656.01</ele>
        <time>2022-07-09T07:11:42Z</time>
      </trkpt>
      <trkpt lat="-25.868116915225983" lon="27.445623194798827">
        <ele>1660.8099999999999</ele>
        <time>2022-07-09T07:11:53Z</time>
      </trkpt>
      <trkpt lat="-25.868063438683748" lon="27.445667870342731">
        <ele>1660.8099999999999</ele>
        <time>2022-07-09T07:12:00Z</time>
      </trkpt>
      <trkpt lat="-25.868041981011629" lon="27.445700475946069">
        <ele>1661.3</ele>
        <time>2022-07-09T07:12:09Z</time>
      </trkpt>
      <trkpt lat="-25.868024714291096" lon="27.445722855627537">
        <ele>1661.78</ele>
        <time>2022-07-09T07:12:20Z</time>
      </trkpt>
      <trkpt lat="-25.867992527782917" lon="27.445757472887635">
        <ele>1661.78</ele>
        <time>2022-07-09T07:12:33Z</time>
      </trkpt>
      <trkpt lat="-25.867965202778578" lon="27.445795778185129">
        <ele>1662.74</ele>
        <time>2022-07-09T07:12:37Z</time>
      </trkpt>
      <trkpt lat="-25.867961682379246" lon="27.445814721286297">
        <ele>1662.74</ele>
        <time>2022-07-09T07:12:38Z</time>
      </trkpt>
      <trkpt lat="-25.867952713742852" lon="27.445846237242222">
        <ele>1663.22</ele>
        <time>2022-07-09T07:12:39Z</time>
      </trkpt>
      <trkpt lat="-25.867933854460716" lon="27.445890409871936">
        <ele>1663.22</ele>
        <time>2022-07-09T07:12:40Z</time>
      </trkpt>
      <trkpt lat="-25.86790569126606" lon="27.445939108729362">
        <ele>1664.1800000000001</ele>
        <time>2022-07-09T07:12:41Z</time>
      </trkpt>
      <trkpt lat="-25.867871744558215" lon="27.445988059043884">
        <ele>1664.6600000000001</ele>
        <time>2022-07-09T07:12:42Z</time>
      </trkpt>
      <trkpt lat="-25.867838216945529" lon="27.446029298007488">
        <ele>1665.1400000000001</ele>
        <time>2022-07-09T07:12:43Z</time>
      </trkpt>
      <trkpt lat="-25.867805862799287" lon="27.446062155067921">
        <ele>1665.6199999999999</ele>
        <time>2022-07-09T07:12:44Z</time>
      </trkpt>
      <trkpt lat="-25.867771664634347" lon="27.44608998298645">
        <ele>1666.0999999999999</ele>
        <time>2022-07-09T07:12:45Z</time>
      </trkpt>
      <trkpt lat="-25.867732604965568" lon="27.446112781763077">
        <ele>1666.5799999999999</ele>
        <time>2022-07-09T07:12:46Z</time>
      </trkpt>
      <trkpt lat="-25.867693461477757" lon="27.446131641045213">
        <ele>1667.0599999999999</ele>
        <time>2022-07-09T07:12:47Z</time>
      </trkpt>
      <trkpt lat="-25.867652976885438" lon="27.446143040433526">
        <ele>1667.54</ele>
        <time>2022-07-09T07:12:48Z</time>
      </trkpt>
      <trkpt lat="-25.867609390988946" lon="27.446146560832858">
        <ele>1668.02</ele>
        <time>2022-07-09T07:12:49Z</time>
      </trkpt>
      <trkpt lat="-25.867561530321836" lon="27.446140022948384">
        <ele>1668.51</ele>
        <time>2022-07-09T07:12:50Z</time>
      </trkpt>
      <trkpt lat="-25.867511993274093" lon="27.446123426780105">
        <ele>1668.99</ele>
        <time>2022-07-09T07:12:51Z</time>
      </trkpt>
      <trkpt lat="-25.867462120950222" lon="27.446098197251558">
        <ele>1669.47</ele>
        <time>2022-07-09T07:12:52Z</time>
      </trkpt>
      <trkpt lat="-25.86741610430181" lon="27.44606307707727">
        <ele>1669.95</ele>
        <time>2022-07-09T07:12:53Z</time>
      </trkpt>
      <trkpt lat="-25.867376541718841" lon="27.446016306057572">
        <ele>1670.4300000000001</ele>
        <time>2022-07-09T07:12:54Z</time>
      </trkpt>
      <trkpt lat="-25.86734619922936" lon="27.445961236953735">
        <ele>1670.4300000000001</ele>
        <time>2022-07-09T07:12:55Z</time>
      </trkpt>
      <trkpt lat="-25.867325831204653" lon="27.445900468155742">
        <ele>1670.4300000000001</ele>
        <time>2022-07-09T07:12:56Z</time>
      </trkpt>
      <trkpt lat="-25.867312084883451" lon="27.445838525891304">
        <ele>1670.4300000000001</ele>
        <time>2022-07-09T07:12:57Z</time>
      </trkpt>
      <trkpt lat="-25.867305966094136" lon="27.445773230865598">
        <ele>1670.9100000000001</ele>
        <time>2022-07-09T07:12:58Z</time>
      </trkpt>
      <trkpt lat="-25.867309151217341" lon="27.445706091821194">
        <ele>1670.9100000000001</ele>
        <time>2022-07-09T07:12:59Z</time>
      </trkpt>
      <trkpt lat="-25.867323065176606" lon="27.44563945569098">
        <ele>1671.3900000000001</ele>
        <time>2022-07-09T07:13:00Z</time>
      </trkpt>
      <trkpt lat="-25.867349384352565" lon="27.445574663579464">
        <ele>1671.8699999999999</ele>
        <time>2022-07-09T07:13:01Z</time>
      </trkpt>
      <trkpt lat="-25.867386600002646" lon="27.44551339186728">
        <ele>1671.8699999999999</ele>
        <time>2022-07-09T07:13:02Z</time>
      </trkpt>
      <trkpt lat="-25.867427000775933" lon="27.445466453209519">
        <ele>1672.3499999999999</ele>
        <time>2022-07-09T07:13:03Z</time>
      </trkpt>
      <trkpt lat="-25.86747519671917" lon="27.445424124598503">
        <ele>1672.3499999999999</ele>
        <time>2022-07-09T07:13:04Z</time>
      </trkpt>
      <trkpt lat="-25.867526661604643" lon="27.44538439437747">
        <ele>1672.8299999999999</ele>
        <time>2022-07-09T07:13:05Z</time>
      </trkpt>
      <trkpt lat="-25.867882892489433" lon="27.44500620290637">
        <ele>1674.75</ele>
        <time>2022-07-09T07:13:15Z</time>
      </trkpt>
      <trkpt lat="-25.867920191958547" lon="27.444973848760128">
        <ele>1674.75</ele>
        <time>2022-07-09T07:13:22Z</time>
      </trkpt>
      <trkpt lat="-25.86801172234118" lon="27.444921294227242">
        <ele>1676.2</ele>
        <time>2022-07-09T07:13:33Z</time>
      </trkpt>
      <trkpt lat="-25.868136361241341" lon="27.444786680862308">
        <ele>1678.5999999999999</ele>
        <time>2022-07-09T07:13:42Z</time>
      </trkpt>
      <trkpt lat="-25.868320176377892" lon="27.444447465240955">
        <ele>1682.4400000000001</ele>
        <time>2022-07-09T07:13:53Z</time>
      </trkpt>
      <trkpt lat="-25.868195537477732" lon="27.444103891029954">
        <ele>1686.77</ele>
        <time>2022-07-09T07:14:03Z</time>
      </trkpt>
      <trkpt lat="-25.867947181686759" lon="27.444048235192895">
        <ele>1688.21</ele>
        <time>2022-07-09T07:14:12Z</time>
      </trkpt>
      <trkpt lat="-25.867748782038689" lon="27.444078577682376">
        <ele>1691.0999999999999</ele>
        <time>2022-07-09T07:14:19Z</time>
      </trkpt>
      <trkpt lat="-25.867493050172925" lon="27.444133814424276">
        <ele>1692.54</ele>
        <time>2022-07-09T07:14:26Z</time>
      </trkpt>
      <trkpt lat="-25.86738140322268" lon="27.444140519946814">
        <ele>1693.98</ele>
        <time>2022-07-09T07:14:28Z</time>
      </trkpt>
      <trkpt lat="-25.867322981357574" lon="27.444134652614594">
        <ele>1694.46</ele>
        <time>2022-07-09T07:14:29Z</time>
      </trkpt>
      <trkpt lat="-25.867207897827029" lon="27.444108836352825">
        <ele>1695.4200000000001</ele>
        <time>2022-07-09T07:14:31Z</time>
      </trkpt>
      <trkpt lat="-25.867149643599987" lon="27.444086708128452">
        <ele>1695.9000000000001</ele>
        <time>2022-07-09T07:14:32Z</time>
      </trkpt>
      <trkpt lat="-25.867088874801993" lon="27.44405921548605">
        <ele>1696.8599999999999</ele>
        <time>2022-07-09T07:14:33Z</time>
      </trkpt>
      <trkpt lat="-25.866446904838085" lon="27.443665433675051">
        <ele>1702.6300000000001</ele>
        <time>2022-07-09T07:14:43Z</time>
      </trkpt>
      <trkpt lat="-25.865942817181349" lon="27.443316662684083">
        <ele>1707.4400000000001</ele>
        <time>2022-07-09T07:14:53Z</time>
      </trkpt>
      <trkpt lat="-25.865799151360989" lon="27.443234855309129">
        <ele>1708.8800000000001</ele>
        <time>2022-07-09T07:14:58Z</time>
      </trkpt>
      <trkpt lat="-25.865740310400724" lon="27.443214990198612">
        <ele>1709.3599999999999</ele>
        <time>2022-07-09T07:14:59Z</time>
      </trkpt>
      <trkpt lat="-25.865678787231445" lon="27.443204429000616">
        <ele>1709.3599999999999</ele>
        <time>2022-07-09T07:15:00Z</time>
      </trkpt>
      <trkpt lat="-25.865626065060496" lon="27.443200154229999">
        <ele>1709.8399999999999</ele>
        <time>2022-07-09T07:15:01Z</time>
      </trkpt>
      <trkpt lat="-25.865578958764672" lon="27.443200824782252">
        <ele>1710.3199999999999</ele>
        <time>2022-07-09T07:15:02Z</time>
      </trkpt>
      <trkpt lat="-25.865530762821436" lon="27.443201914429665">
        <ele>1710.3199999999999</ele>
        <time>2022-07-09T07:15:03Z</time>
      </trkpt>
      <trkpt lat="-25.865377373993397" lon="27.443204764276743">
        <ele>1711.28</ele>
        <time>2022-07-09T07:15:06Z</time>
      </trkpt>
      <trkpt lat="-25.864715622738004" lon="27.443198310211301">
        <ele>1716.0899999999999</ele>
        <time>2022-07-09T07:15:18Z</time>
      </trkpt>
      <trkpt lat="-25.864658374339342" lon="27.443209541961551">
        <ele>1716.5699999999999</ele>
        <time>2022-07-09T07:15:19Z</time>
      </trkpt>
      <trkpt lat="-25.864488473162055" lon="27.443240387365222">
        <ele>1718.01</ele>
        <time>2022-07-09T07:15:22Z</time>
      </trkpt>
      <trkpt lat="-25.864443965256214" lon="27.443237453699112">
        <ele>1718.01</ele>
        <time>2022-07-09T07:15:23Z</time>
      </trkpt>
      <trkpt lat="-25.864296862855554" lon="27.443214654922485">
        <ele>1719.9400000000001</ele>
        <time>2022-07-09T07:15:27Z</time>
      </trkpt>
      <trkpt lat="-25.864251768216491" lon="27.443204429000616">
        <ele>1720.4200000000001</ele>
        <time>2022-07-09T07:15:28Z</time>
      </trkpt>
      <trkpt lat="-25.86420776322484" lon="27.443198310211301">
        <ele>1720.9000000000001</ele>
        <time>2022-07-09T07:15:29Z</time>
      </trkpt>
      <trkpt lat="-25.864111538976431" lon="27.443180121481419">
        <ele>1720.9000000000001</ele>
        <time>2022-07-09T07:15:31Z</time>
      </trkpt>
      <trkpt lat="-25.863908445462584" lon="27.44306143373251">
        <ele>1721.3800000000001</ele>
        <time>2022-07-09T07:15:41Z</time>
      </trkpt>
      <trkpt lat="-25.863893022760749" lon="27.443027067929506">
        <ele>1720.9000000000001</ele>
        <time>2022-07-09T07:16:07Z</time>
      </trkpt>
      <trkpt lat="-25.863890089094639" lon="27.443023379892111">
        <ele>1721.3800000000001</ele>
        <time>2022-07-09T07:16:36Z</time>
      </trkpt>
      <trkpt lat="-25.863889837637544" lon="27.443023715168238">
        <ele>1720.9000000000001</ele>
        <time>2022-07-09T07:17:01Z</time>
      </trkpt>
      <trkpt lat="-25.863890592008829" lon="27.443021116778255">
        <ele>1722.3399999999999</ele>
        <time>2022-07-09T07:17:30Z</time>
      </trkpt>
      <trkpt lat="-25.863890508189797" lon="27.44302824139595">
        <ele>1722.8199999999999</ele>
        <time>2022-07-09T07:18:03Z</time>
      </trkpt>
      <trkpt lat="-25.863890256732702" lon="27.443026145920157">
        <ele>1723.3</ele>
        <time>2022-07-09T07:18:33Z</time>
      </trkpt>
      <trkpt lat="-25.863888245075941" lon="27.443022541701794">
        <ele>1723.3</ele>
        <time>2022-07-09T07:19:01Z</time>
      </trkpt>
      <trkpt lat="-25.863886149600148" lon="27.443024553358555">
        <ele>1722.3399999999999</ele>
        <time>2022-07-09T07:19:32Z</time>
      </trkpt>
      <trkpt lat="-25.863880785182118" lon="27.443023128435016">
        <ele>1722.3399999999999</ele>
        <time>2022-07-09T07:20:02Z</time>
      </trkpt>
      <trkpt lat="-25.863890340551734" lon="27.443019356578588">
        <ele>1722.8199999999999</ele>
        <time>2022-07-09T07:20:35Z</time>
      </trkpt>
      <trkpt lat="-25.863885562866926" lon="27.443026648834348">
        <ele>1721.3800000000001</ele>
        <time>2022-07-09T07:21:04Z</time>
      </trkpt>
      <trkpt lat="-25.863887909799814" lon="27.443030336871743">
        <ele>1720.9000000000001</ele>
        <time>2022-07-09T07:21:41Z</time>
      </trkpt>
      <trkpt lat="-25.863888999447227" lon="27.44302530772984">
        <ele>1722.3399999999999</ele>
        <time>2022-07-09T07:22:16Z</time>
      </trkpt>
      <trkpt lat="-25.863893441855907" lon="27.443029833957553">
        <ele>1721.8599999999999</ele>
        <time>2022-07-09T07:22:42Z</time>
      </trkpt>
      <trkpt lat="-25.863897884264588" lon="27.443035198375583">
        <ele>1721.3800000000001</ele>
        <time>2022-07-09T07:23:14Z</time>
      </trkpt>
      <trkpt lat="-25.863899476826191" lon="27.443032348528504">
        <ele>1721.8599999999999</ele>
        <time>2022-07-09T07:23:45Z</time>
      </trkpt>
      <trkpt lat="-25.863899644464254" lon="27.443031845614314">
        <ele>1722.3399999999999</ele>
        <time>2022-07-09T07:24:18Z</time>
      </trkpt>
      <trkpt lat="-25.863902997225523" lon="27.44303360581398">
        <ele>1722.8199999999999</ele>
        <time>2022-07-09T07:24:54Z</time>
      </trkpt>
      <trkpt lat="-25.863899979740381" lon="27.443036790937185">
        <ele>1722.3399999999999</ele>
        <time>2022-07-09T07:25:32Z</time>
      </trkpt>
      <trkpt lat="-25.863897632807493" lon="27.443039389327168">
        <ele>1722.3399999999999</ele>
        <time>2022-07-09T07:26:20Z</time>
      </trkpt>
      <trkpt lat="-25.863897548988461" lon="27.443037964403629">
        <ele>1722.3399999999999</ele>
        <time>2022-07-09T07:27:01Z</time>
      </trkpt>
      <trkpt lat="-25.863899644464254" lon="27.443039892241359">
        <ele>1721.8599999999999</ele>
        <time>2022-07-09T07:27:38Z</time>
      </trkpt>
      <trkpt lat="-25.863900482654572" lon="27.443038886412978">
        <ele>1720.9000000000001</ele>
        <time>2022-07-09T07:28:11Z</time>
      </trkpt>
      <trkpt lat="-25.863896124064922" lon="27.44303360581398">
        <ele>1722.3399999999999</ele>
        <time>2022-07-09T07:28:38Z</time>
      </trkpt>
      <trkpt lat="-25.863888328894973" lon="27.443031845614314">
        <ele>1722.3399999999999</ele>
        <time>2022-07-09T07:29:13Z</time>
      </trkpt>
      <trkpt lat="-25.863885059952736" lon="27.443039556965232">
        <ele>1721.3800000000001</ele>
        <time>2022-07-09T07:29:43Z</time>
      </trkpt>
      <trkpt lat="-25.863886484876275" lon="27.443045927211642">
        <ele>1720.9000000000001</ele>
        <time>2022-07-09T07:30:22Z</time>
      </trkpt>
      <trkpt lat="-25.863890843465924" lon="27.443038551136851">
        <ele>1721.3800000000001</ele>
        <time>2022-07-09T07:30:53Z</time>
      </trkpt>
      <trkpt lat="-25.863883886486292" lon="27.443034695461392">
        <ele>1722.3399999999999</ele>
        <time>2022-07-09T07:31:31Z</time>
      </trkpt>
      <trkpt lat="-25.863883635029197" lon="27.443042322993279">
        <ele>1721.8599999999999</ele>
        <time>2022-07-09T07:32:09Z</time>
      </trkpt>
      <trkpt lat="-25.863892016932368" lon="27.443043999373913">
        <ele>1721.3800000000001</ele>
        <time>2022-07-09T07:32:44Z</time>
      </trkpt>
      <trkpt lat="-25.863894028589129" lon="27.44304140098393">
        <ele>1720.4200000000001</ele>
        <time>2022-07-09T07:33:19Z</time>
      </trkpt>
      <trkpt lat="-25.863897297531366" lon="27.443047016859055">
        <ele>1719.9400000000001</ele>
        <time>2022-07-09T07:33:53Z</time>
      </trkpt>
      <trkpt lat="-25.863896878436208" lon="27.443040478974581">
        <ele>1720.4200000000001</ele>
        <time>2022-07-09T07:34:30Z</time>
      </trkpt>
      <trkpt lat="-25.863894699141383" lon="27.443043999373913">
        <ele>1720.4200000000001</ele>
        <time>2022-07-09T07:35:07Z</time>
      </trkpt>
      <trkpt lat="-25.863899560645223" lon="27.443042825907469">
        <ele>1720.4200000000001</ele>
        <time>2022-07-09T07:35:50Z</time>
      </trkpt>
      <trkpt lat="-25.863900147378445" lon="27.443043412640691">
        <ele>1721.3800000000001</ele>
        <time>2022-07-09T07:36:26Z</time>
      </trkpt>
      <trkpt lat="-25.863900147378445" lon="27.443045759573579">
        <ele>1720.9000000000001</ele>
        <time>2022-07-09T07:36:55Z</time>
      </trkpt>
      <trkpt lat="-25.863899979740381" lon="27.44304483756423">
        <ele>1720.9000000000001</ele>
        <time>2022-07-09T07:37:29Z</time>
      </trkpt>
      <trkpt lat="-25.863899057731032" lon="27.443036707118154">
        <ele>1720.9000000000001</ele>
        <time>2022-07-09T07:38:12Z</time>
      </trkpt>
      <trkpt lat="-25.863897213712335" lon="27.443038718774915">
        <ele>1719.9400000000001</ele>
        <time>2022-07-09T07:38:41Z</time>
      </trkpt>
      <trkpt lat="-25.8638955373317" lon="27.443040311336517">
        <ele>1721.3800000000001</ele>
        <time>2022-07-09T07:39:23Z</time>
      </trkpt>
      <trkpt lat="-25.863891514018178" lon="27.443037964403629">
        <ele>1720.9000000000001</ele>
        <time>2022-07-09T07:39:58Z</time>
      </trkpt>
      <trkpt lat="-25.863899979740381" lon="27.443042574450374">
        <ele>1720.4200000000001</ele>
        <time>2022-07-09T07:40:39Z</time>
      </trkpt>
      <trkpt lat="-25.863894447684288" lon="27.443038551136851">
        <ele>1719.9400000000001</ele>
        <time>2022-07-09T07:41:14Z</time>
      </trkpt>
      <trkpt lat="-25.863890340551734" lon="27.443044418469071">
        <ele>1719.9400000000001</ele>
        <time>2022-07-09T07:41:51Z</time>
      </trkpt>
      <trkpt lat="-25.863890759646893" lon="27.44303653948009">
        <ele>1718.97</ele>
        <time>2022-07-09T07:42:27Z</time>
      </trkpt>
      <trkpt lat="-25.863895285874605" lon="27.443035617470741">
        <ele>1719.9400000000001</ele>
        <time>2022-07-09T07:43:13Z</time>
      </trkpt>
      <trkpt lat="-25.863891765475273" lon="27.443036288022995">
        <ele>1720.9000000000001</ele>
        <time>2022-07-09T07:43:56Z</time>
      </trkpt>
      <trkpt lat="-25.863891011103988" lon="27.443043915554881">
        <ele>1720.4200000000001</ele>
        <time>2022-07-09T07:44:37Z</time>
      </trkpt>
      <trkpt lat="-25.863892938941717" lon="27.443043915554881">
        <ele>1720.4200000000001</ele>
        <time>2022-07-09T07:45:10Z</time>
      </trkpt>
      <trkpt lat="-25.863892352208495" lon="27.443042658269405">
        <ele>1720.4200000000001</ele>
        <time>2022-07-09T07:45:46Z</time>
      </trkpt>
      <trkpt lat="-25.863904086872935" lon="27.443044586107135">
        <ele>1720.9000000000001</ele>
        <time>2022-07-09T07:46:12Z</time>
      </trkpt>
      <trkpt lat="-25.863896291702986" lon="27.443043328821659">
        <ele>1720.9000000000001</ele>
        <time>2022-07-09T07:46:40Z</time>
      </trkpt>
      <trkpt lat="-25.863759499043226" lon="27.443006783723831">
        <ele>1719.9400000000001</ele>
        <time>2022-07-09T07:47:05Z</time>
      </trkpt>
      <trkpt lat="-25.863582389429212" lon="27.442920366302133">
        <ele>1718.97</ele>
        <time>2022-07-09T07:47:10Z</time>
      </trkpt>
      <trkpt lat="-25.86349974386394" lon="27.442893544211984">
        <ele>1718.49</ele>
        <time>2022-07-09T07:47:12Z</time>
      </trkpt>
      <trkpt lat="-25.863030189648271" lon="27.442757673561573">
        <ele>1715.1300000000001</ele>
        <time>2022-07-09T07:47:23Z</time>
      </trkpt>
      <trkpt lat="-25.862986268475652" lon="27.442733701318502">
        <ele>1714.6500000000001</ele>
        <time>2022-07-09T07:47:24Z</time>
      </trkpt>
      <trkpt lat="-25.86290311999619" lon="27.442680727690458">
        <ele>1714.1700000000001</ele>
        <time>2022-07-09T07:47:26Z</time>
      </trkpt>
      <trkpt lat="-25.862853080034256" lon="27.442660946398973">
        <ele>1713.6900000000001</ele>
        <time>2022-07-09T07:47:27Z</time>
      </trkpt>
      <trkpt lat="-25.862795580178499" lon="27.442647451534867">
        <ele>1713.6900000000001</ele>
        <time>2022-07-09T07:47:28Z</time>
      </trkpt>
      <trkpt lat="-25.862730536609888" lon="27.442638818174601">
        <ele>1713.21</ele>
        <time>2022-07-09T07:47:29Z</time>
      </trkpt>
      <trkpt lat="-25.862658955156803" lon="27.442635633051395">
        <ele>1712.73</ele>
        <time>2022-07-09T07:47:30Z</time>
      </trkpt>
      <trkpt lat="-25.862027043476701" lon="27.442609900608659">
        <ele>1707.4400000000001</ele>
        <time>2022-07-09T07:47:39Z</time>
      </trkpt>
      <trkpt lat="-25.861945487558842" lon="27.442610654979944">
        <ele>1706</ele>
        <time>2022-07-09T07:47:46Z</time>
      </trkpt>
      <trkpt lat="-25.861821183934808" lon="27.442644769325852">
        <ele>1705.04</ele>
        <time>2022-07-09T07:47:56Z</time>
      </trkpt>
      <trkpt lat="-25.861468892544508" lon="27.44284987449646">
        <ele>1700.71</ele>
        <time>2022-07-09T07:48:05Z</time>
      </trkpt>
      <trkpt lat="-25.861164545640349" lon="27.443003766238689">
        <ele>1695.9000000000001</ele>
        <time>2022-07-09T07:48:16Z</time>
      </trkpt>
      <trkpt lat="-25.860927673056722" lon="27.443200154229999">
        <ele>1693.5</ele>
        <time>2022-07-09T07:48:28Z</time>
      </trkpt>
      <trkpt lat="-25.860783671960235" lon="27.443253211677074">
        <ele>1691.5799999999999</ele>
        <time>2022-07-09T07:48:39Z</time>
      </trkpt>
      <trkpt lat="-25.860729441046715" lon="27.443261258304119">
        <ele>1690.1400000000001</ele>
        <time>2022-07-09T07:48:52Z</time>
      </trkpt>
      <trkpt lat="-25.860492652282119" lon="27.44321976788342">
        <ele>1688.21</ele>
        <time>2022-07-09T07:49:01Z</time>
      </trkpt>
      <trkpt lat="-25.860169529914856" lon="27.443002508953214">
        <ele>1685.3299999999999</ele>
        <time>2022-07-09T07:49:15Z</time>
      </trkpt>
      <trkpt lat="-25.85976124741137" lon="27.442805534228683">
        <ele>1681</ele>
        <time>2022-07-09T07:49:24Z</time>
      </trkpt>
      <trkpt lat="-25.859314659610391" lon="27.442589616402984">
        <ele>1676.2</ele>
        <time>2022-07-09T07:49:36Z</time>
      </trkpt>
      <trkpt lat="-25.859063789248466" lon="27.44247704744339">
        <ele>1673.3099999999999</ele>
        <time>2022-07-09T07:49:46Z</time>
      </trkpt>
      <trkpt lat="-25.858621392399073" lon="27.442288370802999">
        <ele>1669.95</ele>
        <time>2022-07-09T07:50:00Z</time>
      </trkpt>
      <trkpt lat="-25.858266418799758" lon="27.442262303084135">
        <ele>1665.6199999999999</ele>
        <time>2022-07-09T07:50:13Z</time>
      </trkpt>
      <trkpt lat="-25.857898201793432" lon="27.442306475713849">
        <ele>1660.8099999999999</ele>
        <time>2022-07-09T07:50:26Z</time>
      </trkpt>
      <trkpt lat="-25.857870373874903" lon="27.442318042740226">
        <ele>1659.8499999999999</ele>
        <time>2022-07-09T07:50:34Z</time>
      </trkpt>
      <trkpt lat="-25.857851933687925" lon="27.442328939214349">
        <ele>1659.3699999999999</ele>
        <time>2022-07-09T07:50:35Z</time>
      </trkpt>
      <trkpt lat="-25.857828883454204" lon="27.442338913679123">
        <ele>1658.8900000000001</ele>
        <time>2022-07-09T07:50:36Z</time>
      </trkpt>
      <trkpt lat="-25.85780231282115" lon="27.442346792668104">
        <ele>1658.8900000000001</ele>
        <time>2022-07-09T07:50:37Z</time>
      </trkpt>
      <trkpt lat="-25.857772473245859" lon="27.442350313067436">
        <ele>1658.4100000000001</ele>
        <time>2022-07-09T07:50:38Z</time>
      </trkpt>
      <trkpt lat="-25.857743807137012" lon="27.442350732162595">
        <ele>1657.9300000000001</ele>
        <time>2022-07-09T07:50:39Z</time>
      </trkpt>
      <trkpt lat="-25.857391264289618" lon="27.442317120730877">
        <ele>1653.1199999999999</ele>
        <time>2022-07-09T07:50:51Z</time>
      </trkpt>
      <trkpt lat="-25.857078032568097" lon="27.442359868437052">
        <ele>1649.76</ele>
        <time>2022-07-09T07:51:02Z</time>
      </trkpt>
      <trkpt lat="-25.856653908267617" lon="27.442382918670774">
        <ele>1644.95</ele>
        <time>2022-07-09T07:51:15Z</time>
      </trkpt>
      <trkpt lat="-25.856216456741095" lon="27.44242524728179">
        <ele>1640.1500000000001</ele>
        <time>2022-07-09T07:51:26Z</time>
      </trkpt>
      <trkpt lat="-25.855511287227273" lon="27.442363472655416">
        <ele>1632.46</ele>
        <time>2022-07-09T07:51:44Z</time>
      </trkpt>
      <trkpt lat="-25.854957494884729" lon="27.442234139889479">
        <ele>1626.6900000000001</ele>
        <time>2022-07-09T07:51:58Z</time>
      </trkpt>
      <trkpt lat="-25.85483587346971" lon="27.442198349162936">
        <ele>1625.25</ele>
        <time>2022-07-09T07:52:01Z</time>
      </trkpt>
      <trkpt lat="-25.854558516293764" lon="27.442096089944243">
        <ele>1622.3599999999999</ele>
        <time>2022-07-09T07:52:08Z</time>
      </trkpt>
      <trkpt lat="-25.854518366977572" lon="27.442084439098835">
        <ele>1621.8800000000001</ele>
        <time>2022-07-09T07:52:09Z</time>
      </trkpt>
      <trkpt lat="-25.854478972032666" lon="27.442078152671456">
        <ele>1621.4000000000001</ele>
        <time>2022-07-09T07:52:10Z</time>
      </trkpt>
      <trkpt lat="-25.854078233242035" lon="27.44192929007113">
        <ele>1617.0699999999999</ele>
        <time>2022-07-09T07:52:22Z</time>
      </trkpt>
      <trkpt lat="-25.85367095656693" lon="27.442043451592326">
        <ele>1612.75</ele>
        <time>2022-07-09T07:52:35Z</time>
      </trkpt>
      <trkpt lat="-25.853313552215695" lon="27.442125007510185">
        <ele>1607.46</ele>
        <time>2022-07-09T07:52:47Z</time>
      </trkpt>
      <trkpt lat="-25.852920273318887" lon="27.442244701087475">
        <ele>1602.1700000000001</ele>
        <time>2022-07-09T07:53:00Z</time>
      </trkpt>
      <trkpt lat="-25.852647945284843" lon="27.442348888143897">
        <ele>1598.3299999999999</ele>
        <time>2022-07-09T07:53:14Z</time>
      </trkpt>
      <trkpt lat="-25.8525793813169" lon="27.442364394664764">
        <ele>1597.8499999999999</ele>
        <time>2022-07-09T07:53:16Z</time>
      </trkpt>
      <trkpt lat="-25.852449126541615" lon="27.442376967519522">
        <ele>1597.3699999999999</ele>
        <time>2022-07-09T07:53:19Z</time>
      </trkpt>
      <trkpt lat="-25.852409396320581" lon="27.442374285310507">
        <ele>1596.8900000000001</ele>
        <time>2022-07-09T07:53:20Z</time>
      </trkpt>
      <trkpt lat="-25.852123238146305" lon="27.442311923950911">
        <ele>1594</ele>
        <time>2022-07-09T07:53:27Z</time>
      </trkpt>
      <trkpt lat="-25.851847305893898" lon="27.442096089944243">
        <ele>1591.1199999999999</ele>
        <time>2022-07-09T07:53:35Z</time>
      </trkpt>
      <trkpt lat="-25.851814532652497" lon="27.442054012790322">
        <ele>1590.6400000000001</ele>
        <time>2022-07-09T07:53:36Z</time>
      </trkpt>
      <trkpt lat="-25.851785447448492" lon="27.442009085789323">
        <ele>1590.1600000000001</ele>
        <time>2022-07-09T07:53:37Z</time>
      </trkpt>
      <trkpt lat="-25.851763403043151" lon="27.441964158788323">
        <ele>1590.1600000000001</ele>
        <time>2022-07-09T07:53:38Z</time>
      </trkpt>
      <trkpt lat="-25.851754015311599" lon="27.441921913996339">
        <ele>1589.6800000000001</ele>
        <time>2022-07-09T07:53:39Z</time>
      </trkpt>
      <trkpt lat="-25.851755188778043" lon="27.441884446889162">
        <ele>1589.2</ele>
        <time>2022-07-09T07:53:40Z</time>
      </trkpt>
      <trkpt lat="-25.851758709177375" lon="27.441849242895842">
        <ele>1589.2</ele>
        <time>2022-07-09T07:53:41Z</time>
      </trkpt>
      <trkpt lat="-25.851692324504256" lon="27.441498292610049">
        <ele>1587.75</ele>
        <time>2022-07-09T07:53:51Z</time>
      </trkpt>
      <trkpt lat="-25.851646643131971" lon="27.441422771662474">
        <ele>1586.79</ele>
        <time>2022-07-09T07:53:53Z</time>
      </trkpt>
      <trkpt lat="-25.851617893204093" lon="27.441388992592692">
        <ele>1586.3099999999999</ele>
        <time>2022-07-09T07:53:54Z</time>
      </trkpt>
      <trkpt lat="-25.851553352549672" lon="27.441326212137938">
        <ele>1585.8299999999999</ele>
        <time>2022-07-09T07:53:56Z</time>
      </trkpt>
      <trkpt lat="-25.851518148556352" lon="27.441299976781011">
        <ele>1585.3499999999999</ele>
        <time>2022-07-09T07:53:57Z</time>
      </trkpt>
      <trkpt lat="-25.851480513811111" lon="27.44127843528986">
        <ele>1584.8699999999999</ele>
        <time>2022-07-09T07:53:58Z</time>
      </trkpt>
      <trkpt lat="-25.851440783590078" lon="27.441263431683183">
        <ele>1584.3900000000001</ele>
        <time>2022-07-09T07:53:59Z</time>
      </trkpt>
      <trkpt lat="-25.851398622617126" lon="27.441255887970328">
        <ele>1584.3900000000001</ele>
        <time>2022-07-09T07:54:00Z</time>
      </trkpt>
      <trkpt lat="-25.851355204358697" lon="27.441258570179343">
        <ele>1583.9100000000001</ele>
        <time>2022-07-09T07:54:01Z</time>
      </trkpt>
      <trkpt lat="-25.851312540471554" lon="27.441270891577005">
        <ele>1583.9100000000001</ele>
        <time>2022-07-09T07:54:02Z</time>
      </trkpt>
      <trkpt lat="-25.851272223517299" lon="27.441291594877839">
        <ele>1583.4300000000001</ele>
        <time>2022-07-09T07:54:03Z</time>
      </trkpt>
      <trkpt lat="-25.851237270981073" lon="27.441319171339273">
        <ele>1583.4300000000001</ele>
        <time>2022-07-09T07:54:04Z</time>
      </trkpt>
      <trkpt lat="-25.851206257939339" lon="27.441352028399706">
        <ele>1583.4300000000001</ele>
        <time>2022-07-09T07:54:05Z</time>
      </trkpt>
      <trkpt lat="-25.851180357858539" lon="27.441391171887517">
        <ele>1582.95</ele>
        <time>2022-07-09T07:54:06Z</time>
      </trkpt>
      <trkpt lat="-25.851161079481244" lon="27.441432494670153">
        <ele>1582.47</ele>
        <time>2022-07-09T07:54:07Z</time>
      </trkpt>
      <trkpt lat="-25.851145992055535" lon="27.441466860473156">
        <ele>1582.47</ele>
        <time>2022-07-09T07:54:08Z</time>
      </trkpt>
      <trkpt lat="-25.851046917960048" lon="27.441779589280486">
        <ele>1579.5799999999999</ele>
        <time>2022-07-09T07:54:20Z</time>
      </trkpt>
      <trkpt lat="-25.850926386192441" lon="27.442147471010685">
        <ele>1576.7</ele>
        <time>2022-07-09T07:54:32Z</time>
      </trkpt>
      <trkpt lat="-25.850643161684275" lon="27.442471263930202">
        <ele>1572.8499999999999</ele>
        <time>2022-07-09T07:54:45Z</time>
      </trkpt>
      <trkpt lat="-25.850254828110337" lon="27.442513508722186">
        <ele>1569.01</ele>
        <time>2022-07-09T07:54:58Z</time>
      </trkpt>
      <trkpt lat="-25.850165477022529" lon="27.442498588934541">
        <ele>1568.05</ele>
        <time>2022-07-09T07:55:02Z</time>
      </trkpt>
      <trkpt lat="-25.850149719044566" lon="27.442485429346561">
        <ele>1567.5699999999999</ele>
        <time>2022-07-09T07:55:03Z</time>
      </trkpt>
      <trkpt lat="-25.850135972723365" lon="27.442470006644726">
        <ele>1567.0899999999999</ele>
        <time>2022-07-09T07:55:04Z</time>
      </trkpt>
      <trkpt lat="-25.850117113441229" lon="27.442458942532539">
        <ele>1567.0899999999999</ele>
        <time>2022-07-09T07:55:05Z</time>
      </trkpt>
      <trkpt lat="-25.850093560293317" lon="27.44245114736259">
        <ele>1566.6099999999999</ele>
        <time>2022-07-09T07:55:06Z</time>
      </trkpt>
      <trkpt lat="-25.849970178678632" lon="27.442421978339553">
        <ele>1565.1600000000001</ele>
        <time>2022-07-09T07:55:12Z</time>
      </trkpt>
      <trkpt lat="-25.84995056502521" lon="27.442420888692141">
        <ele>1565.1600000000001</ele>
        <time>2022-07-09T07:55:13Z</time>
      </trkpt>
      <trkpt lat="-25.84993002936244" lon="27.442414853721857">
        <ele>1564.6800000000001</ele>
        <time>2022-07-09T07:55:14Z</time>
      </trkpt>
      <trkpt lat="-25.849839923903346" lon="27.4423504807055">
        <ele>1563.24</ele>
        <time>2022-07-09T07:55:24Z</time>
      </trkpt>
      <trkpt lat="-25.849721822887659" lon="27.442242940887809">
        <ele>1561.8</ele>
        <time>2022-07-09T07:55:37Z</time>
      </trkpt>
      <trkpt lat="-25.84948536939919" lon="27.442073877900839">
        <ele>1559.4000000000001</ele>
        <time>2022-07-09T07:55:49Z</time>
      </trkpt>
      <trkpt lat="-25.849153529852629" lon="27.441838765516877">
        <ele>1556.03</ele>
        <time>2022-07-09T07:56:01Z</time>
      </trkpt>
      <trkpt lat="-25.848883045837283" lon="27.441584123298526">
        <ele>1552.1900000000001</ele>
        <time>2022-07-09T07:56:13Z</time>
      </trkpt>
      <trkpt lat="-25.848660338670015" lon="27.441154131665826">
        <ele>1548.3399999999999</ele>
        <time>2022-07-09T07:56:28Z</time>
      </trkpt>
      <trkpt lat="-25.848533101379871" lon="27.440741406753659">
        <ele>1544.98</ele>
        <time>2022-07-09T07:56:41Z</time>
      </trkpt>
      <trkpt lat="-25.848339814692736" lon="27.440195409581065">
        <ele>1541.1300000000001</ele>
        <time>2022-07-09T07:56:57Z</time>
      </trkpt>
      <trkpt lat="-25.848209224641323" lon="27.439908413216472">
        <ele>1539.21</ele>
        <time>2022-07-09T07:57:02Z</time>
      </trkpt>
      <trkpt lat="-25.848191203549504" lon="27.439857283607125">
        <ele>1538.73</ele>
        <time>2022-07-09T07:57:03Z</time>
      </trkpt>
      <trkpt lat="-25.848178630694747" lon="27.439809087663889">
        <ele>1538.25</ele>
        <time>2022-07-09T07:57:04Z</time>
      </trkpt>
      <trkpt lat="-25.848171003162861" lon="27.439762819558382">
        <ele>1538.25</ele>
        <time>2022-07-09T07:57:05Z</time>
      </trkpt>
      <trkpt lat="-25.848162705078721" lon="27.439718311652541">
        <ele>1537.77</ele>
        <time>2022-07-09T07:57:06Z</time>
      </trkpt>
      <trkpt lat="-25.848150383681059" lon="27.439675312489271">
        <ele>1537.29</ele>
        <time>2022-07-09T07:57:07Z</time>
      </trkpt>
      <trkpt lat="-25.848135547712445" lon="27.439632480964065">
        <ele>1537.29</ele>
        <time>2022-07-09T07:57:08Z</time>
      </trkpt>
      <trkpt lat="-25.848050806671381" lon="27.439425867050886">
        <ele>1535.8399999999999</ele>
        <time>2022-07-09T07:57:13Z</time>
      </trkpt>
      <trkpt lat="-25.84803706035018" lon="27.439381778240204">
        <ele>1535.3599999999999</ele>
        <time>2022-07-09T07:57:14Z</time>
      </trkpt>
      <trkpt lat="-25.847934633493423" lon="27.439035605639219">
        <ele>1533.4400000000001</ele>
        <time>2022-07-09T07:57:22Z</time>
      </trkpt>
      <trkpt lat="-25.84791979752481" lon="27.438995204865932">
        <ele>1532.96</ele>
        <time>2022-07-09T07:57:23Z</time>
      </trkpt>
      <trkpt lat="-25.847743107005954" lon="27.438685661181808">
        <ele>1530.5599999999999</ele>
        <time>2022-07-09T07:57:33Z</time>
      </trkpt>
      <trkpt lat="-25.8476681727916" lon="27.438596980646253">
        <ele>1530.0799999999999</ele>
        <time>2022-07-09T07:57:35Z</time>
      </trkpt>
      <trkpt lat="-25.847618635743856" lon="27.438560267910361">
        <ele>1529.5899999999999</ele>
        <time>2022-07-09T07:57:36Z</time>
      </trkpt>
      <trkpt lat="-25.847561219707131" lon="27.438530512154102">
        <ele>1529.5899999999999</ele>
        <time>2022-07-09T07:57:37Z</time>
      </trkpt>
      <trkpt lat="-25.847494080662727" lon="27.438506120815873">
        <ele>1529.1099999999999</ele>
        <time>2022-07-09T07:57:38Z</time>
      </trkpt>
      <trkpt lat="-25.847419062629342" lon="27.438486758619547">
        <ele>1529.1099999999999</ele>
        <time>2022-07-09T07:57:39Z</time>
      </trkpt>
      <trkpt lat="-25.847339099273086" lon="27.438473179936409">
        <ele>1528.6300000000001</ele>
        <time>2022-07-09T07:57:40Z</time>
      </trkpt>
      <trkpt lat="-25.847258633002639" lon="27.438469659537077">
        <ele>1528.6300000000001</ele>
        <time>2022-07-09T07:57:41Z</time>
      </trkpt>
      <trkpt lat="-25.847181603312492" lon="27.438476281240582">
        <ele>1528.1500000000001</ele>
        <time>2022-07-09T07:57:42Z</time>
      </trkpt>
      <trkpt lat="-25.847107255831361" lon="27.438492542132735">
        <ele>1528.1500000000001</ele>
        <time>2022-07-09T07:57:43Z</time>
      </trkpt>
      <trkpt lat="-25.847036009654403" lon="27.438517771661282">
        <ele>1527.6700000000001</ele>
        <time>2022-07-09T07:57:44Z</time>
      </trkpt>
      <trkpt lat="-25.846966942772269" lon="27.438549539074302">
        <ele>1527.6700000000001</ele>
        <time>2022-07-09T07:57:45Z</time>
      </trkpt>
      <trkpt lat="-25.846898630261421" lon="27.438589353114367">
        <ele>1527.1900000000001</ele>
        <time>2022-07-09T07:57:46Z</time>
      </trkpt>
      <trkpt lat="-25.846833251416683" lon="27.438636040315032">
        <ele>1526.71</ele>
        <time>2022-07-09T07:57:47Z</time>
      </trkpt>
      <trkpt lat="-25.846774494275451" lon="27.438689600676298">
        <ele>1526.23</ele>
        <time>2022-07-09T07:57:48Z</time>
      </trkpt>
      <trkpt lat="-25.846719341352582" lon="27.438747268170118">
        <ele>1526.23</ele>
        <time>2022-07-09T07:57:49Z</time>
      </trkpt>
      <trkpt lat="-25.846666116267443" lon="27.438811389729381">
        <ele>1525.75</ele>
        <time>2022-07-09T07:57:50Z</time>
      </trkpt>
      <trkpt lat="-25.846615824848413" lon="27.438872577622533">
        <ele>1525.27</ele>
        <time>2022-07-09T07:57:51Z</time>
      </trkpt>
      <trkpt lat="-25.846561091020703" lon="27.438930412754416">
        <ele>1524.79</ele>
        <time>2022-07-09T07:57:52Z</time>
      </trkpt>
      <trkpt lat="-25.84546004422009" lon="27.439932385459542">
        <ele>1512.77</ele>
        <time>2022-07-09T07:58:11Z</time>
      </trkpt>
      <trkpt lat="-25.845220992341638" lon="27.440193062648177">
        <ele>1508.45</ele>
        <time>2022-07-09T07:58:17Z</time>
      </trkpt>
      <trkpt lat="-25.845181848853827" lon="27.440229104831815">
        <ele>1507.97</ele>
        <time>2022-07-09T07:58:18Z</time>
      </trkpt>
      <trkpt lat="-25.845143124461174" lon="27.440270930528641">
        <ele>1507</ele>
        <time>2022-07-09T07:58:19Z</time>
      </trkpt>
      <trkpt lat="-25.844635181128979" lon="27.440752219408751">
        <ele>1500.27</ele>
        <time>2022-07-09T07:58:28Z</time>
      </trkpt>
      <trkpt lat="-25.843950463458896" lon="27.441372647881508">
        <ele>1490.6600000000001</ele>
        <time>2022-07-09T07:58:41Z</time>
      </trkpt>
      <trkpt lat="-25.843365741893649" lon="27.441791072487831">
        <ele>1481.05</ele>
        <time>2022-07-09T07:58:56Z</time>
      </trkpt>
      <trkpt lat="-25.843242444097996" lon="27.441835077479482">
        <ele>1480.0899999999999</ele>
        <time>2022-07-09T07:58:59Z</time>
      </trkpt>
      <trkpt lat="-25.843196092173457" lon="27.441838933154941">
        <ele>1479.6099999999999</ele>
        <time>2022-07-09T07:59:00Z</time>
      </trkpt>
      <trkpt lat="-25.84314638748765" lon="27.441836502403021">
        <ele>1479.6099999999999</ele>
        <time>2022-07-09T07:59:01Z</time>
      </trkpt>
      <trkpt lat="-25.842992998659611" lon="27.441807333379984">
        <ele>1478.6500000000001</ele>
        <time>2022-07-09T07:59:04Z</time>
      </trkpt>
      <trkpt lat="-25.842943796887994" lon="27.441784953698516">
        <ele>1478.1600000000001</ele>
        <time>2022-07-09T07:59:05Z</time>
      </trkpt>
      <trkpt lat="-25.842895768582821" lon="27.441756622865796">
        <ele>1477.6800000000001</ele>
        <time>2022-07-09T07:59:06Z</time>
      </trkpt>
      <trkpt lat="-25.842852434143424" lon="27.441723849624395">
        <ele>1477.6800000000001</ele>
        <time>2022-07-09T07:59:07Z</time>
      </trkpt>
      <trkpt lat="-25.84281119517982" lon="27.44168940000236">
        <ele>1477.2</ele>
        <time>2022-07-09T07:59:08Z</time>
      </trkpt>
      <trkpt lat="-25.842739529907703" lon="27.441617231816053">
        <ele>1476.72</ele>
        <time>2022-07-09T07:59:10Z</time>
      </trkpt>
      <trkpt lat="-25.842222450301051" lon="27.441076347604394">
        <ele>1471.9200000000001</ele>
        <time>2022-07-09T07:59:26Z</time>
      </trkpt>
      <trkpt lat="-25.842190263792872" lon="27.441041981801391">
        <ele>1471.9200000000001</ele>
        <time>2022-07-09T07:59:27Z</time>
      </trkpt>
      <trkpt lat="-25.842157658189535" lon="27.441007113084197">
        <ele>1471.4400000000001</ele>
        <time>2022-07-09T07:59:28Z</time>
      </trkpt>
      <trkpt lat="-25.842122286558151" lon="27.440972747281194">
        <ele>1470.95</ele>
        <time>2022-07-09T07:59:29Z</time>
      </trkpt>
      <trkpt lat="-25.84165608510375" lon="27.440580558031797">
        <ele>1466.6300000000001</ele>
        <time>2022-07-09T07:59:43Z</time>
      </trkpt>
      <trkpt lat="-25.841614762321115" lon="27.440562201663852">
        <ele>1466.1500000000001</ele>
        <time>2022-07-09T07:59:44Z</time>
      </trkpt>
      <trkpt lat="-25.841385517269373" lon="27.440482825040817">
        <ele>1466.1500000000001</ele>
        <time>2022-07-09T07:59:49Z</time>
      </trkpt>
      <trkpt lat="-25.841336064040661" lon="27.440474443137646">
        <ele>1466.1500000000001</ele>
        <time>2022-07-09T07:59:50Z</time>
      </trkpt>
      <trkpt lat="-25.84117672406137" lon="27.440468743443489">
        <ele>1465.1900000000001</ele>
        <time>2022-07-09T07:59:53Z</time>
      </trkpt>
      <trkpt lat="-25.840494185686111" lon="27.440621461719275">
        <ele>1459.4200000000001</ele>
        <time>2022-07-09T08:00:07Z</time>
      </trkpt>
      <trkpt lat="-25.840335851535201" lon="27.440688014030457">
        <ele>1457.5</ele>
        <time>2022-07-09T08:00:11Z</time>
      </trkpt>
      <trkpt lat="-25.839953133836389" lon="27.440876187756658">
        <ele>1451.25</ele>
        <time>2022-07-09T08:00:23Z</time>
      </trkpt>
      <trkpt lat="-25.839321976527572" lon="27.441107109189034">
        <ele>1441.1500000000001</ele>
        <time>2022-07-09T08:00:39Z</time>
      </trkpt>
      <trkpt lat="-25.838866755366325" lon="27.441326044499874">
        <ele>1433.9400000000001</ele>
        <time>2022-07-09T08:00:53Z</time>
      </trkpt>
      <trkpt lat="-25.838410779833794" lon="27.441492341458797">
        <ele>1427.21</ele>
        <time>2022-07-09T08:01:08Z</time>
      </trkpt>
      <trkpt lat="-25.838005347177386" lon="27.44165075942874">
        <ele>1421.45</ele>
        <time>2022-07-09T08:01:19Z</time>
      </trkpt>
      <trkpt lat="-25.837384248152375" lon="27.441840777173638">
        <ele>1415.2</ele>
        <time>2022-07-09T08:01:32Z</time>
      </trkpt>
      <trkpt lat="-25.837337477132678" lon="27.441849075257778">
        <ele>1414.72</ele>
        <time>2022-07-09T08:01:33Z</time>
      </trkpt>
      <trkpt lat="-25.836985940113664" lon="27.441902048885822">
        <ele>1409.9100000000001</ele>
        <time>2022-07-09T08:01:44Z</time>
      </trkpt>
      <trkpt lat="-25.83651814609766" lon="27.442051414400339">
        <ele>1402.7</ele>
        <time>2022-07-09T08:01:59Z</time>
      </trkpt>
      <trkpt lat="-25.836121765896678" lon="27.442145207896829">
        <ele>1397.8900000000001</ele>
        <time>2022-07-09T08:02:09Z</time>
      </trkpt>
      <trkpt lat="-25.835528327152133" lon="27.442278061062098">
        <ele>1392.6099999999999</ele>
        <time>2022-07-09T08:02:21Z</time>
      </trkpt>
      <trkpt lat="-25.834627691656351" lon="27.442531697452068">
        <ele>1385.4000000000001</ele>
        <time>2022-07-09T08:02:34Z</time>
      </trkpt>
      <trkpt lat="-25.833767708390951" lon="27.442726492881775">
        <ele>1380.5899999999999</ele>
        <time>2022-07-09T08:02:44Z</time>
      </trkpt>
      <trkpt lat="-25.83315147086978" lon="27.442905614152551">
        <ele>1375.78</ele>
        <time>2022-07-09T08:02:53Z</time>
      </trkpt>
      <trkpt lat="-25.832572700455785" lon="27.443013656884432">
        <ele>1370.98</ele>
        <time>2022-07-09T08:03:03Z</time>
      </trkpt>
      <trkpt lat="-25.832483433187008" lon="27.443046262487769">
        <ele>1370.02</ele>
        <time>2022-07-09T08:03:05Z</time>
      </trkpt>
      <trkpt lat="-25.832430375739932" lon="27.443052632734179">
        <ele>1370.02</ele>
        <time>2022-07-09T08:03:06Z</time>
      </trkpt>
      <trkpt lat="-25.831638788804412" lon="27.44311130605638">
        <ele>1365.21</ele>
        <time>2022-07-09T08:03:18Z</time>
      </trkpt>
      <trkpt lat="-25.830972846597433" lon="27.443126644939184">
        <ele>1361.8399999999999</ele>
        <time>2022-07-09T08:03:28Z</time>
      </trkpt>
      <trkpt lat="-25.830675037577748" lon="27.443067636340857">
        <ele>1360.4000000000001</ele>
        <time>2022-07-09T08:03:37Z</time>
      </trkpt>
      <trkpt lat="-25.83039122633636" lon="27.443082053214312">
        <ele>1357.52</ele>
        <time>2022-07-09T08:03:48Z</time>
      </trkpt>
      <trkpt lat="-25.830369936302304" lon="27.443088423460722">
        <ele>1357.04</ele>
        <time>2022-07-09T08:03:49Z</time>
      </trkpt>
      <trkpt lat="-25.830349065363407" lon="27.443085992708802">
        <ele>1356.5599999999999</ele>
        <time>2022-07-09T08:03:50Z</time>
      </trkpt>
      <trkpt lat="-25.830331547185779" lon="27.443076353520155">
        <ele>1356.0799999999999</ele>
        <time>2022-07-09T08:03:51Z</time>
      </trkpt>
      <trkpt lat="-25.830327020958066" lon="27.443071156740189">
        <ele>1354.6300000000001</ele>
        <time>2022-07-09T08:04:03Z</time>
      </trkpt>
      <trkpt lat="-25.830320063978434" lon="27.443065037950873">
        <ele>1355.1199999999999</ele>
        <time>2022-07-09T08:04:40Z</time>
      </trkpt>
      <trkpt lat="-25.830314196646214" lon="27.443064283579588">
        <ele>1353.6700000000001</ele>
        <time>2022-07-09T08:05:13Z</time>
      </trkpt>
      <trkpt lat="-25.830320566892624" lon="27.443057745695114">
        <ele>1353.6700000000001</ele>
        <time>2022-07-09T08:05:52Z</time>
      </trkpt>
      <trkpt lat="-25.830323165282607" lon="27.443051962181926">
        <ele>1352.71</ele>
        <time>2022-07-09T08:06:25Z</time>
      </trkpt>
      <trkpt lat="-25.830314951017499" lon="27.443065959960222">
        <ele>1352.71</ele>
        <time>2022-07-09T08:06:58Z</time>
      </trkpt>
      <trkpt lat="-25.830324590206146" lon="27.443072497844696">
        <ele>1353.6700000000001</ele>
        <time>2022-07-09T08:07:34Z</time>
      </trkpt>
      <trkpt lat="-25.83031989634037" lon="27.443060176447034">
        <ele>1352.71</ele>
        <time>2022-07-09T08:08:06Z</time>
      </trkpt>
      <trkpt lat="-25.830332469195127" lon="27.44306243956089">
        <ele>1352.71</ele>
        <time>2022-07-09T08:08:38Z</time>
      </trkpt>
      <trkpt lat="-25.830339761450887" lon="27.443060427904129">
        <ele>1353.1900000000001</ele>
        <time>2022-07-09T08:09:09Z</time>
      </trkpt>
      <trkpt lat="-25.830343700945377" lon="27.443059086799622">
        <ele>1353.6700000000001</ele>
        <time>2022-07-09T08:09:39Z</time>
      </trkpt>
      <trkpt lat="-25.830351831391454" lon="27.443055985495448">
        <ele>1355.1199999999999</ele>
        <time>2022-07-09T08:10:24Z</time>
      </trkpt>
      <trkpt lat="-25.830345712602139" lon="27.443057745695114">
        <ele>1354.6300000000001</ele>
        <time>2022-07-09T08:10:59Z</time>
      </trkpt>
      <trkpt lat="-25.830326769500971" lon="27.443066798150539">
        <ele>1354.1500000000001</ele>
        <time>2022-07-09T08:11:34Z</time>
      </trkpt>
      <trkpt lat="-25.83032283000648" lon="27.443066462874413">
        <ele>1352.71</ele>
        <time>2022-07-09T08:12:13Z</time>
      </trkpt>
      <trkpt lat="-25.830331295728683" lon="27.443060260266066">
        <ele>1352.71</ele>
        <time>2022-07-09T08:13:00Z</time>
      </trkpt>
      <trkpt lat="-25.830331295728683" lon="27.44306143373251">
        <ele>1351.27</ele>
        <time>2022-07-09T08:13:46Z</time>
      </trkpt>
      <trkpt lat="-25.830320818349719" lon="27.443048693239689">
        <ele>1350.79</ele>
        <time>2022-07-09T08:14:28Z</time>
      </trkpt>
      <trkpt lat="-25.83030036650598" lon="27.443056991323829">
        <ele>1350.3099999999999</ele>
        <time>2022-07-09T08:14:51Z</time>
      </trkpt>
      <trkpt lat="-25.830286871641874" lon="27.443064032122493">
        <ele>1352.71</ele>
        <time>2022-07-09T08:15:16Z</time>
      </trkpt>
      <trkpt lat="-25.830246303230524" lon="27.44306243956089">
        <ele>1352.23</ele>
        <time>2022-07-09T08:15:19Z</time>
      </trkpt>
      <trkpt lat="-25.830237250775099" lon="27.443069899454713">
        <ele>1351.75</ele>
        <time>2022-07-09T08:15:20Z</time>
      </trkpt>
      <trkpt lat="-25.83022995851934" lon="27.443079873919487">
        <ele>1351.75</ele>
        <time>2022-07-09T08:15:21Z</time>
      </trkpt>
      <trkpt lat="-25.830222079530358" lon="27.443091357126832">
        <ele>1351.75</ele>
        <time>2022-07-09T08:15:22Z</time>
      </trkpt>
      <trkpt lat="-25.83011906594038" lon="27.443157993257046">
        <ele>1350.79</ele>
        <time>2022-07-09T08:15:31Z</time>
      </trkpt>
      <trkpt lat="-25.830077072605491" lon="27.443156819790602">
        <ele>1350.3099999999999</ele>
        <time>2022-07-09T08:15:40Z</time>
      </trkpt>
      <trkpt lat="-25.830071205273271" lon="27.443155478686094">
        <ele>1351.75</ele>
        <time>2022-07-09T08:16:11Z</time>
      </trkpt>
      <trkpt lat="-25.830072462558746" lon="27.443156400695443">
        <ele>1351.75</ele>
        <time>2022-07-09T08:16:42Z</time>
      </trkpt>
      <trkpt lat="-25.830081766471267" lon="27.443159082904458">
        <ele>1350.3099999999999</ele>
        <time>2022-07-09T08:17:06Z</time>
      </trkpt>
      <trkpt lat="-25.830069864168763" lon="27.443149946630001">
        <ele>1349.3499999999999</ele>
        <time>2022-07-09T08:17:36Z</time>
      </trkpt>
      <trkpt lat="-25.830062991008162" lon="27.443150449544191">
        <ele>1350.3099999999999</ele>
        <time>2022-07-09T08:18:01Z</time>
      </trkpt>
      <trkpt lat="-25.830057123675942" lon="27.443158579990268">
        <ele>1350.79</ele>
        <time>2022-07-09T08:18:29Z</time>
      </trkpt>
      <trkpt lat="-25.830060644075274" lon="27.443161932751536">
        <ele>1351.75</ele>
        <time>2022-07-09T08:19:01Z</time>
      </trkpt>
      <trkpt lat="-25.830035330727696" lon="27.443156652152538">
        <ele>1351.75</ele>
        <time>2022-07-09T08:19:26Z</time>
      </trkpt>
      <trkpt lat="-25.830049579963088" lon="27.443144582211971">
        <ele>1351.27</ele>
        <time>2022-07-09T08:19:57Z</time>
      </trkpt>
      <trkpt lat="-25.83006089553237" lon="27.443153886124492">
        <ele>1352.23</ele>
        <time>2022-07-09T08:20:28Z</time>
      </trkpt>
      <trkpt lat="-25.83005796186626" lon="27.443161513656378">
        <ele>1353.1900000000001</ele>
        <time>2022-07-09T08:21:06Z</time>
      </trkpt>
      <trkpt lat="-25.830060057342052" lon="27.443149527534842">
        <ele>1353.1900000000001</ele>
        <time>2022-07-09T08:21:36Z</time>
      </trkpt>
      <trkpt lat="-25.83005502820015" lon="27.443155059590936">
        <ele>1353.1900000000001</ele>
        <time>2022-07-09T08:22:04Z</time>
      </trkpt>
      <trkpt lat="-25.830043293535709" lon="27.443156568333507">
        <ele>1352.23</ele>
        <time>2022-07-09T08:22:36Z</time>
      </trkpt>
      <trkpt lat="-25.830040946602821" lon="27.443158579990268">
        <ele>1351.27</ele>
        <time>2022-07-09T08:23:04Z</time>
      </trkpt>
      <trkpt lat="-25.830044131726027" lon="27.443144163116813">
        <ele>1351.75</ele>
        <time>2022-07-09T08:23:33Z</time>
      </trkpt>
      <trkpt lat="-25.830038096755743" lon="27.443153215572238">
        <ele>1352.23</ele>
        <time>2022-07-09T08:24:02Z</time>
      </trkpt>
      <trkpt lat="-25.830038599669933" lon="27.443146258592606">
        <ele>1351.27</ele>
        <time>2022-07-09T08:24:30Z</time>
      </trkpt>
      <trkpt lat="-25.830048993229866" lon="27.443152293562889">
        <ele>1352.71</ele>
        <time>2022-07-09T08:25:01Z</time>
      </trkpt>
      <trkpt lat="-25.830043042078614" lon="27.443142151460052">
        <ele>1351.27</ele>
        <time>2022-07-09T08:25:24Z</time>
      </trkpt>
      <trkpt lat="-25.830046227201819" lon="27.443134440109134">
        <ele>1351.75</ele>
        <time>2022-07-09T08:25:55Z</time>
      </trkpt>
      <trkpt lat="-25.830048490315676" lon="27.443149862810969">
        <ele>1353.6700000000001</ele>
        <time>2022-07-09T08:26:26Z</time>
      </trkpt>
      <trkpt lat="-25.830047400668263" lon="27.443155981600285">
        <ele>1353.1900000000001</ele>
        <time>2022-07-09T08:26:50Z</time>
      </trkpt>
      <trkpt lat="-25.829974142834544" lon="27.4431655369699">
        <ele>1352.23</ele>
        <time>2022-07-09T08:27:00Z</time>
      </trkpt>
      <trkpt lat="-25.829332508146763" lon="27.44314449839294">
        <ele>1351.27</ele>
        <time>2022-07-09T08:27:11Z</time>
      </trkpt>
      <trkpt lat="-25.828614849597216" lon="27.443194454535842">
        <ele>1355.5999999999999</ele>
        <time>2022-07-09T08:27:19Z</time>
      </trkpt>
      <trkpt lat="-25.827258741483092" lon="27.443235777318478">
        <ele>1363.77</ele>
        <time>2022-07-09T08:27:32Z</time>
      </trkpt>
      <trkpt lat="-25.825224285945296" lon="27.443315321579576">
        <ele>1364.25</ele>
        <time>2022-07-09T08:27:52Z</time>
      </trkpt>
      <trkpt lat="-25.824332535266876" lon="27.443351531401277">
        <ele>1360.4000000000001</ele>
        <time>2022-07-09T08:28:00Z</time>
      </trkpt>
      <trkpt lat="-25.823256215080619" lon="27.44340106844902">
        <ele>1352.23</ele>
        <time>2022-07-09T08:28:13Z</time>
      </trkpt>
      <trkpt lat="-25.822232700884342" lon="27.443440547212958">
        <ele>1346.46</ele>
        <time>2022-07-09T08:28:24Z</time>
      </trkpt>
      <trkpt lat="-25.821279343217611" lon="27.443372989073396">
        <ele>1341.1800000000001</ele>
        <time>2022-07-09T08:28:35Z</time>
      </trkpt>
      <trkpt lat="-25.820747092366219" lon="27.443227646872401">
        <ele>1339.73</ele>
        <time>2022-07-09T08:28:44Z</time>
      </trkpt>
      <trkpt lat="-25.82041441462934" lon="27.443046849220991">
        <ele>1338.77</ele>
        <time>2022-07-09T08:28:51Z</time>
      </trkpt>
      <trkpt lat="-25.82036898471415" lon="27.443001084029675">
        <ele>1338.77</ele>
        <time>2022-07-09T08:28:52Z</time>
      </trkpt>
      <trkpt lat="-25.820333864539862" lon="27.442948361858726">
        <ele>1338.77</ele>
        <time>2022-07-09T08:28:53Z</time>
      </trkpt>
    </trkseg>
  </trk>

</gpx>