<?xml version="1.0" encoding="utf-8"?><gpx creator="Garmin Desktop App" version="1.1" xsi:schemaLocation="http://www.topografix.com/GPX/1/1 http://www.topografix.com/GPX/1/1/gpx.xsd http://www.garmin.com/xmlschemas/WaypointExtension/v1 http://www8.garmin.com/xmlschemas/WaypointExtensionv1.xsd http://www.garmin.com/xmlschemas/TrackPointExtension/v1 http://www.garmin.com/xmlschemas/TrackPointExtensionv1.xsd http://www.garmin.com/xmlschemas/GpxExtensions/v3 http://www8.garmin.com/xmlschemas/GpxExtensionsv3.xsd http://www.garmin.com/xmlschemas/ActivityExtension/v1 http://www8.garmin.com/xmlschemas/ActivityExtensionv1.xsd http://www.garmin.com/xmlschemas/AdventuresExtensions/v1 http://www8.garmin.com/xmlschemas/AdventuresExtensionv1.xsd http://www.garmin.com/xmlschemas/PressureExtension/v1 http://www.garmin.com/xmlschemas/PressureExtensionv1.xsd http://www.garmin.com/xmlschemas/TripExtensions/v1 http://www.garmin.com/xmlschemas/TripExtensionsv1.xsd http://www.garmin.com/xmlschemas/TripMetaDataExtensions/v1 http://www.garmin.com/xmlschemas/TripMetaDataExtensionsv1.xsd http://www.garmin.com/xmlschemas/ViaPointTransportationModeExtensions/v1 http://www.garmin.com/xmlschemas/ViaPointTransportationModeExtensionsv1.xsd http://www.garmin.com/xmlschemas/CreationTimeExtension/v1 http://www.garmin.com/xmlschemas/CreationTimeExtensionsv1.xsd http://www.garmin.com/xmlschemas/AccelerationExtension/v1 http://www.garmin.com/xmlschemas/AccelerationExtensionv1.xsd http://www.garmin.com/xmlschemas/PowerExtension/v1 http://www.garmin.com/xmlschemas/PowerExtensionv1.xsd http://www.garmin.com/xmlschemas/VideoExtension/v1 http://www.garmin.com/xmlschemas/VideoExtensionv1.xsd" xmlns="http://www.topografix.com/GPX/1/1" xmlns:xsi="http://www.w3.org/2001/XMLSchema-instance" xmlns:wptx1="http://www.garmin.com/xmlschemas/WaypointExtension/v1" xmlns:gpxtrx="http://www.garmin.com/xmlschemas/GpxExtensions/v3" xmlns:gpxtpx="http://www.garmin.com/xmlschemas/TrackPointExtension/v1" xmlns:gpxx="http://www.garmin.com/xmlschemas/GpxExtensions/v3" xmlns:trp="http://www.garmin.com/xmlschemas/TripExtensions/v1" xmlns:adv="http://www.garmin.com/xmlschemas/AdventuresExtensions/v1" xmlns:prs="http://www.garmin.com/xmlschemas/PressureExtension/v1" xmlns:tmd="http://www.garmin.com/xmlschemas/TripMetaDataExtensions/v1" xmlns:vptm="http://www.garmin.com/xmlschemas/ViaPointTransportationModeExtensions/v1" xmlns:ctx="http://www.garmin.com/xmlschemas/CreationTimeExtension/v1" xmlns:gpxacc="http://www.garmin.com/xmlschemas/AccelerationExtension/v1" xmlns:gpxpx="http://www.garmin.com/xmlschemas/PowerExtension/v1" xmlns:vidx1="http://www.garmin.com/xmlschemas/VideoExtension/v1">

  <metadata>
    <link href="http://www.garmin.com">
      <text>Garmin International</text>
    </link>
    <time>2022-11-07T11:41:22Z</time>
    <bounds maxlat="-27.424755524843931" maxlon="30.08250966668129" minlat="-27.469273824244738" minlon="30.055887987837195" />
  </metadata>

  <trk>
    <name>[288] Barrowfield Pass to Dam wall</name>
    <extensions>
      <gpxx:TrackExtension>
        <gpxx:DisplayColor>Blue</gpxx:DisplayColor>
      </gpxx:TrackExtension>
    </extensions>
    <trkseg>
      <trkpt lat="-27.464866116642952" lon="30.08250966668129">
        <ele>1754.54</ele>
        <time>2022-08-08T10:05:45Z</time>
      </trkpt>
      <trkpt lat="-27.464925963431597" lon="30.082359043881297">
        <ele>1754.54</ele>
        <time>2022-08-08T10:05:46Z</time>
      </trkpt>
      <trkpt lat="-27.465002406388521" lon="30.082210935652256">
        <ele>1754.54</ele>
        <time>2022-08-08T10:05:47Z</time>
      </trkpt>
      <trkpt lat="-27.465094523504376" lon="30.082067605108023">
        <ele>1754.54</ele>
        <time>2022-08-08T10:05:48Z</time>
      </trkpt>
      <trkpt lat="-27.46519829146564" lon="30.08193165063858">
        <ele>1754.0599999999999</ele>
        <time>2022-08-08T10:05:49Z</time>
      </trkpt>
      <trkpt lat="-27.465311614796519" lon="30.081804161891341">
        <ele>1754.0599999999999</ele>
        <time>2022-08-08T10:05:50Z</time>
      </trkpt>
      <trkpt lat="-27.465431559830904" lon="30.081683043390512">
        <ele>1753.5799999999999</ele>
        <time>2022-08-08T10:05:51Z</time>
      </trkpt>
      <trkpt lat="-27.467522257938981" lon="30.079590836539865">
        <ele>1750.22</ele>
        <time>2022-08-08T10:06:08Z</time>
      </trkpt>
      <trkpt lat="-27.468136651441455" lon="30.078456681221724">
        <ele>1751.6600000000001</ele>
        <time>2022-08-08T10:06:16Z</time>
      </trkpt>
      <trkpt lat="-27.468337649479508" lon="30.076999319717288">
        <ele>1757.4300000000001</ele>
        <time>2022-08-08T10:06:24Z</time>
      </trkpt>
      <trkpt lat="-27.468472514301538" lon="30.074759172275662">
        <ele>1768.48</ele>
        <time>2022-08-08T10:06:34Z</time>
      </trkpt>
      <trkpt lat="-27.468793708831072" lon="30.070622200146317">
        <ele>1790.5899999999999</ele>
        <time>2022-08-08T10:06:51Z</time>
      </trkpt>
      <trkpt lat="-27.468996634706855" lon="30.069231810048223">
        <ele>1792.03</ele>
        <time>2022-08-08T10:06:58Z</time>
      </trkpt>
      <trkpt lat="-27.469273824244738" lon="30.067228870466352">
        <ele>1788.1900000000001</ele>
        <time>2022-08-08T10:07:09Z</time>
      </trkpt>
      <trkpt lat="-27.469127308577299" lon="30.065930597484112">
        <ele>1778.5799999999999</ele>
        <time>2022-08-08T10:07:18Z</time>
      </trkpt>
      <trkpt lat="-27.468553734943271" lon="30.064806751906872">
        <ele>1765.1199999999999</ele>
        <time>2022-08-08T10:07:26Z</time>
      </trkpt>
      <trkpt lat="-27.467550337314606" lon="30.063877869397402">
        <ele>1755.02</ele>
        <time>2022-08-08T10:07:34Z</time>
      </trkpt>
      <trkpt lat="-27.466139579191804" lon="30.062908418476582">
        <ele>1748.78</ele>
        <time>2022-08-08T10:07:42Z</time>
      </trkpt>
      <trkpt lat="-27.464438388124108" lon="30.061788847669959">
        <ele>1745.8900000000001</ele>
        <time>2022-08-08T10:07:51Z</time>
      </trkpt>
      <trkpt lat="-27.463415125384927" lon="30.061471927911043">
        <ele>1746.3699999999999</ele>
        <time>2022-08-08T10:07:57Z</time>
      </trkpt>
      <trkpt lat="-27.46214141137898" lon="30.061562201008201">
        <ele>1743.49</ele>
        <time>2022-08-08T10:08:03Z</time>
      </trkpt>
      <trkpt lat="-27.460318179801106" lon="30.061818100512028">
        <ele>1741.0799999999999</ele>
        <time>2022-08-08T10:08:12Z</time>
      </trkpt>
      <trkpt lat="-27.458751853555441" lon="30.06159489043057">
        <ele>1742.05</ele>
        <time>2022-08-08T10:08:20Z</time>
      </trkpt>
      <trkpt lat="-27.456061262637377" lon="30.061004888266325">
        <ele>1743.01</ele>
        <time>2022-08-08T10:08:32Z</time>
      </trkpt>
      <trkpt lat="-27.453074706718326" lon="30.060280440375209">
        <ele>1748.29</ele>
        <time>2022-08-08T10:08:46Z</time>
      </trkpt>
      <trkpt lat="-27.451539812609553" lon="30.059576276689768">
        <ele>1753.0999999999999</ele>
        <time>2022-08-08T10:08:55Z</time>
      </trkpt>
      <trkpt lat="-27.450405238196254" lon="30.05908627063036">
        <ele>1751.6600000000001</ele>
        <time>2022-08-08T10:09:03Z</time>
      </trkpt>
      <trkpt lat="-27.448703376576304" lon="30.058640101924539">
        <ele>1749.74</ele>
        <time>2022-08-08T10:09:13Z</time>
      </trkpt>
      <trkpt lat="-27.446555513888597" lon="30.058072479441762">
        <ele>1747.3299999999999</ele>
        <time>2022-08-08T10:09:23Z</time>
      </trkpt>
      <trkpt lat="-27.444112524390221" lon="30.056934971362352">
        <ele>1755.5</ele>
        <time>2022-08-08T10:09:35Z</time>
      </trkpt>
      <trkpt lat="-27.441599713638425" lon="30.055887987837195">
        <ele>1753.0999999999999</ele>
        <time>2022-08-08T10:09:48Z</time>
      </trkpt>
      <trkpt lat="-27.440162384882569" lon="30.055897124111652">
        <ele>1748.29</ele>
        <time>2022-08-08T10:09:56Z</time>
      </trkpt>
      <trkpt lat="-27.438877439126372" lon="30.056358212605119">
        <ele>1742.53</ele>
        <time>2022-08-08T10:10:04Z</time>
      </trkpt>
      <trkpt lat="-27.437472967430949" lon="30.057143345475197">
        <ele>1735.8</ele>
        <time>2022-08-08T10:10:14Z</time>
      </trkpt>
      <trkpt lat="-27.436303859576583" lon="30.05779922939837">
        <ele>1731.95</ele>
        <time>2022-08-08T10:10:22Z</time>
      </trkpt>
      <trkpt lat="-27.43536458350718" lon="30.058312620967627">
        <ele>1727.6300000000001</ele>
        <time>2022-08-08T10:10:32Z</time>
      </trkpt>
      <trkpt lat="-27.434374261647463" lon="30.058876974508166">
        <ele>1722.3399999999999</ele>
        <time>2022-08-08T10:10:40Z</time>
      </trkpt>
      <trkpt lat="-27.43333482183516" lon="30.059871319681406">
        <ele>1713.6900000000001</ele>
        <time>2022-08-08T10:10:50Z</time>
      </trkpt>
      <trkpt lat="-27.432427816092968" lon="30.060856444761157">
        <ele>1700.23</ele>
        <time>2022-08-08T10:11:00Z</time>
      </trkpt>
      <trkpt lat="-27.431180840358138" lon="30.061542671173811">
        <ele>1695.4200000000001</ele>
        <time>2022-08-08T10:11:09Z</time>
      </trkpt>
      <trkpt lat="-27.429207572713494" lon="30.062575154006481">
        <ele>1712.73</ele>
        <time>2022-08-08T10:11:20Z</time>
      </trkpt>
      <trkpt lat="-27.427615094929934" lon="30.063558099791408">
        <ele>1734.8399999999999</ele>
        <time>2022-08-08T10:11:30Z</time>
      </trkpt>
      <trkpt lat="-27.426041644066572" lon="30.064580272883177">
        <ele>1749.74</ele>
        <time>2022-08-08T10:11:41Z</time>
      </trkpt>
      <trkpt lat="-27.42506381124258" lon="30.064778923988342">
        <ele>1753.0999999999999</ele>
        <time>2022-08-08T10:11:48Z</time>
      </trkpt>
      <trkpt lat="-27.424763739109039" lon="30.064769703894854">
        <ele>1754.0599999999999</ele>
        <time>2022-08-08T10:11:53Z</time>
      </trkpt>
      <trkpt lat="-27.424755524843931" lon="30.064784456044436">
        <ele>1754.54</ele>
        <time>2022-08-08T10:11:54Z</time>
      </trkpt>
      <trkpt lat="-27.424758290871978" lon="30.064797028899193">
        <ele>1754.54</ele>
        <time>2022-08-08T10:11:55Z</time>
      </trkpt>
      <trkpt lat="-27.4247657507658" lon="30.064806500449777">
        <ele>1754.54</ele>
        <time>2022-08-08T10:11:56Z</time>
      </trkpt>
      <trkpt lat="-27.424779329448938" lon="30.064813457429409">
        <ele>1754.54</ele>
        <time>2022-08-08T10:11:57Z</time>
      </trkpt>
      <trkpt lat="-27.424807827919722" lon="30.064819240942597">
        <ele>1755.02</ele>
        <time>2022-08-08T10:11:58Z</time>
      </trkpt>
      <trkpt lat="-27.424834817647934" lon="30.064818989485502">
        <ele>1754.54</ele>
        <time>2022-08-08T10:11:59Z</time>
      </trkpt>
      <trkpt lat="-27.424884522333741" lon="30.064817145466805">
        <ele>1754.54</ele>
        <time>2022-08-08T10:12:00Z</time>
      </trkpt>
      <trkpt lat="-27.425337480381131" lon="30.064816391095519">
        <ele>1753.5799999999999</ele>
        <time>2022-08-08T10:12:06Z</time>
      </trkpt>
      <trkpt lat="-27.425389280542731" lon="30.064842626452446">
        <ele>1753.0999999999999</ele>
        <time>2022-08-08T10:12:07Z</time>
      </trkpt>
      <trkpt lat="-27.425409145653248" lon="30.064867185428739">
        <ele>1753.0999999999999</ele>
        <time>2022-08-08T10:12:08Z</time>
      </trkpt>
      <trkpt lat="-27.425434878095984" lon="30.06491219624877">
        <ele>1753.0999999999999</ele>
        <time>2022-08-08T10:12:09Z</time>
      </trkpt>
      <trkpt lat="-27.425465723499656" lon="30.064970953390002">
        <ele>1753.0999999999999</ele>
        <time>2022-08-08T10:12:10Z</time>
      </trkpt>
      <trkpt lat="-27.425512243062258" lon="30.065033817663789">
        <ele>1753.0999999999999</ele>
        <time>2022-08-08T10:12:11Z</time>
      </trkpt>
      <trkpt lat="-27.425577873364091" lon="30.065089222043753">
        <ele>1753.0999999999999</ele>
        <time>2022-08-08T10:12:12Z</time>
      </trkpt>
      <trkpt lat="-27.425656914710999" lon="30.065132388845086">
        <ele>1753.0999999999999</ele>
        <time>2022-08-08T10:12:13Z</time>
      </trkpt>
      <trkpt lat="-27.425745511427522" lon="30.065168933942914">
        <ele>1753.0999999999999</ele>
        <time>2022-08-08T10:12:14Z</time>
      </trkpt>
      <trkpt lat="-27.425844417884946" lon="30.065206401050091">
        <ele>1753.0999999999999</ele>
        <time>2022-08-08T10:12:15Z</time>
      </trkpt>
      <trkpt lat="-27.426850916817784" lon="30.065553076565266">
        <ele>1752.1400000000001</ele>
        <time>2022-08-08T10:12:22Z</time>
      </trkpt>
      <trkpt lat="-27.428484549745917" lon="30.066129164770246">
        <ele>1752.6199999999999</ele>
        <time>2022-08-08T10:12:30Z</time>
      </trkpt>
      <trkpt lat="-27.429852141067386" lon="30.066578686237335">
        <ele>1753.0999999999999</ele>
        <time>2022-08-08T10:12:37Z</time>
      </trkpt>
      <trkpt lat="-27.431139266118407" lon="30.066543063148856">
        <ele>1751.1800000000001</ele>
        <time>2022-08-08T10:12:45Z</time>
      </trkpt>
      <trkpt lat="-27.431290224194527" lon="30.066484725102782">
        <ele>1750.7</ele>
        <time>2022-08-08T10:12:46Z</time>
      </trkpt>
      <trkpt lat="-27.431440846994519" lon="30.066410209983587">
        <ele>1749.74</ele>
        <time>2022-08-08T10:12:47Z</time>
      </trkpt>
      <trkpt lat="-27.432972388342023" lon="30.065475711598992">
        <ele>1739.6400000000001</ele>
        <time>2022-08-08T10:12:56Z</time>
      </trkpt>
      <trkpt lat="-27.434147698804736" lon="30.064772637560964">
        <ele>1739.1600000000001</ele>
        <time>2022-08-08T10:13:03Z</time>
      </trkpt>
      <trkpt lat="-27.434763181954622" lon="30.064429230988026">
        <ele>1740.1199999999999</ele>
        <time>2022-08-08T10:13:09Z</time>
      </trkpt>
      <trkpt lat="-27.434874661266804" lon="30.064399978145957">
        <ele>1740.1199999999999</ele>
        <time>2022-08-08T10:13:10Z</time>
      </trkpt>
      <trkpt lat="-27.436292711645365" lon="30.064149107784033">
        <ele>1740.5999999999999</ele>
        <time>2022-08-08T10:13:21Z</time>
      </trkpt>
      <trkpt lat="-27.436668975278735" lon="30.063957078382373">
        <ele>1740.5999999999999</ele>
        <time>2022-08-08T10:13:24Z</time>
      </trkpt>
      <trkpt lat="-27.43678062222898" lon="30.063871834427118">
        <ele>1741.0799999999999</ele>
        <time>2022-08-08T10:13:25Z</time>
      </trkpt>
      <trkpt lat="-27.436887994408607" lon="30.063775274902582">
        <ele>1741.0799999999999</ele>
        <time>2022-08-08T10:13:26Z</time>
      </trkpt>
      <trkpt lat="-27.436991930007935" lon="30.063670920208097">
        <ele>1741.0799999999999</ele>
        <time>2022-08-08T10:13:27Z</time>
      </trkpt>
      <trkpt lat="-27.437091507017612" lon="30.063557513058186">
        <ele>1741.5699999999999</ele>
        <time>2022-08-08T10:13:28Z</time>
      </trkpt>
      <trkpt lat="-27.437187312170863" lon="30.063434801995754">
        <ele>1741.5699999999999</ele>
        <time>2022-08-08T10:13:29Z</time>
      </trkpt>
      <trkpt lat="-27.437277166172862" lon="30.063309744000435">
        <ele>1741.5699999999999</ele>
        <time>2022-08-08T10:13:30Z</time>
      </trkpt>
      <trkpt lat="-27.437567934393883" lon="30.062850750982761">
        <ele>1742.53</ele>
        <time>2022-08-08T10:13:35Z</time>
      </trkpt>
      <trkpt lat="-27.437583860009909" lon="30.062792664393783">
        <ele>1742.53</ele>
        <time>2022-08-08T10:13:36Z</time>
      </trkpt>
      <trkpt lat="-27.437583776190877" lon="30.062743294984102">
        <ele>1742.05</ele>
        <time>2022-08-08T10:13:37Z</time>
      </trkpt>
      <trkpt lat="-27.437571538612247" lon="30.062691913917661">
        <ele>1742.05</ele>
        <time>2022-08-08T10:13:38Z</time>
      </trkpt>
      <trkpt lat="-27.437547566369176" lon="30.062631228938699">
        <ele>1741.5699999999999</ele>
        <time>2022-08-08T10:13:39Z</time>
      </trkpt>
      <trkpt lat="-27.437515296041965" lon="30.062554785981774">
        <ele>1740.5999999999999</ele>
        <time>2022-08-08T10:13:40Z</time>
      </trkpt>
      <trkpt lat="-27.4372199177742" lon="30.061676613986492">
        <ele>1731.47</ele>
        <time>2022-08-08T10:13:48Z</time>
      </trkpt>
      <trkpt lat="-27.437208518385887" lon="30.06156362593174">
        <ele>1730.03</ele>
        <time>2022-08-08T10:13:49Z</time>
      </trkpt>
      <trkpt lat="-27.437209859490395" lon="30.061451643705368">
        <ele>1729.0699999999999</ele>
        <time>2022-08-08T10:13:50Z</time>
      </trkpt>
      <trkpt lat="-27.437222432345152" lon="30.061339410021901">
        <ele>1727.6300000000001</ele>
        <time>2022-08-08T10:13:51Z</time>
      </trkpt>
      <trkpt lat="-27.437243890017271" lon="30.0612254999578">
        <ele>1726.1800000000001</ele>
        <time>2022-08-08T10:13:52Z</time>
      </trkpt>
      <trkpt lat="-27.437268616631627" lon="30.061108404770494">
        <ele>1725.22</ele>
        <time>2022-08-08T10:13:53Z</time>
      </trkpt>
      <trkpt lat="-27.437555864453316" lon="30.05994332022965">
        <ele>1711.28</ele>
        <time>2022-08-08T10:14:03Z</time>
      </trkpt>
      <trkpt lat="-27.437589140608907" lon="30.059861177578568">
        <ele>1710.3199999999999</ele>
        <time>2022-08-08T10:14:04Z</time>
      </trkpt>
      <trkpt lat="-27.437626356258988" lon="30.059789763763547">
        <ele>1709.3599999999999</ele>
        <time>2022-08-08T10:14:05Z</time>
      </trkpt>
      <trkpt lat="-27.437664913013577" lon="30.059732096269727">
        <ele>1708.4000000000001</ele>
        <time>2022-08-08T10:14:06Z</time>
      </trkpt>
      <trkpt lat="-27.437699027359486" lon="30.059683565050364">
        <ele>1707.9200000000001</ele>
        <time>2022-08-08T10:14:07Z</time>
      </trkpt>
      <trkpt lat="-27.437723921611905" lon="30.059641320258379">
        <ele>1707.4400000000001</ele>
        <time>2022-08-08T10:14:08Z</time>
      </trkpt>
      <trkpt lat="-27.43773833848536" lon="30.059602931141853">
        <ele>1706.48</ele>
        <time>2022-08-08T10:14:09Z</time>
      </trkpt>
      <trkpt lat="-27.437742529436946" lon="30.059572923928499">
        <ele>1706.48</ele>
        <time>2022-08-08T10:14:10Z</time>
      </trkpt>
      <trkpt lat="-27.437756778672338" lon="30.059557668864727">
        <ele>1707.9200000000001</ele>
        <time>2022-08-08T10:14:20Z</time>
      </trkpt>
      <trkpt lat="-27.437758119776845" lon="30.059571666643023">
        <ele>1709.8399999999999</ele>
        <time>2022-08-08T10:14:46Z</time>
      </trkpt>
    </trkseg>
  </trk>

</gpx>