<?xml version="1.0" encoding="utf-8"?><gpx creator="Garmin Desktop App" version="1.1" xsi:schemaLocation="http://www.topografix.com/GPX/1/1 http://www.topografix.com/GPX/1/1/gpx.xsd http://www.garmin.com/xmlschemas/WaypointExtension/v1 http://www8.garmin.com/xmlschemas/WaypointExtensionv1.xsd http://www.garmin.com/xmlschemas/TrackPointExtension/v1 http://www.garmin.com/xmlschemas/TrackPointExtensionv1.xsd http://www.garmin.com/xmlschemas/GpxExtensions/v3 http://www8.garmin.com/xmlschemas/GpxExtensionsv3.xsd http://www.garmin.com/xmlschemas/ActivityExtension/v1 http://www8.garmin.com/xmlschemas/ActivityExtensionv1.xsd http://www.garmin.com/xmlschemas/AdventuresExtensions/v1 http://www8.garmin.com/xmlschemas/AdventuresExtensionv1.xsd http://www.garmin.com/xmlschemas/PressureExtension/v1 http://www.garmin.com/xmlschemas/PressureExtensionv1.xsd http://www.garmin.com/xmlschemas/TripExtensions/v1 http://www.garmin.com/xmlschemas/TripExtensionsv1.xsd http://www.garmin.com/xmlschemas/TripMetaDataExtensions/v1 http://www.garmin.com/xmlschemas/TripMetaDataExtensionsv1.xsd http://www.garmin.com/xmlschemas/ViaPointTransportationModeExtensions/v1 http://www.garmin.com/xmlschemas/ViaPointTransportationModeExtensionsv1.xsd http://www.garmin.com/xmlschemas/CreationTimeExtension/v1 http://www.garmin.com/xmlschemas/CreationTimeExtensionsv1.xsd http://www.garmin.com/xmlschemas/AccelerationExtension/v1 http://www.garmin.com/xmlschemas/AccelerationExtensionv1.xsd http://www.garmin.com/xmlschemas/PowerExtension/v1 http://www.garmin.com/xmlschemas/PowerExtensionv1.xsd http://www.garmin.com/xmlschemas/VideoExtension/v1 http://www.garmin.com/xmlschemas/VideoExtensionv1.xsd" xmlns="http://www.topografix.com/GPX/1/1" xmlns:xsi="http://www.w3.org/2001/XMLSchema-instance" xmlns:wptx1="http://www.garmin.com/xmlschemas/WaypointExtension/v1" xmlns:gpxtrx="http://www.garmin.com/xmlschemas/GpxExtensions/v3" xmlns:gpxtpx="http://www.garmin.com/xmlschemas/TrackPointExtension/v1" xmlns:gpxx="http://www.garmin.com/xmlschemas/GpxExtensions/v3" xmlns:trp="http://www.garmin.com/xmlschemas/TripExtensions/v1" xmlns:adv="http://www.garmin.com/xmlschemas/AdventuresExtensions/v1" xmlns:prs="http://www.garmin.com/xmlschemas/PressureExtension/v1" xmlns:tmd="http://www.garmin.com/xmlschemas/TripMetaDataExtensions/v1" xmlns:vptm="http://www.garmin.com/xmlschemas/ViaPointTransportationModeExtensions/v1" xmlns:ctx="http://www.garmin.com/xmlschemas/CreationTimeExtension/v1" xmlns:gpxacc="http://www.garmin.com/xmlschemas/AccelerationExtension/v1" xmlns:gpxpx="http://www.garmin.com/xmlschemas/PowerExtension/v1" xmlns:vidx1="http://www.garmin.com/xmlschemas/VideoExtension/v1">

  <metadata>
    <link href="http://www.garmin.com">
      <text>Garmin International</text>
    </link>
    <time>2022-11-07T13:19:37Z</time>
    <bounds maxlat="-27.493784772232175" maxlon="29.76392668671906" minlat="-27.524151653051376" minlon="29.744042968377471" />
  </metadata>

  <trk>
    <name>[293] Kwaggasnek Pass</name>
    <extensions>
      <gpxx:TrackExtension>
        <gpxx:DisplayColor>Red</gpxx:DisplayColor>
      </gpxx:TrackExtension>
    </extensions>
    <trkseg>
      <trkpt lat="-27.493784772232175" lon="29.76392668671906">
        <ele>1604.0999999999999</ele>
        <time>2022-08-08T11:30:02Z</time>
      </trkpt>
      <trkpt lat="-27.493882589042187" lon="29.76382409222424">
        <ele>1603.6199999999999</ele>
        <time>2022-08-08T11:30:03Z</time>
      </trkpt>
      <trkpt lat="-27.493986440822482" lon="29.763735327869654">
        <ele>1603.1400000000001</ele>
        <time>2022-08-08T11:30:04Z</time>
      </trkpt>
      <trkpt lat="-27.494092555716634" lon="29.76365645416081">
        <ele>1602.1700000000001</ele>
        <time>2022-08-08T11:30:05Z</time>
      </trkpt>
      <trkpt lat="-27.495092349126935" lon="29.762977687641978">
        <ele>1598.8099999999999</ele>
        <time>2022-08-08T11:30:14Z</time>
      </trkpt>
      <trkpt lat="-27.495968509465456" lon="29.762334879487753">
        <ele>1603.1400000000001</ele>
        <time>2022-08-08T11:30:21Z</time>
      </trkpt>
      <trkpt lat="-27.496993616223335" lon="29.761543795466423">
        <ele>1606.98</ele>
        <time>2022-08-08T11:30:28Z</time>
      </trkpt>
      <trkpt lat="-27.498772088438272" lon="29.760180059820414">
        <ele>1614.6700000000001</ele>
        <time>2022-08-08T11:30:38Z</time>
      </trkpt>
      <trkpt lat="-27.499913536012173" lon="29.759034924209118">
        <ele>1616.5899999999999</ele>
        <time>2022-08-08T11:30:47Z</time>
      </trkpt>
      <trkpt lat="-27.501179706305265" lon="29.757575718685985">
        <ele>1611.79</ele>
        <time>2022-08-08T11:30:57Z</time>
      </trkpt>
      <trkpt lat="-27.502776877954602" lon="29.755745194852352">
        <ele>1619</ele>
        <time>2022-08-08T11:31:08Z</time>
      </trkpt>
      <trkpt lat="-27.50496044754982" lon="29.753526337444782">
        <ele>1631.98</ele>
        <time>2022-08-08T11:31:21Z</time>
      </trkpt>
      <trkpt lat="-27.506581256166101" lon="29.752180874347687">
        <ele>1643.51</ele>
        <time>2022-08-08T11:31:31Z</time>
      </trkpt>
      <trkpt lat="-27.508021937683225" lon="29.75098880007863">
        <ele>1653.5999999999999</ele>
        <time>2022-08-08T11:31:41Z</time>
      </trkpt>
      <trkpt lat="-27.509240582585335" lon="29.749724306166172">
        <ele>1661.3</ele>
        <time>2022-08-08T11:31:51Z</time>
      </trkpt>
      <trkpt lat="-27.509970981627703" lon="29.749005809426308">
        <ele>1662.74</ele>
        <time>2022-08-08T11:31:59Z</time>
      </trkpt>
      <trkpt lat="-27.511165486648679" lon="29.748041303828359">
        <ele>1666.5799999999999</ele>
        <time>2022-08-08T11:32:09Z</time>
      </trkpt>
      <trkpt lat="-27.512842621654272" lon="29.746689386665821">
        <ele>1678.1199999999999</ele>
        <time>2022-08-08T11:32:21Z</time>
      </trkpt>
      <trkpt lat="-27.514649089425802" lon="29.745436375960708">
        <ele>1690.1400000000001</ele>
        <time>2022-08-08T11:32:31Z</time>
      </trkpt>
      <trkpt lat="-27.515991535037756" lon="29.744534315541387">
        <ele>1703.1099999999999</ele>
        <time>2022-08-08T11:32:39Z</time>
      </trkpt>
      <trkpt lat="-27.51652873121202" lon="29.744267351925373">
        <ele>1708.4000000000001</ele>
        <time>2022-08-08T11:32:43Z</time>
      </trkpt>
      <trkpt lat="-27.516677090898156" lon="29.744236255064607">
        <ele>1710.3199999999999</ele>
        <time>2022-08-08T11:32:44Z</time>
      </trkpt>
      <trkpt lat="-27.516829809173942" lon="29.744220916181803">
        <ele>1711.76</ele>
        <time>2022-08-08T11:32:45Z</time>
      </trkpt>
      <trkpt lat="-27.518530832603574" lon="29.744134582579136">
        <ele>1730.99</ele>
        <time>2022-08-08T11:32:56Z</time>
      </trkpt>
      <trkpt lat="-27.519983500242233" lon="29.744042968377471">
        <ele>1743.01</ele>
        <time>2022-08-08T11:33:05Z</time>
      </trkpt>
      <trkpt lat="-27.521197702735662" lon="29.744306663051248">
        <ele>1751.6600000000001</ele>
        <time>2022-08-08T11:33:13Z</time>
      </trkpt>
      <trkpt lat="-27.522429004311562" lon="29.744519563391805">
        <ele>1767.04</ele>
        <time>2022-08-08T11:33:22Z</time>
      </trkpt>
      <trkpt lat="-27.523172646760941" lon="29.744560718536377">
        <ele>1776.6500000000001</ele>
        <time>2022-08-08T11:33:29Z</time>
      </trkpt>
      <trkpt lat="-27.523219166323543" lon="29.744573459029198">
        <ele>1777.1300000000001</ele>
        <time>2022-08-08T11:33:30Z</time>
      </trkpt>
      <trkpt lat="-27.523262081667781" lon="29.744592234492302">
        <ele>1776.6500000000001</ele>
        <time>2022-08-08T11:33:37Z</time>
      </trkpt>
      <trkpt lat="-27.523254035040736" lon="29.744594162330031">
        <ele>1776.6500000000001</ele>
        <time>2022-08-08T11:34:08Z</time>
      </trkpt>
      <trkpt lat="-27.523250179365277" lon="29.744596173986793">
        <ele>1777.1300000000001</ele>
        <time>2022-08-08T11:34:45Z</time>
      </trkpt>
      <trkpt lat="-27.523248502984643" lon="29.744600113481283">
        <ele>1776.6500000000001</ele>
        <time>2022-08-08T11:35:20Z</time>
      </trkpt>
      <trkpt lat="-27.523246742784977" lon="29.744604220613837">
        <ele>1777.1300000000001</ele>
        <time>2022-08-08T11:35:51Z</time>
      </trkpt>
      <trkpt lat="-27.523249592632055" lon="29.744603214785457">
        <ele>1777.1300000000001</ele>
        <time>2022-08-08T11:36:24Z</time>
      </trkpt>
      <trkpt lat="-27.5232542026788" lon="29.744598269462585">
        <ele>1777.6099999999999</ele>
        <time>2022-08-08T11:36:55Z</time>
      </trkpt>
      <trkpt lat="-27.523254957050085" lon="29.744602208957076">
        <ele>1777.1300000000001</ele>
        <time>2022-08-08T11:37:22Z</time>
      </trkpt>
      <trkpt lat="-27.523254789412022" lon="29.744602795690298">
        <ele>1778.0999999999999</ele>
        <time>2022-08-08T11:37:59Z</time>
      </trkpt>
      <trkpt lat="-27.523258561268449" lon="29.744601873680949">
        <ele>1777.6099999999999</ele>
        <time>2022-08-08T11:38:37Z</time>
      </trkpt>
      <trkpt lat="-27.523254118859768" lon="29.744599442929029">
        <ele>1778.0999999999999</ele>
        <time>2022-08-08T11:39:10Z</time>
      </trkpt>
      <trkpt lat="-27.523252693936229" lon="29.744598940014839">
        <ele>1778.5799999999999</ele>
        <time>2022-08-08T11:39:47Z</time>
      </trkpt>
      <trkpt lat="-27.523256046697497" lon="29.744605645537376">
        <ele>1778.0999999999999</ele>
        <time>2022-08-08T11:40:26Z</time>
      </trkpt>
      <trkpt lat="-27.523250430822372" lon="29.744608495384455">
        <ele>1778.0999999999999</ele>
        <time>2022-08-08T11:41:07Z</time>
      </trkpt>
      <trkpt lat="-27.52324934117496" lon="29.744604807347059">
        <ele>1776.6500000000001</ele>
        <time>2022-08-08T11:41:36Z</time>
      </trkpt>
      <trkpt lat="-27.523262752220035" lon="29.744593659415841">
        <ele>1776.1700000000001</ele>
        <time>2022-08-08T11:41:59Z</time>
      </trkpt>
      <trkpt lat="-27.523496355861425" lon="29.744563987478614">
        <ele>1775.21</ele>
        <time>2022-08-08T11:42:08Z</time>
      </trkpt>
      <trkpt lat="-27.523800116032362" lon="29.744471283629537">
        <ele>1773.29</ele>
        <time>2022-08-08T11:42:18Z</time>
      </trkpt>
      <trkpt lat="-27.524151653051376" lon="29.74450808018446">
        <ele>1763.2</ele>
        <time>2022-08-08T11:42:30Z</time>
      </trkpt>
    </trkseg>
  </trk>

</gpx>