<?xml version="1.0" encoding="utf-8"?><gpx creator="Garmin Desktop App" version="1.1" xsi:schemaLocation="http://www.topografix.com/GPX/1/1 http://www.topografix.com/GPX/1/1/gpx.xsd http://www.garmin.com/xmlschemas/WaypointExtension/v1 http://www8.garmin.com/xmlschemas/WaypointExtensionv1.xsd http://www.garmin.com/xmlschemas/TrackPointExtension/v1 http://www.garmin.com/xmlschemas/TrackPointExtensionv1.xsd http://www.garmin.com/xmlschemas/GpxExtensions/v3 http://www8.garmin.com/xmlschemas/GpxExtensionsv3.xsd http://www.garmin.com/xmlschemas/ActivityExtension/v1 http://www8.garmin.com/xmlschemas/ActivityExtensionv1.xsd http://www.garmin.com/xmlschemas/AdventuresExtensions/v1 http://www8.garmin.com/xmlschemas/AdventuresExtensionv1.xsd http://www.garmin.com/xmlschemas/PressureExtension/v1 http://www.garmin.com/xmlschemas/PressureExtensionv1.xsd http://www.garmin.com/xmlschemas/TripExtensions/v1 http://www.garmin.com/xmlschemas/TripExtensionsv1.xsd http://www.garmin.com/xmlschemas/TripMetaDataExtensions/v1 http://www.garmin.com/xmlschemas/TripMetaDataExtensionsv1.xsd http://www.garmin.com/xmlschemas/ViaPointTransportationModeExtensions/v1 http://www.garmin.com/xmlschemas/ViaPointTransportationModeExtensionsv1.xsd http://www.garmin.com/xmlschemas/CreationTimeExtension/v1 http://www.garmin.com/xmlschemas/CreationTimeExtensionsv1.xsd http://www.garmin.com/xmlschemas/AccelerationExtension/v1 http://www.garmin.com/xmlschemas/AccelerationExtensionv1.xsd http://www.garmin.com/xmlschemas/PowerExtension/v1 http://www.garmin.com/xmlschemas/PowerExtensionv1.xsd http://www.garmin.com/xmlschemas/VideoExtension/v1 http://www.garmin.com/xmlschemas/VideoExtensionv1.xsd" xmlns="http://www.topografix.com/GPX/1/1" xmlns:xsi="http://www.w3.org/2001/XMLSchema-instance" xmlns:wptx1="http://www.garmin.com/xmlschemas/WaypointExtension/v1" xmlns:gpxtrx="http://www.garmin.com/xmlschemas/GpxExtensions/v3" xmlns:gpxtpx="http://www.garmin.com/xmlschemas/TrackPointExtension/v1" xmlns:gpxx="http://www.garmin.com/xmlschemas/GpxExtensions/v3" xmlns:trp="http://www.garmin.com/xmlschemas/TripExtensions/v1" xmlns:adv="http://www.garmin.com/xmlschemas/AdventuresExtensions/v1" xmlns:prs="http://www.garmin.com/xmlschemas/PressureExtension/v1" xmlns:tmd="http://www.garmin.com/xmlschemas/TripMetaDataExtensions/v1" xmlns:vptm="http://www.garmin.com/xmlschemas/ViaPointTransportationModeExtensions/v1" xmlns:ctx="http://www.garmin.com/xmlschemas/CreationTimeExtension/v1" xmlns:gpxacc="http://www.garmin.com/xmlschemas/AccelerationExtension/v1" xmlns:gpxpx="http://www.garmin.com/xmlschemas/PowerExtension/v1" xmlns:vidx1="http://www.garmin.com/xmlschemas/VideoExtension/v1">

  <metadata>
    <link href="http://www.garmin.com">
      <text>Garmin International</text>
    </link>
    <time>2023-01-21T18:25:03Z</time>
    <bounds maxlat="-27.539338236674666" maxlon="29.694804819300771" minlat="-27.664737543091178" minlon="29.598471187055111" />
  </metadata>

  <trk>
    <name>[318] Majuba Dirt Road - West Section</name>
    <extensions>
      <gpxx:TrackExtension>
        <gpxx:DisplayColor>Blue</gpxx:DisplayColor>
      </gpxx:TrackExtension>
    </extensions>
    <trkseg>
      <trkpt lat="-27.543380074203014" lon="29.694804819300771">
        <ele>1710.3199999999999</ele>
        <time>2022-10-29T09:09:29Z</time>
      </trkpt>
      <trkpt lat="-27.543329447507858" lon="29.692271975800395">
        <ele>1713.21</ele>
        <time>2022-10-29T09:09:41Z</time>
      </trkpt>
      <trkpt lat="-27.543244119733572" lon="29.689351804554462">
        <ele>1722.3399999999999</ele>
        <time>2022-10-29T09:09:54Z</time>
      </trkpt>
      <trkpt lat="-27.543174298480153" lon="29.686316885054111">
        <ele>1733.8800000000001</ele>
        <time>2022-10-29T09:10:08Z</time>
      </trkpt>
      <trkpt lat="-27.543100956827402" lon="29.684087047353387">
        <ele>1741.0799999999999</ele>
        <time>2022-10-29T09:10:19Z</time>
      </trkpt>
      <trkpt lat="-27.5430026371032" lon="29.680143781006336">
        <ele>1743.01</ele>
        <time>2022-10-29T09:10:38Z</time>
      </trkpt>
      <trkpt lat="-27.542948992922902" lon="29.677527872845531">
        <ele>1745.8900000000001</ele>
        <time>2022-10-29T09:10:51Z</time>
      </trkpt>
      <trkpt lat="-27.542905574664474" lon="29.675549492239952">
        <ele>1752.1400000000001</ele>
        <time>2022-10-29T09:11:01Z</time>
      </trkpt>
      <trkpt lat="-27.54283013753593" lon="29.672724371775985">
        <ele>1760.79</ele>
        <time>2022-10-29T09:11:14Z</time>
      </trkpt>
      <trkpt lat="-27.54274757578969" lon="29.670256739482284">
        <ele>1768.48</ele>
        <time>2022-10-29T09:11:25Z</time>
      </trkpt>
      <trkpt lat="-27.542624864727259" lon="29.667876781895757">
        <ele>1770.8900000000001</ele>
        <time>2022-10-29T09:11:36Z</time>
      </trkpt>
      <trkpt lat="-27.542156735435128" lon="29.665527669712901">
        <ele>1761.75</ele>
        <time>2022-10-29T09:11:48Z</time>
      </trkpt>
      <trkpt lat="-27.541902009397745" lon="29.664241634309292">
        <ele>1767.04</ele>
        <time>2022-10-29T09:11:56Z</time>
      </trkpt>
      <trkpt lat="-27.541719703003764" lon="29.663248294964433">
        <ele>1770.4100000000001</ele>
        <time>2022-10-29T09:12:06Z</time>
      </trkpt>
      <trkpt lat="-27.541402615606785" lon="29.661777941510081">
        <ele>1772.8099999999999</ele>
        <time>2022-10-29T09:12:18Z</time>
      </trkpt>
      <trkpt lat="-27.541262386366725" lon="29.661130104213953">
        <ele>1774.73</ele>
        <time>2022-10-29T09:12:24Z</time>
      </trkpt>
      <trkpt lat="-27.541118804365396" lon="29.660440860316157">
        <ele>1777.6099999999999</ele>
        <time>2022-10-29T09:12:31Z</time>
      </trkpt>
      <trkpt lat="-27.540926020592451" lon="29.65943050570786">
        <ele>1783.3800000000001</ele>
        <time>2022-10-29T09:12:38Z</time>
      </trkpt>
      <trkpt lat="-27.54068898037076" lon="29.658131394535303">
        <ele>1790.5899999999999</ele>
        <time>2022-10-29T09:12:48Z</time>
      </trkpt>
      <trkpt lat="-27.540274327620864" lon="29.655966265127063">
        <ele>1801.6500000000001</ele>
        <time>2022-10-29T09:13:01Z</time>
      </trkpt>
      <trkpt lat="-27.540149856358767" lon="29.654067680239677">
        <ele>1799.24</ele>
        <time>2022-10-29T09:13:13Z</time>
      </trkpt>
      <trkpt lat="-27.540039718151093" lon="29.651948483660817">
        <ele>1786.27</ele>
        <time>2022-10-29T09:13:26Z</time>
      </trkpt>
      <trkpt lat="-27.539857244119048" lon="29.648609049618244">
        <ele>1767.04</ele>
        <time>2022-10-29T09:13:45Z</time>
      </trkpt>
      <trkpt lat="-27.539739226922393" lon="29.646185003221035">
        <ele>1758.8699999999999</ele>
        <time>2022-10-29T09:13:57Z</time>
      </trkpt>
      <trkpt lat="-27.53964870236814" lon="29.644344421103597">
        <ele>1754.0599999999999</ele>
        <time>2022-10-29T09:14:06Z</time>
      </trkpt>
      <trkpt lat="-27.539481399580836" lon="29.641463225707412">
        <ele>1745.4100000000001</ele>
        <time>2022-10-29T09:14:20Z</time>
      </trkpt>
      <trkpt lat="-27.539338236674666" lon="29.638145416975021">
        <ele>1739.1600000000001</ele>
        <time>2022-10-29T09:14:35Z</time>
      </trkpt>
      <trkpt lat="-27.539659263566136" lon="29.636769024655223">
        <ele>1740.5999999999999</ele>
        <time>2022-10-29T09:14:42Z</time>
      </trkpt>
      <trkpt lat="-27.540434002876282" lon="29.635612824931741">
        <ele>1743.97</ele>
        <time>2022-10-29T09:14:49Z</time>
      </trkpt>
      <trkpt lat="-27.541731270030141" lon="29.634662736207247">
        <ele>1747.3299999999999</ele>
        <time>2022-10-29T09:14:57Z</time>
      </trkpt>
      <trkpt lat="-27.543924311175942" lon="29.633200513198972">
        <ele>1750.22</ele>
        <time>2022-10-29T09:15:09Z</time>
      </trkpt>
      <trkpt lat="-27.545114876702428" lon="29.632404148578644">
        <ele>1749.26</ele>
        <time>2022-10-29T09:15:17Z</time>
      </trkpt>
      <trkpt lat="-27.546457992866635" lon="29.631484989076853">
        <ele>1740.1199999999999</ele>
        <time>2022-10-29T09:15:28Z</time>
      </trkpt>
      <trkpt lat="-27.547603966668248" lon="29.630722152069211">
        <ele>1732.9100000000001</ele>
        <time>2022-10-29T09:15:39Z</time>
      </trkpt>
      <trkpt lat="-27.548683974891901" lon="29.629974737763405">
        <ele>1726.1800000000001</ele>
        <time>2022-10-29T09:15:49Z</time>
      </trkpt>
      <trkpt lat="-27.549594501033425" lon="29.629386747255921">
        <ele>1722.8199999999999</ele>
        <time>2022-10-29T09:15:56Z</time>
      </trkpt>
      <trkpt lat="-27.551940847188234" lon="29.627792006358504">
        <ele>1717.53</ele>
        <time>2022-10-29T09:16:11Z</time>
      </trkpt>
      <trkpt lat="-27.553231660276651" lon="29.626934789121151">
        <ele>1713.6900000000001</ele>
        <time>2022-10-29T09:16:21Z</time>
      </trkpt>
      <trkpt lat="-27.555304756388068" lon="29.625553619116545">
        <ele>1719.9400000000001</ele>
        <time>2022-10-29T09:16:36Z</time>
      </trkpt>
      <trkpt lat="-27.557415319606662" lon="29.624122241511941">
        <ele>1725.7</ele>
        <time>2022-10-29T09:16:51Z</time>
      </trkpt>
      <trkpt lat="-27.559321951121092" lon="29.622822627425194">
        <ele>1718.01</ele>
        <time>2022-10-29T09:17:05Z</time>
      </trkpt>
      <trkpt lat="-27.5604647397995" lon="29.622067669406533">
        <ele>1714.6500000000001</ele>
        <time>2022-10-29T09:17:14Z</time>
      </trkpt>
      <trkpt lat="-27.561648767441511" lon="29.621284967288375">
        <ele>1708.8800000000001</ele>
        <time>2022-10-29T09:17:25Z</time>
      </trkpt>
      <trkpt lat="-27.563333949074149" lon="29.620140334591269">
        <ele>1700.23</ele>
        <time>2022-10-29T09:17:38Z</time>
      </trkpt>
      <trkpt lat="-27.564700618386269" lon="29.619222851470113">
        <ele>1699.27</ele>
        <time>2022-10-29T09:17:46Z</time>
      </trkpt>
      <trkpt lat="-27.565930495038629" lon="29.618409052491188">
        <ele>1701.1900000000001</ele>
        <time>2022-10-29T09:17:54Z</time>
      </trkpt>
      <trkpt lat="-27.567323567345738" lon="29.617445468902588">
        <ele>1712.25</ele>
        <time>2022-10-29T09:18:05Z</time>
      </trkpt>
      <trkpt lat="-27.568698953837156" lon="29.61653427220881">
        <ele>1716.0899999999999</ele>
        <time>2022-10-29T09:18:16Z</time>
      </trkpt>
      <trkpt lat="-27.570463428273797" lon="29.615695578977466">
        <ele>1719.9400000000001</ele>
        <time>2022-10-29T09:18:28Z</time>
      </trkpt>
      <trkpt lat="-27.572250198572874" lon="29.615455772727728">
        <ele>1723.3</ele>
        <time>2022-10-29T09:18:38Z</time>
      </trkpt>
      <trkpt lat="-27.573410253971815" lon="29.615283356979489">
        <ele>1724.74</ele>
        <time>2022-10-29T09:18:47Z</time>
      </trkpt>
      <trkpt lat="-27.575215715914965" lon="29.615026116371155">
        <ele>1728.1099999999999</ele>
        <time>2022-10-29T09:19:01Z</time>
      </trkpt>
      <trkpt lat="-27.576620690524578" lon="29.614823944866657">
        <ele>1730.99</ele>
        <time>2022-10-29T09:19:08Z</time>
      </trkpt>
      <trkpt lat="-27.578063886612654" lon="29.614620683714747">
        <ele>1730.03</ele>
        <time>2022-10-29T09:19:16Z</time>
      </trkpt>
      <trkpt lat="-27.58035734295845" lon="29.61429001763463">
        <ele>1723.3</ele>
        <time>2022-10-29T09:19:30Z</time>
      </trkpt>
      <trkpt lat="-27.58139175362885" lon="29.61414048448205">
        <ele>1722.8199999999999</ele>
        <time>2022-10-29T09:19:38Z</time>
      </trkpt>
      <trkpt lat="-27.582001620903611" lon="29.614051468670368">
        <ele>1723.3</ele>
        <time>2022-10-29T09:19:46Z</time>
      </trkpt>
      <trkpt lat="-27.582028862088919" lon="29.614055408164859">
        <ele>1723.78</ele>
        <time>2022-10-29T09:19:54Z</time>
      </trkpt>
      <trkpt lat="-27.582350391894579" lon="29.614024059846997">
        <ele>1724.26</ele>
        <time>2022-10-29T09:20:03Z</time>
      </trkpt>
      <trkpt lat="-27.5833491794765" lon="29.613887267187238">
        <ele>1725.7</ele>
        <time>2022-10-29T09:20:09Z</time>
      </trkpt>
      <trkpt lat="-27.584804613143206" lon="29.613680150359869">
        <ele>1723.3</ele>
        <time>2022-10-29T09:20:18Z</time>
      </trkpt>
      <trkpt lat="-27.586942920461297" lon="29.613373707979918">
        <ele>1716.5699999999999</ele>
        <time>2022-10-29T09:20:31Z</time>
      </trkpt>
      <trkpt lat="-27.588479071855545" lon="29.613158963620663">
        <ele>1711.28</ele>
        <time>2022-10-29T09:20:40Z</time>
      </trkpt>
      <trkpt lat="-27.58970333263278" lon="29.612968945875764">
        <ele>1706.96</ele>
        <time>2022-10-29T09:20:49Z</time>
      </trkpt>
      <trkpt lat="-27.589920675382018" lon="29.612939273938537">
        <ele>1706.96</ele>
        <time>2022-10-29T09:20:52Z</time>
      </trkpt>
      <trkpt lat="-27.590225944295526" lon="29.612836176529527">
        <ele>1707.4400000000001</ele>
        <time>2022-10-29T09:21:01Z</time>
      </trkpt>
      <trkpt lat="-27.590391151607037" lon="29.612809689715505">
        <ele>1707.9200000000001</ele>
        <time>2022-10-29T09:21:09Z</time>
      </trkpt>
      <trkpt lat="-27.590682422742248" lon="29.612757302820683">
        <ele>1708.8800000000001</ele>
        <time>2022-10-29T09:21:19Z</time>
      </trkpt>
      <trkpt lat="-27.59144282899797" lon="29.612623360008001">
        <ele>1709.8399999999999</ele>
        <time>2022-10-29T09:21:28Z</time>
      </trkpt>
      <trkpt lat="-27.592646135017276" lon="29.612362599000335">
        <ele>1710.8</ele>
        <time>2022-10-29T09:21:36Z</time>
      </trkpt>
      <trkpt lat="-27.594905979931355" lon="29.611663715913892">
        <ele>1714.6500000000001</ele>
        <time>2022-10-29T09:21:50Z</time>
      </trkpt>
      <trkpt lat="-27.596214646473527" lon="29.61117890663445">
        <ele>1718.97</ele>
        <time>2022-10-29T09:22:00Z</time>
      </trkpt>
      <trkpt lat="-27.597215613350272" lon="29.610786885023117">
        <ele>1723.78</ele>
        <time>2022-10-29T09:22:07Z</time>
      </trkpt>
      <trkpt lat="-27.598491758108139" lon="29.610271817073226">
        <ele>1732.9100000000001</ele>
        <time>2022-10-29T09:22:15Z</time>
      </trkpt>
      <trkpt lat="-27.600272325798869" lon="29.609578968957067">
        <ele>1746.3699999999999</ele>
        <time>2022-10-29T09:22:27Z</time>
      </trkpt>
      <trkpt lat="-27.603124938905239" lon="29.608450010418892">
        <ele>1759.3499999999999</ele>
        <time>2022-10-29T09:22:42Z</time>
      </trkpt>
      <trkpt lat="-27.604825207963586" lon="29.607837125658989">
        <ele>1765.5999999999999</ele>
        <time>2022-10-29T09:22:52Z</time>
      </trkpt>
      <trkpt lat="-27.606358677148819" lon="29.607729837298393">
        <ele>1763.6800000000001</ele>
        <time>2022-10-29T09:23:00Z</time>
      </trkpt>
      <trkpt lat="-27.608006726950407" lon="29.607639731839299">
        <ele>1758.3900000000001</ele>
        <time>2022-10-29T09:23:09Z</time>
      </trkpt>
      <trkpt lat="-27.610381823033094" lon="29.607519702985883">
        <ele>1754.0599999999999</ele>
        <time>2022-10-29T09:23:21Z</time>
      </trkpt>
      <trkpt lat="-27.612157445400953" lon="29.607361536473036">
        <ele>1750.22</ele>
        <time>2022-10-29T09:23:30Z</time>
      </trkpt>
      <trkpt lat="-27.613729722797871" lon="29.606762314215302">
        <ele>1744.45</ele>
        <time>2022-10-29T09:23:39Z</time>
      </trkpt>
      <trkpt lat="-27.615432674065232" lon="29.606029819697142">
        <ele>1730.51</ele>
        <time>2022-10-29T09:23:51Z</time>
      </trkpt>
      <trkpt lat="-27.617257162928581" lon="29.605267820879817">
        <ele>1720.4200000000001</ele>
        <time>2022-10-29T09:24:03Z</time>
      </trkpt>
      <trkpt lat="-27.618979895487428" lon="29.604560052976012">
        <ele>1725.22</ele>
        <time>2022-10-29T09:24:14Z</time>
      </trkpt>
      <trkpt lat="-27.620466845110059" lon="29.603930823504925">
        <ele>1730.51</ele>
        <time>2022-10-29T09:24:22Z</time>
      </trkpt>
      <trkpt lat="-27.622153032571077" lon="29.603206040337682">
        <ele>1725.7</ele>
        <time>2022-10-29T09:24:31Z</time>
      </trkpt>
      <trkpt lat="-27.623626152053475" lon="29.602589467540383">
        <ele>1722.8199999999999</ele>
        <time>2022-10-29T09:24:41Z</time>
      </trkpt>
      <trkpt lat="-27.624887628480792" lon="29.602178502827883">
        <ele>1728.5899999999999</ele>
        <time>2022-10-29T09:24:50Z</time>
      </trkpt>
      <trkpt lat="-27.626579431816936" lon="29.602031903341413">
        <ele>1736.76</ele>
        <time>2022-10-29T09:24:58Z</time>
      </trkpt>
      <trkpt lat="-27.629295336082578" lon="29.601815063506365">
        <ele>1747.3299999999999</ele>
        <time>2022-10-29T09:25:10Z</time>
      </trkpt>
      <trkpt lat="-27.631762884557247" lon="29.601589338853955">
        <ele>1745.4100000000001</ele>
        <time>2022-10-29T09:25:23Z</time>
      </trkpt>
      <trkpt lat="-27.6333246845752" lon="29.601251380518079">
        <ele>1746.3699999999999</ele>
        <time>2022-10-29T09:25:31Z</time>
      </trkpt>
      <trkpt lat="-27.634477615356445" lon="29.600882409140468">
        <ele>1746.8499999999999</ele>
        <time>2022-10-29T09:25:38Z</time>
      </trkpt>
      <trkpt lat="-27.635424854233861" lon="29.600165504962206">
        <ele>1743.01</ele>
        <time>2022-10-29T09:25:46Z</time>
      </trkpt>
      <trkpt lat="-27.636441914364696" lon="29.599105948582292">
        <ele>1731.47</ele>
        <time>2022-10-29T09:25:57Z</time>
      </trkpt>
      <trkpt lat="-27.637233501300216" lon="29.598646117374301">
        <ele>1726.6700000000001</ele>
        <time>2022-10-29T09:26:04Z</time>
      </trkpt>
      <trkpt lat="-27.638181326910853" lon="29.598525334149599">
        <ele>1715.1300000000001</ele>
        <time>2022-10-29T09:26:14Z</time>
      </trkpt>
      <trkpt lat="-27.639382369816303" lon="29.598510917276144">
        <ele>1711.28</ele>
        <time>2022-10-29T09:26:26Z</time>
      </trkpt>
      <trkpt lat="-27.640414014458656" lon="29.598480574786663">
        <ele>1713.6900000000001</ele>
        <time>2022-10-29T09:26:32Z</time>
      </trkpt>
      <trkpt lat="-27.641549929976463" lon="29.598471187055111">
        <ele>1720.9000000000001</ele>
        <time>2022-10-29T09:26:39Z</time>
      </trkpt>
      <trkpt lat="-27.64327023178339" lon="29.598471354693174">
        <ele>1732.4300000000001</ele>
        <time>2022-10-29T09:26:48Z</time>
      </trkpt>
      <trkpt lat="-27.644282095134258" lon="29.598780563101172">
        <ele>1737.72</ele>
        <time>2022-10-29T09:26:54Z</time>
      </trkpt>
      <trkpt lat="-27.645665528252721" lon="29.599789744243026">
        <ele>1740.5999999999999</ele>
        <time>2022-10-29T09:27:03Z</time>
      </trkpt>
      <trkpt lat="-27.647543745115399" lon="29.60124995559454">
        <ele>1743.97</ele>
        <time>2022-10-29T09:27:15Z</time>
      </trkpt>
      <trkpt lat="-27.650460144504905" lon="29.603538969531655">
        <ele>1749.74</ele>
        <time>2022-10-29T09:27:35Z</time>
      </trkpt>
      <trkpt lat="-27.652479261159897" lon="29.605113761499524">
        <ele>1757.9100000000001</ele>
        <time>2022-10-29T09:27:48Z</time>
      </trkpt>
      <trkpt lat="-27.653847774490714" lon="29.606229392811656">
        <ele>1760.3099999999999</ele>
        <time>2022-10-29T09:27:58Z</time>
      </trkpt>
      <trkpt lat="-27.655455758795142" lon="29.607727658003569">
        <ele>1758.8699999999999</ele>
        <time>2022-10-29T09:28:12Z</time>
      </trkpt>
      <trkpt lat="-27.656595362350345" lon="29.608792075887322">
        <ele>1760.3099999999999</ele>
        <time>2022-10-29T09:28:23Z</time>
      </trkpt>
      <trkpt lat="-27.657522149384022" lon="29.609658177942038">
        <ele>1765.1199999999999</ele>
        <time>2022-10-29T09:28:32Z</time>
      </trkpt>
      <trkpt lat="-27.657981980592012" lon="29.610087415203452">
        <ele>1767.52</ele>
        <time>2022-10-29T09:28:40Z</time>
      </trkpt>
      <trkpt lat="-27.658055322244763" lon="29.610150028020144">
        <ele>1768</ele>
        <time>2022-10-29T09:28:48Z</time>
      </trkpt>
      <trkpt lat="-27.658224133774638" lon="29.6103111281991">
        <ele>1768.48</ele>
        <time>2022-10-29T09:28:54Z</time>
      </trkpt>
      <trkpt lat="-27.658957969397306" lon="29.611006323248148">
        <ele>1772.8099999999999</ele>
        <time>2022-10-29T09:29:02Z</time>
      </trkpt>
      <trkpt lat="-27.66009028069675" lon="29.612081134691834">
        <ele>1781.46</ele>
        <time>2022-10-29T09:29:11Z</time>
      </trkpt>
      <trkpt lat="-27.661700863391161" lon="29.613599181175232">
        <ele>1793</ele>
        <time>2022-10-29T09:29:22Z</time>
      </trkpt>
      <trkpt lat="-27.663223436102271" lon="29.615038353949785">
        <ele>1791.0699999999999</ele>
        <time>2022-10-29T09:29:34Z</time>
      </trkpt>
      <trkpt lat="-27.664364045485854" lon="29.616065304726362">
        <ele>1783.3800000000001</ele>
        <time>2022-10-29T09:29:44Z</time>
      </trkpt>
      <trkpt lat="-27.66472446732223" lon="29.616367388516665">
        <ele>1780.02</ele>
        <time>2022-10-29T09:29:50Z</time>
      </trkpt>
      <trkpt lat="-27.664737543091178" lon="29.616373423486948">
        <ele>1779.54</ele>
        <time>2022-10-29T09:30:02Z</time>
      </trkpt>
    </trkseg>
  </trk>

</gpx>