<?xml version="1.0" encoding="utf-8"?><gpx creator="Garmin Desktop App" version="1.1" xsi:schemaLocation="http://www.topografix.com/GPX/1/1 http://www.topografix.com/GPX/1/1/gpx.xsd http://www.garmin.com/xmlschemas/WaypointExtension/v1 http://www8.garmin.com/xmlschemas/WaypointExtensionv1.xsd http://www.garmin.com/xmlschemas/TrackPointExtension/v1 http://www.garmin.com/xmlschemas/TrackPointExtensionv1.xsd http://www.garmin.com/xmlschemas/GpxExtensions/v3 http://www8.garmin.com/xmlschemas/GpxExtensionsv3.xsd http://www.garmin.com/xmlschemas/ActivityExtension/v1 http://www8.garmin.com/xmlschemas/ActivityExtensionv1.xsd http://www.garmin.com/xmlschemas/AdventuresExtensions/v1 http://www8.garmin.com/xmlschemas/AdventuresExtensionv1.xsd http://www.garmin.com/xmlschemas/PressureExtension/v1 http://www.garmin.com/xmlschemas/PressureExtensionv1.xsd http://www.garmin.com/xmlschemas/TripExtensions/v1 http://www.garmin.com/xmlschemas/TripExtensionsv1.xsd http://www.garmin.com/xmlschemas/TripMetaDataExtensions/v1 http://www.garmin.com/xmlschemas/TripMetaDataExtensionsv1.xsd http://www.garmin.com/xmlschemas/ViaPointTransportationModeExtensions/v1 http://www.garmin.com/xmlschemas/ViaPointTransportationModeExtensionsv1.xsd http://www.garmin.com/xmlschemas/CreationTimeExtension/v1 http://www.garmin.com/xmlschemas/CreationTimeExtensionsv1.xsd http://www.garmin.com/xmlschemas/AccelerationExtension/v1 http://www.garmin.com/xmlschemas/AccelerationExtensionv1.xsd http://www.garmin.com/xmlschemas/PowerExtension/v1 http://www.garmin.com/xmlschemas/PowerExtensionv1.xsd http://www.garmin.com/xmlschemas/VideoExtension/v1 http://www.garmin.com/xmlschemas/VideoExtensionv1.xsd" xmlns="http://www.topografix.com/GPX/1/1" xmlns:xsi="http://www.w3.org/2001/XMLSchema-instance" xmlns:wptx1="http://www.garmin.com/xmlschemas/WaypointExtension/v1" xmlns:gpxtrx="http://www.garmin.com/xmlschemas/GpxExtensions/v3" xmlns:gpxtpx="http://www.garmin.com/xmlschemas/TrackPointExtension/v1" xmlns:gpxx="http://www.garmin.com/xmlschemas/GpxExtensions/v3" xmlns:trp="http://www.garmin.com/xmlschemas/TripExtensions/v1" xmlns:adv="http://www.garmin.com/xmlschemas/AdventuresExtensions/v1" xmlns:prs="http://www.garmin.com/xmlschemas/PressureExtension/v1" xmlns:tmd="http://www.garmin.com/xmlschemas/TripMetaDataExtensions/v1" xmlns:vptm="http://www.garmin.com/xmlschemas/ViaPointTransportationModeExtensions/v1" xmlns:ctx="http://www.garmin.com/xmlschemas/CreationTimeExtension/v1" xmlns:gpxacc="http://www.garmin.com/xmlschemas/AccelerationExtension/v1" xmlns:gpxpx="http://www.garmin.com/xmlschemas/PowerExtension/v1" xmlns:vidx1="http://www.garmin.com/xmlschemas/VideoExtension/v1">

  <metadata>
    <link href="http://www.garmin.com">
      <text>Garmin International</text>
    </link>
    <time>2023-04-15T10:47:09Z</time>
    <bounds maxlat="-27.296521458774805" maxlon="30.305900797247887" minlat="-27.316051879897714" minlon="30.226803040131927" />
  </metadata>

  <trk>
    <name>[360] Kastrolnek Pass (West)</name>
    <extensions>
      <gpxx:TrackExtension>
        <gpxx:DisplayColor>Green</gpxx:DisplayColor>
      </gpxx:TrackExtension>
    </extensions>
    <trkseg>
      <trkpt lat="-27.303567035123706" lon="30.305900797247887">
        <ele>1857.8900000000001</ele>
        <time>2023-04-09T10:31:44Z</time>
      </trkpt>
      <trkpt lat="-27.303575752303004" lon="30.30585452914238">
        <ele>1857.8900000000001</ele>
        <time>2023-04-09T10:31:45Z</time>
      </trkpt>
      <trkpt lat="-27.303595198318362" lon="30.305770458653569">
        <ele>1857.8900000000001</ele>
        <time>2023-04-09T10:31:46Z</time>
      </trkpt>
      <trkpt lat="-27.303761830553412" lon="30.304950289428234">
        <ele>1858.8499999999999</ele>
        <time>2023-04-09T10:31:52Z</time>
      </trkpt>
      <trkpt lat="-27.304128287360072" lon="30.303146587684751">
        <ele>1864.6099999999999</ele>
        <time>2023-04-09T10:32:01Z</time>
      </trkpt>
      <trkpt lat="-27.304596584290266" lon="30.300663784146309">
        <ele>1877.5899999999999</ele>
        <time>2023-04-09T10:32:11Z</time>
      </trkpt>
      <trkpt lat="-27.30516747571528" lon="30.29696736484766">
        <ele>1892.01</ele>
        <time>2023-04-09T10:32:24Z</time>
      </trkpt>
      <trkpt lat="-27.305511636659503" lon="30.294433180242777">
        <ele>1892.97</ele>
        <time>2023-04-09T10:32:33Z</time>
      </trkpt>
      <trkpt lat="-27.305309716612101" lon="30.292233601212502">
        <ele>1890.0899999999999</ele>
        <time>2023-04-09T10:32:42Z</time>
      </trkpt>
      <trkpt lat="-27.304567079991102" lon="30.290254717692733">
        <ele>1883.8399999999999</ele>
        <time>2023-04-09T10:32:50Z</time>
      </trkpt>
      <trkpt lat="-27.303117094561458" lon="30.287668565288186">
        <ele>1879.51</ele>
        <time>2023-04-09T10:33:01Z</time>
      </trkpt>
      <trkpt lat="-27.302109589800239" lon="30.285836365073919">
        <ele>1889.1300000000001</ele>
        <time>2023-04-09T10:33:09Z</time>
      </trkpt>
      <trkpt lat="-27.301191603764892" lon="30.284812599420547">
        <ele>1898.74</ele>
        <time>2023-04-09T10:33:15Z</time>
      </trkpt>
      <trkpt lat="-27.299481779336929" lon="30.283478368073702">
        <ele>1914.5999999999999</ele>
        <time>2023-04-09T10:33:24Z</time>
      </trkpt>
      <trkpt lat="-27.29916812852025" lon="30.28307125903666">
        <ele>1917.01</ele>
        <time>2023-04-09T10:33:26Z</time>
      </trkpt>
      <trkpt lat="-27.299035526812077" lon="30.282851485535502">
        <ele>1917.97</ele>
        <time>2023-04-09T10:33:27Z</time>
      </trkpt>
      <trkpt lat="-27.298913151025772" lon="30.28261779807508">
        <ele>1919.4100000000001</ele>
        <time>2023-04-09T10:33:28Z</time>
      </trkpt>
      <trkpt lat="-27.298807455226779" lon="30.282377237454057">
        <ele>1920.3699999999999</ele>
        <time>2023-04-09T10:33:29Z</time>
      </trkpt>
      <trkpt lat="-27.298715589568019" lon="30.282116392627358">
        <ele>1921.3299999999999</ele>
        <time>2023-04-09T10:33:30Z</time>
      </trkpt>
      <trkpt lat="-27.298641158267856" lon="30.281854709610343">
        <ele>1922.29</ele>
        <time>2023-04-09T10:33:31Z</time>
      </trkpt>
      <trkpt lat="-27.298571337014437" lon="30.281577184796333">
        <ele>1923.25</ele>
        <time>2023-04-09T10:33:32Z</time>
      </trkpt>
      <trkpt lat="-27.297661229968071" lon="30.278510497882962">
        <ele>1939.1199999999999</ele>
        <time>2023-04-09T10:33:43Z</time>
      </trkpt>
      <trkpt lat="-27.297335844486952" lon="30.277073001489043">
        <ele>1949.6900000000001</ele>
        <time>2023-04-09T10:33:49Z</time>
      </trkpt>
      <trkpt lat="-27.297177091240883" lon="30.274624899029732">
        <ele>1967.96</ele>
        <time>2023-04-09T10:33:59Z</time>
      </trkpt>
      <trkpt lat="-27.297069970518351" lon="30.271338019520044">
        <ele>1992.47</ele>
        <time>2023-04-09T10:34:11Z</time>
      </trkpt>
      <trkpt lat="-27.296898392960429" lon="30.266999714076519">
        <ele>2009.29</ele>
        <time>2023-04-09T10:34:26Z</time>
      </trkpt>
      <trkpt lat="-27.296774089336395" lon="30.263470178470016">
        <ele>1994.3900000000001</ele>
        <time>2023-04-09T10:34:38Z</time>
      </trkpt>
      <trkpt lat="-27.29669127613306" lon="30.26100573129952">
        <ele>1983.8199999999999</ele>
        <time>2023-04-09T10:34:47Z</time>
      </trkpt>
      <trkpt lat="-27.296521458774805" lon="30.256799440830946">
        <ele>1960.27</ele>
        <time>2023-04-09T10:35:01Z</time>
      </trkpt>
      <trkpt lat="-27.296678032726049" lon="30.25459055788815">
        <ele>1946.8099999999999</ele>
        <time>2023-04-09T10:35:09Z</time>
      </trkpt>
      <trkpt lat="-27.297083046287298" lon="30.25341248139739">
        <ele>1939.1199999999999</ele>
        <time>2023-04-09T10:35:15Z</time>
      </trkpt>
      <trkpt lat="-27.297893827781081" lon="30.252061067149043">
        <ele>1930.46</ele>
        <time>2023-04-09T10:35:21Z</time>
      </trkpt>
      <trkpt lat="-27.299110796302557" lon="30.250907298177481">
        <ele>1920.8499999999999</ele>
        <time>2023-04-09T10:35:27Z</time>
      </trkpt>
      <trkpt lat="-27.30034620501101" lon="30.250340513885021">
        <ele>1912.2</ele>
        <time>2023-04-09T10:35:32Z</time>
      </trkpt>
      <trkpt lat="-27.301570968702435" lon="30.250219982117414">
        <ele>1903.55</ele>
        <time>2023-04-09T10:35:37Z</time>
      </trkpt>
      <trkpt lat="-27.302999747917056" lon="30.250086206942797">
        <ele>1893.45</ele>
        <time>2023-04-09T10:35:44Z</time>
      </trkpt>
      <trkpt lat="-27.303191190585494" lon="30.250017140060663">
        <ele>1892.01</ele>
        <time>2023-04-09T10:35:45Z</time>
      </trkpt>
      <trkpt lat="-27.303381208330393" lon="30.249930555000901">
        <ele>1891.05</ele>
        <time>2023-04-09T10:35:46Z</time>
      </trkpt>
      <trkpt lat="-27.303571477532387" lon="30.249829133972526">
        <ele>1889.6099999999999</ele>
        <time>2023-04-09T10:35:47Z</time>
      </trkpt>
      <trkpt lat="-27.303758813068271" lon="30.249710362404585">
        <ele>1888.6500000000001</ele>
        <time>2023-04-09T10:35:48Z</time>
      </trkpt>
      <trkpt lat="-27.303940951824188" lon="30.249574575573206">
        <ele>1887.6900000000001</ele>
        <time>2023-04-09T10:35:49Z</time>
      </trkpt>
      <trkpt lat="-27.304111272096634" lon="30.249423952773213">
        <ele>1886.72</ele>
        <time>2023-04-09T10:35:50Z</time>
      </trkpt>
      <trkpt lat="-27.3042649962008" lon="30.249267127364874">
        <ele>1886.24</ele>
        <time>2023-04-09T10:35:51Z</time>
      </trkpt>
      <trkpt lat="-27.304395921528339" lon="30.249115247279406">
        <ele>1885.28</ele>
        <time>2023-04-09T10:35:52Z</time>
      </trkpt>
      <trkpt lat="-27.304502539336681" lon="30.248974766582251">
        <ele>1884.8</ele>
        <time>2023-04-09T10:35:53Z</time>
      </trkpt>
      <trkpt lat="-27.304587112739682" lon="30.248846942558885">
        <ele>1884.8</ele>
        <time>2023-04-09T10:35:54Z</time>
      </trkpt>
      <trkpt lat="-27.304651318117976" lon="30.248737055808306">
        <ele>1884.3199999999999</ele>
        <time>2023-04-09T10:35:55Z</time>
      </trkpt>
      <trkpt lat="-27.304904703050852" lon="30.248188208788633">
        <ele>1884.8</ele>
        <time>2023-04-09T10:36:01Z</time>
      </trkpt>
      <trkpt lat="-27.305111568421125" lon="30.247160838916898">
        <ele>1887.6900000000001</ele>
        <time>2023-04-09T10:36:07Z</time>
      </trkpt>
      <trkpt lat="-27.305090529844165" lon="30.245643714442849">
        <ele>1888.1700000000001</ele>
        <time>2023-04-09T10:36:13Z</time>
      </trkpt>
      <trkpt lat="-27.3049730155617" lon="30.243100645020604">
        <ele>1878.0699999999999</ele>
        <time>2023-04-09T10:36:22Z</time>
      </trkpt>
      <trkpt lat="-27.305000508204103" lon="30.241371542215347">
        <ele>1867.98</ele>
        <time>2023-04-09T10:36:29Z</time>
      </trkpt>
      <trkpt lat="-27.30541817843914" lon="30.236877668648958">
        <ele>1843.95</ele>
        <time>2023-04-09T10:36:46Z</time>
      </trkpt>
      <trkpt lat="-27.305867280811071" lon="30.235209837555885">
        <ele>1834.3299999999999</ele>
        <time>2023-04-09T10:36:53Z</time>
      </trkpt>
      <trkpt lat="-27.306720893830061" lon="30.233744597062469">
        <ele>1824.24</ele>
        <time>2023-04-09T10:36:59Z</time>
      </trkpt>
      <trkpt lat="-27.308137267827988" lon="30.232458142563701">
        <ele>1813.1800000000001</ele>
        <time>2023-04-09T10:37:05Z</time>
      </trkpt>
      <trkpt lat="-27.309859413653612" lon="30.231598913669586">
        <ele>1805.97</ele>
        <time>2023-04-09T10:37:11Z</time>
      </trkpt>
      <trkpt lat="-27.312497952952981" lon="30.230213217437267">
        <ele>1807.4200000000001</ele>
        <time>2023-04-09T10:37:21Z</time>
      </trkpt>
      <trkpt lat="-27.314257230609655" lon="30.228586960583925">
        <ele>1811.74</ele>
        <time>2023-04-09T10:37:29Z</time>
      </trkpt>
      <trkpt lat="-27.316051879897714" lon="30.226803040131927">
        <ele>1807.4200000000001</ele>
        <time>2023-04-09T10:37:38Z</time>
      </trkpt>
    </trkseg>
  </trk>

</gpx>