<?xml version="1.0" encoding="utf-8"?><gpx creator="Garmin Desktop App" version="1.1" xsi:schemaLocation="http://www.topografix.com/GPX/1/1 http://www.topografix.com/GPX/1/1/gpx.xsd http://www.garmin.com/xmlschemas/WaypointExtension/v1 http://www8.garmin.com/xmlschemas/WaypointExtensionv1.xsd http://www.garmin.com/xmlschemas/TrackPointExtension/v1 http://www.garmin.com/xmlschemas/TrackPointExtensionv1.xsd http://www.garmin.com/xmlschemas/GpxExtensions/v3 http://www8.garmin.com/xmlschemas/GpxExtensionsv3.xsd http://www.garmin.com/xmlschemas/ActivityExtension/v1 http://www8.garmin.com/xmlschemas/ActivityExtensionv1.xsd http://www.garmin.com/xmlschemas/AdventuresExtensions/v1 http://www8.garmin.com/xmlschemas/AdventuresExtensionv1.xsd http://www.garmin.com/xmlschemas/PressureExtension/v1 http://www.garmin.com/xmlschemas/PressureExtensionv1.xsd http://www.garmin.com/xmlschemas/TripExtensions/v1 http://www.garmin.com/xmlschemas/TripExtensionsv1.xsd http://www.garmin.com/xmlschemas/TripMetaDataExtensions/v1 http://www.garmin.com/xmlschemas/TripMetaDataExtensionsv1.xsd http://www.garmin.com/xmlschemas/ViaPointTransportationModeExtensions/v1 http://www.garmin.com/xmlschemas/ViaPointTransportationModeExtensionsv1.xsd http://www.garmin.com/xmlschemas/CreationTimeExtension/v1 http://www.garmin.com/xmlschemas/CreationTimeExtensionsv1.xsd http://www.garmin.com/xmlschemas/AccelerationExtension/v1 http://www.garmin.com/xmlschemas/AccelerationExtensionv1.xsd http://www.garmin.com/xmlschemas/PowerExtension/v1 http://www.garmin.com/xmlschemas/PowerExtensionv1.xsd http://www.garmin.com/xmlschemas/VideoExtension/v1 http://www.garmin.com/xmlschemas/VideoExtensionv1.xsd" xmlns="http://www.topografix.com/GPX/1/1" xmlns:xsi="http://www.w3.org/2001/XMLSchema-instance" xmlns:wptx1="http://www.garmin.com/xmlschemas/WaypointExtension/v1" xmlns:gpxtrx="http://www.garmin.com/xmlschemas/GpxExtensions/v3" xmlns:gpxtpx="http://www.garmin.com/xmlschemas/TrackPointExtension/v1" xmlns:gpxx="http://www.garmin.com/xmlschemas/GpxExtensions/v3" xmlns:trp="http://www.garmin.com/xmlschemas/TripExtensions/v1" xmlns:adv="http://www.garmin.com/xmlschemas/AdventuresExtensions/v1" xmlns:prs="http://www.garmin.com/xmlschemas/PressureExtension/v1" xmlns:tmd="http://www.garmin.com/xmlschemas/TripMetaDataExtensions/v1" xmlns:vptm="http://www.garmin.com/xmlschemas/ViaPointTransportationModeExtensions/v1" xmlns:ctx="http://www.garmin.com/xmlschemas/CreationTimeExtension/v1" xmlns:gpxacc="http://www.garmin.com/xmlschemas/AccelerationExtension/v1" xmlns:gpxpx="http://www.garmin.com/xmlschemas/PowerExtension/v1" xmlns:vidx1="http://www.garmin.com/xmlschemas/VideoExtension/v1">

  <metadata>
    <link href="http://www.garmin.com">
      <text>Garmin International</text>
    </link>
    <time>2025-10-16T09:09:08Z</time>
    <bounds maxlat="-24.298189217224717" maxlon="28.567008767277002" minlat="-24.354653740301728" minlon="28.532034605741501" />
  </metadata>

  <trk>
    <name>[401] Bokpoort ASC</name>
    <extensions>
      <gpxx:TrackExtension>
        <gpxx:DisplayColor>Green</gpxx:DisplayColor>
      </gpxx:TrackExtension>
    </extensions>
    <trkseg>
      <trkpt lat="-24.354653740301728" lon="28.567008767277002">
        <ele>1293.1099999999999</ele>
        <time>2025-09-24T10:57:27Z</time>
      </trkpt>
      <trkpt lat="-24.354601604864001" lon="28.566947998479009">
        <ele>1293.5899999999999</ele>
        <time>2025-09-24T10:57:28Z</time>
      </trkpt>
      <trkpt lat="-24.354535639286041" lon="28.566881278529763">
        <ele>1293.5899999999999</ele>
        <time>2025-09-24T10:57:29Z</time>
      </trkpt>
      <trkpt lat="-24.35394236817956" lon="28.566345758736134">
        <ele>1294.0699999999999</ele>
        <time>2025-09-24T10:57:35Z</time>
      </trkpt>
      <trkpt lat="-24.352992614731193" lon="28.565492229536176">
        <ele>1297.4400000000001</ele>
        <time>2025-09-24T10:57:42Z</time>
      </trkpt>
      <trkpt lat="-24.351614294573665" lon="28.564429739490151">
        <ele>1302.72</ele>
        <time>2025-09-24T10:57:50Z</time>
      </trkpt>
      <trkpt lat="-24.349245401099324" lon="28.562803063541651">
        <ele>1311.8599999999999</ele>
        <time>2025-09-24T10:58:03Z</time>
      </trkpt>
      <trkpt lat="-24.34815751388669" lon="28.562399223446846">
        <ele>1315.22</ele>
        <time>2025-09-24T10:58:08Z</time>
      </trkpt>
      <trkpt lat="-24.345521405339241" lon="28.56169237755239">
        <ele>1320.99</ele>
        <time>2025-09-24T10:58:19Z</time>
      </trkpt>
      <trkpt lat="-24.342453042045236" lon="28.560816887766123">
        <ele>1328.6800000000001</ele>
        <time>2025-09-24T10:58:31Z</time>
      </trkpt>
      <trkpt lat="-24.341284772381186" lon="28.560112556442618">
        <ele>1333.97</ele>
        <time>2025-09-24T10:58:36Z</time>
      </trkpt>
      <trkpt lat="-24.339736048132181" lon="28.559287525713444">
        <ele>1340.7</ele>
        <time>2025-09-24T10:58:43Z</time>
      </trkpt>
      <trkpt lat="-24.337811898440123" lon="28.558801207691431">
        <ele>1348.3900000000001</ele>
        <time>2025-09-24T10:58:51Z</time>
      </trkpt>
      <trkpt lat="-24.334455113857985" lon="28.557928148657084">
        <ele>1358.96</ele>
        <time>2025-09-24T10:59:05Z</time>
      </trkpt>
      <trkpt lat="-24.331410303711891" lon="28.556670611724257">
        <ele>1365.6900000000001</ele>
        <time>2025-09-24T10:59:18Z</time>
      </trkpt>
      <trkpt lat="-24.329853113740683" lon="28.555826721712947">
        <ele>1370.98</ele>
        <time>2025-09-24T10:59:25Z</time>
      </trkpt>
      <trkpt lat="-24.327356312423944" lon="28.553939033299685">
        <ele>1381.0699999999999</ele>
        <time>2025-09-24T10:59:37Z</time>
      </trkpt>
      <trkpt lat="-24.325979752466083" lon="28.553316760808229">
        <ele>1385.4000000000001</ele>
        <time>2025-09-24T10:59:43Z</time>
      </trkpt>
      <trkpt lat="-24.322726232931018" lon="28.551874570548534">
        <ele>1398.8599999999999</ele>
        <time>2025-09-24T10:59:57Z</time>
      </trkpt>
      <trkpt lat="-24.320081826299429" lon="28.550315704196692">
        <ele>1410.3900000000001</ele>
        <time>2025-09-24T11:00:09Z</time>
      </trkpt>
      <trkpt lat="-24.319197786971927" lon="28.549380535259843">
        <ele>1416.6400000000001</ele>
        <time>2025-09-24T11:00:14Z</time>
      </trkpt>
      <trkpt lat="-24.318352304399014" lon="28.548334641382098">
        <ele>1423.3699999999999</ele>
        <time>2025-09-24T11:00:20Z</time>
      </trkpt>
      <trkpt lat="-24.317985763773322" lon="28.548040939494967">
        <ele>1426.25</ele>
        <time>2025-09-24T11:00:23Z</time>
      </trkpt>
      <trkpt lat="-24.317029304802418" lon="28.547501396387815">
        <ele>1432.5</ele>
        <time>2025-09-24T11:00:30Z</time>
      </trkpt>
      <trkpt lat="-24.315791800618172" lon="28.546922458335757">
        <ele>1438.27</ele>
        <time>2025-09-24T11:00:37Z</time>
      </trkpt>
      <trkpt lat="-24.314555721357465" lon="28.546222066506743">
        <ele>1443.5599999999999</ele>
        <time>2025-09-24T11:00:43Z</time>
      </trkpt>
      <trkpt lat="-24.311493141576648" lon="28.544224742799997">
        <ele>1452.6900000000001</ele>
        <time>2025-09-24T11:00:58Z</time>
      </trkpt>
      <trkpt lat="-24.309322396293283" lon="28.542603347450495">
        <ele>1460.8599999999999</ele>
        <time>2025-09-24T11:01:09Z</time>
      </trkpt>
      <trkpt lat="-24.306720737367868" lon="28.540367810055614">
        <ele>1477.2</ele>
        <time>2025-09-24T11:01:23Z</time>
      </trkpt>
      <trkpt lat="-24.305791184306145" lon="28.539198786020279">
        <ele>1485.8499999999999</ele>
        <time>2025-09-24T11:01:29Z</time>
      </trkpt>
      <trkpt lat="-24.304779069498181" lon="28.538113832473755">
        <ele>1491.1400000000001</ele>
        <time>2025-09-24T11:01:35Z</time>
      </trkpt>
      <trkpt lat="-24.30150325410068" lon="28.5350860375911">
        <ele>1508.9300000000001</ele>
        <time>2025-09-24T11:01:53Z</time>
      </trkpt>
      <trkpt lat="-24.298189217224717" lon="28.532034605741501">
        <ele>1522.8699999999999</ele>
        <time>2025-09-24T11:02:11Z</time>
      </trkpt>
    </trkseg>
  </trk>

</gpx>