<?xml version="1.0" encoding="utf-8"?><gpx creator="Garmin Desktop App" version="1.1" xsi:schemaLocation="http://www.topografix.com/GPX/1/1 http://www.topografix.com/GPX/1/1/gpx.xsd http://www.garmin.com/xmlschemas/WaypointExtension/v1 http://www8.garmin.com/xmlschemas/WaypointExtensionv1.xsd http://www.garmin.com/xmlschemas/TrackPointExtension/v1 http://www.garmin.com/xmlschemas/TrackPointExtensionv1.xsd http://www.garmin.com/xmlschemas/GpxExtensions/v3 http://www8.garmin.com/xmlschemas/GpxExtensionsv3.xsd http://www.garmin.com/xmlschemas/ActivityExtension/v1 http://www8.garmin.com/xmlschemas/ActivityExtensionv1.xsd http://www.garmin.com/xmlschemas/AdventuresExtensions/v1 http://www8.garmin.com/xmlschemas/AdventuresExtensionv1.xsd http://www.garmin.com/xmlschemas/PressureExtension/v1 http://www.garmin.com/xmlschemas/PressureExtensionv1.xsd http://www.garmin.com/xmlschemas/TripExtensions/v1 http://www.garmin.com/xmlschemas/TripExtensionsv1.xsd http://www.garmin.com/xmlschemas/TripMetaDataExtensions/v1 http://www.garmin.com/xmlschemas/TripMetaDataExtensionsv1.xsd http://www.garmin.com/xmlschemas/ViaPointTransportationModeExtensions/v1 http://www.garmin.com/xmlschemas/ViaPointTransportationModeExtensionsv1.xsd http://www.garmin.com/xmlschemas/CreationTimeExtension/v1 http://www.garmin.com/xmlschemas/CreationTimeExtensionsv1.xsd http://www.garmin.com/xmlschemas/AccelerationExtension/v1 http://www.garmin.com/xmlschemas/AccelerationExtensionv1.xsd http://www.garmin.com/xmlschemas/PowerExtension/v1 http://www.garmin.com/xmlschemas/PowerExtensionv1.xsd http://www.garmin.com/xmlschemas/VideoExtension/v1 http://www.garmin.com/xmlschemas/VideoExtensionv1.xsd" xmlns="http://www.topografix.com/GPX/1/1" xmlns:xsi="http://www.w3.org/2001/XMLSchema-instance" xmlns:wptx1="http://www.garmin.com/xmlschemas/WaypointExtension/v1" xmlns:gpxtrx="http://www.garmin.com/xmlschemas/GpxExtensions/v3" xmlns:gpxtpx="http://www.garmin.com/xmlschemas/TrackPointExtension/v1" xmlns:gpxx="http://www.garmin.com/xmlschemas/GpxExtensions/v3" xmlns:trp="http://www.garmin.com/xmlschemas/TripExtensions/v1" xmlns:adv="http://www.garmin.com/xmlschemas/AdventuresExtensions/v1" xmlns:prs="http://www.garmin.com/xmlschemas/PressureExtension/v1" xmlns:tmd="http://www.garmin.com/xmlschemas/TripMetaDataExtensions/v1" xmlns:vptm="http://www.garmin.com/xmlschemas/ViaPointTransportationModeExtensions/v1" xmlns:ctx="http://www.garmin.com/xmlschemas/CreationTimeExtension/v1" xmlns:gpxacc="http://www.garmin.com/xmlschemas/AccelerationExtension/v1" xmlns:gpxpx="http://www.garmin.com/xmlschemas/PowerExtension/v1" xmlns:vidx1="http://www.garmin.com/xmlschemas/VideoExtension/v1">

  <metadata>
    <link href="http://www.garmin.com">
      <text>Garmin International</text>
    </link>
    <time>2026-06-29T12:21:46Z</time>
    <bounds maxlat="-24.446306247264147" maxlon="27.61665022931993" minlat="-24.466039007529616" minlon="27.603947622701526" />
  </metadata>

  <trk>
    <name>[418] Lenong Pass - Descend - 2026-04-26</name>
    <extensions>
      <gpxx:TrackExtension>
        <gpxx:DisplayColor>Green</gpxx:DisplayColor>
      </gpxx:TrackExtension>
    </extensions>
    <trkseg>
      <trkpt lat="-24.466039007529616" lon="27.613944886252284">
        <ele>2042.9400000000001</ele>
        <time>2026-04-26T09:41:21Z</time>
      </trkpt>
      <trkpt lat="-24.46595560759306" lon="27.614014372229576">
        <ele>2042.46</ele>
        <time>2026-04-26T09:41:26Z</time>
      </trkpt>
      <trkpt lat="-24.465789394453168" lon="27.614081092178822">
        <ele>2041.5</ele>
        <time>2026-04-26T09:41:31Z</time>
      </trkpt>
      <trkpt lat="-24.465548079460859" lon="27.614154601469636">
        <ele>2040.54</ele>
        <time>2026-04-26T09:41:36Z</time>
      </trkpt>
      <trkpt lat="-24.465321768075228" lon="27.614216292276978">
        <ele>2038.6099999999999</ele>
        <time>2026-04-26T09:41:41Z</time>
      </trkpt>
      <trkpt lat="-24.465081375092268" lon="27.614295249804854">
        <ele>2035.73</ele>
        <time>2026-04-26T09:41:46Z</time>
      </trkpt>
      <trkpt lat="-24.464844418689609" lon="27.614356856793165">
        <ele>2033.3299999999999</ele>
        <time>2026-04-26T09:41:51Z</time>
      </trkpt>
      <trkpt lat="-24.46461190469563" lon="27.614402873441577">
        <ele>2030.4400000000001</ele>
        <time>2026-04-26T09:41:56Z</time>
      </trkpt>
      <trkpt lat="-24.464393891394138" lon="27.614404549822211">
        <ele>2028.04</ele>
        <time>2026-04-26T09:42:01Z</time>
      </trkpt>
      <trkpt lat="-24.46432557888329" lon="27.614371022209525">
        <ele>2027.0799999999999</ele>
        <time>2026-04-26T09:42:06Z</time>
      </trkpt>
      <trkpt lat="-24.464326752349734" lon="27.614370435476303">
        <ele>2027.0799999999999</ele>
        <time>2026-04-26T09:42:11Z</time>
      </trkpt>
      <trkpt lat="-24.464296493679285" lon="27.614353001117706">
        <ele>2027.0799999999999</ele>
        <time>2026-04-26T09:42:16Z</time>
      </trkpt>
      <trkpt lat="-24.464217703789473" lon="27.614299776032567">
        <ele>2026.5999999999999</ele>
        <time>2026-04-26T09:42:21Z</time>
      </trkpt>
      <trkpt lat="-24.464121395722032" lon="27.61422517709434">
        <ele>2026.1199999999999</ele>
        <time>2026-04-26T09:42:26Z</time>
      </trkpt>
      <trkpt lat="-24.464048389345407" lon="27.614160133525729">
        <ele>2025.6400000000001</ele>
        <time>2026-04-26T09:42:31Z</time>
      </trkpt>
      <trkpt lat="-24.464043360203505" lon="27.614159043878317">
        <ele>2025.6400000000001</ele>
        <time>2026-04-26T09:42:36Z</time>
      </trkpt>
      <trkpt lat="-24.464036067947745" lon="27.614153092727065">
        <ele>2025.6400000000001</ele>
        <time>2026-04-26T09:42:41Z</time>
      </trkpt>
      <trkpt lat="-24.463925929740071" lon="27.614085199311376">
        <ele>2025.6400000000001</ele>
        <time>2026-04-26T09:42:46Z</time>
      </trkpt>
      <trkpt lat="-24.463733900338411" lon="27.613917980343103">
        <ele>2025.1500000000001</ele>
        <time>2026-04-26T09:42:51Z</time>
      </trkpt>
      <trkpt lat="-24.463533237576485" lon="27.61375654488802">
        <ele>2025.1500000000001</ele>
        <time>2026-04-26T09:42:56Z</time>
      </trkpt>
      <trkpt lat="-24.463317068293691" lon="27.613589577376842">
        <ele>2025.1500000000001</ele>
        <time>2026-04-26T09:43:01Z</time>
      </trkpt>
      <trkpt lat="-24.463069718331099" lon="27.613457310944796">
        <ele>2023.23</ele>
        <time>2026-04-26T09:43:06Z</time>
      </trkpt>
      <trkpt lat="-24.462824547663331" lon="27.613344406709075">
        <ele>2019.8699999999999</ele>
        <time>2026-04-26T09:43:11Z</time>
      </trkpt>
      <trkpt lat="-24.462577616795897" lon="27.613227646797895">
        <ele>2017.46</ele>
        <time>2026-04-26T09:43:16Z</time>
      </trkpt>
      <trkpt lat="-24.462354993447661" lon="27.613154472783208">
        <ele>2015.0599999999999</ele>
        <time>2026-04-26T09:43:21Z</time>
      </trkpt>
      <trkpt lat="-24.462160533294082" lon="27.613162267953157">
        <ele>2012.6600000000001</ele>
        <time>2026-04-26T09:43:26Z</time>
      </trkpt>
      <trkpt lat="-24.461965654045343" lon="27.613171990960836">
        <ele>2010.73</ele>
        <time>2026-04-26T09:43:31Z</time>
      </trkpt>
      <trkpt lat="-24.461780916899443" lon="27.613177774474025">
        <ele>2008.3299999999999</ele>
        <time>2026-04-26T09:43:36Z</time>
      </trkpt>
      <trkpt lat="-24.461622331291437" lon="27.613197891041636">
        <ele>2005.9300000000001</ele>
        <time>2026-04-26T09:43:41Z</time>
      </trkpt>
      <trkpt lat="-24.461483359336853" lon="27.613210631534457">
        <ele>2004.01</ele>
        <time>2026-04-26T09:43:46Z</time>
      </trkpt>
      <trkpt lat="-24.46135176345706" lon="27.613289756700397">
        <ele>2001.5999999999999</ele>
        <time>2026-04-26T09:43:51Z</time>
      </trkpt>
      <trkpt lat="-24.461267525330186" lon="27.613427471369505">
        <ele>2000.6400000000001</ele>
        <time>2026-04-26T09:43:56Z</time>
      </trkpt>
      <trkpt lat="-24.461177587509155" lon="27.613534005358815">
        <ele>1999.6800000000001</ele>
        <time>2026-04-26T09:44:01Z</time>
      </trkpt>
      <trkpt lat="-24.461042555049062" lon="27.613500645384192">
        <ele>1997.28</ele>
        <time>2026-04-26T09:44:06Z</time>
      </trkpt>
      <trkpt lat="-24.460900984704494" lon="27.613423531875014">
        <ele>1994.3900000000001</ele>
        <time>2026-04-26T09:44:11Z</time>
      </trkpt>
      <trkpt lat="-24.460771568119526" lon="27.613335605710745">
        <ele>1992.95</ele>
        <time>2026-04-26T09:44:16Z</time>
      </trkpt>
      <trkpt lat="-24.460680205374956" lon="27.613233765587211">
        <ele>1991.03</ele>
        <time>2026-04-26T09:44:21Z</time>
      </trkpt>
      <trkpt lat="-24.460595967248082" lon="27.613122370094061">
        <ele>1989.5899999999999</ele>
        <time>2026-04-26T09:44:26Z</time>
      </trkpt>
      <trkpt lat="-24.460491025820374" lon="27.612979207187891">
        <ele>1988.1400000000001</ele>
        <time>2026-04-26T09:44:31Z</time>
      </trkpt>
      <trkpt lat="-24.460422461852431" lon="27.612875774502754">
        <ele>1987.1800000000001</ele>
        <time>2026-04-26T09:44:36Z</time>
      </trkpt>
      <trkpt lat="-24.460342163220048" lon="27.612749878317118">
        <ele>1986.22</ele>
        <time>2026-04-26T09:44:41Z</time>
      </trkpt>
      <trkpt lat="-24.460284663364291" lon="27.612640159204602">
        <ele>1985.26</ele>
        <time>2026-04-26T09:44:46Z</time>
      </trkpt>
      <trkpt lat="-24.460277706384659" lon="27.612629933282733">
        <ele>1984.78</ele>
        <time>2026-04-26T09:44:51Z</time>
      </trkpt>
      <trkpt lat="-24.460287597030401" lon="27.61265273205936">
        <ele>1985.26</ele>
        <time>2026-04-26T09:44:57Z</time>
      </trkpt>
      <trkpt lat="-24.460350712761283" lon="27.612770413979888">
        <ele>1985.74</ele>
        <time>2026-04-26T09:45:02Z</time>
      </trkpt>
      <trkpt lat="-24.460464371368289" lon="27.612929083406925">
        <ele>1987.1800000000001</ele>
        <time>2026-04-26T09:45:07Z</time>
      </trkpt>
      <trkpt lat="-24.460492199286819" lon="27.612955318763852">
        <ele>1988.1400000000001</ele>
        <time>2026-04-26T09:45:12Z</time>
      </trkpt>
      <trkpt lat="-24.46041994728148" lon="27.612853646278381">
        <ele>1988.1400000000001</ele>
        <time>2026-04-26T09:45:17Z</time>
      </trkpt>
      <trkpt lat="-24.460280807688832" lon="27.612641081213951">
        <ele>1986.22</ele>
        <time>2026-04-26T09:45:22Z</time>
      </trkpt>
      <trkpt lat="-24.46010185405612" lon="27.61251300573349">
        <ele>1983.8199999999999</ele>
        <time>2026-04-26T09:45:27Z</time>
      </trkpt>
      <trkpt lat="-24.459856683388352" lon="27.612484004348516">
        <ele>1980.9300000000001</ele>
        <time>2026-04-26T09:45:32Z</time>
      </trkpt>
      <trkpt lat="-24.459672868251801" lon="27.61253060773015">
        <ele>1978.05</ele>
        <time>2026-04-26T09:45:37Z</time>
      </trkpt>
      <trkpt lat="-24.459533393383026" lon="27.6126938033849">
        <ele>1975.1700000000001</ele>
        <time>2026-04-26T09:45:42Z</time>
      </trkpt>
      <trkpt lat="-24.459512690082192" lon="27.612730767577887">
        <ele>1973.24</ele>
        <time>2026-04-26T09:45:47Z</time>
      </trkpt>
      <trkpt lat="-24.459513360634446" lon="27.612729594111443">
        <ele>1972.76</ele>
        <time>2026-04-26T09:45:52Z</time>
      </trkpt>
      <trkpt lat="-24.459496345371008" lon="27.612767396494746">
        <ele>1972.76</ele>
        <time>2026-04-26T09:45:57Z</time>
      </trkpt>
      <trkpt lat="-24.45941093377769" lon="27.612943332642317">
        <ele>1971.3199999999999</ele>
        <time>2026-04-26T09:46:02Z</time>
      </trkpt>
      <trkpt lat="-24.459317391738296" lon="27.613134942948818">
        <ele>1969.4000000000001</ele>
        <time>2026-04-26T09:46:07Z</time>
      </trkpt>
      <trkpt lat="-24.459176072850823" lon="27.613258408382535">
        <ele>1966.03</ele>
        <time>2026-04-26T09:46:12Z</time>
      </trkpt>
      <trkpt lat="-24.458956886082888" lon="27.613241225481033">
        <ele>1962.6700000000001</ele>
        <time>2026-04-26T09:46:17Z</time>
      </trkpt>
      <trkpt lat="-24.458684558048844" lon="27.61319755576551">
        <ele>1959.3</ele>
        <time>2026-04-26T09:46:22Z</time>
      </trkpt>
      <trkpt lat="-24.458418851718307" lon="27.613166375085711">
        <ele>1956.4200000000001</ele>
        <time>2026-04-26T09:46:27Z</time>
      </trkpt>
      <trkpt lat="-24.458202011883259" lon="27.61325865983963">
        <ele>1953.0599999999999</ele>
        <time>2026-04-26T09:46:32Z</time>
      </trkpt>
      <trkpt lat="-24.458002606406808" lon="27.613530401140451">
        <ele>1949.6900000000001</ele>
        <time>2026-04-26T09:46:37Z</time>
      </trkpt>
      <trkpt lat="-24.457796746864915" lon="27.613831646740437">
        <ele>1944.8800000000001</ele>
        <time>2026-04-26T09:46:42Z</time>
      </trkpt>
      <trkpt lat="-24.457578230649233" lon="27.614104561507702">
        <ele>1940.5599999999999</ele>
        <time>2026-04-26T09:46:47Z</time>
      </trkpt>
      <trkpt lat="-24.45737337693572" lon="27.614363143220544">
        <ele>1936.23</ele>
        <time>2026-04-26T09:46:52Z</time>
      </trkpt>
      <trkpt lat="-24.457168942317367" lon="27.614647541195154">
        <ele>1931.9100000000001</ele>
        <time>2026-04-26T09:46:57Z</time>
      </trkpt>
      <trkpt lat="-24.457079255953431" lon="27.614950966089964">
        <ele>1929.02</ele>
        <time>2026-04-26T09:47:02Z</time>
      </trkpt>
      <trkpt lat="-24.457122171297669" lon="27.615326978266239">
        <ele>1926.1400000000001</ele>
        <time>2026-04-26T09:47:07Z</time>
      </trkpt>
      <trkpt lat="-24.457199117168784" lon="27.615665188059211">
        <ele>1922.77</ele>
        <time>2026-04-26T09:47:12Z</time>
      </trkpt>
      <trkpt lat="-24.457248486578465" lon="27.616003900766373">
        <ele>1920.3699999999999</ele>
        <time>2026-04-26T09:47:17Z</time>
      </trkpt>
      <trkpt lat="-24.457200793549418" lon="27.616216214373708">
        <ele>1918.45</ele>
        <time>2026-04-26T09:47:22Z</time>
      </trkpt>
      <trkpt lat="-24.457042040303349" lon="27.616136586293578">
        <ele>1917.01</ele>
        <time>2026-04-26T09:47:27Z</time>
      </trkpt>
      <trkpt lat="-24.456913713365793" lon="27.615900803357363">
        <ele>1915.5599999999999</ele>
        <time>2026-04-26T09:47:32Z</time>
      </trkpt>
      <trkpt lat="-24.45671372115612" lon="27.615621937438846">
        <ele>1914.1199999999999</ele>
        <time>2026-04-26T09:47:37Z</time>
      </trkpt>
      <trkpt lat="-24.45651046000421" lon="27.615384897217155">
        <ele>1911.72</ele>
        <time>2026-04-26T09:47:42Z</time>
      </trkpt>
      <trkpt lat="-24.456273084506392" lon="27.615222036838531">
        <ele>1908.3499999999999</ele>
        <time>2026-04-26T09:47:47Z</time>
      </trkpt>
      <trkpt lat="-24.456056244671345" lon="27.61530552059412">
        <ele>1904.99</ele>
        <time>2026-04-26T09:47:52Z</time>
      </trkpt>
      <trkpt lat="-24.4559670612216" lon="27.615565275773406">
        <ele>1900.6600000000001</ele>
        <time>2026-04-26T09:47:57Z</time>
      </trkpt>
      <trkpt lat="-24.455906292423606" lon="27.615886386483908">
        <ele>1897.3</ele>
        <time>2026-04-26T09:48:02Z</time>
      </trkpt>
      <trkpt lat="-24.455887516960502" lon="27.616186374798417">
        <ele>1893.9300000000001</ele>
        <time>2026-04-26T09:48:07Z</time>
      </trkpt>
      <trkpt lat="-24.455958344042301" lon="27.616467671468854">
        <ele>1891.53</ele>
        <time>2026-04-26T09:48:12Z</time>
      </trkpt>
      <trkpt lat="-24.455963708460331" lon="27.61665022931993">
        <ele>1890.0899999999999</ele>
        <time>2026-04-26T09:48:17Z</time>
      </trkpt>
      <trkpt lat="-24.45582733489573" lon="27.61657252907753">
        <ele>1888.1700000000001</ele>
        <time>2026-04-26T09:48:22Z</time>
      </trkpt>
      <trkpt lat="-24.45575013756752" lon="27.616340601816773">
        <ele>1886.72</ele>
        <time>2026-04-26T09:48:27Z</time>
      </trkpt>
      <trkpt lat="-24.455617787316442" lon="27.616097526624799">
        <ele>1884.8</ele>
        <time>2026-04-26T09:48:32Z</time>
      </trkpt>
      <trkpt lat="-24.455384016036987" lon="27.615881357342005">
        <ele>1882.4000000000001</ele>
        <time>2026-04-26T09:48:37Z</time>
      </trkpt>
      <trkpt lat="-24.455168936401606" lon="27.615676000714302">
        <ele>1880</ele>
        <time>2026-04-26T09:48:42Z</time>
      </trkpt>
      <trkpt lat="-24.455072544515133" lon="27.615406271070242">
        <ele>1877.1099999999999</ele>
        <time>2026-04-26T09:48:47Z</time>
      </trkpt>
      <trkpt lat="-24.4550396874547" lon="27.61516772210598">
        <ele>1874.23</ele>
        <time>2026-04-26T09:48:52Z</time>
      </trkpt>
      <trkpt lat="-24.45489895530045" lon="27.614953648298979">
        <ele>1871.3399999999999</ele>
        <time>2026-04-26T09:48:57Z</time>
      </trkpt>
      <trkpt lat="-24.454618748277426" lon="27.61479590088129">
        <ele>1868.9400000000001</ele>
        <time>2026-04-26T09:49:02Z</time>
      </trkpt>
      <trkpt lat="-24.454333931207657" lon="27.614633878692985">
        <ele>1866.0599999999999</ele>
        <time>2026-04-26T09:49:07Z</time>
      </trkpt>
      <trkpt lat="-24.454060178250074" lon="27.614486943930387">
        <ele>1863.1700000000001</ele>
        <time>2026-04-26T09:49:12Z</time>
      </trkpt>
      <trkpt lat="-24.453740157186985" lon="27.614353336393833">
        <ele>1857.8900000000001</ele>
        <time>2026-04-26T09:49:17Z</time>
      </trkpt>
      <trkpt lat="-24.453418124467134" lon="27.614215118810534">
        <ele>1853.0799999999999</ele>
        <time>2026-04-26T09:49:22Z</time>
      </trkpt>
      <trkpt lat="-24.453054768964648" lon="27.614051671698689">
        <ele>1849.71</ele>
        <time>2026-04-26T09:49:27Z</time>
      </trkpt>
      <trkpt lat="-24.452664675191045" lon="27.613923512399197">
        <ele>1848.27</ele>
        <time>2026-04-26T09:49:32Z</time>
      </trkpt>
      <trkpt lat="-24.452298553660512" lon="27.613858385011554">
        <ele>1851.6400000000001</ele>
        <time>2026-04-26T09:49:37Z</time>
      </trkpt>
      <trkpt lat="-24.451933102682233" lon="27.613818570971489">
        <ele>1852.5999999999999</ele>
        <time>2026-04-26T09:49:42Z</time>
      </trkpt>
      <trkpt lat="-24.451529514044523" lon="27.613781271502376">
        <ele>1850.1900000000001</ele>
        <time>2026-04-26T09:49:47Z</time>
      </trkpt>
      <trkpt lat="-24.451118633151054" lon="27.613759394735098">
        <ele>1847.79</ele>
        <time>2026-04-26T09:49:52Z</time>
      </trkpt>
      <trkpt lat="-24.450745806097984" lon="27.613747492432594">
        <ele>1847.3099999999999</ele>
        <time>2026-04-26T09:49:57Z</time>
      </trkpt>
      <trkpt lat="-24.45038303732872" lon="27.613724777474999">
        <ele>1846.8299999999999</ele>
        <time>2026-04-26T09:50:02Z</time>
      </trkpt>
      <trkpt lat="-24.450011048465967" lon="27.613678509369493">
        <ele>1846.3499999999999</ele>
        <time>2026-04-26T09:50:07Z</time>
      </trkpt>
      <trkpt lat="-24.449703432619572" lon="27.61344775557518">
        <ele>1848.27</ele>
        <time>2026-04-26T09:50:12Z</time>
      </trkpt>
      <trkpt lat="-24.449389781802893" lon="27.613178445026278">
        <ele>1850.1900000000001</ele>
        <time>2026-04-26T09:50:17Z</time>
      </trkpt>
      <trkpt lat="-24.449121644720435" lon="27.612884994596243">
        <ele>1850.1900000000001</ele>
        <time>2026-04-26T09:50:22Z</time>
      </trkpt>
      <trkpt lat="-24.44893280044198" lon="27.612580899149179">
        <ele>1847.79</ele>
        <time>2026-04-26T09:50:27Z</time>
      </trkpt>
      <trkpt lat="-24.448786871507764" lon="27.612389205023646">
        <ele>1844.4300000000001</ele>
        <time>2026-04-26T09:50:32Z</time>
      </trkpt>
      <trkpt lat="-24.448566762730479" lon="27.612413261085749">
        <ele>1842.02</ele>
        <time>2026-04-26T09:50:37Z</time>
      </trkpt>
      <trkpt lat="-24.448325028643012" lon="27.612536391243339">
        <ele>1840.5799999999999</ele>
        <time>2026-04-26T09:50:42Z</time>
      </trkpt>
      <trkpt lat="-24.448059657588601" lon="27.612702855840325">
        <ele>1838.6600000000001</ele>
        <time>2026-04-26T09:50:47Z</time>
      </trkpt>
      <trkpt lat="-24.44777425378561" lon="27.612870577722788">
        <ele>1837.7</ele>
        <time>2026-04-26T09:50:52Z</time>
      </trkpt>
      <trkpt lat="-24.447467559948564" lon="27.612974513322115">
        <ele>1837.22</ele>
        <time>2026-04-26T09:50:57Z</time>
      </trkpt>
      <trkpt lat="-24.44726069457829" lon="27.612979710102081">
        <ele>1836.26</ele>
        <time>2026-04-26T09:51:02Z</time>
      </trkpt>
      <trkpt lat="-24.447010410949588" lon="27.612942745909095">
        <ele>1834.3299999999999</ele>
        <time>2026-04-26T09:51:07Z</time>
      </trkpt>
      <trkpt lat="-24.446739172562957" lon="27.612895974889398">
        <ele>1831.45</ele>
        <time>2026-04-26T09:51:12Z</time>
      </trkpt>
      <trkpt lat="-24.44655460305512" lon="27.612845012918115">
        <ele>1829.53</ele>
        <time>2026-04-26T09:51:17Z</time>
      </trkpt>
      <trkpt lat="-24.446482602506876" lon="27.612798744812608">
        <ele>1829.05</ele>
        <time>2026-04-26T09:51:22Z</time>
      </trkpt>
      <trkpt lat="-24.446462318301201" lon="27.61274610646069">
        <ele>1829.05</ele>
        <time>2026-04-26T09:51:27Z</time>
      </trkpt>
      <trkpt lat="-24.446482351049781" lon="27.612785082310438">
        <ele>1829.53</ele>
        <time>2026-04-26T09:51:32Z</time>
      </trkpt>
      <trkpt lat="-24.446470364928246" lon="27.612821208313107">
        <ele>1830.01</ele>
        <time>2026-04-26T09:51:37Z</time>
      </trkpt>
      <trkpt lat="-24.446463994681835" lon="27.612815760076046">
        <ele>1830.01</ele>
        <time>2026-04-26T09:51:42Z</time>
      </trkpt>
      <trkpt lat="-24.446461228653789" lon="27.612810814753175">
        <ele>1830.49</ele>
        <time>2026-04-26T09:51:47Z</time>
      </trkpt>
      <trkpt lat="-24.446458797901869" lon="27.612808551639318">
        <ele>1830.49</ele>
        <time>2026-04-26T09:51:52Z</time>
      </trkpt>
      <trkpt lat="-24.446456115692854" lon="27.612809557467699">
        <ele>1830.97</ele>
        <time>2026-04-26T09:51:57Z</time>
      </trkpt>
      <trkpt lat="-24.446454774588346" lon="27.612811233848333">
        <ele>1831.45</ele>
        <time>2026-04-26T09:52:02Z</time>
      </trkpt>
      <trkpt lat="-24.446453433483839" lon="27.612811401486397">
        <ele>1831.45</ele>
        <time>2026-04-26T09:52:07Z</time>
      </trkpt>
      <trkpt lat="-24.446452930569649" lon="27.612811317667365">
        <ele>1830.97</ele>
        <time>2026-04-26T09:52:12Z</time>
      </trkpt>
      <trkpt lat="-24.446452595293522" lon="27.612811736762524">
        <ele>1831.45</ele>
        <time>2026-04-26T09:52:17Z</time>
      </trkpt>
      <trkpt lat="-24.446452260017395" lon="27.612812072038651">
        <ele>1831.45</ele>
        <time>2026-04-26T09:52:22Z</time>
      </trkpt>
      <trkpt lat="-24.446452427655458" lon="27.612814670428634">
        <ele>1831.45</ele>
        <time>2026-04-26T09:52:27Z</time>
      </trkpt>
      <trkpt lat="-24.44645251147449" lon="27.612816011533141">
        <ele>1831.45</ele>
        <time>2026-04-26T09:52:32Z</time>
      </trkpt>
      <trkpt lat="-24.446452260017395" lon="27.6128164306283">
        <ele>1831.45</ele>
        <time>2026-04-26T09:52:37Z</time>
      </trkpt>
      <trkpt lat="-24.446451840922236" lon="27.61281693354249">
        <ele>1831.45</ele>
        <time>2026-04-26T09:52:42Z</time>
      </trkpt>
      <trkpt lat="-24.446451002731919" lon="27.612819783389568">
        <ele>1830.97</ele>
        <time>2026-04-26T09:52:47Z</time>
      </trkpt>
      <trkpt lat="-24.446449913084507" lon="27.612823806703091">
        <ele>1830.97</ele>
        <time>2026-04-26T09:52:52Z</time>
      </trkpt>
      <trkpt lat="-24.446448655799031" lon="27.612823806703091">
        <ele>1830.97</ele>
        <time>2026-04-26T09:52:57Z</time>
      </trkpt>
      <trkpt lat="-24.446447230875492" lon="27.61282573454082">
        <ele>1830.97</ele>
        <time>2026-04-26T09:53:02Z</time>
      </trkpt>
      <trkpt lat="-24.44644664414227" lon="27.612826740369201">
        <ele>1831.45</ele>
        <time>2026-04-26T09:53:07Z</time>
      </trkpt>
      <trkpt lat="-24.44644614122808" lon="27.612826321274042">
        <ele>1831.45</ele>
        <time>2026-04-26T09:53:12Z</time>
      </trkpt>
      <trkpt lat="-24.446445889770985" lon="27.612825399264693">
        <ele>1831.9300000000001</ele>
        <time>2026-04-26T09:53:17Z</time>
      </trkpt>
      <trkpt lat="-24.446446727961302" lon="27.61282280087471">
        <ele>1831.9300000000001</ele>
        <time>2026-04-26T09:53:22Z</time>
      </trkpt>
      <trkpt lat="-24.446448655799031" lon="27.612819196656346">
        <ele>1831.45</ele>
        <time>2026-04-26T09:53:27Z</time>
      </trkpt>
      <trkpt lat="-24.446450164541602" lon="27.612818190827966">
        <ele>1831.45</ele>
        <time>2026-04-26T09:53:32Z</time>
      </trkpt>
      <trkpt lat="-24.446450918912888" lon="27.612817017361522">
        <ele>1831.45</ele>
        <time>2026-04-26T09:53:37Z</time>
      </trkpt>
      <trkpt lat="-24.446451924741268" lon="27.612814754247665">
        <ele>1831.45</ele>
        <time>2026-04-26T09:53:42Z</time>
      </trkpt>
      <trkpt lat="-24.44645301438868" lon="27.612813329324126">
        <ele>1830.97</ele>
        <time>2026-04-26T09:53:47Z</time>
      </trkpt>
      <trkpt lat="-24.44645443931222" lon="27.612811988219619">
        <ele>1830.49</ele>
        <time>2026-04-26T09:53:52Z</time>
      </trkpt>
      <trkpt lat="-24.4464554451406" lon="27.612809473648667">
        <ele>1830.49</ele>
        <time>2026-04-26T09:53:57Z</time>
      </trkpt>
      <trkpt lat="-24.446455528959632" lon="27.612808970734477">
        <ele>1830.97</ele>
        <time>2026-04-26T09:54:02Z</time>
      </trkpt>
      <trkpt lat="-24.4464554451406" lon="27.612809808924794">
        <ele>1830.97</ele>
        <time>2026-04-26T09:54:07Z</time>
      </trkpt>
      <trkpt lat="-24.446454774588346" lon="27.612810730934143">
        <ele>1830.97</ele>
        <time>2026-04-26T09:54:12Z</time>
      </trkpt>
      <trkpt lat="-24.44645494222641" lon="27.612809473648667">
        <ele>1830.97</ele>
        <time>2026-04-26T09:54:17Z</time>
      </trkpt>
      <trkpt lat="-24.446454774588346" lon="27.612809222191572">
        <ele>1830.49</ele>
        <time>2026-04-26T09:54:22Z</time>
      </trkpt>
      <trkpt lat="-24.446455780416727" lon="27.612807042896748">
        <ele>1830.97</ele>
        <time>2026-04-26T09:54:27Z</time>
      </trkpt>
      <trkpt lat="-24.446456031873822" lon="27.612805869430304">
        <ele>1830.97</ele>
        <time>2026-04-26T09:54:32Z</time>
      </trkpt>
      <trkpt lat="-24.446457205340266" lon="27.612804612144828">
        <ele>1830.97</ele>
        <time>2026-04-26T09:54:37Z</time>
      </trkpt>
      <trkpt lat="-24.446457540616393" lon="27.612803773954511">
        <ele>1830.97</ele>
        <time>2026-04-26T09:54:42Z</time>
      </trkpt>
      <trkpt lat="-24.446458630263805" lon="27.612800421193242">
        <ele>1830.97</ele>
        <time>2026-04-26T09:54:47Z</time>
      </trkpt>
      <trkpt lat="-24.446458127349615" lon="27.612797822803259">
        <ele>1831.45</ele>
        <time>2026-04-26T09:54:52Z</time>
      </trkpt>
      <trkpt lat="-24.446457792073488" lon="27.612800085917115">
        <ele>1831.45</ele>
        <time>2026-04-26T09:54:57Z</time>
      </trkpt>
      <trkpt lat="-24.446456953883171" lon="27.612803690135479">
        <ele>1831.45</ele>
        <time>2026-04-26T09:55:02Z</time>
      </trkpt>
      <trkpt lat="-24.446456534788013" lon="27.612810814753175">
        <ele>1831.45</ele>
        <time>2026-04-26T09:55:07Z</time>
      </trkpt>
      <trkpt lat="-24.446455780416727" lon="27.612815173342824">
        <ele>1831.9300000000001</ele>
        <time>2026-04-26T09:55:12Z</time>
      </trkpt>
      <trkpt lat="-24.446454606950283" lon="27.612822968512774">
        <ele>1831.45</ele>
        <time>2026-04-26T09:55:17Z</time>
      </trkpt>
      <trkpt lat="-24.446454355493188" lon="27.612826153635979">
        <ele>1831.45</ele>
        <time>2026-04-26T09:55:22Z</time>
      </trkpt>
      <trkpt lat="-24.446454104036093" lon="27.612828835844994">
        <ele>1831.45</ele>
        <time>2026-04-26T09:55:27Z</time>
      </trkpt>
      <trkpt lat="-24.446453349664807" lon="27.612829925492406">
        <ele>1831.45</ele>
        <time>2026-04-26T09:55:32Z</time>
      </trkpt>
      <trkpt lat="-24.446453182026744" lon="27.612831685692072">
        <ele>1831.9300000000001</ele>
        <time>2026-04-26T09:55:37Z</time>
      </trkpt>
      <trkpt lat="-24.44645301438868" lon="27.61283403262496">
        <ele>1831.45</ele>
        <time>2026-04-26T09:55:42Z</time>
      </trkpt>
      <trkpt lat="-24.446452260017395" lon="27.61283453553915">
        <ele>1831.45</ele>
        <time>2026-04-26T09:55:47Z</time>
      </trkpt>
      <trkpt lat="-24.446451338008046" lon="27.612833362072706">
        <ele>1831.45</ele>
        <time>2026-04-26T09:55:52Z</time>
      </trkpt>
      <trkpt lat="-24.446450415998697" lon="27.612831853330135">
        <ele>1830.97</ele>
        <time>2026-04-26T09:55:57Z</time>
      </trkpt>
      <trkpt lat="-24.44645008072257" lon="27.612831434234977">
        <ele>1830.49</ele>
        <time>2026-04-26T09:56:02Z</time>
      </trkpt>
      <trkpt lat="-24.446449158713222" lon="27.612830176949501">
        <ele>1830.49</ele>
        <time>2026-04-26T09:56:07Z</time>
      </trkpt>
      <trkpt lat="-24.446447482332587" lon="27.612830260768533">
        <ele>1830.49</ele>
        <time>2026-04-26T09:56:12Z</time>
      </trkpt>
      <trkpt lat="-24.446446057409048" lon="27.612829841673374">
        <ele>1830.49</ele>
        <time>2026-04-26T09:56:17Z</time>
      </trkpt>
      <trkpt lat="-24.446446560323238" lon="27.612827997654676">
        <ele>1830.97</ele>
        <time>2026-04-26T09:56:22Z</time>
      </trkpt>
      <trkpt lat="-24.446448152884841" lon="27.61282472871244">
        <ele>1830.97</ele>
        <time>2026-04-26T09:56:27Z</time>
      </trkpt>
      <trkpt lat="-24.44645008072257" lon="27.612820956856012">
        <ele>1830.97</ele>
        <time>2026-04-26T09:56:32Z</time>
      </trkpt>
      <trkpt lat="-24.446450499817729" lon="27.612818358466029">
        <ele>1830.97</ele>
        <time>2026-04-26T09:56:37Z</time>
      </trkpt>
      <trkpt lat="-24.446451338008046" lon="27.612815424799919">
        <ele>1830.97</ele>
        <time>2026-04-26T09:56:42Z</time>
      </trkpt>
      <trkpt lat="-24.446451254189014" lon="27.612815760076046">
        <ele>1830.97</ele>
        <time>2026-04-26T09:56:47Z</time>
      </trkpt>
      <trkpt lat="-24.446451924741268" lon="27.612814670428634">
        <ele>1830.49</ele>
        <time>2026-04-26T09:56:52Z</time>
      </trkpt>
      <trkpt lat="-24.44645301438868" lon="27.61281399987638">
        <ele>1830.49</ele>
        <time>2026-04-26T09:56:57Z</time>
      </trkpt>
      <trkpt lat="-24.446454355493188" lon="27.612812742590904">
        <ele>1830.49</ele>
        <time>2026-04-26T09:57:02Z</time>
      </trkpt>
      <trkpt lat="-24.446455109864473" lon="27.612812910228968">
        <ele>1830.49</ele>
        <time>2026-04-26T09:57:07Z</time>
      </trkpt>
      <trkpt lat="-24.446455612778664" lon="27.612813329324126">
        <ele>1830.49</ele>
        <time>2026-04-26T09:57:12Z</time>
      </trkpt>
      <trkpt lat="-24.446457121521235" lon="27.61281399987638">
        <ele>1830.49</ele>
        <time>2026-04-26T09:57:17Z</time>
      </trkpt>
      <trkpt lat="-24.446458043530583" lon="27.612814754247665">
        <ele>1830.49</ele>
        <time>2026-04-26T09:57:22Z</time>
      </trkpt>
      <trkpt lat="-24.446456534788013" lon="27.612816514447331">
        <ele>1831.45</ele>
        <time>2026-04-26T09:57:27Z</time>
      </trkpt>
      <trkpt lat="-24.446458630263805" lon="27.612819783389568">
        <ele>1831.45</ele>
        <time>2026-04-26T09:57:32Z</time>
      </trkpt>
      <trkpt lat="-24.446459803730249" lon="27.612819699570537">
        <ele>1831.45</ele>
        <time>2026-04-26T09:57:37Z</time>
      </trkpt>
      <trkpt lat="-24.446460139006376" lon="27.612821292132139">
        <ele>1830.97</ele>
        <time>2026-04-26T09:57:42Z</time>
      </trkpt>
      <trkpt lat="-24.446460139006376" lon="27.612824225798249">
        <ele>1830.97</ele>
        <time>2026-04-26T09:57:47Z</time>
      </trkpt>
      <trkpt lat="-24.446458797901869" lon="27.612824141979218">
        <ele>1831.45</ele>
        <time>2026-04-26T09:57:52Z</time>
      </trkpt>
      <trkpt lat="-24.446458714082837" lon="27.612824477255344">
        <ele>1831.45</ele>
        <time>2026-04-26T09:57:57Z</time>
      </trkpt>
      <trkpt lat="-24.446458965539932" lon="27.612823806703091">
        <ele>1831.45</ele>
        <time>2026-04-26T09:58:02Z</time>
      </trkpt>
      <trkpt lat="-24.446466425433755" lon="27.612786758691072">
        <ele>1831.45</ele>
        <time>2026-04-26T09:58:07Z</time>
      </trkpt>
      <trkpt lat="-24.446398029103875" lon="27.612631106749177">
        <ele>1831.9300000000001</ele>
        <time>2026-04-26T09:58:12Z</time>
      </trkpt>
      <trkpt lat="-24.446306247264147" lon="27.61245584115386">
        <ele>1831.9300000000001</ele>
        <time>2026-04-26T09:58:17Z</time>
      </trkpt>
      <trkpt lat="-24.446344636380672" lon="27.612331621348858">
        <ele>1830.49</ele>
        <time>2026-04-26T09:58:22Z</time>
      </trkpt>
      <trkpt lat="-24.446486039087176" lon="27.612283760681748">
        <ele>1829.05</ele>
        <time>2026-04-26T09:58:27Z</time>
      </trkpt>
      <trkpt lat="-24.446644373238087" lon="27.612329944968224">
        <ele>1827.1199999999999</ele>
        <time>2026-04-26T09:58:32Z</time>
      </trkpt>
      <trkpt lat="-24.446805976331234" lon="27.612372608855367">
        <ele>1824.72</ele>
        <time>2026-04-26T09:58:37Z</time>
      </trkpt>
      <trkpt lat="-24.446965316310525" lon="27.612248556688428">
        <ele>1822.8</ele>
        <time>2026-04-26T09:58:42Z</time>
      </trkpt>
      <trkpt lat="-24.447130439803004" lon="27.612094916403294">
        <ele>1820.8699999999999</ele>
        <time>2026-04-26T09:58:47Z</time>
      </trkpt>
      <trkpt lat="-24.447312913835049" lon="27.611937336623669">
        <ele>1817.03</ele>
        <time>2026-04-26T09:58:52Z</time>
      </trkpt>
      <trkpt lat="-24.447505697607994" lon="27.611818900331855">
        <ele>1813.6600000000001</ele>
        <time>2026-04-26T09:58:57Z</time>
      </trkpt>
      <trkpt lat="-24.447725554928184" lon="27.611754024401307">
        <ele>1810.78</ele>
        <time>2026-04-26T09:59:02Z</time>
      </trkpt>
      <trkpt lat="-24.447963265702128" lon="27.611669450998306">
        <ele>1807.4200000000001</ele>
        <time>2026-04-26T09:59:07Z</time>
      </trkpt>
      <trkpt lat="-24.448177255690098" lon="27.611649166792631">
        <ele>1804.05</ele>
        <time>2026-04-26T09:59:12Z</time>
      </trkpt>
      <trkpt lat="-24.448366854339838" lon="27.611570293083787">
        <ele>1801.6500000000001</ele>
        <time>2026-04-26T09:59:17Z</time>
      </trkpt>
      <trkpt lat="-24.448562739416957" lon="27.611456885933876">
        <ele>1799.24</ele>
        <time>2026-04-26T09:59:22Z</time>
      </trkpt>
      <trkpt lat="-24.44878083653748" lon="27.611345993354917">
        <ele>1796.8399999999999</ele>
        <time>2026-04-26T09:59:27Z</time>
      </trkpt>
      <trkpt lat="-24.449004214257002" lon="27.611276339739561">
        <ele>1793.96</ele>
        <time>2026-04-26T09:59:32Z</time>
      </trkpt>
      <trkpt lat="-24.449191214516759" lon="27.611274747177958">
        <ele>1791.55</ele>
        <time>2026-04-26T09:59:37Z</time>
      </trkpt>
      <trkpt lat="-24.449400091543794" lon="27.611277429386973">
        <ele>1789.1500000000001</ele>
        <time>2026-04-26T09:59:42Z</time>
      </trkpt>
      <trkpt lat="-24.449649453163147" lon="27.611279105767608">
        <ele>1786.27</ele>
        <time>2026-04-26T09:59:47Z</time>
      </trkpt>
      <trkpt lat="-24.449908286333084" lon="27.611255720257759">
        <ele>1782.4200000000001</ele>
        <time>2026-04-26T09:59:52Z</time>
      </trkpt>
      <trkpt lat="-24.450020687654614" lon="27.611244739964604">
        <ele>1780.5</ele>
        <time>2026-04-26T09:59:57Z</time>
      </trkpt>
      <trkpt lat="-24.450050359591842" lon="27.611233256757259">
        <ele>1779.54</ele>
        <time>2026-04-26T10:00:02Z</time>
      </trkpt>
      <trkpt lat="-24.45021933875978" lon="27.611166117712855">
        <ele>1779.0599999999999</ele>
        <time>2026-04-26T10:00:07Z</time>
      </trkpt>
      <trkpt lat="-24.450495773926377" lon="27.611085399985313">
        <ele>1777.1300000000001</ele>
        <time>2026-04-26T10:00:12Z</time>
      </trkpt>
      <trkpt lat="-24.450786542147398" lon="27.610986493527889">
        <ele>1774.25</ele>
        <time>2026-04-26T10:00:17Z</time>
      </trkpt>
      <trkpt lat="-24.451074125245214" lon="27.610887587070465">
        <ele>1770.8900000000001</ele>
        <time>2026-04-26T10:00:22Z</time>
      </trkpt>
      <trkpt lat="-24.451334634795785" lon="27.610766300931573">
        <ele>1766.5599999999999</ele>
        <time>2026-04-26T10:00:27Z</time>
      </trkpt>
      <trkpt lat="-24.45158994756639" lon="27.610629759728909">
        <ele>1762.71</ele>
        <time>2026-04-26T10:00:32Z</time>
      </trkpt>
      <trkpt lat="-24.45187627337873" lon="27.610500007867813">
        <ele>1758.3900000000001</ele>
        <time>2026-04-26T10:00:37Z</time>
      </trkpt>
      <trkpt lat="-24.452109122648835" lon="27.610386600717902">
        <ele>1755.5</ele>
        <time>2026-04-26T10:00:42Z</time>
      </trkpt>
      <trkpt lat="-24.45229017175734" lon="27.610284760594368">
        <ele>1752.6199999999999</ele>
        <time>2026-04-26T10:00:47Z</time>
      </trkpt>
      <trkpt lat="-24.452415145933628" lon="27.610189290717244">
        <ele>1749.74</ele>
        <time>2026-04-26T10:00:52Z</time>
      </trkpt>
      <trkpt lat="-24.452576162293553" lon="27.61014754883945">
        <ele>1746.8499999999999</ele>
        <time>2026-04-26T10:00:57Z</time>
      </trkpt>
      <trkpt lat="-24.452788811177015" lon="27.610165067017078">
        <ele>1743.97</ele>
        <time>2026-04-26T10:01:02Z</time>
      </trkpt>
      <trkpt lat="-24.452981008216739" lon="27.610164061188698">
        <ele>1740.5999999999999</ele>
        <time>2026-04-26T10:01:07Z</time>
      </trkpt>
      <trkpt lat="-24.453159710392356" lon="27.610180322080851">
        <ele>1738.2</ele>
        <time>2026-04-26T10:01:12Z</time>
      </trkpt>
      <trkpt lat="-24.453341346234083" lon="27.610205300152302">
        <ele>1735.8</ele>
        <time>2026-04-26T10:01:17Z</time>
      </trkpt>
      <trkpt lat="-24.453498004004359" lon="27.610248802229762">
        <ele>1733.8800000000001</ele>
        <time>2026-04-26T10:01:22Z</time>
      </trkpt>
      <trkpt lat="-24.453648123890162" lon="27.610325245186687">
        <ele>1731.95</ele>
        <time>2026-04-26T10:01:27Z</time>
      </trkpt>
      <trkpt lat="-24.453792795538902" lon="27.610438484698534">
        <ele>1729.55</ele>
        <time>2026-04-26T10:01:32Z</time>
      </trkpt>
      <trkpt lat="-24.453908046707511" lon="27.610600339248776">
        <ele>1727.1500000000001</ele>
        <time>2026-04-26T10:01:37Z</time>
      </trkpt>
      <trkpt lat="-24.454067135229707" lon="27.61069480329752">
        <ele>1725.7</ele>
        <time>2026-04-26T10:01:42Z</time>
      </trkpt>
      <trkpt lat="-24.454220356419683" lon="27.610783064737916">
        <ele>1723.3</ele>
        <time>2026-04-26T10:01:47Z</time>
      </trkpt>
      <trkpt lat="-24.454291015863419" lon="27.610825896263123">
        <ele>1721.3800000000001</ele>
        <time>2026-04-26T10:01:52Z</time>
      </trkpt>
      <trkpt lat="-24.454325633123517" lon="27.610847102478147">
        <ele>1719.9400000000001</ele>
        <time>2026-04-26T10:01:57Z</time>
      </trkpt>
      <trkpt lat="-24.454459324479103" lon="27.610896723344922">
        <ele>1718.97</ele>
        <time>2026-04-26T10:02:02Z</time>
      </trkpt>
      <trkpt lat="-24.454647330567241" lon="27.610963191837072">
        <ele>1716.0899999999999</ele>
        <time>2026-04-26T10:02:07Z</time>
      </trkpt>
      <trkpt lat="-24.454870624467731" lon="27.611045502126217">
        <ele>1713.21</ele>
        <time>2026-04-26T10:02:12Z</time>
      </trkpt>
      <trkpt lat="-24.455075059086084" lon="27.6111741643399">
        <ele>1710.8</ele>
        <time>2026-04-26T10:02:17Z</time>
      </trkpt>
      <trkpt lat="-24.455196680501103" lon="27.611202159896493">
        <ele>1708.8800000000001</ele>
        <time>2026-04-26T10:02:22Z</time>
      </trkpt>
      <trkpt lat="-24.4553177151829" lon="27.611132506281137">
        <ele>1707.4400000000001</ele>
        <time>2026-04-26T10:02:27Z</time>
      </trkpt>
      <trkpt lat="-24.455478312447667" lon="27.610983978956938">
        <ele>1705.52</ele>
        <time>2026-04-26T10:02:32Z</time>
      </trkpt>
      <trkpt lat="-24.455653578042984" lon="27.610924718901515">
        <ele>1703.5899999999999</ele>
        <time>2026-04-26T10:02:37Z</time>
      </trkpt>
      <trkpt lat="-24.455768242478371" lon="27.610824471339583">
        <ele>1701.6700000000001</ele>
        <time>2026-04-26T10:02:42Z</time>
      </trkpt>
      <trkpt lat="-24.455829514190555" lon="27.610670831054449">
        <ele>1700.71</ele>
        <time>2026-04-26T10:02:47Z</time>
      </trkpt>
      <trkpt lat="-24.45592163130641" lon="27.610457092523575">
        <ele>1699.75</ele>
        <time>2026-04-26T10:02:52Z</time>
      </trkpt>
      <trkpt lat="-24.456045683473349" lon="27.610232206061482">
        <ele>1696.8599999999999</ele>
        <time>2026-04-26T10:02:57Z</time>
      </trkpt>
      <trkpt lat="-24.456162694841623" lon="27.610023496672511">
        <ele>1693.98</ele>
        <time>2026-04-26T10:03:02Z</time>
      </trkpt>
      <trkpt lat="-24.456336032599211" lon="27.609903467819095">
        <ele>1690.6199999999999</ele>
        <time>2026-04-26T10:03:07Z</time>
      </trkpt>
      <trkpt lat="-24.456516159698367" lon="27.60983532294631">
        <ele>1688.6900000000001</ele>
        <time>2026-04-26T10:03:12Z</time>
      </trkpt>
      <trkpt lat="-24.456599140539765" lon="27.609654692932963">
        <ele>1686.77</ele>
        <time>2026-04-26T10:03:17Z</time>
      </trkpt>
      <trkpt lat="-24.456680445000529" lon="27.609426202252507">
        <ele>1685.8099999999999</ele>
        <time>2026-04-26T10:03:22Z</time>
      </trkpt>
      <trkpt lat="-24.456729646772146" lon="27.609325954690576">
        <ele>1685.3299999999999</ele>
        <time>2026-04-26T10:03:27Z</time>
      </trkpt>
      <trkpt lat="-24.456760240718722" lon="27.609268790110946">
        <ele>1684.8499999999999</ele>
        <time>2026-04-26T10:03:32Z</time>
      </trkpt>
      <trkpt lat="-24.456788739189506" lon="27.60922696441412">
        <ele>1683.8900000000001</ele>
        <time>2026-04-26T10:03:37Z</time>
      </trkpt>
      <trkpt lat="-24.456827212125063" lon="27.609191173687577">
        <ele>1683.4100000000001</ele>
        <time>2026-04-26T10:03:42Z</time>
      </trkpt>
      <trkpt lat="-24.456937601789832" lon="27.609092434868217">
        <ele>1681.96</ele>
        <time>2026-04-26T10:03:47Z</time>
      </trkpt>
      <trkpt lat="-24.457031227648258" lon="27.609012303873897">
        <ele>1680.52</ele>
        <time>2026-04-26T10:03:52Z</time>
      </trkpt>
      <trkpt lat="-24.457047572359443" lon="27.608999228104949">
        <ele>1680.04</ele>
        <time>2026-04-26T10:03:57Z</time>
      </trkpt>
      <trkpt lat="-24.457051008939743" lon="27.608990846201777">
        <ele>1679.0799999999999</ele>
        <time>2026-04-26T10:04:02Z</time>
      </trkpt>
      <trkpt lat="-24.457053942605853" lon="27.608986319974065">
        <ele>1678.1199999999999</ele>
        <time>2026-04-26T10:04:07Z</time>
      </trkpt>
      <trkpt lat="-24.457053272053599" lon="27.608983553946018">
        <ele>1678.1199999999999</ele>
        <time>2026-04-26T10:04:12Z</time>
      </trkpt>
      <trkpt lat="-24.457061318680644" lon="27.608977435156703">
        <ele>1677.6400000000001</ele>
        <time>2026-04-26T10:04:17Z</time>
      </trkpt>
      <trkpt lat="-24.457108089700341" lon="27.608935441821814">
        <ele>1676.6800000000001</ele>
        <time>2026-04-26T10:04:22Z</time>
      </trkpt>
      <trkpt lat="-24.457154609262943" lon="27.608890933915973">
        <ele>1676.2</ele>
        <time>2026-04-26T10:04:27Z</time>
      </trkpt>
      <trkpt lat="-24.457176988944411" lon="27.608868051320314">
        <ele>1676.2</ele>
        <time>2026-04-26T10:04:32Z</time>
      </trkpt>
      <trkpt lat="-24.457178665325046" lon="27.60885807685554">
        <ele>1676.2</ele>
        <time>2026-04-26T10:04:37Z</time>
      </trkpt>
      <trkpt lat="-24.457208085805178" lon="27.608825387433171">
        <ele>1675.72</ele>
        <time>2026-04-26T10:04:42Z</time>
      </trkpt>
      <trkpt lat="-24.457237925380468" lon="27.608725894242525">
        <ele>1675.72</ele>
        <time>2026-04-26T10:04:47Z</time>
      </trkpt>
      <trkpt lat="-24.457201715558767" lon="27.608571834862232">
        <ele>1675.23</ele>
        <time>2026-04-26T10:04:52Z</time>
      </trkpt>
      <trkpt lat="-24.457181766629219" lon="27.608392462134361">
        <ele>1673.3099999999999</ele>
        <time>2026-04-26T10:04:57Z</time>
      </trkpt>
      <trkpt lat="-24.457263574004173" lon="27.60819741524756">
        <ele>1671.3900000000001</ele>
        <time>2026-04-26T10:05:02Z</time>
      </trkpt>
      <trkpt lat="-24.457346722483635" lon="27.607985520735383">
        <ele>1668.99</ele>
        <time>2026-04-26T10:05:07Z</time>
      </trkpt>
      <trkpt lat="-24.457375640049577" lon="27.607932966202497">
        <ele>1667.0599999999999</ele>
        <time>2026-04-26T10:05:12Z</time>
      </trkpt>
      <trkpt lat="-24.457405228167772" lon="27.607889799401164">
        <ele>1665.1400000000001</ele>
        <time>2026-04-26T10:05:17Z</time>
      </trkpt>
      <trkpt lat="-24.457487538456917" lon="27.607742613181472">
        <ele>1663.7</ele>
        <time>2026-04-26T10:05:22Z</time>
      </trkpt>
      <trkpt lat="-24.457634557038546" lon="27.607542034238577">
        <ele>1661.3</ele>
        <time>2026-04-26T10:05:27Z</time>
      </trkpt>
      <trkpt lat="-24.457804122939706" lon="27.607427202165127">
        <ele>1657.9300000000001</ele>
        <time>2026-04-26T10:05:32Z</time>
      </trkpt>
      <trkpt lat="-24.457895904779434" lon="27.607288649305701">
        <ele>1655.53</ele>
        <time>2026-04-26T10:05:37Z</time>
      </trkpt>
      <trkpt lat="-24.457905795425177" lon="27.607110030949116">
        <ele>1653.5999999999999</ele>
        <time>2026-04-26T10:05:42Z</time>
      </trkpt>
      <trkpt lat="-24.45797779597342" lon="27.606918336823583">
        <ele>1651.2</ele>
        <time>2026-04-26T10:05:47Z</time>
      </trkpt>
      <trkpt lat="-24.458127664402127" lon="27.606738712638617">
        <ele>1647.3599999999999</ele>
        <time>2026-04-26T10:05:52Z</time>
      </trkpt>
      <trkpt lat="-24.458275940269232" lon="27.606608290225267">
        <ele>1643.99</ele>
        <time>2026-04-26T10:05:57Z</time>
      </trkpt>
      <trkpt lat="-24.458419270813465" lon="27.606401760131121">
        <ele>1639.6700000000001</ele>
        <time>2026-04-26T10:06:02Z</time>
      </trkpt>
      <trkpt lat="-24.458581879734993" lon="27.606243928894401">
        <ele>1635.8199999999999</ele>
        <time>2026-04-26T10:06:07Z</time>
      </trkpt>
      <trkpt lat="-24.458774663507938" lon="27.606114093214273">
        <ele>1631.98</ele>
        <time>2026-04-26T10:06:12Z</time>
      </trkpt>
      <trkpt lat="-24.458954706788063" lon="27.606020718812943">
        <ele>1630.05</ele>
        <time>2026-04-26T10:06:17Z</time>
      </trkpt>
      <trkpt lat="-24.459186131134629" lon="27.605953579768538">
        <ele>1628.6099999999999</ele>
        <time>2026-04-26T10:06:22Z</time>
      </trkpt>
      <trkpt lat="-24.459416465833783" lon="27.605854170396924">
        <ele>1625.73</ele>
        <time>2026-04-26T10:06:27Z</time>
      </trkpt>
      <trkpt lat="-24.459638670086861" lon="27.605757778510451">
        <ele>1622.3599999999999</ele>
        <time>2026-04-26T10:06:32Z</time>
      </trkpt>
      <trkpt lat="-24.459880907088518" lon="27.605654010549188">
        <ele>1618.52</ele>
        <time>2026-04-26T10:06:37Z</time>
      </trkpt>
      <trkpt lat="-24.46011995896697" lon="27.605520067736506">
        <ele>1614.1900000000001</ele>
        <time>2026-04-26T10:06:42Z</time>
      </trkpt>
      <trkpt lat="-24.460354400798678" lon="27.605374474078417">
        <ele>1610.8299999999999</ele>
        <time>2026-04-26T10:06:47Z</time>
      </trkpt>
      <trkpt lat="-24.46054064668715" lon="27.605216475203633">
        <ele>1606.98</ele>
        <time>2026-04-26T10:06:52Z</time>
      </trkpt>
      <trkpt lat="-24.460730832070112" lon="27.605035593733191">
        <ele>1605.54</ele>
        <time>2026-04-26T10:06:57Z</time>
      </trkpt>
      <trkpt lat="-24.460956053808331" lon="27.604915983974934">
        <ele>1604.0999999999999</ele>
        <time>2026-04-26T10:07:02Z</time>
      </trkpt>
      <trkpt lat="-24.461228046566248" lon="27.604827303439379">
        <ele>1603.1400000000001</ele>
        <time>2026-04-26T10:07:07Z</time>
      </trkpt>
      <trkpt lat="-24.461508169770241" lon="27.60470568202436">
        <ele>1604.0999999999999</ele>
        <time>2026-04-26T10:07:12Z</time>
      </trkpt>
      <trkpt lat="-24.461793405935168" lon="27.604619264602661">
        <ele>1605.54</ele>
        <time>2026-04-26T10:07:17Z</time>
      </trkpt>
      <trkpt lat="-24.462075037881732" lon="27.604598561301827">
        <ele>1606.02</ele>
        <time>2026-04-26T10:07:22Z</time>
      </trkpt>
      <trkpt lat="-24.462322220206261" lon="27.604587664827704">
        <ele>1606.02</ele>
        <time>2026-04-26T10:07:27Z</time>
      </trkpt>
      <trkpt lat="-24.462462449446321" lon="27.604575343430042">
        <ele>1606.02</ele>
        <time>2026-04-26T10:07:32Z</time>
      </trkpt>
      <trkpt lat="-24.462552471086383" lon="27.604599567130208">
        <ele>1605.54</ele>
        <time>2026-04-26T10:07:37Z</time>
      </trkpt>
      <trkpt lat="-24.46275900118053" lon="27.604632675647736">
        <ele>1606.98</ele>
        <time>2026-04-26T10:07:42Z</time>
      </trkpt>
      <trkpt lat="-24.462978607043624" lon="27.60466318577528">
        <ele>1608.4200000000001</ele>
        <time>2026-04-26T10:07:47Z</time>
      </trkpt>
      <trkpt lat="-24.463157141581178" lon="27.60469252243638">
        <ele>1608.9000000000001</ele>
        <time>2026-04-26T10:07:52Z</time>
      </trkpt>
      <trkpt lat="-24.46331899613142" lon="27.604709789156914">
        <ele>1609.3800000000001</ele>
        <time>2026-04-26T10:07:57Z</time>
      </trkpt>
      <trkpt lat="-24.463492166250944" lon="27.604749100282788">
        <ele>1610.3499999999999</ele>
        <time>2026-04-26T10:08:02Z</time>
      </trkpt>
      <trkpt lat="-24.463684698566794" lon="27.604785393923521">
        <ele>1612.75</ele>
        <time>2026-04-26T10:08:07Z</time>
      </trkpt>
      <trkpt lat="-24.463886367157102" lon="27.604782041162252">
        <ele>1615.1500000000001</ele>
        <time>2026-04-26T10:08:12Z</time>
      </trkpt>
      <trkpt lat="-24.464004887267947" lon="27.604739125818014">
        <ele>1618.04</ele>
        <time>2026-04-26T10:08:17Z</time>
      </trkpt>
      <trkpt lat="-24.4640988484025" lon="27.604653798043728">
        <ele>1619.48</ele>
        <time>2026-04-26T10:08:22Z</time>
      </trkpt>
      <trkpt lat="-24.464199431240559" lon="27.604485573247075">
        <ele>1620.4400000000001</ele>
        <time>2026-04-26T10:08:27Z</time>
      </trkpt>
      <trkpt lat="-24.464300433173776" lon="27.604309050366282">
        <ele>1619.96</ele>
        <time>2026-04-26T10:08:32Z</time>
      </trkpt>
      <trkpt lat="-24.464374026283622" lon="27.604096150025725">
        <ele>1619.96</ele>
        <time>2026-04-26T10:08:37Z</time>
      </trkpt>
      <trkpt lat="-24.464393137022853" lon="27.603947622701526">
        <ele>1621.4000000000001</ele>
        <time>2026-04-26T10:08:42Z</time>
      </trkpt>
    </trkseg>
  </trk>

</gpx>